{"type":"FeatureCollection","metadata":{"gemeente":"Albrandswaard","slug":"albrandswaard","code":"GM0613","generated_at":"2026-08-08T12:05:52.020Z","total_passenger":56,"total_freight":1,"bounds":[4.383228823482142,51.831645429592015,4.49222749093475,51.87299164731214],"operators":["50five","Allego","E-Flux by Road","Eneco","Fastned","Laadnet","Shell Recharge","Van Leeuwen","Vattenfall InCharge"]},"features":[{"type":"Feature","geometry":{"type":"Point","coordinates":[4.393827,51.853208]},"properties":{"type":"charge","layer":"passenger","locationId":"91054657","name":"50five-S NL 07004689","address":"Albrandswaardsedijk 32","city":"Poortugaal","operatorName":"50five","maxPowerKw":11,"isMegawatt":false,"status":"UNAVAILABLE","source":"ndw"}},{"type":"Feature","geometry":{"type":"Point","coordinates":[4.460863,51.862545]},"properties":{"type":"charge","layer":"passenger","locationId":"14","name":"Shell Recharge NL8420 - Shell Portland","address":"A15 Rijksweg 2 Waalhaven Zuidzijde","city":"Rotterdam","operatorName":"Shell Recharge","maxPowerKw":175,"isMegawatt":false,"status":"AVAILABLE","source":"ndw","priceKwh":0.7025}},{"type":"Feature","geometry":{"type":"Point","coordinates":[4.432985,51.861507]},"properties":{"type":"charge","layer":"passenger","locationId":"465","name":"Shell Recharge NL3024 - Shell Kleidijk","address":"Kleidijk 94","city":"Rhoon","operatorName":"Shell Recharge","maxPowerKw":300,"isMegawatt":false,"status":"AVAILABLE","source":"ndw","priceKwh":0.7025}},{"type":"Feature","geometry":{"type":"Point","coordinates":[4.487236,51.849405]},"properties":{"type":"charge","layer":"passenger","locationId":"NLLOC007685","name":"NL, Parelsnoer 91, 3162 VK, Rhoon","address":"Parelsnoer 91","city":"Rhoon","operatorName":"Allego","maxPowerKw":11,"isMegawatt":false,"status":"AVAILABLE","source":"ndw","priceKwh":0.511}},{"type":"Feature","geometry":{"type":"Point","coordinates":[4.481863,51.853293]},"properties":{"type":"charge","layer":"passenger","locationId":"NLLOC003425","name":"NLD Amberhof 25 3162RA Rhoon","address":"Amberhof 25","city":"Rhoon","operatorName":"Allego","maxPowerKw":11,"isMegawatt":false,"status":"AVAILABLE","source":"ndw","priceKwh":0.511}},{"type":"Feature","geometry":{"type":"Point","coordinates":[4.399474,51.852908]},"properties":{"type":"charge","layer":"passenger","locationId":"NLLOC003338","name":"NLD, Kamperfoelie 58, 3171 PE Poortugaal","address":"Kamperfoelie 58","city":"Poortugaal","operatorName":"Allego","maxPowerKw":11,"isMegawatt":false,"status":"AVAILABLE","source":"ndw","priceKwh":0.511}},{"type":"Feature","geometry":{"type":"Point","coordinates":[4.427021,51.855027]},"properties":{"type":"charge","layer":"passenger","locationId":"NLLOC015456","name":"NL, De Gaarde, 7, 3161CK, Rhoon","address":"De Gaarde 7","city":"Rhoon","operatorName":"Allego","maxPowerKw":11,"isMegawatt":false,"status":"AVAILABLE","source":"ndw","priceKwh":0.511}},{"type":"Feature","geometry":{"type":"Point","coordinates":[4.442663,51.856156]},"properties":{"type":"charge","layer":"passenger","locationId":"91066107","name":"50five-S NL 17B16766","address":"Rijsdijk 72","city":"Rhoon","operatorName":"50five","maxPowerKw":7,"isMegawatt":false,"status":"AVAILABLE","source":"ndw"}},{"type":"Feature","geometry":{"type":"Point","coordinates":[4.480619,51.852104]},"properties":{"type":"charge","layer":"passenger","locationId":"NLLOC007761","name":"NL, Barnsteenhof 98, 3162RC, Rhoon","address":"Barnsteenhof 98","city":"Rhoon","operatorName":"Allego","maxPowerKw":11,"isMegawatt":false,"status":"AVAILABLE","source":"ndw","priceKwh":0.511}},{"type":"Feature","geometry":{"type":"Point","coordinates":[4.435532,51.859912]},"properties":{"type":"charge","layer":"passenger","locationId":"4741257","name":"Laadnet NV BAR Afvalbeheer","address":"Nijverheidsweg 3","city":"Rhoon","operatorName":"Laadnet","maxPowerKw":22,"isMegawatt":false,"status":"AVAILABLE","source":"ndw"}},{"type":"Feature","geometry":{"type":"Point","coordinates":[4.417152,51.858103]},"properties":{"type":"charge","layer":"passenger","locationId":"NLLOC013044","name":"NL, Julianastraat 2, 3161 AK Rhoon","address":"Julianastraat 2","city":"Rhoon","operatorName":"Allego","maxPowerKw":11,"isMegawatt":false,"status":"AVAILABLE","source":"ndw","priceKwh":0.511}},{"type":"Feature","geometry":{"type":"Point","coordinates":[4.478392,51.854757]},"properties":{"type":"charge","layer":"passenger","locationId":"NLLOC001635","name":"NLD, Rhoon, Bouwlust 4","address":"Bouwlust 4","city":"Rhoon","operatorName":"Allego","maxPowerKw":11,"isMegawatt":false,"status":"AVAILABLE","source":"ndw","priceKwh":0.511}},{"type":"Feature","geometry":{"type":"Point","coordinates":[4.420399,51.857346]},"properties":{"type":"charge","layer":"passenger","locationId":"NLLOC003719","name":"NLD, Gemeente Albrandswaard, Bartokstraat 39 3161WB Rhoon","address":"Bartokstraat 39","city":"Rhoon","operatorName":"Allego","maxPowerKw":11,"isMegawatt":false,"status":"AVAILABLE","source":"ndw","priceKwh":0.511}},{"type":"Feature","geometry":{"type":"Point","coordinates":[4.43622,51.860988]},"properties":{"type":"charge","layer":"passenger","locationId":"60d1de1a196b2d4cc95e4e2a","name":"Dienstenstraat 29, Rhoon (Groshart Elektrotechniek)","address":"Dienstenstraat 29","city":"Rhoon","operatorName":"E-Flux by Road","maxPowerKw":22,"isMegawatt":false,"status":"UNAVAILABLE","source":"ndw"}},{"type":"Feature","geometry":{"type":"Point","coordinates":[4.47259,51.858682]},"properties":{"type":"charge","layer":"passenger","locationId":"NLLOC007697","name":"NL, Portlandse Baan 165, 3162RG, Rhoon","address":"Portlandse Baan 165","city":"Rhoon","operatorName":"Allego","maxPowerKw":11,"isMegawatt":false,"status":"AVAILABLE","source":"ndw","priceKwh":0.511}},{"type":"Feature","geometry":{"type":"Point","coordinates":[4.433958,51.861878]},"properties":{"type":"charge","layer":"passenger","locationId":"87B61469-3297-4CF1-AC3F-C1CF4F6A3993","name":"Eneco eMobility ProRail B.V. - ICB Rhoon","address":"Industrieweg 1","city":"Rhoon","operatorName":"Eneco","maxPowerKw":200,"isMegawatt":false,"status":"AVAILABLE","source":"ndw","priceKwh":0.28}},{"type":"Feature","geometry":{"type":"Point","coordinates":[4.393431,51.859186]},"properties":{"type":"charge","layer":"passenger","locationId":"NLLOC003536","name":"NLD, Gemeente Albrandswaard, Prins Bernhardstraat 20 3171CP Poortugaal","address":"Prins Bernhardstraat 20","city":"Poortugaal","operatorName":"Allego","maxPowerKw":11,"isMegawatt":false,"status":"AVAILABLE","source":"ndw","priceKwh":0.511}},{"type":"Feature","geometry":{"type":"Point","coordinates":[4.413406,51.863956]},"properties":{"type":"charge","layer":"passenger","locationId":"NLLOC003712","name":"NLD Gemeente Albrandswaard Dorpsdijk 11 3161KB Rhoon","address":"Dorpsdijk 11","city":"Rhoon","operatorName":"Allego","maxPowerKw":11,"isMegawatt":false,"status":"AVAILABLE","source":"ndw","priceKwh":0.511}},{"type":"Feature","geometry":{"type":"Point","coordinates":[4.432023,51.852439]},"properties":{"type":"charge","layer":"passenger","locationId":"NLLOC001640","name":"NLD, Rhoon, Kees van Dongenlaan 31","address":"Kees van Dongenlaan 31","city":"Rhoon","operatorName":"Allego","maxPowerKw":11,"isMegawatt":false,"status":"AVAILABLE","source":"ndw","priceKwh":0.511}},{"type":"Feature","geometry":{"type":"Point","coordinates":[4.394713,51.860348]},"properties":{"type":"charge","layer":"passenger","locationId":"91276145","name":"50five-S NL 09102103","address":"Hofhoek 1","city":"Poortugaal","operatorName":"50five","maxPowerKw":11,"isMegawatt":false,"status":"AVAILABLE","source":"ndw"}},{"type":"Feature","geometry":{"type":"Point","coordinates":[4.424387,51.8529]},"properties":{"type":"charge","layer":"passenger","locationId":"NLLOC007721","name":"NL, Tweespan 21, 3161 SK, Rhoon","address":"Tweespan 21","city":"Rhoon","operatorName":"Allego","maxPowerKw":11,"isMegawatt":false,"status":"UNAVAILABLE","source":"ndw","priceKwh":0.511}},{"type":"Feature","geometry":{"type":"Point","coordinates":[4.465974,51.858499]},"properties":{"type":"charge","layer":"passenger","locationId":"91068518","name":"50five-S NL 07143410","address":"Prisma 44","city":"Albrandswaard","operatorName":"50five","maxPowerKw":11,"isMegawatt":false,"status":"AVAILABLE","source":"ndw"}},{"type":"Feature","geometry":{"type":"Point","coordinates":[4.43015,51.853427]},"properties":{"type":"charge","layer":"passenger","locationId":"NLLOC005963","name":"NLD Piet Mondriaan Allee 48 DW 3161 Rhoon","address":"Piet Mondriaan Allee 48","city":"Rhoon","operatorName":"Allego","maxPowerKw":11,"isMegawatt":false,"status":"AVAILABLE","source":"ndw","priceKwh":0.511}},{"type":"Feature","geometry":{"type":"Point","coordinates":[4.459778,51.862667]},"properties":{"type":"charge","layer":"passenger","locationId":"31062","name":"Fastned Portland","address":"Portland A15","city":"Rhoon","operatorName":"Fastned","maxPowerKw":300,"isMegawatt":false,"status":"AVAILABLE","source":"ndw","priceKwh":0.6364}},{"type":"Feature","geometry":{"type":"Point","coordinates":[4.419323,51.858305]},"properties":{"type":"charge","layer":"passenger","locationId":"91179651","name":"50five-S NL Rhoon, Debussystraat 2","address":"Debussystraat 2","city":"Rhoon","operatorName":"50five","maxPowerKw":11,"isMegawatt":false,"status":"AVAILABLE","source":"ndw"}},{"type":"Feature","geometry":{"type":"Point","coordinates":[4.392515,51.8645]},"properties":{"type":"charge","layer":"passenger","locationId":"NLLOC003439","name":"NLD Waddingswaard 64 3176XD Poortugaal","address":"Waddingswaard 64","city":"Poortugaal","operatorName":"Allego","maxPowerKw":11,"isMegawatt":false,"status":"AVAILABLE","source":"ndw","priceKwh":0.511}},{"type":"Feature","geometry":{"type":"Point","coordinates":[4.421225,51.859887]},"properties":{"type":"charge","layer":"passenger","locationId":"4227450","name":"Laadnet Gemeente Albrandswaard","address":"Stationsstraat 4","city":"Rhoon","operatorName":"Laadnet","maxPowerKw":22,"isMegawatt":false,"status":"AVAILABLE","source":"ndw"}},{"type":"Feature","geometry":{"type":"Point","coordinates":[4.394855,51.854767]},"properties":{"type":"charge","layer":"passenger","locationId":"NLLOC001830","name":"NLD, Albrandswaard, Duivenvoorde 21","address":"Duivenvoorde 21","city":"Albrandswaard","operatorName":"Allego","maxPowerKw":11,"isMegawatt":false,"status":"AVAILABLE","source":"ndw","priceKwh":0.511}},{"type":"Feature","geometry":{"type":"Point","coordinates":[4.437082,51.856653]},"properties":{"type":"charge","layer":"passenger","locationId":"91051208","name":"50five-S NL 17B15334","address":"Nijverheidsweg 44","city":"Rhoon","operatorName":"50five","maxPowerKw":11,"isMegawatt":false,"status":"AVAILABLE","source":"ndw"}},{"type":"Feature","geometry":{"type":"Point","coordinates":[4.398372,51.855876]},"properties":{"type":"charge","layer":"passenger","locationId":"NLLOC010650","name":"NL, Zeis 2, 3171DL, Poortugaal","address":"Zeis 2","city":"Poortugaal","operatorName":"Allego","maxPowerKw":11,"isMegawatt":false,"status":"AVAILABLE","source":"ndw","priceKwh":0.511}},{"type":"Feature","geometry":{"type":"Point","coordinates":[4.417811,51.855205]},"properties":{"type":"charge","layer":"passenger","locationId":"NLLOC005241","name":"NLD Waalstraat 3 3161XM Rhoon","address":"Waalstraat 3","city":"Rhoon","operatorName":"Allego","maxPowerKw":11,"isMegawatt":false,"status":"AVAILABLE","source":"ndw","priceKwh":0.511}},{"type":"Feature","geometry":{"type":"Point","coordinates":[4.401572,51.860909]},"properties":{"type":"charge","layer":"passenger","locationId":"NLLOC007748","name":"NL, Statio 45, 3176 TH, Poortugaal","address":"Statio 45","city":"Poortugaal","operatorName":"Allego","maxPowerKw":11,"isMegawatt":false,"status":"AVAILABLE","source":"ndw","priceKwh":0.511}},{"type":"Feature","geometry":{"type":"Point","coordinates":[4.419189,51.85292]},"properties":{"type":"charge","layer":"passenger","locationId":"NLLOC002256","name":"NLD, Waalstraat 33, 3361 XM, Rhoon","address":"Waalstraat 33","city":"Rhoon","operatorName":"Allego","maxPowerKw":11,"isMegawatt":false,"status":"AVAILABLE","source":"ndw","priceKwh":0.511}},{"type":"Feature","geometry":{"type":"Point","coordinates":[4.423811,51.86865]},"properties":{"type":"charge","layer":"passenger","locationId":"91107550","name":"50five-S NL 04000338","address":"Abel Tasmanstraat 1","city":"Rotterdam-Albrandswaard","operatorName":"50five","maxPowerKw":7,"isMegawatt":false,"status":"AVAILABLE","source":"ndw"}},{"type":"Feature","geometry":{"type":"Point","coordinates":[4.463869,51.858386]},"properties":{"type":"charge","layer":"passenger","locationId":"91013849","name":"50five-S NL 44583.0","address":"Zilvervloot 32","city":"Rhoon","operatorName":"50five","maxPowerKw":4,"isMegawatt":false,"status":"AVAILABLE","source":"ndw"}},{"type":"Feature","geometry":{"type":"Point","coordinates":[4.400295,51.84848]},"properties":{"type":"charge","layer":"passenger","locationId":"NLLOC007653","name":"NL, Schroeder van Kolklaan 15, 3172 VH Poortugaal","address":"Schroeder van Kolklaan 15","city":"Portugaal","operatorName":"Allego","maxPowerKw":11,"isMegawatt":false,"status":"CHARGING","source":"ndw","priceKwh":0.511}},{"type":"Feature","geometry":{"type":"Point","coordinates":[4.399887,51.84899]},"properties":{"type":"charge","layer":"passenger","locationId":"6938163cd329a6be8bf66593","name":"EV-box S&A - Wilhelmina Geeve","address":"Wilhelmina Geevestraat 20a","city":"POORTUGAAL","operatorName":"E-Flux by Road","maxPowerKw":11,"isMegawatt":false,"status":"AVAILABLE","source":"ndw","priceKwh":0.35}},{"type":"Feature","geometry":{"type":"Point","coordinates":[4.423531,51.84964]},"properties":{"type":"charge","layer":"passenger","locationId":"89187894","name":"Van Leeuwen Spui 12","address":"Spui 12","city":"Rhoon","operatorName":"Van Leeuwen","maxPowerKw":22,"isMegawatt":false,"status":"AVAILABLE","source":"ndw"}},{"type":"Feature","geometry":{"type":"Point","coordinates":[4.470964,51.855283]},"properties":{"type":"charge","layer":"passenger","locationId":"NLLOC007741","name":"NL, Malachiet 23, 3162PM, Albrandswaard","address":"Malachiet 23","city":"Albrandswaard","operatorName":"Allego","maxPowerKw":11,"isMegawatt":false,"status":"AVAILABLE","source":"ndw","priceKwh":0.511}},{"type":"Feature","geometry":{"type":"Point","coordinates":[4.479207,51.852648]},"properties":{"type":"charge","layer":"passenger","locationId":"61164247db317c90bc9d49cf","name":"Doelwijck 45, Rhoon (Privé)","address":"Doelwijck 45,","city":"Rhoon","operatorName":"E-Flux by Road","maxPowerKw":22,"isMegawatt":false,"status":"CHARGING","source":"ndw","priceKwh":1.0194}},{"type":"Feature","geometry":{"type":"Point","coordinates":[4.427362,51.85815]},"properties":{"type":"charge","layer":"passenger","locationId":"NLLOC007739","name":"NL Het klei 4 3161 HS Rhoon","address":"Het klei 4","city":"Rhoon","operatorName":"Allego","maxPowerKw":11,"isMegawatt":false,"status":"AVAILABLE","source":"ndw","priceKwh":0.511}},{"type":"Feature","geometry":{"type":"Point","coordinates":[4.396296,51.860188]},"properties":{"type":"charge","layer":"passenger","locationId":"56DAAE4C-32EA-4456-AE54-EF719D8D6791","name":"Eneco eMobility DeBuut Horeca BV Poortugaal","address":"Kruisdijk 8","city":"Poortugaal","operatorName":"Eneco","maxPowerKw":22,"isMegawatt":false,"status":"AVAILABLE","source":"ndw","priceKwh":0.32}},{"type":"Feature","geometry":{"type":"Point","coordinates":[4.421775,51.856241]},"properties":{"type":"charge","layer":"passenger","locationId":"A7FD46A7-1855-4D83-BCF3-D474927CBD19","name":"Eneco eMobility LBH Netherlands BV - Rhoon","address":"Rijsdijk 13","city":"Rhoon","operatorName":"Eneco","maxPowerKw":22,"isMegawatt":false,"status":"AVAILABLE","source":"ndw","priceKwh":0.32}},{"type":"Feature","geometry":{"type":"Point","coordinates":[4.478276,51.860193]},"properties":{"type":"charge","layer":"passenger","locationId":"NLLOC017554","name":"NL, Saffierlaan 88, 3162PL, Rhoon","address":"Saffierlaan 88","city":"Rhoon","operatorName":"Allego","maxPowerKw":11,"isMegawatt":false,"status":"AVAILABLE","source":"ndw","priceKwh":0.511}},{"type":"Feature","geometry":{"type":"Point","coordinates":[4.398367,51.857347]},"properties":{"type":"charge","layer":"passenger","locationId":"NLLOC001636","name":"NLD, Poortugaal, Landweg 2","address":"Landweg 2","city":"Poortugaal","operatorName":"Allego","maxPowerKw":22,"isMegawatt":false,"status":"AVAILABLE","source":"ndw","priceKwh":0.511}},{"type":"Feature","geometry":{"type":"Point","coordinates":[4.435801,51.856907]},"properties":{"type":"charge","layer":"passenger","locationId":"91149302","name":"50five-S NL 08102668","address":"Nijverheidsweg 35","city":"Rhoon","operatorName":"50five","maxPowerKw":21,"isMegawatt":false,"status":"AVAILABLE","source":"ndw"}},{"type":"Feature","geometry":{"type":"Point","coordinates":[4.402349,51.862906]},"properties":{"type":"charge","layer":"passenger","locationId":"NLLOC001829","name":"NLD, Albrandswaard, Limes 33","address":"Limes 33","city":"Albrandswaard","operatorName":"Allego","maxPowerKw":11,"isMegawatt":false,"status":"AVAILABLE","source":"ndw","priceKwh":0.511}},{"type":"Feature","geometry":{"type":"Point","coordinates":[4.43229,51.855302]},"properties":{"type":"charge","layer":"passenger","locationId":"89286214","name":"Van Leeuwen Rijsdijk 50","address":"Rijsdijk 50","city":"Rhoon","operatorName":"Van Leeuwen","maxPowerKw":22,"isMegawatt":false,"status":"AVAILABLE","source":"ndw"}},{"type":"Feature","geometry":{"type":"Point","coordinates":[4.488211,51.850233]},"properties":{"type":"charge","layer":"passenger","locationId":"NLLOC001752","name":"NLD, Rhoon, Parelsnoer 67","address":"Parelsnoer 67","city":"Rhoon","operatorName":"Allego","maxPowerKw":11,"isMegawatt":false,"status":"AVAILABLE","source":"ndw","priceKwh":0.511}},{"type":"Feature","geometry":{"type":"Point","coordinates":[4.47953,51.859801]},"properties":{"type":"charge","layer":"passenger","locationId":"NLLOC007722","name":"NL, Saffierlaan 56, 3162 PL, Rhoon","address":"Saffierlaan 56","city":"Rhoon","operatorName":"Allego","maxPowerKw":11,"isMegawatt":false,"status":"AVAILABLE","source":"ndw","priceKwh":0.511}},{"type":"Feature","geometry":{"type":"Point","coordinates":[4.466263,51.858412]},"properties":{"type":"charge","layer":"passenger","locationId":"NLLOC017063","name":"NL, Prisma 48, 3162 XA Rhoon","address":"Prisma 48","city":"Rhoon","operatorName":"Allego","maxPowerKw":11,"isMegawatt":false,"status":"AVAILABLE","source":"ndw","priceKwh":0.511}},{"type":"Feature","geometry":{"type":"Point","coordinates":[4.470495,51.859649]},"properties":{"type":"charge","layer":"passenger","locationId":"NLLOC017293","name":"NL, Regenboog 296, 3162 XA Rhoon","address":"Regenboog 296","city":"Rhoon","operatorName":"Allego","maxPowerKw":11,"isMegawatt":false,"status":"AVAILABLE","source":"ndw","priceKwh":0.511}},{"type":"Feature","geometry":{"type":"Point","coordinates":[4.397029,51.865266]},"properties":{"type":"charge","layer":"passenger","locationId":"NLLOC002378","name":"NLD, Blaakse Wetering 2, 3176 XB Poortugaal","address":"Blaakse Wetering 2","city":"Poortugaal","operatorName":"Allego","maxPowerKw":11,"isMegawatt":false,"status":"AVAILABLE","source":"ndw","priceKwh":0.511}},{"type":"Feature","geometry":{"type":"Point","coordinates":[4.424573,51.85057]},"properties":{"type":"charge","layer":"passenger","locationId":"NLLOC005683","name":"NLD De Esdoorn 1 3161 JC Rhoon","address":"De Esdoorn 1","city":"Rhoon","operatorName":"Allego","maxPowerKw":11,"isMegawatt":false,"status":"AVAILABLE","source":"ndw","priceKwh":0.511}},{"type":"Feature","geometry":{"type":"Point","coordinates":[4.487007,51.851607]},"properties":{"type":"charge","layer":"passenger","locationId":"NLLOC007729","name":"NL, Facet 4, 3162VB, Rhoon","address":"Facet 4","city":"Rhoon","operatorName":"Allego","maxPowerKw":11,"isMegawatt":false,"status":"AVAILABLE","source":"ndw","priceKwh":0.511}},{"type":"Feature","geometry":{"type":"Point","coordinates":[4.418712,51.848781]},"properties":{"type":"charge","layer":"passenger","locationId":"aeaf5970-7dd4-4159-8594-a48304c8d054","name":"Albrandswaardseweg","address":"Albrandswaardseweg 121","city":"Poortugaal","operatorName":"Vattenfall InCharge","maxPowerKw":7,"isMegawatt":false,"status":"UNAVAILABLE","source":"ndw","priceKwh":0.333}},{"type":"Feature","geometry":{"type":"Point","coordinates":[4.427067,51.869192]},"properties":{"type":"charge","layer":"freight","locationId":"6a2c0ff6dc5bc77391f41093","name":"DCB CHARGE Distripark 3 (E-Truck)","address":"Columbusstraat 1","city":"Rotterdam Albrandswaard","operatorName":"E-Flux by Road","maxPowerKw":400,"isMegawatt":false,"status":"AVAILABLE","source":"ndw","priceKwh":0.63,"freightKind":"dedicated","freightReason":"truck-name"}},{"type":"Feature","geometry":{"type":"MultiPolygon","coordinates":[[[[4.406300477736456,51.87299164731214],[4.4115010056376915,51.87163320585409],[4.413698947174671,51.87174358148356],[4.414629564703092,51.87189265759501],[4.415001356021755,51.87173679287073],[4.415823717144162,51.87243681072621],[4.417618783468626,51.872421579716594],[4.428368757075707,51.87037858470979],[4.430227699322998,51.869409715027786],[4.431736403943946,51.869809019846194],[4.43653024911645,51.86857398965214],[4.440240820714953,51.8664187441008],[4.440240907671347,51.866418682778146],[4.442149621358669,51.86624572293058],[4.4464755419816635,51.8660513002887],[4.465228771301056,51.862018765870864],[4.471863023710292,51.861667484203686],[4.480402877826251,51.86232777487347],[4.480548860364522,51.86101847075371],[4.480581285595452,51.8595094496435],[4.47987197601205,51.85892934202522],[4.481272713484219,51.858561889908515],[4.480287808120128,51.85514874544445],[4.482990406211847,51.85409711905217],[4.484165743656923,51.85363433079548],[4.485730179663176,51.85303887086074],[4.489875692348886,51.851420526580654],[4.489665961160732,51.85082186547438],[4.487268477246147,51.84860808943249],[4.4897003230021335,51.84677590403227],[4.489570300557604,51.84549505279907],[4.489604127417372,51.84406084113395],[4.49222749093475,51.841444225441776],[4.489724714492899,51.84069035544951],[4.489094687917649,51.835395540483674],[4.478968716411176,51.83421403651734],[4.467119800578059,51.831943828495824],[4.458562497267077,51.831645429592015],[4.450083323938416,51.83217353450108],[4.443892836833149,51.83343066964524],[4.432482634340814,51.83704631992339],[4.423753080688052,51.84007329361674],[4.4141726877602405,51.842789317050496],[4.409744323333456,51.843219346634505],[4.392382062378253,51.84205136071112],[4.383664756537604,51.84211868651875],[4.383228823482142,51.85240267244402],[4.385067497431189,51.85343203284687],[4.384909494056511,51.85359939075834],[4.385162370551407,51.853759745255246],[4.385022018536533,51.85553233354585],[4.383512577118636,51.857370316016386],[4.38434795812252,51.861237508540405],[4.384347968593073,51.86123755986692],[4.384350061218708,51.8612452210525],[4.384436695779836,51.86156219340349],[4.38636869170276,51.8663815787862],[4.388021653721523,51.86824758484012],[4.388355574295756,51.86862552149607],[4.39043161162364,51.87058025937782],[4.3948461498413325,51.872333285361876],[4.406300477736456,51.87299164731214]]]]},"properties":{"type":"boundary","gemeente":"Albrandswaard","code":"GM0613"}}]}