{"type":"FeatureCollection","metadata":{"gemeente":"Assen","slug":"assen","code":"GM0106","generated_at":"2026-08-08T12:05:52.020Z","total_passenger":126,"total_freight":2,"bounds":[6.483947974072229,52.93251576524228,6.6326464754719785,53.06175868078959],"operators":["50five","Allego","DAEN Mobility","E-Flux by Road","Eneco","Fastned","IPCharging","Laadnet","Opcharge","PowerGo","Spirii","Tango electric","Tesla","Valk Energy","Van Leeuwen","Vattenfall InCharge"]},"features":[{"type":"Feature","geometry":{"type":"Point","coordinates":[6.568529,53.026171]},"properties":{"type":"charge","layer":"passenger","locationId":"923546","name":"DAE_NL_2001302_P03","address":"Amerikaweg 3","city":"Assen","operatorName":"DAEN Mobility","maxPowerKw":11,"isMegawatt":false,"status":"AVAILABLE","source":"ndw","priceKwh":0.36}},{"type":"Feature","geometry":{"type":"Point","coordinates":[6.524687,52.992511]},"properties":{"type":"charge","layer":"passenger","locationId":"69afbdd6a59b7c858b2f0b4a","name":"Van der Valk - Assen - Charging Stations","address":"Balkenweg 1","city":"Assen","operatorName":"Valk Energy","maxPowerKw":150,"isMegawatt":false,"status":"AVAILABLE","source":"ndw","priceKwh":0.59}},{"type":"Feature","geometry":{"type":"Point","coordinates":[6.557352,52.995392]},"properties":{"type":"charge","layer":"passenger","locationId":"OST22P0097_0018_0","name":"OST22P0097_0018_0","address":"Weiersstraat 1","city":"Assen","operatorName":"IPCharging","maxPowerKw":19,"isMegawatt":false,"status":"AVAILABLE","source":"ndw","priceKwh":0.496}},{"type":"Feature","geometry":{"type":"Point","coordinates":[6.513192,52.994718]},"properties":{"type":"charge","layer":"passenger","locationId":"NLLOC022210","name":"NL, Uranusstraat 27, 9405 PK Assen","address":"Uranusstraat 27","city":"Assen","operatorName":"Allego","maxPowerKw":11,"isMegawatt":false,"status":"AVAILABLE","source":"ndw","priceKwh":0.407}},{"type":"Feature","geometry":{"type":"Point","coordinates":[6.572122,53.026018]},"properties":{"type":"charge","layer":"passenger","locationId":"85e55fb0-a9cc-41c8-854e-43e23f3a385c","name":"Hof van Parijs","address":"Hof van Parijs 1","city":"Assen","operatorName":"Vattenfall InCharge","maxPowerKw":50,"isMegawatt":false,"status":"AVAILABLE","source":"ndw","priceKwh":0.46}},{"type":"Feature","geometry":{"type":"Point","coordinates":[6.559169,52.997786]},"properties":{"type":"charge","layer":"passenger","locationId":"OST23P0069_0025_1","name":"OST23P0069_0025_1","address":"Apollopad 72","city":"Assen","operatorName":"IPCharging","maxPowerKw":19,"isMegawatt":false,"status":"AVAILABLE","source":"ndw","priceKwh":0.496}},{"type":"Feature","geometry":{"type":"Point","coordinates":[6.524537,52.992893]},"properties":{"type":"charge","layer":"passenger","locationId":"b8447fb0-2a0d-43e9-bf80-eae5f9d41ed7","name":"Assen, Netherlands","address":"1, Balkenweg","city":"Assen","operatorName":"Tesla","maxPowerKw":250,"isMegawatt":false,"status":"AVAILABLE","source":"ndw","priceKwh":0.41}},{"type":"Feature","geometry":{"type":"Point","coordinates":[6.593458,53.019727]},"properties":{"type":"charge","layer":"passenger","locationId":"NLLOC011807","name":"NL, Marterslag 19, 9403 XT Assen","address":"Marterslag 19","city":"Assen","operatorName":"Allego","maxPowerKw":11,"isMegawatt":false,"status":"CHARGING","source":"ndw","priceKwh":0.407}},{"type":"Feature","geometry":{"type":"Point","coordinates":[6.55575,53.02218]},"properties":{"type":"charge","layer":"passenger","locationId":"50884","name":"Fastned Peelerveld","address":"Peelerveld","city":"Ter Aard","operatorName":"Fastned","maxPowerKw":300,"isMegawatt":false,"status":"AVAILABLE","source":"ndw","priceKwh":0.6364}},{"type":"Feature","geometry":{"type":"Point","coordinates":[6.559169,52.997786]},"properties":{"type":"charge","layer":"passenger","locationId":"OST23P0069_0025_0","name":"OST23P0069_0025_0","address":"Apollopad 72","city":"Assen","operatorName":"IPCharging","maxPowerKw":19,"isMegawatt":false,"status":"AVAILABLE","source":"ndw","priceKwh":0.496}},{"type":"Feature","geometry":{"type":"Point","coordinates":[6.556966,53.015812]},"properties":{"type":"charge","layer":"passenger","locationId":"NLLOC022209","name":"NL, Wolvenveen 3, 9407 HK Assen","address":"Wolvenveen 3","city":"Assen","operatorName":"Allego","maxPowerKw":11,"isMegawatt":false,"status":"AVAILABLE","source":"ndw","priceKwh":0.407}},{"type":"Feature","geometry":{"type":"Point","coordinates":[6.589879,53.0109329]},"properties":{"type":"charge","layer":"passenger","locationId":"23613","name":"Basic-Fit 1201 Assen Nijverheidsweg (PowerGo)","address":"Nijverheidsweg 1","city":"Assen","operatorName":"PowerGo","maxPowerKw":30,"isMegawatt":false,"status":"AVAILABLE","source":"ndw","priceKwh":0.5}},{"type":"Feature","geometry":{"type":"Point","coordinates":[6.566543,52.994616]},"properties":{"type":"charge","layer":"passenger","locationId":"OST22P0081_0017_0","name":"OST22P0081_0017_0","address":"Noordersingel 33","city":"Assen","operatorName":"IPCharging","maxPowerKw":19,"isMegawatt":false,"status":"AVAILABLE","source":"ndw","priceKwh":0.496}},{"type":"Feature","geometry":{"type":"Point","coordinates":[6.5583,52.996285]},"properties":{"type":"charge","layer":"passenger","locationId":"OST22P0068_0126_0","name":"OST22P0068_0126_0","address":"Mercuriusplein 211","city":"Assen","operatorName":"IPCharging","maxPowerKw":19,"isMegawatt":false,"status":"AVAILABLE","source":"ndw","priceKwh":0.496}},{"type":"Feature","geometry":{"type":"Point","coordinates":[6.523915,52.992264]},"properties":{"type":"charge","layer":"passenger","locationId":"91058462","name":"50five-S NL 03000333","address":"Balkenweg 1","city":"Assen","operatorName":"50five","maxPowerKw":22,"isMegawatt":false,"status":"UNAVAILABLE","source":"ndw"}},{"type":"Feature","geometry":{"type":"Point","coordinates":[6.54372,53.01602]},"properties":{"type":"charge","layer":"passenger","locationId":"50862","name":"Fastned Zeyerveen","address":"Verzorgingsplaats Zeijerveen 2","city":"Assen","operatorName":"Fastned","maxPowerKw":300,"isMegawatt":false,"status":"AVAILABLE","source":"ndw","priceKwh":0.6364}},{"type":"Feature","geometry":{"type":"Point","coordinates":[6.560816,52.997963]},"properties":{"type":"charge","layer":"passenger","locationId":"OST23P0069_0022_0","name":"OST23P0069_0022_0","address":"Neptunusplein 16","city":"Assen","operatorName":"IPCharging","maxPowerKw":19,"isMegawatt":false,"status":"AVAILABLE","source":"ndw","priceKwh":0.496}},{"type":"Feature","geometry":{"type":"Point","coordinates":[6.561209,52.992863]},"properties":{"type":"charge","layer":"passenger","locationId":"OST23P0069_0062_0","name":"OST23P0069_0062_0","address":"Torenlaan 18","city":"Assen","operatorName":"IPCharging","maxPowerKw":19,"isMegawatt":false,"status":"AVAILABLE","source":"ndw","priceKwh":0.496}},{"type":"Feature","geometry":{"type":"Point","coordinates":[6.539084,52.996654]},"properties":{"type":"charge","layer":"passenger","locationId":"NLLOC017065","name":"NL, Zwin 17, 9406EV, Assen","address":"Zwin 17","city":"Assen","operatorName":"Allego","maxPowerKw":11,"isMegawatt":false,"status":"AVAILABLE","source":"ndw","priceKwh":0.407}},{"type":"Feature","geometry":{"type":"Point","coordinates":[6.600419,53.014139]},"properties":{"type":"charge","layer":"passenger","locationId":"61e673d3834957141f484418","name":"K87","address":"Koraalstoep 87","city":"Assen","operatorName":"E-Flux by Road","maxPowerKw":11,"isMegawatt":false,"status":"AVAILABLE","source":"ndw","priceKwh":0.44}},{"type":"Feature","geometry":{"type":"Point","coordinates":[6.558741,52.979342]},"properties":{"type":"charge","layer":"passenger","locationId":"91064810","name":"50five-S NL 07112830","address":"Beilerstraat 215 B","city":"Assen","operatorName":"50five","maxPowerKw":11,"isMegawatt":false,"status":"AVAILABLE","source":"ndw"}},{"type":"Feature","geometry":{"type":"Point","coordinates":[6.504007,53.004171]},"properties":{"type":"charge","layer":"passenger","locationId":"NLLOC011817","name":"NL, De Boomgaard 46, 9408JB Assen","address":"De Boomgaard 46","city":"Assen","operatorName":"Allego","maxPowerKw":11,"isMegawatt":false,"status":"AVAILABLE","source":"ndw","priceKwh":0.407}},{"type":"Feature","geometry":{"type":"Point","coordinates":[6.57124,53.00783]},"properties":{"type":"charge","layer":"passenger","locationId":"1BA09F5F-5DAA-40C4-822A-999C764B4FCC","name":"Eneco eMobility Broekhuis Volvo Assen","address":"Industrieweg 42","city":"Assen","operatorName":"Eneco","maxPowerKw":22,"isMegawatt":false,"status":"AVAILABLE","source":"ndw","priceKwh":0.45}},{"type":"Feature","geometry":{"type":"Point","coordinates":[6.540944,52.984418]},"properties":{"type":"charge","layer":"passenger","locationId":"1684","name":"50five Exploitatie De Bonte Wever","address":"Stadsbroek 17","city":"Assen","operatorName":"50five","maxPowerKw":11,"isMegawatt":false,"status":"AVAILABLE","source":"ndw"}},{"type":"Feature","geometry":{"type":"Point","coordinates":[6.56356,53.02516]},"properties":{"type":"charge","layer":"passenger","locationId":"4940E084-8CFD-4B53-89AB-B1810EE93BEF","name":"Eneco eMobility Amerikaweg 18 Assen","address":"Amerikaweg 18","city":"Assen","operatorName":"Eneco","maxPowerKw":22,"isMegawatt":false,"status":"AVAILABLE","source":"ndw","priceKwh":0.32}},{"type":"Feature","geometry":{"type":"Point","coordinates":[6.572622,53.01816]},"properties":{"type":"charge","layer":"passenger","locationId":"NLLOC011829","name":"NL, Martin Luther Kingweg 1, 9407 RC Assen","address":"Martin Luther Kingweg 1","city":"Assen","operatorName":"Allego","maxPowerKw":11,"isMegawatt":false,"status":"AVAILABLE","source":"ndw","priceKwh":0.407}},{"type":"Feature","geometry":{"type":"Point","coordinates":[6.564181,53.004152]},"properties":{"type":"charge","layer":"passenger","locationId":"923085","name":"DAE_NL_2000939","address":"De Gaarde 27","city":"Assen","operatorName":"DAEN Mobility","maxPowerKw":11,"isMegawatt":false,"status":"AVAILABLE","source":"ndw","priceKwh":0.28}},{"type":"Feature","geometry":{"type":"Point","coordinates":[6.557933,52.991235]},"properties":{"type":"charge","layer":"passenger","locationId":"665700b7ff63e4001c2be4a6","name":"Gymnasium 1825 Charge Station I","address":"Dr. Nassaulaan  5","city":"Assen","operatorName":"E-Flux by Road","maxPowerKw":11,"isMegawatt":false,"status":"AVAILABLE","source":"ndw","priceKwh":0.58}},{"type":"Feature","geometry":{"type":"Point","coordinates":[6.50627,52.999647]},"properties":{"type":"charge","layer":"passenger","locationId":"91069128","name":"50five-S NL 07104057","address":"Oleanderhage 44","city":"Assen","operatorName":"50five","maxPowerKw":11,"isMegawatt":false,"status":"CHARGING","source":"ndw"}},{"type":"Feature","geometry":{"type":"Point","coordinates":[6.566498,52.99723]},"properties":{"type":"charge","layer":"passenger","locationId":"OST22P0081_0025_1","name":"OST22P0081_0025_1","address":"Kloekhorststraat 26","city":"Assen","operatorName":"IPCharging","maxPowerKw":19,"isMegawatt":false,"status":"AVAILABLE","source":"ndw","priceKwh":0.496}},{"type":"Feature","geometry":{"type":"Point","coordinates":[6.577135,52.98635]},"properties":{"type":"charge","layer":"passenger","locationId":"NLLOC011819","name":"NL, Brunelstraat 77, 9404KD Assen","address":"Brunelstraat 77","city":"Assen","operatorName":"Allego","maxPowerKw":11,"isMegawatt":false,"status":"AVAILABLE","source":"ndw","priceKwh":0.407}},{"type":"Feature","geometry":{"type":"Point","coordinates":[6.507851,52.99714]},"properties":{"type":"charge","layer":"passenger","locationId":"91055177","name":"50five-S NL 07100743","address":"Zeeltstraat 2","city":"Assen","operatorName":"50five","maxPowerKw":11,"isMegawatt":false,"status":"AVAILABLE","source":"ndw"}},{"type":"Feature","geometry":{"type":"Point","coordinates":[6.576272,53.028572]},"properties":{"type":"charge","layer":"passenger","locationId":"2664180","name":"Laadnet Dronabas BV","address":"Zwedenlaan 3","city":"Assen","operatorName":"Laadnet","maxPowerKw":22,"isMegawatt":false,"status":"AVAILABLE","source":"ndw"}},{"type":"Feature","geometry":{"type":"Point","coordinates":[6.557352,52.995392]},"properties":{"type":"charge","layer":"passenger","locationId":"OST22P0097_0018_1","name":"OST22P0097_0018_1","address":"Weiersstraat 1","city":"Assen","operatorName":"IPCharging","maxPowerKw":19,"isMegawatt":false,"status":"AVAILABLE","source":"ndw","priceKwh":0.496}},{"type":"Feature","geometry":{"type":"Point","coordinates":[6.552964,52.997548]},"properties":{"type":"charge","layer":"passenger","locationId":"NLLOC018821","name":"NL, Mr. P.J. Troelstralaan 214, 9406 BE Assen","address":"Mr. P.J. Troelstralaan 214","city":"Assen","operatorName":"Allego","maxPowerKw":11,"isMegawatt":false,"status":"AVAILABLE","source":"ndw","priceKwh":0.407}},{"type":"Feature","geometry":{"type":"Point","coordinates":[6.541598,52.984766]},"properties":{"type":"charge","layer":"passenger","locationId":"bb226d770dc242a4b293","name":"Hotel de Bonte Wever Assen","address":"Stadsbroek 17","city":"Assen","operatorName":"Opcharge","maxPowerKw":22,"isMegawatt":false,"status":"AVAILABLE","source":"ndw","priceKwh":0.49}},{"type":"Feature","geometry":{"type":"Point","coordinates":[6.561437,52.979454]},"properties":{"type":"charge","layer":"passenger","locationId":"91095362","name":"50five-S NL 17B10742","address":"Taxusplantsoen 18","city":"Assen","operatorName":"50five","maxPowerKw":11,"isMegawatt":false,"status":"AVAILABLE","source":"ndw"}},{"type":"Feature","geometry":{"type":"Point","coordinates":[6.512016,52.995811]},"properties":{"type":"charge","layer":"passenger","locationId":"91150024","name":"50five-S NL 07003410","address":"Hoofdvaartsweg 100","city":"Assen","operatorName":"50five","maxPowerKw":14,"isMegawatt":false,"status":"CHARGING","source":"ndw"}},{"type":"Feature","geometry":{"type":"Point","coordinates":[6.548496,53.001447]},"properties":{"type":"charge","layer":"passenger","locationId":"NLLOC007198","name":"NL, Nobellaan 285, 9406 AK, Assen","address":"Nobellaan 285","city":"Assen","operatorName":"Allego","maxPowerKw":11,"isMegawatt":false,"status":"AVAILABLE","source":"ndw","priceKwh":0.407}},{"type":"Feature","geometry":{"type":"Point","coordinates":[6.55945,52.988139]},"properties":{"type":"charge","layer":"passenger","locationId":"NLLOC027036","name":"NL, Beilerstraat 139, 9401 PJ Assen","address":"Beilerstraat 139","city":"Assen","operatorName":"Allego","maxPowerKw":11,"isMegawatt":false,"status":"AVAILABLE","source":"ndw","priceKwh":0.407}},{"type":"Feature","geometry":{"type":"Point","coordinates":[6.561498,53.002929]},"properties":{"type":"charge","layer":"passenger","locationId":"NLLOC011836","name":"NL, Thorbeckelaan 2, 9402ER Assen","address":"Thorbeckelaan 2","city":"Assen","operatorName":"Allego","maxPowerKw":11,"isMegawatt":false,"status":"AVAILABLE","source":"ndw","priceKwh":0.407}},{"type":"Feature","geometry":{"type":"Point","coordinates":[6.562916,52.989838]},"properties":{"type":"charge","layer":"passenger","locationId":"NLLOC022205","name":"NL, Prinses Beatrixstraat 73, 9401 NX Assen","address":"Prinses Beatrixstraat 73","city":"Assen","operatorName":"Allego","maxPowerKw":11,"isMegawatt":false,"status":"AVAILABLE","source":"ndw","priceKwh":0.407}},{"type":"Feature","geometry":{"type":"Point","coordinates":[6.578933,52.996153]},"properties":{"type":"charge","layer":"passenger","locationId":"NLLOC011827","name":"NL, Het Palet 2, 9403CM Assen","address":"Het Palet 2","city":"Assen","operatorName":"Allego","maxPowerKw":11,"isMegawatt":false,"status":"AVAILABLE","source":"ndw","priceKwh":0.407}},{"type":"Feature","geometry":{"type":"Point","coordinates":[6.560816,52.997963]},"properties":{"type":"charge","layer":"passenger","locationId":"OST23P0069_0022_1","name":"OST23P0069_0022_1","address":"Neptunusplein 16","city":"Assen","operatorName":"IPCharging","maxPowerKw":19,"isMegawatt":false,"status":"AVAILABLE","source":"ndw","priceKwh":0.496}},{"type":"Feature","geometry":{"type":"Point","coordinates":[6.576242,52.992278]},"properties":{"type":"charge","layer":"passenger","locationId":"NLLOC010456","name":"NL, Oosterpark 92, 9404 BK, Assen","address":"Oosterpark 92","city":"Assen","operatorName":"Allego","maxPowerKw":11,"isMegawatt":false,"status":"AVAILABLE","source":"ndw","priceKwh":0.407}},{"type":"Feature","geometry":{"type":"Point","coordinates":[6.555778,52.992433]},"properties":{"type":"charge","layer":"passenger","locationId":"NLLOC022214","name":"NL, Prinses Irenestraat 3, 9401 HH Assen","address":"Prinses Irenestraat 3","city":"Assen","operatorName":"Allego","maxPowerKw":11,"isMegawatt":false,"status":"AVAILABLE","source":"ndw","priceKwh":0.407}},{"type":"Feature","geometry":{"type":"Point","coordinates":[6.572346,52.980608]},"properties":{"type":"charge","layer":"passenger","locationId":"682ee652ee68d7e4b9f1cf8c","name":"GGZ Dennenweg 9, Assen: Trafostation 2","address":"Dennenweg 9","city":"Assen","operatorName":"E-Flux by Road","maxPowerKw":22,"isMegawatt":false,"status":"AVAILABLE","source":"ndw","priceKwh":0.43}},{"type":"Feature","geometry":{"type":"Point","coordinates":[6.580022,52.991965]},"properties":{"type":"charge","layer":"passenger","locationId":"NLLOC020288","name":"NL, Roerdompstraat 21, 9404 EG Assen","address":"Roerdompstraat 21","city":"Assen","operatorName":"Allego","maxPowerKw":11,"isMegawatt":false,"status":"AVAILABLE","source":"ndw","priceKwh":0.407}},{"type":"Feature","geometry":{"type":"Point","coordinates":[6.520682,52.995541]},"properties":{"type":"charge","layer":"passenger","locationId":"6a5e05ffc476d596edd7c4ce","name":"Assen MS station","address":"balkendwarsweg 3-5","city":"Assen","operatorName":"E-Flux by Road","maxPowerKw":22,"isMegawatt":false,"status":"AVAILABLE","source":"ndw","priceKwh":0.44}},{"type":"Feature","geometry":{"type":"Point","coordinates":[6.569403,53.010454]},"properties":{"type":"charge","layer":"passenger","locationId":"91121481","name":"50five-S NL 03005743","address":"Jan Bommerstraat 6","city":"Assen","operatorName":"50five","maxPowerKw":11,"isMegawatt":false,"status":"AVAILABLE","source":"ndw"}},{"type":"Feature","geometry":{"type":"Point","coordinates":[6.563357,53.009462]},"properties":{"type":"charge","layer":"passenger","locationId":"91107412","name":"50five-S NL 04002529","address":"Paganinilaan 29","city":"Assen","operatorName":"50five","maxPowerKw":7,"isMegawatt":false,"status":"AVAILABLE","source":"ndw"}},{"type":"Feature","geometry":{"type":"Point","coordinates":[6.536593,52.99822]},"properties":{"type":"charge","layer":"passenger","locationId":"NLLOC007203","name":"NL, Stroom 4, 9406 ES Assen","address":"Stroom 4","city":"Assen","operatorName":"Allego","maxPowerKw":11,"isMegawatt":false,"status":"AVAILABLE","source":"ndw","priceKwh":0.407}},{"type":"Feature","geometry":{"type":"Point","coordinates":[6.571781,53.008512]},"properties":{"type":"charge","layer":"passenger","locationId":"60b73cbee4ecbcc4f569d732","name":"Industrieweg 44A","address":"Industrieweg 44A","city":"Assen","operatorName":"E-Flux by Road","maxPowerKw":22,"isMegawatt":false,"status":"UNAVAILABLE","source":"ndw","priceKwh":0.95}},{"type":"Feature","geometry":{"type":"Point","coordinates":[6.558394,53.020105]},"properties":{"type":"charge","layer":"passenger","locationId":"NLLOC024143","name":"NL, Iemstukken 19, 9407 KH Assen","address":"Iemstukken 19","city":"Assen","operatorName":"Allego","maxPowerKw":11,"isMegawatt":false,"status":"AVAILABLE","source":"ndw","priceKwh":0.407}},{"type":"Feature","geometry":{"type":"Point","coordinates":[6.569116,52.996882]},"properties":{"type":"charge","layer":"passenger","locationId":"NLLOC007254","name":"NL, Paul Krugerstraat 1-B, 9401AG Assen (laadpaal 2)","address":"Paul Krugerstraat 1-B","city":"Assen","operatorName":"Allego","maxPowerKw":11,"isMegawatt":false,"status":"AVAILABLE","source":"ndw","priceKwh":0.407}},{"type":"Feature","geometry":{"type":"Point","coordinates":[6.540738,53.005283]},"properties":{"type":"charge","layer":"passenger","locationId":"NLLOC024141","name":"NL, Dommelstraat 24, 9406 RN Assen","address":"Dommelstraat 24","city":"Assen","operatorName":"Allego","maxPowerKw":11,"isMegawatt":false,"status":"CHARGING","source":"ndw","priceKwh":0.407}},{"type":"Feature","geometry":{"type":"Point","coordinates":[6.531518,53.001951]},"properties":{"type":"charge","layer":"passenger","locationId":"64465b4118541d0012f1410f","name":"Kozijn Beheer Nederland's station","address":"Mien Ruysweg 44","city":"Assen","operatorName":"E-Flux by Road","maxPowerKw":11,"isMegawatt":false,"status":"AVAILABLE","source":"ndw","priceKwh":0.53}},{"type":"Feature","geometry":{"type":"Point","coordinates":[6.558039,52.99719]},"properties":{"type":"charge","layer":"passenger","locationId":"NLLOC024858","name":"NL, Burgemeester de Dreuplein 108, 9401 CM Assen","address":"Burgemeester de Dreuplein 108","city":"Assen","operatorName":"Allego","maxPowerKw":11,"isMegawatt":false,"status":"AVAILABLE","source":"ndw","priceKwh":0.407}},{"type":"Feature","geometry":{"type":"Point","coordinates":[6.596404,53.020134]},"properties":{"type":"charge","layer":"passenger","locationId":"91064620","name":"50five-S NL 17B17047","address":"Alexander Dubcekweg 2","city":"Assen","operatorName":"50five","maxPowerKw":11,"isMegawatt":false,"status":"AVAILABLE","source":"ndw"}},{"type":"Feature","geometry":{"type":"Point","coordinates":[6.520996,53.003059]},"properties":{"type":"charge","layer":"passenger","locationId":"91230314","name":"50five-S NL 07100783","address":"Hindenlaan 28","city":"Assen","operatorName":"50five","maxPowerKw":11,"isMegawatt":false,"status":"AVAILABLE","source":"ndw"}},{"type":"Feature","geometry":{"type":"Point","coordinates":[6.566627,53.01741]},"properties":{"type":"charge","layer":"passenger","locationId":"91314556","name":"50five-S NL Location","address":"Dreslanden 24","city":"Assen","operatorName":"50five","maxPowerKw":11,"isMegawatt":false,"status":"AVAILABLE","source":"ndw"}},{"type":"Feature","geometry":{"type":"Point","coordinates":[6.557986,52.975537]},"properties":{"type":"charge","layer":"passenger","locationId":"91179921","name":"50five-S NL Assen, Schepersmaat 2","address":"Schepersmaat 2","city":"Assen","operatorName":"50five","maxPowerKw":11,"isMegawatt":false,"status":"AVAILABLE","source":"ndw"}},{"type":"Feature","geometry":{"type":"Point","coordinates":[6.587093,53.02209]},"properties":{"type":"charge","layer":"passenger","locationId":"NLLOC022196","name":"NL, Boerhoorndreef 119, 9403 KC Assen","address":"Boerhoorndreef 119","city":"Assen","operatorName":"Allego","maxPowerKw":11,"isMegawatt":false,"status":"CHARGING","source":"ndw","priceKwh":0.407}},{"type":"Feature","geometry":{"type":"Point","coordinates":[6.566498,52.99723]},"properties":{"type":"charge","layer":"passenger","locationId":"OST22P0081_0025_0","name":"OST22P0081_0025_0","address":"Kloekhorststraat 26","city":"Assen","operatorName":"IPCharging","maxPowerKw":19,"isMegawatt":false,"status":"AVAILABLE","source":"ndw","priceKwh":0.496}},{"type":"Feature","geometry":{"type":"Point","coordinates":[6.591986,52.996571]},"properties":{"type":"charge","layer":"passenger","locationId":"611284fd709bdece9a343d09","name":"Gertjan Rehwinkel","address":"Houtlaan 74","city":"Assen","operatorName":"E-Flux by Road","maxPowerKw":22,"isMegawatt":false,"status":"AVAILABLE","source":"ndw","priceKwh":0.3295}},{"type":"Feature","geometry":{"type":"Point","coordinates":[6.568529,53.026171]},"properties":{"type":"charge","layer":"passenger","locationId":"923545","name":"DAE_NL_2001301_P04","address":"Amerikaweg 3","city":"Assen","operatorName":"DAEN Mobility","maxPowerKw":11,"isMegawatt":false,"status":"AVAILABLE","source":"ndw","priceKwh":0.29}},{"type":"Feature","geometry":{"type":"Point","coordinates":[6.532962,52.98337]},"properties":{"type":"charge","layer":"passenger","locationId":"NLLOC007281","name":"NL, Het Sticht 56, 9405 NR, Assen","address":"Het Sticht 56","city":"Assen","operatorName":"Allego","maxPowerKw":11,"isMegawatt":false,"status":"AVAILABLE","source":"ndw","priceKwh":0.407}},{"type":"Feature","geometry":{"type":"Point","coordinates":[6.537895,52.979043]},"properties":{"type":"charge","layer":"passenger","locationId":"NLLOC022204","name":"NL, Kennemerland 65, 9405 LC Assen","address":"Kennemerland 65","city":"Assen","operatorName":"Allego","maxPowerKw":11,"isMegawatt":false,"status":"AVAILABLE","source":"ndw","priceKwh":0.407}},{"type":"Feature","geometry":{"type":"Point","coordinates":[6.556488,52.972029]},"properties":{"type":"charge","layer":"passenger","locationId":"3804315","name":"Laadnet Cegelec Infra BV - Assen","address":"Korenmaat 4","city":"Assen","operatorName":"Laadnet","maxPowerKw":22,"isMegawatt":false,"status":"UNAVAILABLE","source":"ndw"}},{"type":"Feature","geometry":{"type":"Point","coordinates":[6.569711,52.992814]},"properties":{"type":"charge","layer":"passenger","locationId":"3968955","name":"Laadnet Arcadis Nederland B.V.","address":"Stationsplein 10","city":"Assen","operatorName":"Laadnet","maxPowerKw":22,"isMegawatt":false,"status":"UNAVAILABLE","source":"ndw"}},{"type":"Feature","geometry":{"type":"Point","coordinates":[6.558455,53.005992]},"properties":{"type":"charge","layer":"passenger","locationId":"91229210","name":"50five-S NL 07140967","address":"Molenstraat 262","city":"Assen","operatorName":"50five","maxPowerKw":11,"isMegawatt":false,"status":"AVAILABLE","source":"ndw"}},{"type":"Feature","geometry":{"type":"Point","coordinates":[6.571498,53.022484]},"properties":{"type":"charge","layer":"passenger","locationId":"64e5edded1e062001c39fe41","name":"Normec Kalsbeek Assen","address":"Aziëweg 19","city":"Assen","operatorName":"E-Flux by Road","maxPowerKw":11,"isMegawatt":false,"status":"AVAILABLE","source":"ndw","priceKwh":0.256}},{"type":"Feature","geometry":{"type":"Point","coordinates":[6.51252,53.006077]},"properties":{"type":"charge","layer":"passenger","locationId":"NLLOC026599","name":"NL, Stedelaan 16, 9408 HE Assen","address":"Stedelaan 16","city":"Assen","operatorName":"Allego","maxPowerKw":11,"isMegawatt":false,"status":"AVAILABLE","source":"ndw","priceKwh":0.407}},{"type":"Feature","geometry":{"type":"Point","coordinates":[6.547242,53.008707]},"properties":{"type":"charge","layer":"passenger","locationId":"NLLOC011832","name":"NL, Rijnstraat 2, 9406SE Assen","address":"Rijnstraat 2","city":"Assen","operatorName":"Allego","maxPowerKw":11,"isMegawatt":false,"status":"AVAILABLE","source":"ndw","priceKwh":0.407}},{"type":"Feature","geometry":{"type":"Point","coordinates":[6.597997,52.998447]},"properties":{"type":"charge","layer":"passenger","locationId":"62bc4334b9f3cc5b758bedf7","name":"SV 't Asser Wapen","address":"Dijkveldpad 3","city":"Assen","operatorName":"E-Flux by Road","maxPowerKw":22,"isMegawatt":false,"status":"AVAILABLE","source":"ndw","priceKwh":0.33}},{"type":"Feature","geometry":{"type":"Point","coordinates":[6.546781,52.996887]},"properties":{"type":"charge","layer":"passenger","locationId":"NLLOC015542","name":"NL, van Heuven Goedhartlaan 57, 9406CD, Assen","address":"van Heuven Goedhartlaan 57","city":"Assen","operatorName":"Allego","maxPowerKw":11,"isMegawatt":false,"status":"UNAVAILABLE","source":"ndw","priceKwh":0.407}},{"type":"Feature","geometry":{"type":"Point","coordinates":[6.568408,53.015868]},"properties":{"type":"charge","layer":"passenger","locationId":"NLLOC019147","name":"NL, Woerdes 1, 9407 CK Assen","address":"Woerdes 1","city":"Assen","operatorName":"Allego","maxPowerKw":11,"isMegawatt":false,"status":"AVAILABLE","source":"ndw","priceKwh":0.407}},{"type":"Feature","geometry":{"type":"Point","coordinates":[6.581646,52.985117]},"properties":{"type":"charge","layer":"passenger","locationId":"NLLOC024144","name":"NL, Speenkruidstraat 177, 9404 HH Assen","address":"Speenkruidstraat 177","city":"Assen","operatorName":"Allego","maxPowerKw":11,"isMegawatt":false,"status":"AVAILABLE","source":"ndw","priceKwh":0.407}},{"type":"Feature","geometry":{"type":"Point","coordinates":[6.574203,52.993962]},"properties":{"type":"charge","layer":"passenger","locationId":"NLLOC013586","name":"NL, Buizerdstraat 10, 9404BL, Assen","address":"Buizerdstraat 10","city":"Assen","operatorName":"Allego","maxPowerKw":11,"isMegawatt":false,"status":"AVAILABLE","source":"ndw","priceKwh":0.407}},{"type":"Feature","geometry":{"type":"Point","coordinates":[6.562919,52.987224]},"properties":{"type":"charge","layer":"passenger","locationId":"91093680","name":"50five-S NL 07103850","address":"Iepenlaan 16","city":"Assen","operatorName":"50five","maxPowerKw":11,"isMegawatt":false,"status":"AVAILABLE","source":"ndw"}},{"type":"Feature","geometry":{"type":"Point","coordinates":[6.547278,52.992707]},"properties":{"type":"charge","layer":"passenger","locationId":"NLLOC014694","name":"NL, Witterstraat 42, 9401SH, Assen","address":"Witterstraat 42","city":"Assen","operatorName":"Allego","maxPowerKw":11,"isMegawatt":false,"status":"AVAILABLE","source":"ndw","priceKwh":0.407}},{"type":"Feature","geometry":{"type":"Point","coordinates":[6.573053,52.982192]},"properties":{"type":"charge","layer":"passenger","locationId":"91232725","name":"50five-S NL 09100515","address":"Dennenweg 9","city":"Assen","operatorName":"50five","maxPowerKw":11,"isMegawatt":false,"status":"AVAILABLE","source":"ndw"}},{"type":"Feature","geometry":{"type":"Point","coordinates":[6.557273,52.990171]},"properties":{"type":"charge","layer":"passenger","locationId":"NLLOC015215","name":"NL, Hertenkamp, 2, 9401HL, Assen","address":"Hertenkamp 2","city":"Assen","operatorName":"Allego","maxPowerKw":11,"isMegawatt":false,"status":"AVAILABLE","source":"ndw","priceKwh":0.407}},{"type":"Feature","geometry":{"type":"Point","coordinates":[6.568529,53.026171]},"properties":{"type":"charge","layer":"passenger","locationId":"923433","name":"DAE-NL-2000110_P02","address":"Amerikaweg 3","city":"Assen","operatorName":"DAEN Mobility","maxPowerKw":22,"isMegawatt":false,"status":"AVAILABLE","source":"ndw","priceKwh":0.29}},{"type":"Feature","geometry":{"type":"Point","coordinates":[6.510285,53.005627]},"properties":{"type":"charge","layer":"passenger","locationId":"NLLOC022211","name":"NL, Stedehof 35, 9408 HH Assen","address":"Stedehof 35","city":"Assen","operatorName":"Allego","maxPowerKw":11,"isMegawatt":false,"status":"AVAILABLE","source":"ndw","priceKwh":0.407}},{"type":"Feature","geometry":{"type":"Point","coordinates":[6.571347,53.012296]},"properties":{"type":"charge","layer":"passenger","locationId":"68f7463dcfdd6dfb52141c7c","name":"Borgstee 's station","address":"Borgstee 3","city":"Assen","operatorName":"E-Flux by Road","maxPowerKw":11,"isMegawatt":false,"status":"AVAILABLE","source":"ndw","priceKwh":0.73}},{"type":"Feature","geometry":{"type":"Point","coordinates":[6.587476,53.019576]},"properties":{"type":"charge","layer":"passenger","locationId":"NLLOC027119","name":"NL, Ruskenbeemd 4, 9403 MP Assen","address":"Ruskenbeemd 4","city":"Assen","operatorName":"Allego","maxPowerKw":11,"isMegawatt":false,"status":"AVAILABLE","source":"ndw","priceKwh":0.407}},{"type":"Feature","geometry":{"type":"Point","coordinates":[6.569804,52.986776]},"properties":{"type":"charge","layer":"passenger","locationId":"NLLOC016089","name":"NL, Anemoonstraat 151, 9404 RE Assen","address":"Anemoonstraat 151","city":"Assen","operatorName":"Allego","maxPowerKw":11,"isMegawatt":false,"status":"AVAILABLE","source":"ndw","priceKwh":0.407}},{"type":"Feature","geometry":{"type":"Point","coordinates":[6.563591,52.997744]},"properties":{"type":"charge","layer":"passenger","locationId":"NLLOC011837","name":"NL, Zaagmolen 20, 9401BS, Assen","address":"Zaagmolen 20","city":"Assen","operatorName":"Allego","maxPowerKw":11,"isMegawatt":false,"status":"AVAILABLE","source":"ndw","priceKwh":0.407}},{"type":"Feature","geometry":{"type":"Point","coordinates":[6.520281,53.007131]},"properties":{"type":"charge","layer":"passenger","locationId":"91086321","name":"50five-S NL 17B26951","address":"Asserwijk 25","city":"Assen","operatorName":"50five","maxPowerKw":11,"isMegawatt":false,"status":"AVAILABLE","source":"ndw"}},{"type":"Feature","geometry":{"type":"Point","coordinates":[6.509963,53.002226]},"properties":{"type":"charge","layer":"passenger","locationId":"89242728","name":"50five Sander Van Agthoven","address":"Kersenhof 17","city":"Assen","operatorName":"50five","maxPowerKw":14,"isMegawatt":false,"status":"AVAILABLE","source":"ndw"}},{"type":"Feature","geometry":{"type":"Point","coordinates":[6.580013,53.02462]},"properties":{"type":"charge","layer":"passenger","locationId":"91314581","name":"50five-S NL Location","address":"Spanjelaan 12","city":"Assen","operatorName":"50five","maxPowerKw":11,"isMegawatt":false,"status":"UNAVAILABLE","source":"ndw"}},{"type":"Feature","geometry":{"type":"Point","coordinates":[6.56764,53.024281]},"properties":{"type":"charge","layer":"passenger","locationId":"88424678","name":"Van Leeuwen Australiëweg 12","address":"Australiëweg 12","city":"Assen","operatorName":"Van Leeuwen","maxPowerKw":22,"isMegawatt":false,"status":"AVAILABLE","source":"ndw"}},{"type":"Feature","geometry":{"type":"Point","coordinates":[6.568171,53.019905]},"properties":{"type":"charge","layer":"passenger","locationId":"NLLOC012358","name":"NL, Groenkampen, 198, 9407RH, Assen","address":"Groenkampen 198","city":"Assen","operatorName":"Allego","maxPowerKw":11,"isMegawatt":false,"status":"AVAILABLE","source":"ndw","priceKwh":0.407}},{"type":"Feature","geometry":{"type":"Point","coordinates":[6.545207,52.984668]},"properties":{"type":"charge","layer":"passenger","locationId":"NLLOC022197","name":"NL, Stadsbroek 11, 9405 BK Assen","address":"Stadsbroek 11","city":"Assen","operatorName":"Allego","maxPowerKw":11,"isMegawatt":false,"status":"AVAILABLE","source":"ndw","priceKwh":0.407}},{"type":"Feature","geometry":{"type":"Point","coordinates":[6.520355,52.99619]},"properties":{"type":"charge","layer":"passenger","locationId":"NLLOC011824","name":"NL, Balkendwarsweg 3, 9405 PT Assen","address":"Balkendwarsweg 3","city":"Assen","operatorName":"Allego","maxPowerKw":11,"isMegawatt":false,"status":"AVAILABLE","source":"ndw","priceKwh":0.407}},{"type":"Feature","geometry":{"type":"Point","coordinates":[6.594424,53.023298]},"properties":{"type":"charge","layer":"passenger","locationId":"NLLOC024142","name":"NL, Eekhoornslag 110, 9403 XZ Assen","address":"Eekhoornslag 110","city":"Assen","operatorName":"Allego","maxPowerKw":11,"isMegawatt":false,"status":"AVAILABLE","source":"ndw","priceKwh":0.407}},{"type":"Feature","geometry":{"type":"Point","coordinates":[6.560816,52.997963]},"properties":{"type":"charge","layer":"passenger","locationId":"OST23P0069_0022_2","name":"OST23P0069_0022_2","address":"Neptunusplein 16","city":"Assen","operatorName":"IPCharging","maxPowerKw":19,"isMegawatt":false,"status":"AVAILABLE","source":"ndw","priceKwh":0.496}},{"type":"Feature","geometry":{"type":"Point","coordinates":[6.580945,53.017544]},"properties":{"type":"charge","layer":"passenger","locationId":"NLLOC014569","name":"NL, Deelheugte, 34, 9403HC, Assen","address":"Deelheugte 34","city":"Assen","operatorName":"Allego","maxPowerKw":11,"isMegawatt":false,"status":"AVAILABLE","source":"ndw","priceKwh":0.407}},{"type":"Feature","geometry":{"type":"Point","coordinates":[6.568529,53.026171]},"properties":{"type":"charge","layer":"passenger","locationId":"923434","name":"DAE-NL-2000112_P01","address":"Amerikaweg 3","city":"Assen","operatorName":"DAEN Mobility","maxPowerKw":22,"isMegawatt":false,"status":"AVAILABLE","source":"ndw","priceKwh":0.29}},{"type":"Feature","geometry":{"type":"Point","coordinates":[6.557575,53.005707]},"properties":{"type":"charge","layer":"passenger","locationId":"91299337","name":"50five-S NL Location","address":"Molenstraat","city":"Assen","operatorName":"50five","maxPowerKw":11,"isMegawatt":false,"status":"AVAILABLE","source":"ndw"}},{"type":"Feature","geometry":{"type":"Point","coordinates":[6.596388,53.022565]},"properties":{"type":"charge","layer":"passenger","locationId":"91086922","name":"50five-S NL 07101890","address":"Alexander Dubcekweg 30","city":"Assen","operatorName":"50five","maxPowerKw":4,"isMegawatt":false,"status":"CHARGING","source":"ndw"}},{"type":"Feature","geometry":{"type":"Point","coordinates":[6.569222,52.989441]},"properties":{"type":"charge","layer":"passenger","locationId":"695eb2a6-3f08-401c-ad8b-45e06e4ab428","name":"Tango Assen 1-2","address":"Overcingellaan 9","city":"Assen","operatorName":"Tango electric","maxPowerKw":300,"isMegawatt":false,"status":"AVAILABLE","source":"ndw","priceKwh":0.6}},{"type":"Feature","geometry":{"type":"Point","coordinates":[6.554293,52.999709]},"properties":{"type":"charge","layer":"passenger","locationId":"NLLOC012523","name":"NL, Einthovenstraat 12, 9402CB, Assen","address":"Einthovenstraat 12","city":"Assen","operatorName":"Allego","maxPowerKw":11,"isMegawatt":false,"status":"UNAVAILABLE","source":"ndw","priceKwh":0.407}},{"type":"Feature","geometry":{"type":"Point","coordinates":[6.50856,52.998303]},"properties":{"type":"charge","layer":"passenger","locationId":"NLLOC026876","name":"NL, Dilletuin 2, 9408 AB Assen","address":"Dilletuin 2","city":"Assen","operatorName":"Allego","maxPowerKw":11,"isMegawatt":false,"status":"AVAILABLE","source":"ndw","priceKwh":0.407}},{"type":"Feature","geometry":{"type":"Point","coordinates":[6.556766,52.993913]},"properties":{"type":"charge","layer":"passenger","locationId":"NLLOC007783","name":"NL, Vaart N.Z. 38, 9401 GN. Assen","address":"Vaart N.Z. 38","city":"Assen","operatorName":"Allego","maxPowerKw":11,"isMegawatt":false,"status":"AVAILABLE","source":"ndw","priceKwh":0.407}},{"type":"Feature","geometry":{"type":"Point","coordinates":[6.566851,53.001119]},"properties":{"type":"charge","layer":"passenger","locationId":"NLLOC022203","name":"NL, Huygensstraat 15, 9402 NL Assen","address":"Huygensstraat 15","city":"Assen","operatorName":"Allego","maxPowerKw":11,"isMegawatt":false,"status":"AVAILABLE","source":"ndw","priceKwh":0.407}},{"type":"Feature","geometry":{"type":"Point","coordinates":[6.591144,53.013491]},"properties":{"type":"charge","layer":"passenger","locationId":"NLLOC026993","name":"NL, Saffierstoep 92, 9403RV, Assen","address":"Saffierstoep 92","city":"Assen","operatorName":"Allego","maxPowerKw":11,"isMegawatt":false,"status":"AVAILABLE","source":"ndw","priceKwh":0.407}},{"type":"Feature","geometry":{"type":"Point","coordinates":[6.562007,53.017218]},"properties":{"type":"charge","layer":"passenger","locationId":"NLLOC011831","name":"NL, Scharmbarg 27, 9407JP Assen","address":"Scharmbarg 27","city":"Assen","operatorName":"Allego","maxPowerKw":11,"isMegawatt":false,"status":"AVAILABLE","source":"ndw","priceKwh":0.407}},{"type":"Feature","geometry":{"type":"Point","coordinates":[6.57904,53.02677]},"properties":{"type":"charge","layer":"passenger","locationId":"F8C81B38-F2B6-4ABF-A903-A3E8B852FA07","name":"Eneco eMobility Broekhuis Assen autoschade","address":"Duitslandlaan 6","city":"Assen","operatorName":"Eneco","maxPowerKw":22,"isMegawatt":false,"status":"AVAILABLE","source":"ndw","priceKwh":0.45}},{"type":"Feature","geometry":{"type":"Point","coordinates":[6.556817,53.006473]},"properties":{"type":"charge","layer":"passenger","locationId":"NLLOC014160","name":"NL, Mensingestraat 15, 9402RP, Assen","address":"Mensingestraat 15","city":"Assen","operatorName":"Allego","maxPowerKw":11,"isMegawatt":false,"status":"AVAILABLE","source":"ndw","priceKwh":0.407}},{"type":"Feature","geometry":{"type":"Point","coordinates":[6.541243,53.007679]},"properties":{"type":"charge","layer":"passenger","locationId":"NLLOC011816","name":"NL, Amstelstraat 259, 9406 TW Assen","address":"Amstelstraat 295","city":"Assen","operatorName":"Allego","maxPowerKw":11,"isMegawatt":false,"status":"AVAILABLE","source":"ndw","priceKwh":0.407}},{"type":"Feature","geometry":{"type":"Point","coordinates":[6.513787,53.002878]},"properties":{"type":"charge","layer":"passenger","locationId":"NLLOC021599","name":"NL, Moerbeistraat 58, 9408BC, Assen","address":"Moerbeistraat 58","city":"Assen","operatorName":"Allego","maxPowerKw":11,"isMegawatt":false,"status":"AVAILABLE","source":"ndw","priceKwh":0.407}},{"type":"Feature","geometry":{"type":"Point","coordinates":[6.565324,53.006166]},"properties":{"type":"charge","layer":"passenger","locationId":"NLLOC019262","name":"NL, Sweelinckplein 19, 9402 TV Assen","address":"Sweelinckplein 19","city":"Assen","operatorName":"Allego","maxPowerKw":11,"isMegawatt":false,"status":"AVAILABLE","source":"ndw","priceKwh":0.407}},{"type":"Feature","geometry":{"type":"Point","coordinates":[6.562787,52.99695]},"properties":{"type":"charge","layer":"passenger","locationId":"NLLOC026789","name":"NL, Oude Molenstraat 40-A, 9401 DD Assen","address":"Oude Molenstraat 40-A","city":"Assen","operatorName":"Allego","maxPowerKw":11,"isMegawatt":false,"status":"AVAILABLE","source":"ndw","priceKwh":0.407}},{"type":"Feature","geometry":{"type":"Point","coordinates":[6.561738,52.998104]},"properties":{"type":"charge","layer":"passenger","locationId":"NLLOC026986","name":"NL, Stelling 13, 9401 VA Assen","address":"Stelling 13","city":"Assen","operatorName":"Allego","maxPowerKw":11,"isMegawatt":false,"status":"AVAILABLE","source":"ndw","priceKwh":0.407}},{"type":"Feature","geometry":{"type":"Point","coordinates":[6.546415,52.973646]},"properties":{"type":"charge","layer":"passenger","locationId":"NLLOC011822","name":"NL, De Haar, 9400XX, Assen","address":"De Haar","city":"Assen","operatorName":"Allego","maxPowerKw":11,"isMegawatt":false,"status":"AVAILABLE","source":"ndw","priceKwh":0.407}},{"type":"Feature","geometry":{"type":"Point","coordinates":[6.571987,52.988201]},"properties":{"type":"charge","layer":"passenger","locationId":"NLLOC017537","name":"NL, Lodewijk Napoleonplein 2, 9404 RS Assen","address":"Lodewijk Napoleonplein 2","city":"Assen","operatorName":"Allego","maxPowerKw":11,"isMegawatt":false,"status":"AVAILABLE","source":"ndw","priceKwh":0.407}},{"type":"Feature","geometry":{"type":"Point","coordinates":[6.564671,53.011309]},"properties":{"type":"charge","layer":"passenger","locationId":"NLLOC011835","name":"NL, Smetanalaan 212, 9402XK Assen","address":"Smetanalaan 212","city":"Assen","operatorName":"Allego","maxPowerKw":11,"isMegawatt":false,"status":"AVAILABLE","source":"ndw","priceKwh":0.407}},{"type":"Feature","geometry":{"type":"Point","coordinates":[6.587089,53.014564]},"properties":{"type":"charge","layer":"passenger","locationId":"NLLOC022207","name":"NL, Roegoorn 81, 9403 NT Assen","address":"Roegoorn 81","city":"Assen","operatorName":"Allego","maxPowerKw":11,"isMegawatt":false,"status":"AVAILABLE","source":"ndw","priceKwh":0.407}},{"type":"Feature","geometry":{"type":"Point","coordinates":[6.548472,53.004421]},"properties":{"type":"charge","layer":"passenger","locationId":"NLLOC022215","name":"NL, Zuidenveld 41, 9406 LH Assen","address":"Zuidenveld 41","city":"Assen","operatorName":"Allego","maxPowerKw":11,"isMegawatt":false,"status":"AVAILABLE","source":"ndw","priceKwh":0.407}},{"type":"Feature","geometry":{"type":"Point","coordinates":[6.558053,53.005904]},"properties":{"type":"charge","layer":"passenger","locationId":"91228508","name":"50five-S NL 07141487","address":"Molenstraat 262","city":"Assen","operatorName":"50five","maxPowerKw":11,"isMegawatt":false,"status":"AVAILABLE","source":"ndw"}},{"type":"Feature","geometry":{"type":"Point","coordinates":[6.524497,52.992264]},"properties":{"type":"charge","layer":"passenger","locationId":"91058477","name":"50five-S NL 03000335","address":"Balkenweg 1","city":"Assen","operatorName":"50five","maxPowerKw":11,"isMegawatt":false,"status":"AVAILABLE","source":"ndw"}},{"type":"Feature","geometry":{"type":"Point","coordinates":[6.555064,53.003465]},"properties":{"type":"charge","layer":"passenger","locationId":"NLLOC022212","name":"NL, Talmastraat 43, 9402 HB Assen","address":"Talmastraat 43","city":"Assen","operatorName":"Allego","maxPowerKw":11,"isMegawatt":false,"status":"AVAILABLE","source":"ndw","priceKwh":0.407}},{"type":"Feature","geometry":{"type":"Point","coordinates":[6.564794,52.991296]},"properties":{"type":"charge","layer":"passenger","locationId":"NLLOC011834","name":"NL, Oosterhoutstraat 7, 9401NA Assen","address":"Oosterhoutstraat 7","city":"Assen","operatorName":"Allego","maxPowerKw":11,"isMegawatt":false,"status":"AVAILABLE","source":"ndw","priceKwh":0.407}},{"type":"Feature","geometry":{"type":"Point","coordinates":[6.594195,53.014353]},"properties":{"type":"charge","layer":"passenger","locationId":"NLLOC022199","name":"NL, Briljantstoep 29, 9403 SC Assen","address":"Briljantstoep 29","city":"Assen","operatorName":"Allego","maxPowerKw":11,"isMegawatt":false,"status":"AVAILABLE","source":"ndw","priceKwh":0.407}},{"type":"Feature","geometry":{"type":"Point","coordinates":[6.54812,52.960239]},"properties":{"type":"charge","layer":"freight","locationId":"6867a2c976330240cf5f7efc","name":"DCB CHARGE Assen (E-Truck)","address":"Burgemeester Grollemanweg 8","city":"Assen","operatorName":"E-Flux by Road","maxPowerKw":400,"isMegawatt":false,"status":"AVAILABLE","source":"ndw","priceKwh":0.63,"freightKind":"dedicated","freightReason":"truck-name"}},{"type":"Feature","geometry":{"type":"Point","coordinates":[6.572056,53.025421]},"properties":{"type":"charge","layer":"freight","locationId":"32406","name":"Circle K Assen inz Messchenveld","address":"Peelo 22 A","city":"Assen","operatorName":"Spirii","maxPowerKw":400,"isMegawatt":false,"status":"AVAILABLE","source":"ndw","priceKwh":0.65,"freightKind":"hpc","freightReason":"power"}},{"type":"Feature","geometry":{"type":"MultiPolygon","coordinates":[[[[6.603717992487138,53.058880338216206],[6.605170272070107,53.0564484420731],[6.608087673325854,53.04841932545479],[6.6064896418644805,53.0382038358685],[6.603549459334698,53.03295754406833],[6.631221723915265,53.02610636705622],[6.629763981081326,53.023716258660436],[6.6326464754719785,53.02203720070381],[6.629760839015734,53.01562568599622],[6.621738825628314,53.01217451457647],[6.621846373530451,53.010057167715836],[6.6207271956533305,53.00926706348664],[6.615983908854544,53.00813529920957],[6.611720351953232,53.00160758362245],[6.611572620690431,52.99957557415879],[6.6078632591242,52.99535387305188],[6.607944805231328,52.98944190627251],[6.607926448194233,52.989413354797506],[6.605702156133776,52.984495091925304],[6.60413492547054,52.98289990066393],[6.599383348626411,52.98151915586087],[6.596485134876312,52.97930028174693],[6.595378020216529,52.97627121776161],[6.5960436860588,52.9726590652011],[6.582845880901566,52.96801101560951],[6.581265518872844,52.967450127291784],[6.5699974483262755,52.95767617644686],[6.567227121626958,52.95246467644413],[6.561504898413823,52.94665312648393],[6.555331213258275,52.9495478095632],[6.542997693353733,52.95533925346879],[6.539279066704861,52.94589128043236],[6.535914756208562,52.93259150823875],[6.534602943615715,52.93251576524228],[6.530772462848079,52.93462687050795],[6.517622319345061,52.93976391563673],[6.519577422642373,52.94295669103203],[6.508827016139842,52.946985610318464],[6.496972035639256,52.95156703093254],[6.493128385249075,52.94799681018907],[6.490587625587921,52.94901343325067],[6.489538223561121,52.948059438145975],[6.48649227945947,52.94918240262892],[6.483947974072229,52.95017396756901],[6.489194180264726,52.95445794945553],[6.493831750077573,52.95874826962568],[6.487558499259227,52.961205894528476],[6.495743650806774,52.968991518835644],[6.486883376632014,52.972443139033764],[6.485502521714168,52.97298561888609],[6.490489498998948,52.97759754189327],[6.496595723142027,52.983240402772196],[6.493913836423496,52.98426660566816],[6.494233942201141,52.985856868519164],[6.4990049227797675,52.99021683307155],[6.494573087568039,52.99195971190124],[6.493702595598564,52.99233794093672],[6.4980613523398345,52.99378200487259],[6.492586488880255,52.99305986773647],[6.491693066508587,52.995587957563636],[6.488212588342433,53.00540631426742],[6.505121058972927,53.00991816416513],[6.513036818719635,53.01055774128886],[6.509979144223981,53.01704050115249],[6.503873598963964,53.01604263825066],[6.495528314190211,53.03089871888022],[6.502894021106965,53.032213825446846],[6.499951501098326,53.03843130675224],[6.500381268583311,53.03907286608026],[6.50513057209249,53.04635575161884],[6.510924160382015,53.04445454830084],[6.5242840013012,53.04595003611204],[6.529107949129792,53.04338622039121],[6.530852704833501,53.04118650758463],[6.530194263289651,53.04011053570039],[6.533893033484109,53.038932747431225],[6.533683699322614,53.038157303516],[6.541743499809208,53.03717874022905],[6.5412707838781055,53.035660638898904],[6.547307195098165,53.035068025691324],[6.549277394482707,53.03834645007123],[6.550770303580884,53.03815648955135],[6.551489363793866,53.04025346798221],[6.552316327252736,53.042576631847716],[6.552516572579702,53.043496488813986],[6.5500248307770335,53.046473300059695],[6.551490826773177,53.050366441292724],[6.5539561323929965,53.052728709784304],[6.552730596111411,53.05514770588718],[6.556076500539008,53.055727506228294],[6.555213620251733,53.05860908379794],[6.569720806131472,53.05986279778006],[6.569936988770228,53.057122776986276],[6.570399616519924,53.05488823952917],[6.575057802155785,53.054640466470474],[6.575201871609915,53.055068773807854],[6.575804438053033,53.05918863409333],[6.586811776841995,53.05953897007873],[6.588077542256246,53.05800033589824],[6.600456178349554,53.06102124255213],[6.601235654447787,53.06175868078959],[6.603717992487138,53.058880338216206]]]]},"properties":{"type":"boundary","gemeente":"Assen","code":"GM0106"}}]}