{"type":"FeatureCollection","metadata":{"gemeente":"Baarn","slug":"baarn","code":"GM0308","generated_at":"2026-08-08T12:05:52.020Z","total_passenger":94,"total_freight":0,"bounds":[5.212075383482923,52.165380077698046,5.335541501225918,52.232829592798026],"operators":["50five","DAEN Mobility","E-Flux by Road","Eneco","Laadnet","Lanova Laadpalen","Opcharge","Pluq","TotalEnergies","Ubitricity","Van Leeuwen","Vattenfall InCharge"]},"features":[{"type":"Feature","geometry":{"type":"Point","coordinates":[5.302949,52.21079]},"properties":{"type":"charge","layer":"passenger","locationId":"65044F34-22B8-40A2-A9E5-5DA1244AD4B0","name":"TNLP005705 - Doormanlaan 58, Baarn","address":"58 Doormanlaan","city":"Baarn","operatorName":"TotalEnergies","maxPowerKw":11,"isMegawatt":false,"status":"AVAILABLE","source":"ndw"}},{"type":"Feature","geometry":{"type":"Point","coordinates":[5.300664,52.218519]},"properties":{"type":"charge","layer":"passenger","locationId":"923048","name":"P06 DAE_NL_2000857","address":"Baarnsche Dijk 10","city":"Baarn","operatorName":"DAEN Mobility","maxPowerKw":22,"isMegawatt":false,"status":"AVAILABLE","source":"ndw","priceKwh":0.28}},{"type":"Feature","geometry":{"type":"Point","coordinates":[5.292925,52.203144]},"properties":{"type":"charge","layer":"passenger","locationId":"3789711E-A314-4D16-B1F9-EE98B7426165","name":"TNLP008589 - Kievitstraat 62, Baarn","address":"62 Kievitstraat","city":"Baarn","operatorName":"TotalEnergies","maxPowerKw":13,"isMegawatt":false,"status":"UNAVAILABLE","source":"ndw"}},{"type":"Feature","geometry":{"type":"Point","coordinates":[5.26822,52.21218]},"properties":{"type":"charge","layer":"passenger","locationId":"976d6725fe4b463dac0cacfad01b2068","name":"Baarn Amerborgh","address":"Amsterdamsestraatweg 40","city":"Baarn","operatorName":"Opcharge","maxPowerKw":22,"isMegawatt":false,"status":"AVAILABLE","source":"ndw","priceKwh":0.49}},{"type":"Feature","geometry":{"type":"Point","coordinates":[5.26552,52.2152]},"properties":{"type":"charge","layer":"passenger","locationId":"2063988","name":"Laadnet Nieuwe Buitenzorg","address":"Amsterdamsestraatweg 55A","city":"Baarn","operatorName":"Laadnet","maxPowerKw":22,"isMegawatt":false,"status":"AVAILABLE","source":"ndw"}},{"type":"Feature","geometry":{"type":"Point","coordinates":[5.293813,52.207163]},"properties":{"type":"charge","layer":"passenger","locationId":"91275950","name":"50five-S NL 17B04828","address":"Balidwarsstraat 6","city":"Baarn","operatorName":"50five","maxPowerKw":10,"isMegawatt":false,"status":"AVAILABLE","source":"ndw"}},{"type":"Feature","geometry":{"type":"Point","coordinates":[5.300616,52.202736]},"properties":{"type":"charge","layer":"passenger","locationId":"CDEE9EBC-4B42-4415-A2CD-09D781951608","name":"TNLP008641 - Dotterbloemlaan 18, Baarn","address":"18 Dotterbloemlaan","city":"Baarn","operatorName":"TotalEnergies","maxPowerKw":14,"isMegawatt":false,"status":"AVAILABLE","source":"ndw"}},{"type":"Feature","geometry":{"type":"Point","coordinates":[5.270536,52.216745]},"properties":{"type":"charge","layer":"passenger","locationId":"65c8da25adcf05001c16d5f0","name":"Willemijn Schouten 's station","address":"Ferdinand Huycklaan 27","city":"Baarn","operatorName":"E-Flux by Road","maxPowerKw":11,"isMegawatt":false,"status":"AVAILABLE","source":"ndw","priceKwh":0.38}},{"type":"Feature","geometry":{"type":"Point","coordinates":[5.28203,52.21361]},"properties":{"type":"charge","layer":"passenger","locationId":"459","name":"Shell Recharge NL Nassaulaan 2","address":"Nassaulaan 2","city":"Baarn","operatorName":"Ubitricity","maxPowerKw":11,"isMegawatt":false,"status":"AVAILABLE","source":"ndw","priceKwh":0.392}},{"type":"Feature","geometry":{"type":"Point","coordinates":[5.271163,52.22104]},"properties":{"type":"charge","layer":"passenger","locationId":"8A0D5694-0C20-456C-8F2F-BA38DBDA5E13","name":"TNLP008496 - Wagenaarlaan 45, Baarn","address":"45 Wagenaarlaan","city":"Baarn","operatorName":"TotalEnergies","maxPowerKw":13,"isMegawatt":false,"status":"UNAVAILABLE","source":"ndw"}},{"type":"Feature","geometry":{"type":"Point","coordinates":[5.282437,52.21943]},"properties":{"type":"charge","layer":"passenger","locationId":"4BD75BD8-B42D-4971-ACA2-784E247AEEE4","name":"PP005093 - Prof. Krabbelaan 39, Baarn","address":"39 Prof. Krabbelaan","city":"Baarn","operatorName":"TotalEnergies","maxPowerKw":11,"isMegawatt":false,"status":"AVAILABLE","source":"ndw"}},{"type":"Feature","geometry":{"type":"Point","coordinates":[5.300664,52.218519]},"properties":{"type":"charge","layer":"passenger","locationId":"923046","name":"P04 DAE_NL_2000855","address":"Baarnsche Dijk 10","city":"Baarn","operatorName":"DAEN Mobility","maxPowerKw":22,"isMegawatt":false,"status":"AVAILABLE","source":"ndw","priceKwh":0.28}},{"type":"Feature","geometry":{"type":"Point","coordinates":[5.2985229,52.2142981]},"properties":{"type":"charge","layer":"passenger","locationId":"1815","name":"Shell Recharge NL Rembrandtlaan 12","address":"Rembrandtlaan 12","city":"Baarn","operatorName":"Ubitricity","maxPowerKw":22,"isMegawatt":false,"status":"CHARGING","source":"ndw","priceKwh":0.267}},{"type":"Feature","geometry":{"type":"Point","coordinates":[5.246058,52.224438]},"properties":{"type":"charge","layer":"passenger","locationId":"6390f4d89beb1d001203523e","name":"Oud Eemnesserweg 5J Noord","address":"Oud Eemnesserweg 5J","city":"Baarn","operatorName":"E-Flux by Road","maxPowerKw":22,"isMegawatt":false,"status":"AVAILABLE","source":"ndw","priceKwh":0.23}},{"type":"Feature","geometry":{"type":"Point","coordinates":[5.289458,52.21754]},"properties":{"type":"charge","layer":"passenger","locationId":"F7441A53-212C-48B5-BDBB-F8D0873839CD","name":"TNLP009936 - Talmalaan 46, Baarn","address":"46 Talmalaan","city":"Baarn","operatorName":"TotalEnergies","maxPowerKw":17,"isMegawatt":false,"status":"AVAILABLE","source":"ndw"}},{"type":"Feature","geometry":{"type":"Point","coordinates":[5.316268,52.225266]},"properties":{"type":"charge","layer":"passenger","locationId":"6513cd5d7b179300202263e7","name":"NBSS-02","address":"Zuidereind 5","city":"Baarn","operatorName":"Lanova Laadpalen","maxPowerKw":22,"isMegawatt":false,"status":"AVAILABLE","source":"ndw","priceKwh":0.58}},{"type":"Feature","geometry":{"type":"Point","coordinates":[5.281449,52.214621]},"properties":{"type":"charge","layer":"passenger","locationId":"91057356","name":"50five-S NL 17B20158","address":"Eemnesserweg 83A","city":"Baarn","operatorName":"50five","maxPowerKw":11,"isMegawatt":false,"status":"AVAILABLE","source":"ndw"}},{"type":"Feature","geometry":{"type":"Point","coordinates":[5.307415,52.213764]},"properties":{"type":"charge","layer":"passenger","locationId":"38B21D7C-3546-4E7F-91F2-9011DA87259E","name":"TNLP006834 - Zonnehof 1, Baarn","address":"1 Zonnehof","city":"Baarn","operatorName":"TotalEnergies","maxPowerKw":17,"isMegawatt":false,"status":"AVAILABLE","source":"ndw"}},{"type":"Feature","geometry":{"type":"Point","coordinates":[5.300664,52.218519]},"properties":{"type":"charge","layer":"passenger","locationId":"922605","name":"P13_DAE_NL_2001382","address":"Baarnsche Dijk 10","city":"Baarn","operatorName":"DAEN Mobility","maxPowerKw":11,"isMegawatt":false,"status":"AVAILABLE","source":"ndw","priceKwh":0.28}},{"type":"Feature","geometry":{"type":"Point","coordinates":[5.27634,52.22118]},"properties":{"type":"charge","layer":"passenger","locationId":"BFE68608-3E73-4626-8036-5B18BB1489DA","name":"TNLP015257 - Professor Fockema Andreaelaan 3, Baarn","address":"3 Professor Fockema Andreaelaan","city":"Baarn","operatorName":"TotalEnergies","maxPowerKw":17,"isMegawatt":false,"status":"AVAILABLE","source":"ndw"}},{"type":"Feature","geometry":{"type":"Point","coordinates":[5.300664,52.218519]},"properties":{"type":"charge","layer":"passenger","locationId":"923097","name":"P15_DAE_NL_2000945","address":"Baarnsche Dijk 10","city":"Baarn","operatorName":"DAEN Mobility","maxPowerKw":22,"isMegawatt":false,"status":"AVAILABLE","source":"ndw","priceKwh":0.28}},{"type":"Feature","geometry":{"type":"Point","coordinates":[5.299719,52.20563]},"properties":{"type":"charge","layer":"passenger","locationId":"6D39D19C-1021-48E2-81F0-23847CDD9818","name":"TNLP015234 - Irisstraat 13, Baarn","address":"13 Irisstraat","city":"Baarn","operatorName":"TotalEnergies","maxPowerKw":17,"isMegawatt":false,"status":"CHARGING","source":"ndw"}},{"type":"Feature","geometry":{"type":"Point","coordinates":[5.301684,52.213734]},"properties":{"type":"charge","layer":"passenger","locationId":"D134B5A0-2010-46EB-AEDD-DF4EFBE1F9BF","name":"TNLP007084 - Doormanlaan 8, Baarn","address":"8 Doormanlaan","city":"Baarn","operatorName":"TotalEnergies","maxPowerKw":17,"isMegawatt":false,"status":"CHARGING","source":"ndw"}},{"type":"Feature","geometry":{"type":"Point","coordinates":[5.300664,52.218519]},"properties":{"type":"charge","layer":"passenger","locationId":"923318","name":"P11_DAE_NL_2001161","address":"Baarnsche Dijk 10","city":"Baarn","operatorName":"DAEN Mobility","maxPowerKw":11,"isMegawatt":false,"status":"UNAVAILABLE","source":"ndw","priceKwh":0.28}},{"type":"Feature","geometry":{"type":"Point","coordinates":[5.287629,52.220142]},"properties":{"type":"charge","layer":"passenger","locationId":"F2D43161-CFAE-42E7-9CDB-61AB994C69B9","name":"TNLP006033 - de Geerenweg 51, Baarn","address":"51 de Geerenweg","city":"Baarn","operatorName":"TotalEnergies","maxPowerKw":17,"isMegawatt":false,"status":"AVAILABLE","source":"ndw"}},{"type":"Feature","geometry":{"type":"Point","coordinates":[5.310875,52.226027]},"properties":{"type":"charge","layer":"passenger","locationId":"91086027","name":"50five-S NL 07142332","address":"Eemnesserweg 89","city":"Baarn","operatorName":"50five","maxPowerKw":11,"isMegawatt":false,"status":"AVAILABLE","source":"ndw"}},{"type":"Feature","geometry":{"type":"Point","coordinates":[5.305298,52.216738]},"properties":{"type":"charge","layer":"passenger","locationId":"668b8ea20b882a001cd88e4c","name":"Restaurant Eemlust","address":"Eemweg 72","city":"Baarn","operatorName":"Pluq","maxPowerKw":22,"isMegawatt":false,"status":"AVAILABLE","source":"ndw","priceKwh":0.3}},{"type":"Feature","geometry":{"type":"Point","coordinates":[5.300664,52.218519]},"properties":{"type":"charge","layer":"passenger","locationId":"922606","name":"P14_DAE_NL_2001202","address":"Baarnsche Dijk 10","city":"Baarn","operatorName":"DAEN Mobility","maxPowerKw":11,"isMegawatt":false,"status":"AVAILABLE","source":"ndw","priceKwh":0.36}},{"type":"Feature","geometry":{"type":"Point","coordinates":[5.256916,52.223347]},"properties":{"type":"charge","layer":"passenger","locationId":"664efa5d33d7d1001bec7105","name":"Nijhof Baarn","address":"Minervaweg 3","city":"Baarn","operatorName":"Pluq","maxPowerKw":22,"isMegawatt":false,"status":"AVAILABLE","source":"ndw","priceKwh":0.42}},{"type":"Feature","geometry":{"type":"Point","coordinates":[5.24531,52.202249]},"properties":{"type":"charge","layer":"passenger","locationId":"91179780","name":"50five-S NL Baarn, Hilversumsestraatweg 18A","address":"Hilversumsestraatweg 18a","city":"Baarn","operatorName":"50five","maxPowerKw":11,"isMegawatt":false,"status":"AVAILABLE","source":"ndw"}},{"type":"Feature","geometry":{"type":"Point","coordinates":[5.297825,52.21695]},"properties":{"type":"charge","layer":"passenger","locationId":"C0D7C536-C5B5-4D5A-9840-4AED38F43A9B","name":"TNLP015217 - De Geerenweg 4, Baarn","address":"4 De Geerenweg","city":"Baarn","operatorName":"TotalEnergies","maxPowerKw":17,"isMegawatt":false,"status":"AVAILABLE","source":"ndw"}},{"type":"Feature","geometry":{"type":"Point","coordinates":[5.300664,52.218519]},"properties":{"type":"charge","layer":"passenger","locationId":"923315","name":"P08 DAE_NL_2001158","address":"Baarnsche Dijk 10","city":"Baarn","operatorName":"DAEN Mobility","maxPowerKw":11,"isMegawatt":false,"status":"AVAILABLE","source":"ndw","priceKwh":0.28}},{"type":"Feature","geometry":{"type":"Point","coordinates":[5.277107,52.219128]},"properties":{"type":"charge","layer":"passenger","locationId":"4BC11198-0CB8-45CD-8CF2-90403AF355EB","name":"TNLP006876 - Prof. Meijerslaan 12, Baarn","address":"12 Prof. Meijerslaan","city":"Baarn","operatorName":"TotalEnergies","maxPowerKw":17,"isMegawatt":false,"status":"CHARGING","source":"ndw"}},{"type":"Feature","geometry":{"type":"Point","coordinates":[5.28592,52.21638]},"properties":{"type":"charge","layer":"passenger","locationId":"197","name":"Shell Recharge NL Elzenlaan 20","address":"Elzenlaan 20","city":"Baarn","operatorName":"Ubitricity","maxPowerKw":11,"isMegawatt":false,"status":"AVAILABLE","source":"ndw","priceKwh":0.392}},{"type":"Feature","geometry":{"type":"Point","coordinates":[5.295376,52.213696]},"properties":{"type":"charge","layer":"passenger","locationId":"7addf274-9936-4614-984e-66f15d319953","name":"TNLP009931 - Johannes Vermeerlaan 2, Baarn","address":"2 Johannes Vermeerlaan","city":"Baarn","operatorName":"TotalEnergies","maxPowerKw":17,"isMegawatt":false,"status":"CHARGING","source":"ndw"}},{"type":"Feature","geometry":{"type":"Point","coordinates":[5.291339,52.20749]},"properties":{"type":"charge","layer":"passenger","locationId":"F9CA2204-9519-4FF8-81D5-EDE11C03E86C","name":"TNLP005810 - Torenlaan 15, Baarn","address":"15 Torenlaan","city":"Baarn","operatorName":"TotalEnergies","maxPowerKw":11,"isMegawatt":false,"status":"UNAVAILABLE","source":"ndw"}},{"type":"Feature","geometry":{"type":"Point","coordinates":[5.300664,52.218519]},"properties":{"type":"charge","layer":"passenger","locationId":"923044","name":"P02 DAE_NL_2000853","address":"Baarnsche Dijk 10","city":"Baarn","operatorName":"DAEN Mobility","maxPowerKw":22,"isMegawatt":false,"status":"AVAILABLE","source":"ndw","priceKwh":0.28}},{"type":"Feature","geometry":{"type":"Point","coordinates":[5.312141,52.220449]},"properties":{"type":"charge","layer":"passenger","locationId":"6995acc1d12fb78cc2a3f30d","name":"Arwout Beukers 's station","address":"zuidereind  19a","city":"Baarn","operatorName":"E-Flux by Road","maxPowerKw":11,"isMegawatt":false,"status":"CHARGING","source":"ndw","priceKwh":0.43}},{"type":"Feature","geometry":{"type":"Point","coordinates":[5.263826,52.222842]},"properties":{"type":"charge","layer":"passenger","locationId":"b50a8981bafd2bba72722325758d75d6","name":"Hermesweg 13","address":"Hermesweg 13","city":"Baarn","operatorName":"Vattenfall InCharge","maxPowerKw":22,"isMegawatt":false,"status":"AVAILABLE","source":"ndw","priceKwh":0.44}},{"type":"Feature","geometry":{"type":"Point","coordinates":[5.246394,52.196455]},"properties":{"type":"charge","layer":"passenger","locationId":"2652162","name":"Laadnet Kampeerterrein De Zeven Linden","address":"Zevenlindenweg 4","city":"Baarn","operatorName":"Laadnet","maxPowerKw":22,"isMegawatt":false,"status":"AVAILABLE","source":"ndw"}},{"type":"Feature","geometry":{"type":"Point","coordinates":[5.294818,52.20583]},"properties":{"type":"charge","layer":"passenger","locationId":"ABBD9FDD-2AB8-4422-980D-572799B4B165","name":"TNLP009951 - Meester de Groothof 12, Baarn","address":"12 Meester de Groothof","city":"Baarn","operatorName":"TotalEnergies","maxPowerKw":17,"isMegawatt":false,"status":"UNAVAILABLE","source":"ndw"}},{"type":"Feature","geometry":{"type":"Point","coordinates":[5.279672,52.210203]},"properties":{"type":"charge","layer":"passenger","locationId":"62e7a69285bfd83793c2cd77","name":"ETL BNA Accountants en Adviseurs B.V.","address":"Oude Utrechtseweg 28","city":"BAARN","operatorName":"E-Flux by Road","maxPowerKw":22,"isMegawatt":false,"status":"AVAILABLE","source":"ndw","priceKwh":0.78}},{"type":"Feature","geometry":{"type":"Point","coordinates":[5.301741,52.201351]},"properties":{"type":"charge","layer":"passenger","locationId":"07364221aa05b304f8199473164ee93e","name":"Koekoeksbloemlaan 44","address":"Koekoeksbloemlaan 44","city":"Baarn","operatorName":"Vattenfall InCharge","maxPowerKw":11,"isMegawatt":false,"status":"AVAILABLE","source":"ndw","priceKwh":0.2805}},{"type":"Feature","geometry":{"type":"Point","coordinates":[5.290566,52.202988]},"properties":{"type":"charge","layer":"passenger","locationId":"894AB4CD-EB7A-4B20-97BE-E7B9F16D3E35","name":"TNLP005856 - Wijkamplaan 69 T1, Baarn","address":"69 T1 Wijkamplaan","city":"Baarn","operatorName":"TotalEnergies","maxPowerKw":11,"isMegawatt":false,"status":"UNAVAILABLE","source":"ndw"}},{"type":"Feature","geometry":{"type":"Point","coordinates":[5.285032,52.211547]},"properties":{"type":"charge","layer":"passenger","locationId":"91108902","name":"50five-S NL 07003325","address":"Leestraat 30","city":"Baarn","operatorName":"50five","maxPowerKw":11,"isMegawatt":false,"status":"AVAILABLE","source":"ndw"}},{"type":"Feature","geometry":{"type":"Point","coordinates":[5.277004,52.22085]},"properties":{"type":"charge","layer":"passenger","locationId":"223AF015-EF1A-4D29-AB61-0EE8D3FA771E","name":"PP005095 - Prof. Fockema Andreaelaan 59, Baarn","address":"59 Prof. Fockema Andreaelaan","city":"Baarn","operatorName":"TotalEnergies","maxPowerKw":17,"isMegawatt":false,"status":"AVAILABLE","source":"ndw"}},{"type":"Feature","geometry":{"type":"Point","coordinates":[5.29755,52.210518]},"properties":{"type":"charge","layer":"passenger","locationId":"02DBA945-1A71-4657-A1CD-994295FC5BEA","name":"TNLP008616 - Cantonlaan 14, Baarn","address":"14 Cantonlaan","city":"Baarn","operatorName":"TotalEnergies","maxPowerKw":13,"isMegawatt":false,"status":"UNAVAILABLE","source":"ndw"}},{"type":"Feature","geometry":{"type":"Point","coordinates":[5.224021,52.217604]},"properties":{"type":"charge","layer":"passenger","locationId":"4623","name":"Van Leeuwen Dr.A.Schweitzerweg 1","address":"Dr.A.Schweitzerweg 1","city":"Baarn","operatorName":"Van Leeuwen","maxPowerKw":11,"isMegawatt":false,"status":"AVAILABLE","source":"ndw"}},{"type":"Feature","geometry":{"type":"Point","coordinates":[5.278743,52.217194]},"properties":{"type":"charge","layer":"passenger","locationId":"630E4408-175B-4BE8-A7C8-9C45328CFE96","name":"TNLP009336 - Nachtegaallaan 27, Baarn","address":"27 Nachtegaallaan","city":"Baarn","operatorName":"TotalEnergies","maxPowerKw":17,"isMegawatt":false,"status":"CHARGING","source":"ndw"}},{"type":"Feature","geometry":{"type":"Point","coordinates":[5.300664,52.218519]},"properties":{"type":"charge","layer":"passenger","locationId":"923045","name":"P03 DAE_NL_2000854","address":"Baarnsche Dijk 10","city":"Baarn","operatorName":"DAEN Mobility","maxPowerKw":22,"isMegawatt":false,"status":"AVAILABLE","source":"ndw","priceKwh":0.28}},{"type":"Feature","geometry":{"type":"Point","coordinates":[5.300664,52.218519]},"properties":{"type":"charge","layer":"passenger","locationId":"923317","name":"P10 DAE_NL_2001160","address":"Baarnsche Dijk 10","city":"Baarn","operatorName":"DAEN Mobility","maxPowerKw":11,"isMegawatt":false,"status":"AVAILABLE","source":"ndw","priceKwh":0.28}},{"type":"Feature","geometry":{"type":"Point","coordinates":[5.283699,52.219082]},"properties":{"type":"charge","layer":"passenger","locationId":"623b5985ab3deb094aaa4290","name":"ALVI laadstation","address":"Jufferlaan 6","city":"Blaricum","operatorName":"E-Flux by Road","maxPowerKw":11,"isMegawatt":false,"status":"AVAILABLE","source":"ndw","priceKwh":0.83}},{"type":"Feature","geometry":{"type":"Point","coordinates":[5.258414,52.222256]},"properties":{"type":"charge","layer":"passenger","locationId":"3650871","name":"Laadnet Breunesse ICT","address":"Hermesweg 2b1","city":"Baarn","operatorName":"Laadnet","maxPowerKw":22,"isMegawatt":false,"status":"AVAILABLE","source":"ndw"}},{"type":"Feature","geometry":{"type":"Point","coordinates":[5.282219,52.210182]},"properties":{"type":"charge","layer":"passenger","locationId":"EE6CA8B0-4E13-47DE-979C-448761886A1E","name":"TNLP008645 - Amalialaan 32, Baarn","address":"32 Amalialaan","city":"Baarn","operatorName":"TotalEnergies","maxPowerKw":13,"isMegawatt":false,"status":"AVAILABLE","source":"ndw"}},{"type":"Feature","geometry":{"type":"Point","coordinates":[5.282958,52.211296]},"properties":{"type":"charge","layer":"passenger","locationId":"B7573BD5-DD16-46CE-9CCB-239F0E8513F9","name":"PP005570 - Oude Utrechtseweg 2, Baarn","address":"2 Oude Utrechtseweg","city":"Baarn","operatorName":"TotalEnergies","maxPowerKw":11,"isMegawatt":false,"status":"AVAILABLE","source":"ndw"}},{"type":"Feature","geometry":{"type":"Point","coordinates":[5.300664,52.218519]},"properties":{"type":"charge","layer":"passenger","locationId":"923314","name":"P07 DAE_NL_2001157","address":"Baarnsche Dijk 10","city":"Baarn","operatorName":"DAEN Mobility","maxPowerKw":11,"isMegawatt":false,"status":"AVAILABLE","source":"ndw","priceKwh":0.28}},{"type":"Feature","geometry":{"type":"Point","coordinates":[5.286009,52.214126]},"properties":{"type":"charge","layer":"passenger","locationId":"D48DB7CC-E515-45E0-96DC-264D6E5CA772","name":"Eneco eMobility Albert Heijn - Eemnesserweg 40","address":"Eemnesserweg 40","city":"Baarn","operatorName":"Eneco","maxPowerKw":50,"isMegawatt":false,"status":"CHARGING","source":"ndw","priceKwh":0.62}},{"type":"Feature","geometry":{"type":"Point","coordinates":[5.268338,52.21723]},"properties":{"type":"charge","layer":"passenger","locationId":"166CA8E0-4C1E-4D1A-B886-774038A9809C","name":"PP005206 - Ypendael 24, Baarn","address":"24 Ypendael","city":"Baarn","operatorName":"TotalEnergies","maxPowerKw":11,"isMegawatt":false,"status":"AVAILABLE","source":"ndw"}},{"type":"Feature","geometry":{"type":"Point","coordinates":[5.300664,52.218519]},"properties":{"type":"charge","layer":"passenger","locationId":"923319","name":"P12_DAE_NL_2001162","address":"Baarnsche Dijk 10","city":"Baarn","operatorName":"DAEN Mobility","maxPowerKw":11,"isMegawatt":false,"status":"AVAILABLE","source":"ndw","priceKwh":0.28}},{"type":"Feature","geometry":{"type":"Point","coordinates":[5.300664,52.218519]},"properties":{"type":"charge","layer":"passenger","locationId":"923047","name":"P05 DAE_NL_2000856","address":"Baarnsche Dijk 10","city":"Baarn","operatorName":"DAEN Mobility","maxPowerKw":22,"isMegawatt":false,"status":"AVAILABLE","source":"ndw","priceKwh":0.28}},{"type":"Feature","geometry":{"type":"Point","coordinates":[5.293825,52.212813]},"properties":{"type":"charge","layer":"passenger","locationId":"91056002","name":"50five-S NL 17B07723","address":"Burgemeester Penstraat 12","city":"Baarn","operatorName":"50five","maxPowerKw":11,"isMegawatt":false,"status":"AVAILABLE","source":"ndw"}},{"type":"Feature","geometry":{"type":"Point","coordinates":[5.316268,52.225266]},"properties":{"type":"charge","layer":"passenger","locationId":"6513ccf435d3300021cee241","name":"NBSS-01","address":"Zuidereind 5","city":"Baarn","operatorName":"Lanova Laadpalen","maxPowerKw":22,"isMegawatt":false,"status":"AVAILABLE","source":"ndw","priceKwh":0.58}},{"type":"Feature","geometry":{"type":"Point","coordinates":[5.298945,52.209393]},"properties":{"type":"charge","layer":"passenger","locationId":"231ab0ba-3cbb-4a4f-a8b6-bd1effd6291b","name":"PP001347 - Heemskerklaan 54, Baarn","address":"54 Heemskerklaan","city":"Baarn","operatorName":"TotalEnergies","maxPowerKw":11,"isMegawatt":false,"status":"UNAVAILABLE","source":"ndw"}},{"type":"Feature","geometry":{"type":"Point","coordinates":[5.290497,52.203823]},"properties":{"type":"charge","layer":"passenger","locationId":"91063525","name":"50five-S NL 07003895","address":"Torenlaan 61","city":"Baarn","operatorName":"50five","maxPowerKw":11,"isMegawatt":false,"status":"UNAVAILABLE","source":"ndw"}},{"type":"Feature","geometry":{"type":"Point","coordinates":[5.268267,52.211149]},"properties":{"type":"charge","layer":"passenger","locationId":"64b14aa70763fc001c0e5864","name":"BEMANA","address":"Amsterdamsestraatweg 41","city":"Baarn","operatorName":"E-Flux by Road","maxPowerKw":14,"isMegawatt":false,"status":"AVAILABLE","source":"ndw","priceKwh":0.52}},{"type":"Feature","geometry":{"type":"Point","coordinates":[5.294874,52.208576]},"properties":{"type":"charge","layer":"passenger","locationId":"7EB3E4B5-177B-45DA-B40F-847CAA5792A7","name":"TNLP008998 - Javalaan 20, Baarn","address":"20 Javalaan","city":"Baarn","operatorName":"TotalEnergies","maxPowerKw":14,"isMegawatt":false,"status":"AVAILABLE","source":"ndw"}},{"type":"Feature","geometry":{"type":"Point","coordinates":[5.280749,52.2167]},"properties":{"type":"charge","layer":"passenger","locationId":"6B9848C0-E0B2-4563-B8A1-AE5A3D366697","name":"TNLP009940 - Santhof 1, Baarn","address":"1 Santhof","city":"Baarn","operatorName":"TotalEnergies","maxPowerKw":17,"isMegawatt":false,"status":"AVAILABLE","source":"ndw"}},{"type":"Feature","geometry":{"type":"Point","coordinates":[5.302757,52.201996]},"properties":{"type":"charge","layer":"passenger","locationId":"85CA8377-7064-41E9-89C9-35A33AD6AC7F","name":"TNLP009552 - Koekoeksbloemlaan 66, Baarn","address":"66 Koekoeksbloemlaan","city":"Baarn","operatorName":"TotalEnergies","maxPowerKw":17,"isMegawatt":false,"status":"UNAVAILABLE","source":"ndw"}},{"type":"Feature","geometry":{"type":"Point","coordinates":[5.29433,52.215218]},"properties":{"type":"charge","layer":"passenger","locationId":"908cbf78-bf1a-4467-bcba-d7710d2c0132","name":"PP001340 - Rembrandtlaan 35, Baarn","address":"35 Rembrandtlaan","city":"Baarn","operatorName":"TotalEnergies","maxPowerKw":11,"isMegawatt":false,"status":"UNAVAILABLE","source":"ndw"}},{"type":"Feature","geometry":{"type":"Point","coordinates":[5.301729,52.204174]},"properties":{"type":"charge","layer":"passenger","locationId":"02BC993D-750D-4A2B-A437-28B8543C4979","name":"TNLP009935 - De Aak 21, Baarn","address":"21 De Aak","city":"Baarn","operatorName":"TotalEnergies","maxPowerKw":17,"isMegawatt":false,"status":"AVAILABLE","source":"ndw"}},{"type":"Feature","geometry":{"type":"Point","coordinates":[5.246128,52.224462]},"properties":{"type":"charge","layer":"passenger","locationId":"6390f44b7fb03e0012ea54ce","name":"Oud Eemnesserweg 5J Zuid","address":"Oud Eemnesserweg 5J","city":"Baarn","operatorName":"E-Flux by Road","maxPowerKw":22,"isMegawatt":false,"status":"UNAVAILABLE","source":"ndw","priceKwh":0.23}},{"type":"Feature","geometry":{"type":"Point","coordinates":[5.300664,52.218519]},"properties":{"type":"charge","layer":"passenger","locationId":"923316","name":"P09 DAE_NL_2001159","address":"Baarnsche Dijk 10","city":"Baarn","operatorName":"DAEN Mobility","maxPowerKw":11,"isMegawatt":false,"status":"AVAILABLE","source":"ndw","priceKwh":0.28}},{"type":"Feature","geometry":{"type":"Point","coordinates":[5.289532,52.219444]},"properties":{"type":"charge","layer":"passenger","locationId":"48E806E0-C1DA-4385-B346-05E239D5E896","name":"TNLP009938 - Schaepmanlaan 136, Baarn","address":"136 Schaepmanlaan","city":"Baarn","operatorName":"TotalEnergies","maxPowerKw":17,"isMegawatt":false,"status":"AVAILABLE","source":"ndw"}},{"type":"Feature","geometry":{"type":"Point","coordinates":[5.291921,52.215066]},"properties":{"type":"charge","layer":"passenger","locationId":"65cca2c911f14d001c1a4c55","name":"Solar Plekje - Altijd verbonden","address":"Veldheimweg 22","city":"Baarn","operatorName":"E-Flux by Road","maxPowerKw":22,"isMegawatt":false,"status":"AVAILABLE","source":"ndw","priceKwh":0.78}},{"type":"Feature","geometry":{"type":"Point","coordinates":[5.281158,52.22086]},"properties":{"type":"charge","layer":"passenger","locationId":"F58A4F84-9F61-4967-86EA-4ABF573B042F","name":"TNLP015297 - Professor Kranenburglaan 24, Baarn","address":"24 Professor Kranenburglaan","city":"Baarn","operatorName":"TotalEnergies","maxPowerKw":17,"isMegawatt":false,"status":"AVAILABLE","source":"ndw"}},{"type":"Feature","geometry":{"type":"Point","coordinates":[5.303703,52.207584]},"properties":{"type":"charge","layer":"passenger","locationId":"AED21DBD-BC31-48A0-B1AC-4BA04A543074","name":"TNLP006883 - De Logger 2, Baarn","address":"2 De Logger","city":"Baarn","operatorName":"TotalEnergies","maxPowerKw":17,"isMegawatt":false,"status":"AVAILABLE","source":"ndw"}},{"type":"Feature","geometry":{"type":"Point","coordinates":[5.292788,52.211895]},"properties":{"type":"charge","layer":"passenger","locationId":"4A17FAFA-9BDD-4846-88D8-25605C5373B1","name":"TNLP008442 - Brink 20, Baarn","address":"20 Brink","city":"Baarn","operatorName":"TotalEnergies","maxPowerKw":13,"isMegawatt":false,"status":"AVAILABLE","source":"ndw"}},{"type":"Feature","geometry":{"type":"Point","coordinates":[5.296232,52.20365]},"properties":{"type":"charge","layer":"passenger","locationId":"139645AD-154D-49C8-AE91-A52899947723","name":"TNLP006856 - Kemphaanstraat 31, Baarn","address":"31 Kemphaanstraat","city":"Baarn","operatorName":"TotalEnergies","maxPowerKw":17,"isMegawatt":false,"status":"UNAVAILABLE","source":"ndw"}},{"type":"Feature","geometry":{"type":"Point","coordinates":[5.269664,52.219658]},"properties":{"type":"charge","layer":"passenger","locationId":"86D1DA0F-A87A-45F4-9634-6E00FA9A1D72","name":"TNLP007433 - Bernard Zweerslaan 9, Baarn","address":"9 Bernard Zweerslaan","city":"Baarn","operatorName":"TotalEnergies","maxPowerKw":17,"isMegawatt":false,"status":"AVAILABLE","source":"ndw"}},{"type":"Feature","geometry":{"type":"Point","coordinates":[5.288366,52.21104]},"properties":{"type":"charge","layer":"passenger","locationId":"8F8026DC-24A6-45B8-9491-E8802F23E39B","name":"TNLP009932 - Parkstraat 18, Baarn","address":"18 Parkstraat","city":"Baarn","operatorName":"TotalEnergies","maxPowerKw":17,"isMegawatt":false,"status":"AVAILABLE","source":"ndw"}},{"type":"Feature","geometry":{"type":"Point","coordinates":[5.293695,52.217678]},"properties":{"type":"charge","layer":"passenger","locationId":"961534F5-D673-40C7-BA34-1503F1B53BC1","name":"TNLP034164 - Israëlsstraat 25, Baarn","address":"25 Israëlsstraat","city":"Baarn","operatorName":"TotalEnergies","maxPowerKw":13,"isMegawatt":false,"status":"AVAILABLE","source":"ndw"}},{"type":"Feature","geometry":{"type":"Point","coordinates":[5.29166,52.21103]},"properties":{"type":"charge","layer":"passenger","locationId":"9DD3BA3B-0DA9-4054-B6D9-AB0D98588404","name":"PP002575 - Stationsweg 18, Baarn","address":"18 Stationsweg","city":"Baarn","operatorName":"TotalEnergies","maxPowerKw":13,"isMegawatt":false,"status":"CHARGING","source":"ndw"}},{"type":"Feature","geometry":{"type":"Point","coordinates":[5.288746,52.217476]},"properties":{"type":"charge","layer":"passenger","locationId":"0CDC2C56-723E-4F54-9910-D238A68085D1","name":"PP005436 - Colijnlaan 5, Baarn","address":"5 Colijnlaan","city":"Baarn","operatorName":"TotalEnergies","maxPowerKw":11,"isMegawatt":false,"status":"CHARGING","source":"ndw"}},{"type":"Feature","geometry":{"type":"Point","coordinates":[5.300664,52.218519]},"properties":{"type":"charge","layer":"passenger","locationId":"923043","name":"P01 DAE_NL_2000852","address":"Baarnsche Dijk 10","city":"Baarn","operatorName":"DAEN Mobility","maxPowerKw":22,"isMegawatt":false,"status":"AVAILABLE","source":"ndw","priceKwh":0.28}},{"type":"Feature","geometry":{"type":"Point","coordinates":[5.299661,52.206913]},"properties":{"type":"charge","layer":"passenger","locationId":"E8F08CB0-50B1-4652-911B-561BAB43E169","name":"TNLP034346 - Margrietstraat 21, Baarn","address":"21 Margrietstraat","city":"Baarn","operatorName":"TotalEnergies","maxPowerKw":13,"isMegawatt":false,"status":"UNAVAILABLE","source":"ndw"}},{"type":"Feature","geometry":{"type":"Point","coordinates":[5.22124,52.1781]},"properties":{"type":"charge","layer":"passenger","locationId":"CD883562-20E0-4BA3-B196-A3FC6D0595B4","name":"PP002574 - Koudelaan 1b, Lage Vuursche","address":"1b Koudelaan","city":"Lage Vuursche","operatorName":"TotalEnergies","maxPowerKw":13,"isMegawatt":false,"status":"CHARGING","source":"ndw"}},{"type":"Feature","geometry":{"type":"Point","coordinates":[5.305585,52.21087]},"properties":{"type":"charge","layer":"passenger","locationId":"3B6CF954-FD90-492D-9F0D-646DF493C48F","name":"TNLP007216 - Floriszlaan 24, Baarn","address":"24 Floriszlaan","city":"Baarn","operatorName":"TotalEnergies","maxPowerKw":17,"isMegawatt":false,"status":"AVAILABLE","source":"ndw"}},{"type":"Feature","geometry":{"type":"Point","coordinates":[5.312122,52.220454]},"properties":{"type":"charge","layer":"passenger","locationId":"6995ac6c14779a0ac071910a","name":"Arwout Beukers 's station","address":"zuidereind  19a","city":"Baarn","operatorName":"E-Flux by Road","maxPowerKw":11,"isMegawatt":false,"status":"AVAILABLE","source":"ndw","priceKwh":0.38}},{"type":"Feature","geometry":{"type":"Point","coordinates":[5.304015,52.217312]},"properties":{"type":"charge","layer":"passenger","locationId":"60e817a4f3f34246bc99f5fc","name":"Baarnsche Dijk 4D, Baarn (business centrum gooi)","address":"Baarnsche Dijk 4D","city":"Baarn","operatorName":"E-Flux by Road","maxPowerKw":22,"isMegawatt":false,"status":"AVAILABLE","source":"ndw","priceKwh":0.82}},{"type":"Feature","geometry":{"type":"Point","coordinates":[5.296873,52.200226]},"properties":{"type":"charge","layer":"passenger","locationId":"AE94B9AF-EB49-4DEB-A72A-6F5C9D16EFE6","name":"TNLP006547 - Lepelaarstraat 20, Baarn","address":"20 Lepelaarstraat","city":"Baarn","operatorName":"TotalEnergies","maxPowerKw":17,"isMegawatt":false,"status":"UNAVAILABLE","source":"ndw"}},{"type":"Feature","geometry":{"type":"Point","coordinates":[5.267462,52.212246]},"properties":{"type":"charge","layer":"passenger","locationId":"89274120","name":"Van Leeuwen Amsterdamsestraatweg 47","address":"Amsterdamsestraatweg 47","city":"Baarn","operatorName":"Van Leeuwen","maxPowerKw":22,"isMegawatt":false,"status":"AVAILABLE","source":"ndw"}},{"type":"Feature","geometry":{"type":"Point","coordinates":[5.266669,52.222263]},"properties":{"type":"charge","layer":"passenger","locationId":"69fc940f4a25e67de251c26b","name":"Heinen Beheer BV","address":"Hermesweg 18","city":"Baarn","operatorName":"E-Flux by Road","maxPowerKw":14,"isMegawatt":false,"status":"AVAILABLE","source":"ndw","priceKwh":0.55}},{"type":"Feature","geometry":{"type":"Point","coordinates":[5.301948,52.20534]},"properties":{"type":"charge","layer":"passenger","locationId":"96E09C9C-3441-434C-AAB8-633C8313991F","name":"PP001166 - Het Galjoen 33, Baarn","address":"33 Het Galjoen","city":"Baarn","operatorName":"TotalEnergies","maxPowerKw":11,"isMegawatt":false,"status":"AVAILABLE","source":"ndw"}},{"type":"Feature","geometry":{"type":"Point","coordinates":[5.282285,52.21857]},"properties":{"type":"charge","layer":"passenger","locationId":"D26EA2D6-C2F0-49F4-A2DC-E2FAF7AC8723","name":"TNLP008636 - Professor Krabbelaan 1, Baarn","address":"1 Professor Krabbelaan","city":"Baarn","operatorName":"TotalEnergies","maxPowerKw":13,"isMegawatt":false,"status":"AVAILABLE","source":"ndw"}},{"type":"Feature","geometry":{"type":"MultiPolygon","coordinates":[[[[5.335263884880561,52.226311453131615],[5.334323786845675,52.22012390525421],[5.330541637849066,52.21473250026353],[5.3278823066071155,52.20935082768185],[5.330691976757549,52.20338560905131],[5.3142822056513115,52.20302349265915],[5.313626044922806,52.20421993764007],[5.31218364408267,52.2042455871759],[5.310664549075889,52.203484574475624],[5.308791978423863,52.20454935291548],[5.304017934865207,52.20001143736911],[5.297266721698095,52.197557975134536],[5.297119376013651,52.19750469856947],[5.2824989556865525,52.192074909343916],[5.2823351269113825,52.19286170885897],[5.281582975158751,52.19260917960677],[5.270215499566841,52.18852626143611],[5.262080715739358,52.18393929293777],[5.2572301851339835,52.18087045912934],[5.249259746914882,52.17573067902918],[5.246956651755834,52.174226391796815],[5.2431724698073,52.170076981348714],[5.239041138473208,52.16762280954821],[5.2383596242746036,52.16777525108792],[5.237900557131158,52.17125147794284],[5.235985233844587,52.171099892733615],[5.236315603264589,52.1674587853018],[5.224998607395888,52.16570011635646],[5.223888998044544,52.165380077698046],[5.222701468450234,52.17468772031349],[5.221218623118869,52.17457187473967],[5.221120365943579,52.17637288136626],[5.220994813959019,52.178261075333786],[5.21413138188635,52.176674591228945],[5.212075383482923,52.17637451170455],[5.2160027292047495,52.18806152417253],[5.215046378162149,52.18875445147232],[5.213253948765507,52.19008249411766],[5.214109818428954,52.19916105733456],[5.2163007911314505,52.203042157265635],[5.215500636424269,52.20427411463778],[5.216529215154798,52.20545142567359],[5.217213995078407,52.20623347701147],[5.2164864902917705,52.20636749730199],[5.218960254256933,52.21212940747323],[5.2205774393353135,52.21597205799896],[5.22473020042936,52.22519776730182],[5.2326330835619475,52.22498916722568],[5.254167286047286,52.22444594640703],[5.255589341532973,52.22441395744871],[5.255725579672227,52.22441126363331],[5.270572560482946,52.2240071717686],[5.283107099450136,52.223541037522146],[5.287574681828678,52.22288325559039],[5.288803507564134,52.22299329723715],[5.294168403408736,52.22354588232862],[5.300969724821716,52.223525059715385],[5.302721673969992,52.22237214514101],[5.302654370776342,52.22148226635335],[5.306444211676269,52.21946004369295],[5.313158099155882,52.221952063242426],[5.314613257248008,52.22453607483996],[5.313128784974558,52.22564979423442],[5.312617530197702,52.225289771630294],[5.313403922598905,52.22470270558663],[5.311207195089187,52.224568248555286],[5.310079684861622,52.22596484309751],[5.310649519897819,52.226227990134056],[5.3115939121791405,52.226508595336654],[5.310642657261601,52.227592046580334],[5.307400879937246,52.22919078141612],[5.30661168595693,52.23026866464862],[5.307683021013354,52.2315972835994],[5.309767780277088,52.232186800984444],[5.312278190105686,52.232829592798026],[5.319756540182373,52.231002206281595],[5.335541501225918,52.228452786923896],[5.335263884880561,52.226311453131615]]]]},"properties":{"type":"boundary","gemeente":"Baarn","code":"GM0308"}}]}