{"type":"FeatureCollection","metadata":{"gemeente":"Barendrecht","slug":"barendrecht","code":"GM0489","generated_at":"2026-08-08T12:05:52.020Z","total_passenger":139,"total_freight":2,"bounds":[4.47987197601205,51.82985416091593,4.571386499872645,51.87402715325783],"operators":["50five","Allego","Alva Charging Services","E-Flux by Road","E.ON Drive","Electra","Eneco","Laadnet","Lidl","NRG Mobility","Opcharge","Shell Recharge","Spirii","Van Leeuwen","Vattenfall InCharge","bp pulse"]},"features":[{"type":"Feature","geometry":{"type":"Point","coordinates":[4.498607,51.86131]},"properties":{"type":"charge","layer":"passenger","locationId":"NLLOC003028","name":"NLD, Gemeente Barendrecht, Sandelhout 1 2994HP Barendrecht","address":"Sandelhout 1","city":"Barendrecht","operatorName":"Allego","maxPowerKw":11,"isMegawatt":false,"status":"AVAILABLE","source":"ndw","priceKwh":0.511}},{"type":"Feature","geometry":{"type":"Point","coordinates":[4.548127,51.864551]},"properties":{"type":"charge","layer":"passenger","locationId":"NL_ELD_PBARDB","name":"Electra Barendrecht - Restaurant De Beren","address":"Lorentzweg 26","city":"Barendrecht","operatorName":"Electra","maxPowerKw":150,"isMegawatt":false,"status":"AVAILABLE","source":"ndw","priceKwh":0.5702}},{"type":"Feature","geometry":{"type":"Point","coordinates":[4.498648,51.847716]},"properties":{"type":"charge","layer":"passenger","locationId":"89479606","name":"50five Carnisseveste","address":"Van Beuningenhaven 1-44","city":"Barendrecht","operatorName":"50five","maxPowerKw":11,"isMegawatt":false,"status":"AVAILABLE","source":"ndw"}},{"type":"Feature","geometry":{"type":"Point","coordinates":[4.54834,51.860979]},"properties":{"type":"charge","layer":"passenger","locationId":"89422220","name":"Van Leeuwen Van der Velden","address":"Zweth 34","city":"Barendrecht","operatorName":"Van Leeuwen","maxPowerKw":300,"isMegawatt":false,"status":"AVAILABLE","source":"ndw"}},{"type":"Feature","geometry":{"type":"Point","coordinates":[4.52217,51.86362]},"properties":{"type":"charge","layer":"passenger","locationId":"B3224910-7675-43D4-BEAE-ACEFDFB560E0","name":"Eneco eMobility Bijdorp-Oost 5 Barendrecht","address":"Bijdorp-Oost 5","city":"Barendrecht","operatorName":"Eneco","maxPowerKw":22,"isMegawatt":false,"status":"AVAILABLE","source":"ndw","priceKwh":0.32}},{"type":"Feature","geometry":{"type":"Point","coordinates":[4.544212,51.870622]},"properties":{"type":"charge","layer":"passenger","locationId":"885a9369686240618c8f20cf02aaa9de","name":"Mobilis Barendrecht","address":"Van 't Hofstraat 39","city":"Barendrecht","operatorName":"","maxPowerKw":11,"isMegawatt":false,"status":"AVAILABLE","source":"ndw","priceKwh":0.6}},{"type":"Feature","geometry":{"type":"Point","coordinates":[4.546138,51.868294]},"properties":{"type":"charge","layer":"passenger","locationId":"5053","name":"Shell Recharge NL9216 - karwei Barendrecht-Reijerwaard","address":"Lorentzweg 4","city":"Barendrecht","operatorName":"Shell Recharge","maxPowerKw":150,"isMegawatt":false,"status":"AVAILABLE","source":"ndw","priceKwh":0.7025}},{"type":"Feature","geometry":{"type":"Point","coordinates":[4.499364,51.850463]},"properties":{"type":"charge","layer":"passenger","locationId":"NLLOC001739","name":"NLD, Barendrecht, Avenue Carnisse 9","address":"Avenue Carnisse 9","city":"Barendrecht","operatorName":"Allego","maxPowerKw":11,"isMegawatt":false,"status":"AVAILABLE","source":"ndw","priceKwh":0.511}},{"type":"Feature","geometry":{"type":"Point","coordinates":[4.508886,51.849045]},"properties":{"type":"charge","layer":"passenger","locationId":"512","name":"Shell Recharge NL9215 - Karwei Barendrecht","address":"Rostock 3","city":"Barendrecht","operatorName":"Shell Recharge","maxPowerKw":150,"isMegawatt":false,"status":"AVAILABLE","source":"ndw","priceKwh":0.7025}},{"type":"Feature","geometry":{"type":"Point","coordinates":[4.509488,51.845218]},"properties":{"type":"charge","layer":"passenger","locationId":"32432","name":"Circle K De Boom","address":"Londen 1","city":"Barendrecht","operatorName":"Spirii","maxPowerKw":175,"isMegawatt":false,"status":"AVAILABLE","source":"ndw","priceKwh":0.65}},{"type":"Feature","geometry":{"type":"Point","coordinates":[4.548291,51.869632]},"properties":{"type":"charge","layer":"passenger","locationId":"9b5620ba-5f22-4f3b-99c4-f66a156a54c8","name":"Van der Waalsweg","address":"Van der Waalsweg 21","city":"Barendrecht","operatorName":"Vattenfall InCharge","maxPowerKw":50,"isMegawatt":false,"status":"AVAILABLE","source":"ndw","priceKwh":0.46}},{"type":"Feature","geometry":{"type":"Point","coordinates":[4.538407,51.843801]},"properties":{"type":"charge","layer":"passenger","locationId":"NLLOC003759","name":"NLD, Kraaijeveldleede 2 2991 WK Barendrecht","address":"Kraaijeveldleede 1","city":"Barendrecht","operatorName":"Allego","maxPowerKw":11,"isMegawatt":false,"status":"AVAILABLE","source":"ndw","priceKwh":0.511}},{"type":"Feature","geometry":{"type":"Point","coordinates":[4.50229,51.860712]},"properties":{"type":"charge","layer":"passenger","locationId":"NLLOC001815","name":"NLD, Barendrecht, Avenue Carre 65","address":"Avenue Carre 65","city":"Barendrecht","operatorName":"Allego","maxPowerKw":11,"isMegawatt":false,"status":"AVAILABLE","source":"ndw","priceKwh":0.511}},{"type":"Feature","geometry":{"type":"Point","coordinates":[4.546956,51.872397]},"properties":{"type":"charge","layer":"passenger","locationId":"edfc652e-755e-4a86-9bae-a7df5b69705a","name":"Lidl Barendrecht","address":"Pesetastraat 50","city":"Barendrecht","operatorName":"Lidl","maxPowerKw":50,"isMegawatt":false,"status":"AVAILABLE","source":"ndw"}},{"type":"Feature","geometry":{"type":"Point","coordinates":[4.548004,51.846019]},"properties":{"type":"charge","layer":"passenger","locationId":"NLLOC004156","name":"NLD Karveel 21 2911 DD Barendrecht","address":"Karveel 21","city":"Barendrecht","operatorName":"Allego","maxPowerKw":11,"isMegawatt":false,"status":"AVAILABLE","source":"ndw","priceKwh":0.511}},{"type":"Feature","geometry":{"type":"Point","coordinates":[4.512701,51.862409]},"properties":{"type":"charge","layer":"passenger","locationId":"4713ACDB-7754-4C08-9037-DC57E886880C","name":"Eneco eMobility Deventerseweg 16 Barendrecht","address":"Deventerseweg 16","city":"Barendrecht","operatorName":"Eneco","maxPowerKw":22,"isMegawatt":false,"status":"UNAVAILABLE","source":"ndw","priceKwh":0.32}},{"type":"Feature","geometry":{"type":"Point","coordinates":[4.501653,51.862663]},"properties":{"type":"charge","layer":"passenger","locationId":"91045544","name":"50five-S NL 17B20832","address":"Olijfhout 4","city":"Barendrecht","operatorName":"50five","maxPowerKw":6,"isMegawatt":false,"status":"AVAILABLE","source":"ndw"}},{"type":"Feature","geometry":{"type":"Point","coordinates":[4.492733,51.854427]},"properties":{"type":"charge","layer":"passenger","locationId":"91056307","name":"50five-S NL 17B13964","address":"Riederhagen 27","city":"Barendrecht","operatorName":"50five","maxPowerKw":12,"isMegawatt":false,"status":"AVAILABLE","source":"ndw"}},{"type":"Feature","geometry":{"type":"Point","coordinates":[4.533579,51.849508]},"properties":{"type":"charge","layer":"passenger","locationId":"NLLOC002017","name":"NLD, Barendrecht, Arent Maertensvliet 24","address":"Arent Maertensvliet 24","city":"Barendrecht","operatorName":"Allego","maxPowerKw":11,"isMegawatt":false,"status":"AVAILABLE","source":"ndw","priceKwh":0.511}},{"type":"Feature","geometry":{"type":"Point","coordinates":[4.51329,51.8543]},"properties":{"type":"charge","layer":"passenger","locationId":"ED43B449-001D-4B36-8A0E-265669EE6C7E","name":"Eneco eMobility Veiligheidsregio Rotterdam Rijnmond - Barendrecht","address":"Breslau 2","city":"Barendrecht","operatorName":"Eneco","maxPowerKw":22,"isMegawatt":false,"status":"AVAILABLE","source":"ndw","priceKwh":0.32}},{"type":"Feature","geometry":{"type":"Point","coordinates":[4.54625,51.87205]},"properties":{"type":"charge","layer":"passenger","locationId":"cd6bc56c3930454a94ebc1dd1d17223a","name":"DMG - Pesetastraat 2, Barendrecht Mandemakers Keukens ","address":"Pesetastraat 2","city":"Barendrecht","operatorName":"Opcharge","maxPowerKw":22,"isMegawatt":false,"status":"AVAILABLE","source":"ndw","priceKwh":0.49}},{"type":"Feature","geometry":{"type":"Point","coordinates":[4.52377,51.86339]},"properties":{"type":"charge","layer":"passenger","locationId":"3FD117AD-B9E3-4BE0-B9FA-ABFCA418173D","name":"Eneco eMobility Blijdorp-Oost 18 A Barendrecht","address":"Blijdorp-Oost 18 A","city":"Barendrecht","operatorName":"Eneco","maxPowerKw":22,"isMegawatt":false,"status":"AVAILABLE","source":"ndw","priceKwh":0.15}},{"type":"Feature","geometry":{"type":"Point","coordinates":[4.520981,51.849444]},"properties":{"type":"charge","layer":"passenger","locationId":"4032976","name":"Laadnet BKMZ","address":"Mozartstraat 56","city":"Barendrecht","operatorName":"Laadnet","maxPowerKw":11,"isMegawatt":false,"status":"AVAILABLE","source":"ndw"}},{"type":"Feature","geometry":{"type":"Point","coordinates":[4.527374,51.847045]},"properties":{"type":"charge","layer":"passenger","locationId":"91089608","name":"50five-S NL 07004964","address":"Catharinapolder 20","city":"Barendrecht","operatorName":"50five","maxPowerKw":11,"isMegawatt":false,"status":"CHARGING","source":"ndw"}},{"type":"Feature","geometry":{"type":"Point","coordinates":[4.522894,51.853227]},"properties":{"type":"charge","layer":"passenger","locationId":"NLLOC005871","name":"NLD, Harplaan 2 2992NC Barendrecht","address":"Harplaan 2","city":"Barendrecht","operatorName":"Allego","maxPowerKw":11,"isMegawatt":false,"status":"AVAILABLE","source":"ndw","priceKwh":0.511}},{"type":"Feature","geometry":{"type":"Point","coordinates":[4.545868,51.845665]},"properties":{"type":"charge","layer":"passenger","locationId":"NLLOC003897","name":"NLD, Gemeente Barendrecht, Boeier 1 2991KA Barendrecht","address":"Boeier 1","city":"Barendrecht","operatorName":"Allego","maxPowerKw":11,"isMegawatt":false,"status":"AVAILABLE","source":"ndw","priceKwh":0.511}},{"type":"Feature","geometry":{"type":"Point","coordinates":[4.551653,51.857205]},"properties":{"type":"charge","layer":"passenger","locationId":"91107221","name":"50five-S NL 09001294","address":"Zuideinde 80","city":"Barendrecht","operatorName":"50five","maxPowerKw":11,"isMegawatt":false,"status":"AVAILABLE","source":"ndw"}},{"type":"Feature","geometry":{"type":"Point","coordinates":[4.501404,51.850108]},"properties":{"type":"charge","layer":"passenger","locationId":"91276708","name":"50five-S NL 17B04996","address":"Zuidersingel 294","city":"Barendrecht","operatorName":"50five","maxPowerKw":11,"isMegawatt":false,"status":"AVAILABLE","source":"ndw"}},{"type":"Feature","geometry":{"type":"Point","coordinates":[4.562275,51.855137]},"properties":{"type":"charge","layer":"passenger","locationId":"2737","name":"E.ON Drive Public Netherlands Tankstation Berkman, Tuindersweg 36, Barendrecht","address":"Tuindersweg 36","city":"Barendrecht","operatorName":"E.ON Drive","maxPowerKw":300,"isMegawatt":false,"status":"AVAILABLE","source":"ndw","priceKwh":0.5703}},{"type":"Feature","geometry":{"type":"Point","coordinates":[4.523047,51.845851]},"properties":{"type":"charge","layer":"passenger","locationId":"NLLOC003381","name":"NLD, Gemeente Barendrecht, Adrianapolder 93 2992ZK Barendrecht","address":"Adrianapolder 93","city":"Barendrecht","operatorName":"Allego","maxPowerKw":11,"isMegawatt":false,"status":"AVAILABLE","source":"ndw","priceKwh":0.511}},{"type":"Feature","geometry":{"type":"Point","coordinates":[4.517437,51.861332]},"properties":{"type":"charge","layer":"passenger","locationId":"91299571","name":"50five-S NL Location","address":"bijdorpwest","city":"Barendrecht","operatorName":"50five","maxPowerKw":11,"isMegawatt":false,"status":"UNAVAILABLE","source":"ndw"}},{"type":"Feature","geometry":{"type":"Point","coordinates":[4.499685,51.856682]},"properties":{"type":"charge","layer":"passenger","locationId":"NLLOC002138","name":"NLD, Barendrecht, Grenenhout 19","address":"Grenenhout 19","city":"Barendrecht","operatorName":"Allego","maxPowerKw":11,"isMegawatt":false,"status":"AVAILABLE","source":"ndw","priceKwh":0.511}},{"type":"Feature","geometry":{"type":"Point","coordinates":[4.541698,51.845616]},"properties":{"type":"charge","layer":"passenger","locationId":"4190461","name":"Laadnet Schoener","address":"Schoener 111","city":"Barendrecht","operatorName":"Laadnet","maxPowerKw":4,"isMegawatt":false,"status":"UNAVAILABLE","source":"ndw"}},{"type":"Feature","geometry":{"type":"Point","coordinates":[4.51058,51.85205]},"properties":{"type":"charge","layer":"passenger","locationId":"7F5AF27B-BE35-4C15-A676-2BED78C87777","name":"Eneco eMobility Oslo 1 Barendrecht","address":"Oslo 1","city":"Barendrecht","operatorName":"Eneco","maxPowerKw":22,"isMegawatt":false,"status":"AVAILABLE","source":"ndw","priceKwh":0.6}},{"type":"Feature","geometry":{"type":"Point","coordinates":[4.53824,51.856905]},"properties":{"type":"charge","layer":"passenger","locationId":"NLLOC002492","name":"NLD, Gemeente Barendrecht, Binnenhof 1 2991AA Barendrecht","address":"Binnenhof 1","city":"Barendrecht","operatorName":"Allego","maxPowerKw":11,"isMegawatt":false,"status":"AVAILABLE","source":"ndw","priceKwh":0.511}},{"type":"Feature","geometry":{"type":"Point","coordinates":[4.494767,51.846955]},"properties":{"type":"charge","layer":"passenger","locationId":"NLLOC010436","name":"NL, Boelehaven 60, 2993 HE, Barendrecht","address":"Boelehaven 60","city":"Barendrecht","operatorName":"Allego","maxPowerKw":11,"isMegawatt":false,"status":"AVAILABLE","source":"ndw","priceKwh":0.511}},{"type":"Feature","geometry":{"type":"Point","coordinates":[4.54833,51.871677]},"properties":{"type":"charge","layer":"passenger","locationId":"9b9ac295-e033-4bee-b938-23d819dd1139","name":"bp pulse express Barendrecht #7","address":"Escudostraat 3","city":"Barendrecht","operatorName":"bp pulse","maxPowerKw":150,"isMegawatt":false,"status":"AVAILABLE","source":"ndw","priceKwh":0.7}},{"type":"Feature","geometry":{"type":"Point","coordinates":[4.550367,51.858242]},"properties":{"type":"charge","layer":"passenger","locationId":"89292173","name":"Van Leeuwen Priveterrein klant VD Heiden Systems","address":"Zuideinde 52","city":"Barendrecht","operatorName":"Van Leeuwen","maxPowerKw":11,"isMegawatt":false,"status":"AVAILABLE","source":"ndw"}},{"type":"Feature","geometry":{"type":"Point","coordinates":[4.520735,51.844958]},"properties":{"type":"charge","layer":"passenger","locationId":"75587129","name":"Van Leeuwen Augustapolder 70","address":"Augustapolder 70","city":"Barendrecht","operatorName":"Van Leeuwen","maxPowerKw":22,"isMegawatt":false,"status":"AVAILABLE","source":"ndw"}},{"type":"Feature","geometry":{"type":"Point","coordinates":[4.501208,51.847021]},"properties":{"type":"charge","layer":"passenger","locationId":"NLLOC007736","name":"NL, Haringwater 3, 2993 DH, Barendrecht","address":"Haringwater 3","city":"Barendrecht","operatorName":"Allego","maxPowerKw":11,"isMegawatt":false,"status":"AVAILABLE","source":"ndw","priceKwh":0.511}},{"type":"Feature","geometry":{"type":"Point","coordinates":[4.520828,51.856219]},"properties":{"type":"charge","layer":"passenger","locationId":"NLLOC001736","name":"NLD, Barendrecht, Koraallaan 12","address":"Koraallaan 12","city":"Barendrecht","operatorName":"Allego","maxPowerKw":22,"isMegawatt":false,"status":"AVAILABLE","source":"ndw","priceKwh":0.511}},{"type":"Feature","geometry":{"type":"Point","coordinates":[4.512528,51.854611]},"properties":{"type":"charge","layer":"passenger","locationId":"633fcc90fd1726329239eb5e","name":"Praxis Barendrecht MEGA","address":"Bergen 1","city":"Barendrecht","operatorName":"Alva Charging Services","maxPowerKw":50,"isMegawatt":false,"status":"AVAILABLE","source":"ndw","priceKwh":0.668}},{"type":"Feature","geometry":{"type":"Point","coordinates":[4.502545,51.849327]},"properties":{"type":"charge","layer":"passenger","locationId":"NLLOC011411","name":"NL, Reling 213, 2993DR, Barendrecht","address":"Reling 213","city":"Barendrecht","operatorName":"Allego","maxPowerKw":11,"isMegawatt":false,"status":"AVAILABLE","source":"ndw","priceKwh":0.511}},{"type":"Feature","geometry":{"type":"Point","coordinates":[4.52745,51.846028]},"properties":{"type":"charge","layer":"passenger","locationId":"91001170","name":"50five-S NL 54027","address":"Catharinapolder 2","city":"Barendrecht","operatorName":"50five","maxPowerKw":11,"isMegawatt":false,"status":"AVAILABLE","source":"ndw"}},{"type":"Feature","geometry":{"type":"Point","coordinates":[4.507308,51.850092]},"properties":{"type":"charge","layer":"passenger","locationId":"NLLOC002214","name":"NLD, Lauwersmeer 2, Barendrecht","address":"Lauwersmeer 2","city":"Barendrecht","operatorName":"Allego","maxPowerKw":11,"isMegawatt":false,"status":"AVAILABLE","source":"ndw","priceKwh":0.511}},{"type":"Feature","geometry":{"type":"Point","coordinates":[4.519693,51.862668]},"properties":{"type":"charge","layer":"passenger","locationId":"62067bdb422d492cd362ec1d","name":"Culi-Nova","address":"Bijdorp-west 73","city":"Barendrecht","operatorName":"E-Flux by Road","maxPowerKw":11,"isMegawatt":false,"status":"UNAVAILABLE","source":"ndw","priceKwh":0.53}},{"type":"Feature","geometry":{"type":"Point","coordinates":[4.54943,51.871856]},"properties":{"type":"charge","layer":"passenger","locationId":"91106113","name":"50five-S NL 09000952","address":"Escudostraat 2","city":"Barendrecht","operatorName":"50five","maxPowerKw":11,"isMegawatt":false,"status":"AVAILABLE","source":"ndw"}},{"type":"Feature","geometry":{"type":"Point","coordinates":[4.518669,51.862346]},"properties":{"type":"charge","layer":"passenger","locationId":"64ec7450be4c6f001c2d964b","name":"Ets Luxury Driving BV 1/2","address":"Bijdorp West  47","city":"Barendrecht","operatorName":"E-Flux by Road","maxPowerKw":11,"isMegawatt":false,"status":"AVAILABLE","source":"ndw","priceKwh":0.48}},{"type":"Feature","geometry":{"type":"Point","coordinates":[4.505067,51.862712]},"properties":{"type":"charge","layer":"passenger","locationId":"91069518","name":"50five-S NL 07112771","address":"Gazellenburg 62","city":"Barendrecht","operatorName":"50five","maxPowerKw":11,"isMegawatt":false,"status":"AVAILABLE","source":"ndw"}},{"type":"Feature","geometry":{"type":"Point","coordinates":[4.498939,51.85946]},"properties":{"type":"charge","layer":"passenger","locationId":"91045929","name":"50five-S NL 17B11011","address":"Sandelhout 39","city":"Barendrecht","operatorName":"50five","maxPowerKw":11,"isMegawatt":false,"status":"AVAILABLE","source":"ndw"}},{"type":"Feature","geometry":{"type":"Point","coordinates":[4.518669,51.862346]},"properties":{"type":"charge","layer":"passenger","locationId":"64ec70fcc0d985001ca7e189","name":"ETS Luxury Driving BV","address":"Bijdorp West  47","city":"Barendrecht","operatorName":"E-Flux by Road","maxPowerKw":22,"isMegawatt":false,"status":"AVAILABLE","source":"ndw","priceKwh":0.48}},{"type":"Feature","geometry":{"type":"Point","coordinates":[4.543496,51.852974]},"properties":{"type":"charge","layer":"passenger","locationId":"NLLOC009295","name":"NL, De Zeeg 19, 2991EH, Barendrecht","address":"De Zeeg 19","city":"Barendrecht","operatorName":"Allego","maxPowerKw":11,"isMegawatt":false,"status":"AVAILABLE","source":"ndw","priceKwh":0.511}},{"type":"Feature","geometry":{"type":"Point","coordinates":[4.526465,51.856134]},"properties":{"type":"charge","layer":"passenger","locationId":"NLLOC003895","name":"NLD, Concertweg 58, 2992NN, Barendrecht","address":"Concertweg 58","city":"Barendrecht","operatorName":"Allego","maxPowerKw":11,"isMegawatt":false,"status":"AVAILABLE","source":"ndw","priceKwh":0.511}},{"type":"Feature","geometry":{"type":"Point","coordinates":[4.525359,51.861513]},"properties":{"type":"charge","layer":"passenger","locationId":"NLLOC009809","name":"NL, Van Der Vlugtveld 14, 2992 HK, Barendrecht","address":"Van der Vlughtveld 14","city":"Barendrecht","operatorName":"Allego","maxPowerKw":11,"isMegawatt":false,"status":"AVAILABLE","source":"ndw","priceKwh":0.511}},{"type":"Feature","geometry":{"type":"Point","coordinates":[4.512062,51.851049]},"properties":{"type":"charge","layer":"passenger","locationId":"6863a1e26cd0b4159813ba4a","name":"Barendrecht/Aalborg 6/2993LP/NRG","address":"Aalborg 6","city":"Barendrecht","operatorName":"E-Flux by Road","maxPowerKw":14,"isMegawatt":false,"status":"AVAILABLE","source":"ndw","priceKwh":0.5217}},{"type":"Feature","geometry":{"type":"Point","coordinates":[4.509014,51.849767]},"properties":{"type":"charge","layer":"passenger","locationId":"271A9211-9ED6-471C-82A2-52B0FCC485AD","name":"Eneco eMobility Lansigt Accountants en Belastingadviseurs - Barendrecht","address":"Kopenhagen 1","city":"Barendrecht","operatorName":"Eneco","maxPowerKw":11,"isMegawatt":false,"status":"AVAILABLE","source":"ndw","priceKwh":0.38}},{"type":"Feature","geometry":{"type":"Point","coordinates":[4.494992,51.850491]},"properties":{"type":"charge","layer":"passenger","locationId":"NLLOC002904","name":"NLD, Barendrecht, Randmeer 34","address":"Randmeer 34","city":"Barendrecht","operatorName":"Allego","maxPowerKw":11,"isMegawatt":false,"status":"AVAILABLE","source":"ndw","priceKwh":0.511}},{"type":"Feature","geometry":{"type":"Point","coordinates":[4.561996,51.855451]},"properties":{"type":"charge","layer":"passenger","locationId":"649d8f3cc77929001c193247","name":"Berkman - Barendrecht","address":"Tuindersweg 34","city":"Barendrecht","operatorName":"E-Flux by Road","maxPowerKw":11,"isMegawatt":false,"status":"AVAILABLE","source":"ndw","priceKwh":0.54}},{"type":"Feature","geometry":{"type":"Point","coordinates":[4.495704,51.861287]},"properties":{"type":"charge","layer":"passenger","locationId":"NLLOC003532","name":"NLD, Gemeente Barendrecht, Cederhout 75 2994HC Barendrecht","address":"Cederhout 75","city":"Barendrecht","operatorName":"Allego","maxPowerKw":11,"isMegawatt":false,"status":"AVAILABLE","source":"ndw","priceKwh":0.511}},{"type":"Feature","geometry":{"type":"Point","coordinates":[4.523315,51.860179]},"properties":{"type":"charge","layer":"passenger","locationId":"NLLOC002877","name":"NLD, Cuypersdreef 17, 2992 HN, Barendrecht","address":"Cuypersdreef 17","city":"Barendrecht","operatorName":"Allego","maxPowerKw":11,"isMegawatt":false,"status":"AVAILABLE","source":"ndw","priceKwh":0.511}},{"type":"Feature","geometry":{"type":"Point","coordinates":[4.513212,51.853271]},"properties":{"type":"charge","layer":"passenger","locationId":"91230707","name":"50five-S NL 04003431","address":"Bremen 5","city":"Barendrecht","operatorName":"50five","maxPowerKw":22,"isMegawatt":false,"status":"AVAILABLE","source":"ndw"}},{"type":"Feature","geometry":{"type":"Point","coordinates":[4.496789,51.854617]},"properties":{"type":"charge","layer":"passenger","locationId":"NLLOC001737","name":"NLD, Barendrecht, Peppelwede 26","address":"Peppelwede 26","city":"Barendrecht","operatorName":"Allego","maxPowerKw":22,"isMegawatt":false,"status":"AVAILABLE","source":"ndw","priceKwh":0.511}},{"type":"Feature","geometry":{"type":"Point","coordinates":[4.542542,51.848922]},"properties":{"type":"charge","layer":"passenger","locationId":"NLLOC002137","name":"NLD, Barendrecht, Bark 46","address":"Bark 46","city":"Barendrecht","operatorName":"Allego","maxPowerKw":11,"isMegawatt":false,"status":"AVAILABLE","source":"ndw","priceKwh":0.511}},{"type":"Feature","geometry":{"type":"Point","coordinates":[4.54833,51.871677]},"properties":{"type":"charge","layer":"passenger","locationId":"993bb14a-e060-4914-942c-91660718154a","name":"bp pulse express Barendrecht #2","address":"Escudostraat 3","city":"Barendrecht","operatorName":"bp pulse","maxPowerKw":300,"isMegawatt":false,"status":"AVAILABLE","source":"ndw","priceKwh":0.7}},{"type":"Feature","geometry":{"type":"Point","coordinates":[4.530717,51.85174]},"properties":{"type":"charge","layer":"passenger","locationId":"NLLOC014112","name":"NL, Torenmolen 11, 2992DH, Barendrecht","address":"Torenmolen 11","city":"Barendrecht","operatorName":"Allego","maxPowerKw":11,"isMegawatt":false,"status":"AVAILABLE","source":"ndw","priceKwh":0.511}},{"type":"Feature","geometry":{"type":"Point","coordinates":[4.507102,51.861231]},"properties":{"type":"charge","layer":"passenger","locationId":"NLLOC007762","name":"NL, Hertenburg 2, 2994CC, Barendrecht","address":"Hertenburg 2","city":"Barendrecht","operatorName":"Allego","maxPowerKw":11,"isMegawatt":false,"status":"AVAILABLE","source":"ndw","priceKwh":0.511}},{"type":"Feature","geometry":{"type":"Point","coordinates":[4.553336,51.859526]},"properties":{"type":"charge","layer":"passenger","locationId":"4763533","name":"Laadnet Fresh Pack Logistics","address":"Handelscentrum ZHZ 55","city":"Barendrecht","operatorName":"Laadnet","maxPowerKw":22,"isMegawatt":false,"status":"AVAILABLE","source":"ndw"}},{"type":"Feature","geometry":{"type":"Point","coordinates":[4.529784,51.844744]},"properties":{"type":"charge","layer":"passenger","locationId":"NLLOC008438","name":"NL, Seinhuiswei 2, 2992 ZG Barendrecht","address":"Seinhuiswei 2","city":"Barendrecht","operatorName":"Allego","maxPowerKw":11,"isMegawatt":false,"status":"AVAILABLE","source":"ndw","priceKwh":0.511}},{"type":"Feature","geometry":{"type":"Point","coordinates":[4.492687,51.84877]},"properties":{"type":"charge","layer":"passenger","locationId":"NLLOC014449","name":"NL, Waddenring 37, 2993 VA Barendrecht","address":"Waddenring 37","city":"Barendrecht","operatorName":"Allego","maxPowerKw":11,"isMegawatt":false,"status":"AVAILABLE","source":"ndw","priceKwh":0.511}},{"type":"Feature","geometry":{"type":"Point","coordinates":[4.512935,51.849633]},"properties":{"type":"charge","layer":"passenger","locationId":"91179846","name":"50five-S NL Barendrecht, Hamburg 1","address":"Hamburg 1","city":"Barendrecht","operatorName":"50five","maxPowerKw":11,"isMegawatt":false,"status":"UNAVAILABLE","source":"ndw"}},{"type":"Feature","geometry":{"type":"Point","coordinates":[4.518801,51.854968]},"properties":{"type":"charge","layer":"passenger","locationId":"7CA80BEC-EA83-46D7-A95A-72E815495D7B","name":"Eneco eMobility Humanitas DMH - Barendrecht","address":"Klarinetweg 6","city":"Barendrecht","operatorName":"Eneco","maxPowerKw":11,"isMegawatt":false,"status":"AVAILABLE","source":"ndw","priceKwh":0.32}},{"type":"Feature","geometry":{"type":"Point","coordinates":[4.524343,51.856029]},"properties":{"type":"charge","layer":"passenger","locationId":"NLLOC002999","name":"NLD, Cantatelaan 18 2992GM Barendrecht","address":"Cantatelaan 18","city":"Barendrecht","operatorName":"Allego","maxPowerKw":11,"isMegawatt":false,"status":"AVAILABLE","source":"ndw","priceKwh":0.511}},{"type":"Feature","geometry":{"type":"Point","coordinates":[4.510039,51.852214]},"properties":{"type":"charge","layer":"passenger","locationId":"90205649","name":"Van Leeuwen morevent laadplein oslo","address":"Oslo 9-15","city":"Barendrecht","operatorName":"Van Leeuwen","maxPowerKw":11,"isMegawatt":false,"status":"AVAILABLE","source":"ndw"}},{"type":"Feature","geometry":{"type":"Point","coordinates":[4.50739,51.853057]},"properties":{"type":"charge","layer":"passenger","locationId":"NLLOC011797","name":"NL, Meerwedesingel 99, 2993 PA, Barendrecht","address":"Meerwedesingel 99","city":"Barendrecht","operatorName":"Allego","maxPowerKw":11,"isMegawatt":false,"status":"AVAILABLE","source":"ndw","priceKwh":0.511}},{"type":"Feature","geometry":{"type":"Point","coordinates":[4.51804,51.859825]},"properties":{"type":"charge","layer":"passenger","locationId":"91105228","name":"50five-S NL 09001132","address":"Bijdorp-Zuid 1","city":"Barendrecht","operatorName":"50five","maxPowerKw":22,"isMegawatt":false,"status":"CHARGING","source":"ndw"}},{"type":"Feature","geometry":{"type":"Point","coordinates":[4.491318,51.846938]},"properties":{"type":"charge","layer":"passenger","locationId":"NLLOC001630","name":"NLD, Barendrecht, Waddenring 163","address":"Waddenring 163","city":"Barendrecht","operatorName":"Allego","maxPowerKw":22,"isMegawatt":false,"status":"CHARGING","source":"ndw","priceKwh":0.511}},{"type":"Feature","geometry":{"type":"Point","coordinates":[4.550237,51.853945]},"properties":{"type":"charge","layer":"passenger","locationId":"NLLOC007758","name":"NL,Donge 28, 2991 RG, Barendrecht","address":"Donge 28","city":"Barendrecht","operatorName":"Allego","maxPowerKw":11,"isMegawatt":false,"status":"AVAILABLE","source":"ndw","priceKwh":0.511}},{"type":"Feature","geometry":{"type":"Point","coordinates":[4.526779,51.845742]},"properties":{"type":"charge","layer":"passenger","locationId":"NLLOC002016","name":"NLD, Barendrecht, Adrianapolder 9","address":"Adrianapolder 9","city":"Barendrecht","operatorName":"Allego","maxPowerKw":11,"isMegawatt":false,"status":"AVAILABLE","source":"ndw","priceKwh":0.511}},{"type":"Feature","geometry":{"type":"Point","coordinates":[4.501301,51.862151]},"properties":{"type":"charge","layer":"passenger","locationId":"NLLOC007726","name":"NL, Vossenburg 9 2994 ED, Barendrecht","address":"Vossenburg 9","city":"Barendrecht","operatorName":"Allego","maxPowerKw":11,"isMegawatt":false,"status":"AVAILABLE","source":"ndw","priceKwh":0.511}},{"type":"Feature","geometry":{"type":"Point","coordinates":[4.4944,51.859551]},"properties":{"type":"charge","layer":"passenger","locationId":"NLLOC005564","name":"NLD, Kouwenhoven-akker 12 2994AS Barendrecht","address":"Kouwenhoven-akker 12","city":"Barendrecht","operatorName":"Allego","maxPowerKw":11,"isMegawatt":false,"status":"CHARGING","source":"ndw","priceKwh":0.511}},{"type":"Feature","geometry":{"type":"Point","coordinates":[4.481705,51.865251]},"properties":{"type":"charge","layer":"passenger","locationId":"91231179","name":"50five-S NL ICUEVE000267","address":"Charloisse Lagedijk 536","city":"Rotterdam","operatorName":"50five","maxPowerKw":11,"isMegawatt":false,"status":"UNAVAILABLE","source":"ndw"}},{"type":"Feature","geometry":{"type":"Point","coordinates":[4.52929,51.859452]},"properties":{"type":"charge","layer":"passenger","locationId":"NLLOC002922","name":"NLD, Gemeente Barendrecht, Boerhaavelaan 50 2992KA Barendrecht","address":"Boerhaavelaan 50","city":"Barendrecht","operatorName":"Allego","maxPowerKw":11,"isMegawatt":false,"status":"AVAILABLE","source":"ndw","priceKwh":0.511}},{"type":"Feature","geometry":{"type":"Point","coordinates":[4.527671,51.859675]},"properties":{"type":"charge","layer":"passenger","locationId":"91056273","name":"50five-S NL 17B05333","address":"Van Ravesteyndreef 70","city":"Barendrecht","operatorName":"50five","maxPowerKw":14,"isMegawatt":false,"status":"UNAVAILABLE","source":"ndw"}},{"type":"Feature","geometry":{"type":"Point","coordinates":[4.55311,51.86109]},"properties":{"type":"charge","layer":"passenger","locationId":"62457CBD-587F-4B5E-8DE6-DE696BCCBF79","name":"Eneco eMobility Oosteinde 13 Barendrecht","address":"Oosteinde 13","city":"Barendrecht","operatorName":"Eneco","maxPowerKw":22,"isMegawatt":false,"status":"UNAVAILABLE","source":"ndw","priceKwh":0.32}},{"type":"Feature","geometry":{"type":"Point","coordinates":[4.486856,51.85497]},"properties":{"type":"charge","layer":"passenger","locationId":"NLLOC011397","name":"NL, Rietdekkerij, 53, 2993CS, Barendrecht","address":"Rietdekkerij 53","city":"Barendrecht","operatorName":"Allego","maxPowerKw":11,"isMegawatt":false,"status":"AVAILABLE","source":"ndw","priceKwh":0.511}},{"type":"Feature","geometry":{"type":"Point","coordinates":[4.53496,51.855883]},"properties":{"type":"charge","layer":"passenger","locationId":"NLLOC016742","name":"NL, Kerkweg 4, 2992SG, Barendrecht","address":"Kerkweg 4","city":"Barendrecht","operatorName":"Allego","maxPowerKw":11,"isMegawatt":false,"status":"AVAILABLE","source":"ndw","priceKwh":0.511}},{"type":"Feature","geometry":{"type":"Point","coordinates":[4.538641,51.851464]},"properties":{"type":"charge","layer":"passenger","locationId":"NLLOC012860","name":"NL, Botter 25, 2991PA, Barendrecht","address":"Botter 25","city":"Barendrecht","operatorName":"Allego","maxPowerKw":11,"isMegawatt":false,"status":"AVAILABLE","source":"ndw","priceKwh":0.511}},{"type":"Feature","geometry":{"type":"Point","coordinates":[4.512156,51.851557]},"properties":{"type":"charge","layer":"passenger","locationId":"68639e4d5e3ce9189352e5ec","name":"Barendrecht/Kolding 2/2993LN/NRG","address":"Kolding 2","city":"Barendrecht","operatorName":"E-Flux by Road","maxPowerKw":14,"isMegawatt":false,"status":"AVAILABLE","source":"ndw","priceKwh":0.5217}},{"type":"Feature","geometry":{"type":"Point","coordinates":[4.504364,51.849635]},"properties":{"type":"charge","layer":"passenger","locationId":"NLLOC009624","name":"NL, Amstelmeer 2, 2993PL Barendrecht","address":"Amstelmeer 2","city":"Barendrecht","operatorName":"Allego","maxPowerKw":11,"isMegawatt":false,"status":"AVAILABLE","source":"ndw","priceKwh":0.511}},{"type":"Feature","geometry":{"type":"Point","coordinates":[4.482881,51.856431]},"properties":{"type":"charge","layer":"passenger","locationId":"NLLOC008921","name":"NL, Wagenmakerij 16 2993 AW Barendrecht","address":"Wagenmakerij 16","city":"Barendrecht","operatorName":"Allego","maxPowerKw":11,"isMegawatt":false,"status":"AVAILABLE","source":"ndw","priceKwh":0.511}},{"type":"Feature","geometry":{"type":"Point","coordinates":[4.52994,51.843641]},"properties":{"type":"charge","layer":"passenger","locationId":"NLLOC005271","name":"NLD Seinhuiswei 27 2992ZG Barendrecht","address":"Seinhuiswei 27","city":"Barendrecht","operatorName":"Allego","maxPowerKw":11,"isMegawatt":false,"status":"AVAILABLE","source":"ndw","priceKwh":0.511}},{"type":"Feature","geometry":{"type":"Point","coordinates":[4.550525,51.868947]},"properties":{"type":"charge","layer":"passenger","locationId":"91275793","name":"50five-S NL 03008487","address":"Kamerlingh Onnesweg 32","city":"Barendrecht","operatorName":"50five","maxPowerKw":11,"isMegawatt":false,"status":"AVAILABLE","source":"ndw"}},{"type":"Feature","geometry":{"type":"Point","coordinates":[4.485511,51.854951]},"properties":{"type":"charge","layer":"passenger","locationId":"NLLOC003245","name":"NLD, Gemeente Barendrecht, Drogerij 15 2993CR Barendrecht","address":"Drogerij 15","city":"Barendrecht","operatorName":"Allego","maxPowerKw":11,"isMegawatt":false,"status":"AVAILABLE","source":"ndw","priceKwh":0.511}},{"type":"Feature","geometry":{"type":"Point","coordinates":[4.490169,51.85211]},"properties":{"type":"charge","layer":"passenger","locationId":"NLLOC004695","name":"NLD Riederstee 42 2993 XT Barendrecht","address":"Riederstee 42","city":"Barendrecht","operatorName":"Allego","maxPowerKw":11,"isMegawatt":false,"status":"AVAILABLE","source":"ndw","priceKwh":0.511}},{"type":"Feature","geometry":{"type":"Point","coordinates":[4.506435,51.854666]},"properties":{"type":"charge","layer":"passenger","locationId":"NLLOC002149","name":"NLD, Barendrecht, Vlierwede 24","address":"Vlierwede 24","city":"Barendrecht","operatorName":"Allego","maxPowerKw":11,"isMegawatt":false,"status":"AVAILABLE","source":"ndw","priceKwh":0.511}},{"type":"Feature","geometry":{"type":"Point","coordinates":[4.495567,51.848202]},"properties":{"type":"charge","layer":"passenger","locationId":"NLLOC003569","name":"NLD, Roentgenhaven 2, 2993 HG Barendrecht","address":"Roentgenhaven 2","city":"Barendrecht","operatorName":"Allego","maxPowerKw":11,"isMegawatt":false,"status":"AVAILABLE","source":"ndw","priceKwh":0.511}},{"type":"Feature","geometry":{"type":"Point","coordinates":[4.489235,51.857215]},"properties":{"type":"charge","layer":"passenger","locationId":"90247454","name":"Van Leeuwen Voordijk 467","address":"Voordijk 467","city":"Barendrecht","operatorName":"Van Leeuwen","maxPowerKw":11,"isMegawatt":false,"status":"AVAILABLE","source":"ndw"}},{"type":"Feature","geometry":{"type":"Point","coordinates":[4.539481,51.847909]},"properties":{"type":"charge","layer":"passenger","locationId":"f0600d39199f45469b7d54d6bab20f76","name":"ERA Contour Barendrecht","address":"Tjalk 144","city":"Barendrecht","operatorName":"NRG Mobility","maxPowerKw":11,"isMegawatt":false,"status":"AVAILABLE","source":"ndw","priceKwh":0.7}},{"type":"Feature","geometry":{"type":"Point","coordinates":[4.529386,51.852074]},"properties":{"type":"charge","layer":"passenger","locationId":"NLLOC002823","name":"NLD, Walmolen 2, 2992 DK Barendrecht","address":"Walmolen 2","city":"Barendrecht","operatorName":"Allego","maxPowerKw":11,"isMegawatt":false,"status":"AVAILABLE","source":"ndw","priceKwh":0.511}},{"type":"Feature","geometry":{"type":"Point","coordinates":[4.532657,51.845852]},"properties":{"type":"charge","layer":"passenger","locationId":"NLLOC005351","name":"NLD Sikkelwei 40 2992 ZN Barendrecht","address":"Sikkelwei 40","city":"Barendrecht","operatorName":"Allego","maxPowerKw":11,"isMegawatt":false,"status":"AVAILABLE","source":"ndw","priceKwh":0.511}},{"type":"Feature","geometry":{"type":"Point","coordinates":[4.523732,51.857865]},"properties":{"type":"charge","layer":"passenger","locationId":"NLLOC016129","name":"NL, Serenadelaan 47, 2992 GE Barendrecht","address":"Serenadelaan 47","city":"Barendrecht","operatorName":"Allego","maxPowerKw":11,"isMegawatt":false,"status":"AVAILABLE","source":"ndw","priceKwh":0.511}},{"type":"Feature","geometry":{"type":"Point","coordinates":[4.51007,51.860212]},"properties":{"type":"charge","layer":"passenger","locationId":"DBBE8DF8-A20A-4987-BA23-FB7E0601AD05","name":"Eneco eMobility In Control Systems BV - Barendrecht","address":"Zwolseweg 23","city":"Barendrecht","operatorName":"Eneco","maxPowerKw":22,"isMegawatt":false,"status":"AVAILABLE","source":"ndw","priceKwh":0.32}},{"type":"Feature","geometry":{"type":"Point","coordinates":[4.526652,51.85769]},"properties":{"type":"charge","layer":"passenger","locationId":"NLLOC002824","name":"NLD, Ariahof 1 2992 NL Barendrecht","address":"Ariahof 1","city":"Barendrecht","operatorName":"Allego","maxPowerKw":11,"isMegawatt":false,"status":"AVAILABLE","source":"ndw","priceKwh":0.511}},{"type":"Feature","geometry":{"type":"Point","coordinates":[4.5349,51.852862]},"properties":{"type":"charge","layer":"passenger","locationId":"NLLOC003380","name":"NLD Jaagpad 51 2992CD Barendrecht","address":"Jaagpad 51","city":"Barendrecht","operatorName":"Allego","maxPowerKw":11,"isMegawatt":false,"status":"AVAILABLE","source":"ndw","priceKwh":0.511}},{"type":"Feature","geometry":{"type":"Point","coordinates":[4.511651,51.861898]},"properties":{"type":"charge","layer":"passenger","locationId":"88924656","name":"Van Leeuwen Zwolseweg 40","address":"Zwolseweg 40","city":"Barendrecht","operatorName":"Van Leeuwen","maxPowerKw":22,"isMegawatt":false,"status":"AVAILABLE","source":"ndw"}},{"type":"Feature","geometry":{"type":"Point","coordinates":[4.534476,51.861174]},"properties":{"type":"charge","layer":"passenger","locationId":"NLLOC011164","name":"NL, Van Hulststraat 17, 2992KL, Barendrecht","address":"Van Hulststraat 17","city":"Barendrecht","operatorName":"Allego","maxPowerKw":11,"isMegawatt":false,"status":"AVAILABLE","source":"ndw","priceKwh":0.511}},{"type":"Feature","geometry":{"type":"Point","coordinates":[4.504186,51.859852]},"properties":{"type":"charge","layer":"passenger","locationId":"NLLOC001738","name":"NLD, Barendrecht, Elandenburg 42","address":"Elandenburg 42","city":"Barendrecht","operatorName":"Allego","maxPowerKw":11,"isMegawatt":false,"status":"AVAILABLE","source":"ndw","priceKwh":0.511}},{"type":"Feature","geometry":{"type":"Point","coordinates":[4.522435,51.845379]},"properties":{"type":"charge","layer":"passenger","locationId":"NLLOC002818","name":"NLD, Paulinapolder 74, 2992TZ, Barendrecht","address":"Paulinapolder 74","city":"Barendrecht","operatorName":"Allego","maxPowerKw":11,"isMegawatt":false,"status":"AVAILABLE","source":"ndw","priceKwh":0.511}},{"type":"Feature","geometry":{"type":"Point","coordinates":[4.490594,51.859955]},"properties":{"type":"charge","layer":"passenger","locationId":"NLLOC001629","name":"NLD, Barendrecht, Van Koetsveld-Akker 24","address":"Van Koetsveld-Akker 24","city":"Barendrecht","operatorName":"Allego","maxPowerKw":11,"isMegawatt":false,"status":"AVAILABLE","source":"ndw","priceKwh":0.511}},{"type":"Feature","geometry":{"type":"Point","coordinates":[4.501464,51.844878]},"properties":{"type":"charge","layer":"passenger","locationId":"NLLOC008493","name":"NL, Steekkant, 14, 2993DB, Barendrecht","address":"Steekkant 14","city":"Barendrecht","operatorName":"Allego","maxPowerKw":11,"isMegawatt":false,"status":"AVAILABLE","source":"ndw","priceKwh":0.511}},{"type":"Feature","geometry":{"type":"Point","coordinates":[4.553639,51.848205]},"properties":{"type":"charge","layer":"passenger","locationId":"NLLOC002997","name":"NLD, Gemeente Barendrecht, Graaf Adolfstraat 2 2991BD Barendrecht","address":"Graaf Adolfstraat 2","city":"Barendrecht","operatorName":"Allego","maxPowerKw":11,"isMegawatt":false,"status":"AVAILABLE","source":"ndw","priceKwh":0.511}},{"type":"Feature","geometry":{"type":"Point","coordinates":[4.525244,51.85217]},"properties":{"type":"charge","layer":"passenger","locationId":"NLLOC016298","name":"NL, Rossinisingel 9, 2992 PB Barendrecht","address":"Rossinisingel 9","city":"Barendrecht","operatorName":"Allego","maxPowerKw":11,"isMegawatt":false,"status":"AVAILABLE","source":"ndw","priceKwh":0.511}},{"type":"Feature","geometry":{"type":"Point","coordinates":[4.524237,51.845273]},"properties":{"type":"charge","layer":"passenger","locationId":"NLLOC003682","name":"NLD Gemeente Barendrecht Helenapolder 7 2992TW Barendrecht","address":"Helenapolder 7","city":"Barendrecht","operatorName":"Allego","maxPowerKw":11,"isMegawatt":false,"status":"CHARGING","source":"ndw","priceKwh":0.511}},{"type":"Feature","geometry":{"type":"Point","coordinates":[4.488055,51.860242]},"properties":{"type":"charge","layer":"passenger","locationId":"NLLOC003937","name":"NLD Gemeente Barendrecht Smitshoekse Baan 25 2993 BZ Barendrecht","address":"Smitshoekse Baan 25","city":"Barendrecht","operatorName":"Allego","maxPowerKw":11,"isMegawatt":false,"status":"CHARGING","source":"ndw","priceKwh":0.511}},{"type":"Feature","geometry":{"type":"Point","coordinates":[4.534092,51.850771]},"properties":{"type":"charge","layer":"passenger","locationId":"NLLOC009297","name":"NL ,Jacoba Pompvliet 21,2992VN Barendrecht","address":"Jacoba Pompevliet 21","city":"Barendrecht","operatorName":"Allego","maxPowerKw":11,"isMegawatt":false,"status":"AVAILABLE","source":"ndw","priceKwh":0.511}},{"type":"Feature","geometry":{"type":"Point","coordinates":[4.498229,51.84596]},"properties":{"type":"charge","layer":"passenger","locationId":"NLLOC003308","name":"NLD, Reuchlinhaven 6, 2993 EL Barendrecht","address":"Reuchlinhaven 6","city":"Barendrecht","operatorName":"Allego","maxPowerKw":11,"isMegawatt":false,"status":"AVAILABLE","source":"ndw","priceKwh":0.511}},{"type":"Feature","geometry":{"type":"Point","coordinates":[4.490584,51.849855]},"properties":{"type":"charge","layer":"passenger","locationId":"NLLOC001631","name":"NLD, Barendrecht, Waddenring 112","address":"Waddenring 112","city":"Barendrecht","operatorName":"Allego","maxPowerKw":11,"isMegawatt":false,"status":"AVAILABLE","source":"ndw","priceKwh":0.511}},{"type":"Feature","geometry":{"type":"Point","coordinates":[4.536533,51.842355]},"properties":{"type":"charge","layer":"passenger","locationId":"NLLOC003857","name":"NLD, 3e Barendrechtseweg 443 2991SH Barendrecht","address":"3e Barendrechtseweg 44","city":"Barendrecht","operatorName":"Allego","maxPowerKw":11,"isMegawatt":false,"status":"AVAILABLE","source":"ndw","priceKwh":0.511}},{"type":"Feature","geometry":{"type":"Point","coordinates":[4.539516,51.846885]},"properties":{"type":"charge","layer":"passenger","locationId":"NLLOC020251","name":"NL, Tjalk 107, 2991PR Barendrecht","address":"Tjalk 107","city":"Barendrecht","operatorName":"Allego","maxPowerKw":11,"isMegawatt":false,"status":"AVAILABLE","source":"ndw","priceKwh":0.511}},{"type":"Feature","geometry":{"type":"Point","coordinates":[4.529502,51.849705]},"properties":{"type":"charge","layer":"passenger","locationId":"NLLOC003779","name":"NLD Gemeente Barendrecht Stellingmolen 2 2992DN Barendrecht","address":"Stellingmolen 2","city":"Barendrecht","operatorName":"Allego","maxPowerKw":11,"isMegawatt":false,"status":"AVAILABLE","source":"ndw","priceKwh":0.511}},{"type":"Feature","geometry":{"type":"Point","coordinates":[4.524046,51.862826]},"properties":{"type":"charge","layer":"passenger","locationId":"89050902","name":"Van Leeuwen 89050902","address":"Blijdorp-oost 46","city":"Barendrecht","operatorName":"Van Leeuwen","maxPowerKw":22,"isMegawatt":false,"status":"UNAVAILABLE","source":"ndw"}},{"type":"Feature","geometry":{"type":"Point","coordinates":[4.523281,51.844376]},"properties":{"type":"charge","layer":"passenger","locationId":"NLLOC009816","name":"NL, Helenapolder 45, 2992TW, Barendrecht","address":"Helenapolder 45","city":"Barendrecht","operatorName":"Allego","maxPowerKw":11,"isMegawatt":false,"status":"AVAILABLE","source":"ndw","priceKwh":0.511}},{"type":"Feature","geometry":{"type":"Point","coordinates":[4.547892,51.847911]},"properties":{"type":"charge","layer":"passenger","locationId":"NLLOC002015","name":"NLD, Barendrecht, Hoeker 31","address":"Hoeker 31","city":"Barendrecht","operatorName":"Allego","maxPowerKw":11,"isMegawatt":false,"status":"CHARGING","source":"ndw","priceKwh":0.511}},{"type":"Feature","geometry":{"type":"Point","coordinates":[4.504332,51.847373]},"properties":{"type":"charge","layer":"passenger","locationId":"NLLOC005245","name":"NLD Scharwater 39 2993 DJ Barendrecht","address":"Scharwater 39","city":"Barendrecht","operatorName":"Allego","maxPowerKw":11,"isMegawatt":false,"status":"AVAILABLE","source":"ndw","priceKwh":0.511}},{"type":"Feature","geometry":{"type":"Point","coordinates":[4.511783,51.851756]},"properties":{"type":"charge","layer":"passenger","locationId":"91106659","name":"50five-S NL ICUEVE000366","address":"Kolding 3","city":"Barendrecht","operatorName":"50five","maxPowerKw":11,"isMegawatt":false,"status":"AVAILABLE","source":"ndw"}},{"type":"Feature","geometry":{"type":"Point","coordinates":[4.548038,51.861642]},"properties":{"type":"charge","layer":"passenger","locationId":"89904757","name":"Van Leeuwen Van der Velden","address":"zweth 30","city":"barendrecht","operatorName":"Van Leeuwen","maxPowerKw":124,"isMegawatt":false,"status":"AVAILABLE","source":"ndw"}},{"type":"Feature","geometry":{"type":"Point","coordinates":[4.547939,51.868762]},"properties":{"type":"charge","layer":"passenger","locationId":"91146895","name":"50five-S NL 04000351","address":"Zeemanstraat 2","city":"Barendrecht","operatorName":"50five","maxPowerKw":7,"isMegawatt":false,"status":"AVAILABLE","source":"ndw"}},{"type":"Feature","geometry":{"type":"Point","coordinates":[4.527233,51.854125]},"properties":{"type":"charge","layer":"passenger","locationId":"NLLOC008285","name":"NL, Concertweg, 154, 2992NP, Barendrecht","address":"Concertweg 154","city":"Barendrecht","operatorName":"Allego","maxPowerKw":11,"isMegawatt":false,"status":"AVAILABLE","source":"ndw","priceKwh":0.511}},{"type":"Feature","geometry":{"type":"Point","coordinates":[4.510263,51.856962]},"properties":{"type":"charge","layer":"passenger","locationId":"91148897","name":"50five-S NL 07117015","address":"Carnisseweg 62","city":"Barendrecht","operatorName":"50five","maxPowerKw":11,"isMegawatt":false,"status":"AVAILABLE","source":"ndw"}},{"type":"Feature","geometry":{"type":"Point","coordinates":[4.513224,51.861078]},"properties":{"type":"charge","layer":"passenger","locationId":"89274188","name":"Van Leeuwen 89274188","address":"Deventerseweg 68","city":"Barendrecht","operatorName":"Van Leeuwen","maxPowerKw":22,"isMegawatt":false,"status":"AVAILABLE","source":"ndw"}},{"type":"Feature","geometry":{"type":"Point","coordinates":[4.521756,51.855562]},"properties":{"type":"charge","layer":"passenger","locationId":"NLLOC014418","name":"NL, Triangelweg 1, 2992 GR Barendrecht","address":"Triangelweg 1","city":"Barendrecht","operatorName":"Allego","maxPowerKw":11,"isMegawatt":false,"status":"AVAILABLE","source":"ndw","priceKwh":0.511}},{"type":"Feature","geometry":{"type":"Point","coordinates":[4.549297,51.851402]},"properties":{"type":"charge","layer":"passenger","locationId":"NLLOC003148","name":"NLD, Marijkesingel 6, 2991 BK Barendrecht","address":"Marijkesingel 6","city":"Barendrecht","operatorName":"Allego","maxPowerKw":11,"isMegawatt":false,"status":"AVAILABLE","source":"ndw","priceKwh":0.511}},{"type":"Feature","geometry":{"type":"Point","coordinates":[4.553911,51.846782]},"properties":{"type":"charge","layer":"passenger","locationId":"NLLOC007759","name":"NL, Willem-Alexanderplantsoen 44, 2991NE, Barendrecht","address":"Willem-Alexanderplantsoen 44","city":"Barendrecht","operatorName":"Allego","maxPowerKw":11,"isMegawatt":false,"status":"AVAILABLE","source":"ndw","priceKwh":0.511}},{"type":"Feature","geometry":{"type":"Point","coordinates":[4.486329,51.857011]},"properties":{"type":"charge","layer":"passenger","locationId":"NLLOC002014","name":"NLD, Barendrecht, Spinnerij 4","address":"Spinnerij 4","city":"Barendrecht","operatorName":"Allego","maxPowerKw":11,"isMegawatt":false,"status":"AVAILABLE","source":"ndw","priceKwh":0.511}},{"type":"Feature","geometry":{"type":"Point","coordinates":[4.546538,51.858435]},"properties":{"type":"charge","layer":"passenger","locationId":"NLLOC002532","name":"NLD, Kievit 7 2991ME Barendrecht","address":"Kievit 7","city":"Barendrecht","operatorName":"Allego","maxPowerKw":11,"isMegawatt":false,"status":"AVAILABLE","source":"ndw","priceKwh":0.511}},{"type":"Feature","geometry":{"type":"Point","coordinates":[4.506487,51.844945]},"properties":{"type":"charge","layer":"passenger","locationId":"NLLOC001798","name":"NLD, Barendrecht, Harderwater 80","address":"Harderwater 80","city":"Barendrecht","operatorName":"Allego","maxPowerKw":11,"isMegawatt":false,"status":"AVAILABLE","source":"ndw","priceKwh":0.511}},{"type":"Feature","geometry":{"type":"Point","coordinates":[4.497838,51.85053]},"properties":{"type":"charge","layer":"passenger","locationId":"NLLOC001817","name":"NLD, Barendrecht, Drontermeer 1","address":"Drontermeer 1","city":"Barendrecht","operatorName":"Allego","maxPowerKw":11,"isMegawatt":false,"status":"AVAILABLE","source":"ndw","priceKwh":0.511}},{"type":"Feature","geometry":{"type":"Point","coordinates":[4.489299,51.856326]},"properties":{"type":"charge","layer":"passenger","locationId":"NLLOC015981","name":"NL, Riedermorgen 3, 2993XB, Barendrecht","address":"Riedermorgen 3","city":"Barendrecht","operatorName":"Allego","maxPowerKw":11,"isMegawatt":false,"status":"AVAILABLE","source":"ndw","priceKwh":0.511}},{"type":"Feature","geometry":{"type":"Point","coordinates":[4.536972,51.843116]},"properties":{"type":"charge","layer":"passenger","locationId":"NLLOC001628","name":"NLD, Barendrecht, Den Otterleede 33","address":"Den Otterleede 33","city":"Barendrecht","operatorName":"Allego","maxPowerKw":11,"isMegawatt":false,"status":"AVAILABLE","source":"ndw","priceKwh":0.511}},{"type":"Feature","geometry":{"type":"Point","coordinates":[4.550161,51.863149]},"properties":{"type":"charge","layer":"freight","locationId":"65c4f30da09799001cc33515","name":"BEST Trucks Barendrecht 360kW","address":"Donk 2","city":"Barendrecht","operatorName":"E-Flux by Road","maxPowerKw":308,"isMegawatt":false,"status":"AVAILABLE","source":"ndw","priceKwh":0.53,"freightKind":"dedicated","freightReason":"truck-name"}},{"type":"Feature","geometry":{"type":"Point","coordinates":[4.550116,51.863227]},"properties":{"type":"charge","layer":"freight","locationId":"69ae73a6f081ac3566ad8e86","name":"BEST Trucks Barendrecht 120kW","address":"Donk 2","city":"Barendrecht","operatorName":"E-Flux by Road","maxPowerKw":225,"isMegawatt":false,"status":"AVAILABLE","source":"ndw","priceKwh":0.53,"freightKind":"dedicated","freightReason":"truck-name"}},{"type":"Feature","geometry":{"type":"MultiPolygon","coordinates":[[[[4.552770060866542,51.86942933312582],[4.553842353777014,51.86797223588968],[4.553926871816345,51.867857384282786],[4.554883806719001,51.866560297644284],[4.556371554889425,51.86457177442762],[4.560299694842951,51.85933090385111],[4.562733121160457,51.85606957959677],[4.563524755990294,51.855018043713045],[4.5641135303047315,51.85348759453772],[4.565961786177045,51.85208623497773],[4.569971232966943,51.852620457197006],[4.571386499872645,51.84942728884474],[4.571058949048978,51.84711671777207],[4.569036137697005,51.84484925636003],[4.563833768322319,51.84094369451796],[4.560013872886868,51.83879122922553],[4.558636178288401,51.836835470669065],[4.5589123330831205,51.83624240164701],[4.557249804306833,51.83389744066557],[4.5536090950631545,51.8298968737387],[4.548653218024341,51.831763037432964],[4.542844175251318,51.83186860222375],[4.536294333168157,51.83117713661382],[4.531273029952391,51.83019895049932],[4.525478346106942,51.82985416091593],[4.511490479891068,51.83268433230756],[4.4992472533650485,51.83524316478502],[4.489094687917649,51.835395540483674],[4.489724714492899,51.84069035544951],[4.49222749093475,51.841444225441776],[4.489604127417372,51.84406084113395],[4.489570300557604,51.84549505279907],[4.4897003230021335,51.84677590403227],[4.487268477246147,51.84860808943249],[4.489665961160732,51.85082186547438],[4.489875692348886,51.851420526580654],[4.485730179663176,51.85303887086074],[4.484165743656923,51.85363433079548],[4.482990406211847,51.85409711905217],[4.480287808120128,51.85514874544445],[4.481272713484219,51.858561889908515],[4.47987197601205,51.85892934202522],[4.480581285595452,51.8595094496435],[4.480548860364522,51.86101847075371],[4.480402877826251,51.86232777487347],[4.480088146324387,51.86527615634976],[4.480728562078657,51.865266589327284],[4.481525891360629,51.865432733483914],[4.48170343190722,51.86543725317525],[4.483543632717466,51.86590571538895],[4.485694289239074,51.866570742675066],[4.487175459508406,51.86717171137514],[4.488752994394925,51.86734836838525],[4.494390103356012,51.868969094201],[4.496455816034264,51.868971071896716],[4.5152341919722,51.869036663900275],[4.5152398511650755,51.86903670768492],[4.522631461432485,51.86907809499138],[4.526018934526788,51.8697306068964],[4.5268493871144155,51.86941483193591],[4.529504315002738,51.868948508065834],[4.532027100968698,51.86877671717868],[4.535295887881331,51.86933888590937],[4.536397375627449,51.869764154862914],[4.539972097306818,51.87017861712247],[4.5426340892742845,51.870844929067566],[4.542971457681047,51.87112959005634],[4.543398539338169,51.87131213502761],[4.543985283533942,51.871855819747985],[4.544250558810878,51.872302406500616],[4.544943372753044,51.87230741920229],[4.548185400514791,51.87383543388738],[4.549383690218569,51.87402715325783],[4.552770060866542,51.86942933312582]]]]},"properties":{"type":"boundary","gemeente":"Barendrecht","code":"GM0489"}}]}