{"type":"FeatureCollection","metadata":{"gemeente":"Bergen (NH.)","slug":"bergen-nh","code":"GM0373","generated_at":"2026-08-08T12:05:52.020Z","total_passenger":184,"total_freight":0,"bounds":[4.609963819769603,52.57374467642942,4.752409740500902,52.75663866463843],"operators":["50five","E-Flux by Road","Eneco","Laadnet","NXT Charging Solutions","Opcharge","PureCharged","TotalEnergies","Ubitricity","Van Leeuwen","Vattenfall InCharge"]},"features":[{"type":"Feature","geometry":{"type":"Point","coordinates":[4.690676,52.708053]},"properties":{"type":"charge","layer":"passenger","locationId":"65797f9043293f001c19cfba","name":"Landal Residence Berger Duinen - Woning 14","address":"Heereweg  91C","city":"Schoorl","operatorName":"E-Flux by Road","maxPowerKw":22,"isMegawatt":false,"status":"AVAILABLE","source":"ndw","priceKwh":0.525}},{"type":"Feature","geometry":{"type":"Point","coordinates":[4.65643,52.62002]},"properties":{"type":"charge","layer":"passenger","locationId":"1555","name":"Shell Recharge NL Lamoraalweg 55","address":"Lamoraalweg 55","city":"Bergen","operatorName":"Ubitricity","maxPowerKw":11,"isMegawatt":false,"status":"AVAILABLE","source":"ndw","priceKwh":0.392}},{"type":"Feature","geometry":{"type":"Point","coordinates":[4.633688,52.61901]},"properties":{"type":"charge","layer":"passenger","locationId":"3B740B52-44FE-462E-AB7F-D83A753CE73F","name":"TNLP009278 - Watertorenweg 5, Egmond aan Zee","address":"5 Watertorenweg","city":"Egmond aan Zee","operatorName":"TotalEnergies","maxPowerKw":15,"isMegawatt":false,"status":"AVAILABLE","source":"ndw"}},{"type":"Feature","geometry":{"type":"Point","coordinates":[4.657854,52.59795]},"properties":{"type":"charge","layer":"passenger","locationId":"AF739E98-B0FC-4AB5-A835-618D6B767DF0","name":"TNLP009119 - Ruygekroft 2, Egmond Binnen","address":"2 Ruygekroft","city":"Egmond Binnen","operatorName":"TotalEnergies","maxPowerKw":13,"isMegawatt":false,"status":"AVAILABLE","source":"ndw"}},{"type":"Feature","geometry":{"type":"Point","coordinates":[4.70259,52.70381]},"properties":{"type":"charge","layer":"passenger","locationId":"f4f73a0e840615251a976bc8cd7ffff4","name":"Laanweg 19","address":"Laanweg 19","city":"Schoorl","operatorName":"Vattenfall InCharge","maxPowerKw":11,"isMegawatt":false,"status":"CHARGING","source":"ndw","priceKwh":0.2805}},{"type":"Feature","geometry":{"type":"Point","coordinates":[4.693434,52.706493]},"properties":{"type":"charge","layer":"passenger","locationId":"78F8F844-017D-48E5-AEB4-05ED714A1D2F","name":"PP005458 - De Sanderij 25, Schoorl","address":"25 De Sanderij","city":"Schoorl","operatorName":"TotalEnergies","maxPowerKw":15,"isMegawatt":false,"status":"AVAILABLE","source":"ndw"}},{"type":"Feature","geometry":{"type":"Point","coordinates":[4.620966,52.618168]},"properties":{"type":"charge","layer":"passenger","locationId":"24495BC7-FBF9-40EE-AE2D-8BB197FBCEB7","name":"TNLP009466 - Westeinde 6, Egmond Aan Zee","address":"6 Westeinde","city":"Egmond Aan Zee","operatorName":"TotalEnergies","maxPowerKw":17,"isMegawatt":false,"status":"CHARGING","source":"ndw"}},{"type":"Feature","geometry":{"type":"Point","coordinates":[4.70033,52.67007]},"properties":{"type":"charge","layer":"passenger","locationId":"2F845D60-DB7E-495C-A3B9-C1873726E4AB","name":"PP001855 - Breelaan 5, Bergen","address":"5 Breelaan","city":"Bergen","operatorName":"TotalEnergies","maxPowerKw":11,"isMegawatt":false,"status":"CHARGING","source":"ndw"}},{"type":"Feature","geometry":{"type":"Point","coordinates":[4.703274,52.669422]},"properties":{"type":"charge","layer":"passenger","locationId":"756C227A-BEF1-40C6-84E8-2B0A26B5E724","name":"TNLP008493 - Dreef 26, Bergen (NH)","address":"26 Dreef","city":"Bergen","operatorName":"TotalEnergies","maxPowerKw":14,"isMegawatt":false,"status":"AVAILABLE","source":"ndw"}},{"type":"Feature","geometry":{"type":"Point","coordinates":[4.646802,52.619007]},"properties":{"type":"charge","layer":"passenger","locationId":"22B5257F-20A4-4035-98F0-074BFFD68A3E","name":"TNLP008479 - Egmonderstraatweg 18, Egmond aan den Hoef","address":"18 Egmonderstraatweg","city":"Egmond aan den Hoef","operatorName":"TotalEnergies","maxPowerKw":14,"isMegawatt":false,"status":"AVAILABLE","source":"ndw"}},{"type":"Feature","geometry":{"type":"Point","coordinates":[4.698969,52.670815]},"properties":{"type":"charge","layer":"passenger","locationId":"FD7104C2-6F10-4735-AB7F-D2DD04895824","name":"TNLP009196 - Van Reenenpark 2, Bergen (NH)","address":"2 Van Reenenpark","city":"Bergen","operatorName":"TotalEnergies","maxPowerKw":13,"isMegawatt":false,"status":"CHARGING","source":"ndw"}},{"type":"Feature","geometry":{"type":"Point","coordinates":[4.62177,52.62004]},"properties":{"type":"charge","layer":"passenger","locationId":"2799","name":"Shell Recharge NL Boulevard 4","address":"Boulevard 4","city":"Egmond aan Zee","operatorName":"Ubitricity","maxPowerKw":11,"isMegawatt":false,"status":"AVAILABLE","source":"ndw","priceKwh":0.392}},{"type":"Feature","geometry":{"type":"Point","coordinates":[4.6542,52.59356]},"properties":{"type":"charge","layer":"passenger","locationId":"30FE1A69-29BF-4FAE-936C-CEEE524628DB","name":"PP005657 - Duinweg 24, Egmond Binnen","address":"24 Duinweg","city":"Egmond Binnen","operatorName":"TotalEnergies","maxPowerKw":15,"isMegawatt":false,"status":"AVAILABLE","source":"ndw"}},{"type":"Feature","geometry":{"type":"Point","coordinates":[4.625777,52.617825]},"properties":{"type":"charge","layer":"passenger","locationId":"93EDB846-E5FC-419D-B43E-358E2B77FB19","name":"TNLP008328 - Burgemeester Eymaplein 5, Egmond aan Zee","address":"5 Burgemeester Eymaplein","city":"Egmond aan Zee","operatorName":"TotalEnergies","maxPowerKw":14,"isMegawatt":false,"status":"CHARGING","source":"ndw"}},{"type":"Feature","geometry":{"type":"Point","coordinates":[4.7023449,52.6718735]},"properties":{"type":"charge","layer":"passenger","locationId":"2216","name":"Shell Recharge NL Binnenhof 6","address":"Binnenhof 6","city":"Bergen","operatorName":"Ubitricity","maxPowerKw":22,"isMegawatt":false,"status":"AVAILABLE","source":"ndw","priceKwh":0.267}},{"type":"Feature","geometry":{"type":"Point","coordinates":[4.63024,52.66075]},"properties":{"type":"charge","layer":"passenger","locationId":"705","name":"Shell Recharge NL van der Wijckplein 9","address":"van der Wijckplein 9","city":"Bergen aan Zee","operatorName":"Ubitricity","maxPowerKw":11,"isMegawatt":false,"status":"AVAILABLE","source":"ndw","priceKwh":0.392}},{"type":"Feature","geometry":{"type":"Point","coordinates":[4.625179,52.619392]},"properties":{"type":"charge","layer":"passenger","locationId":"EE0CEC08-121E-4E4E-A0E9-6ABE15CD7A7D","name":"TNLP006542 - Dorus Rijkersplein 18, Egmond Aan Zee","address":"18 Dorus Rijkersplein","city":"Egmond Aan Zee","operatorName":"TotalEnergies","maxPowerKw":15,"isMegawatt":false,"status":"AVAILABLE","source":"ndw"}},{"type":"Feature","geometry":{"type":"Point","coordinates":[4.7055246,52.6600223]},"properties":{"type":"charge","layer":"passenger","locationId":"852","name":"Shell Recharge NL Nesdijk 49","address":"Nesdijk 49","city":"Bergen","operatorName":"Ubitricity","maxPowerKw":22,"isMegawatt":false,"status":"AVAILABLE","source":"ndw","priceKwh":0.267}},{"type":"Feature","geometry":{"type":"Point","coordinates":[4.7001991,52.673933]},"properties":{"type":"charge","layer":"passenger","locationId":"914","name":"Shell Recharge NL Luiveland 20","address":"Luiveland 20","city":"Bergen","operatorName":"Ubitricity","maxPowerKw":22,"isMegawatt":false,"status":"AVAILABLE","source":"ndw","priceKwh":0.267}},{"type":"Feature","geometry":{"type":"Point","coordinates":[4.718434,52.664626]},"properties":{"type":"charge","layer":"passenger","locationId":"91058447","name":"50five-S NL 07119094","address":"Leo Gestelweg 5","city":"Bergen","operatorName":"50five","maxPowerKw":11,"isMegawatt":false,"status":"AVAILABLE","source":"ndw"}},{"type":"Feature","geometry":{"type":"Point","coordinates":[4.624637,52.613346]},"properties":{"type":"charge","layer":"passenger","locationId":"9FDE2F69-04F1-431D-8591-C6C3CC4D5CEB","name":"PP005552 - Churchill-laan 24, Egmond Aan Zee","address":"24 Churchill-laan","city":"Egmond Aan Zee","operatorName":"TotalEnergies","maxPowerKw":15,"isMegawatt":false,"status":"CHARGING","source":"ndw"}},{"type":"Feature","geometry":{"type":"Point","coordinates":[4.7099072,52.6651225]},"properties":{"type":"charge","layer":"passenger","locationId":"1918","name":"Shell Recharge NL Boendermakerhof 12","address":"Boendermakerhof 12","city":"Bergen","operatorName":"Ubitricity","maxPowerKw":22,"isMegawatt":false,"status":"AVAILABLE","source":"ndw","priceKwh":0.267}},{"type":"Feature","geometry":{"type":"Point","coordinates":[4.6269446,52.6142345]},"properties":{"type":"charge","layer":"passenger","locationId":"828","name":"Shell Recharge NL Rooseveltstraat 48","address":"Rooseveltstraat 48","city":"Egmond aan Zee","operatorName":"Ubitricity","maxPowerKw":22,"isMegawatt":false,"status":"AVAILABLE","source":"ndw","priceKwh":0.267}},{"type":"Feature","geometry":{"type":"Point","coordinates":[4.6550811,52.599172]},"properties":{"type":"charge","layer":"passenger","locationId":"2656","name":"Shell Recharge NL Tymonskroft t.h.v. Blankenberg 24 48","address":"Tymonskroft t.h.v. Blankenberg 24 48","city":"Egmond-Binnen","operatorName":"Ubitricity","maxPowerKw":22,"isMegawatt":false,"status":"AVAILABLE","source":"ndw","priceKwh":0.267}},{"type":"Feature","geometry":{"type":"Point","coordinates":[4.622867,52.614754]},"properties":{"type":"charge","layer":"passenger","locationId":"91DF8028-0E5C-4702-ACC0-53EE1DD82B0D","name":"TNLP006264 - Eisenhowerstraat 67, Egmond Aan Zee","address":"67 Eisenhowerstraat","city":"Egmond Aan Zee","operatorName":"TotalEnergies","maxPowerKw":13,"isMegawatt":false,"status":"AVAILABLE","source":"ndw"}},{"type":"Feature","geometry":{"type":"Point","coordinates":[4.697192,52.699973]},"properties":{"type":"charge","layer":"passenger","locationId":"91067399","name":"50five-S NL 03008058","address":"Burgermeester Peecklaan 8-001","city":"Schoorl","operatorName":"50five","maxPowerKw":4,"isMegawatt":false,"status":"AVAILABLE","source":"ndw"}},{"type":"Feature","geometry":{"type":"Point","coordinates":[4.6216154,52.6160179]},"properties":{"type":"charge","layer":"passenger","locationId":"1109","name":"Shell Recharge NL Zeeweg 90","address":"Zeeweg 90","city":"Egmond aan Zee","operatorName":"Ubitricity","maxPowerKw":22,"isMegawatt":false,"status":"CHARGING","source":"ndw","priceKwh":0.267}},{"type":"Feature","geometry":{"type":"Point","coordinates":[4.656257,52.618503]},"properties":{"type":"charge","layer":"passenger","locationId":"6911cb82fd8a424e363eca2a","name":"Tervoort paal 5-6","address":"Mosselaan 124","city":"Egmond a/d Hoef","operatorName":"NXT Charging Solutions","maxPowerKw":22,"isMegawatt":false,"status":"UNAVAILABLE","source":"ndw","priceKwh":0.28}},{"type":"Feature","geometry":{"type":"Point","coordinates":[4.707268,52.70723]},"properties":{"type":"charge","layer":"passenger","locationId":"04A19D23-E23D-44E1-ABF4-497E7957729D","name":"TNLP006031 - Esdoornweg 33, Schoorl","address":"33 Esdoornweg","city":"Schoorl","operatorName":"TotalEnergies","maxPowerKw":13,"isMegawatt":false,"status":"AVAILABLE","source":"ndw"}},{"type":"Feature","geometry":{"type":"Point","coordinates":[4.629958,52.657337]},"properties":{"type":"charge","layer":"passenger","locationId":"52854516db154a809fb1","name":"Hotel Victoria Bergen aan Zee (remote parkeerplaats)","address":"Parkweg 33","city":"Bergen aan Zee","operatorName":"Opcharge","maxPowerKw":22,"isMegawatt":false,"status":"AVAILABLE","source":"ndw","priceKwh":0.49}},{"type":"Feature","geometry":{"type":"Point","coordinates":[4.690676,52.708053]},"properties":{"type":"charge","layer":"passenger","locationId":"65797d21f238fa001c160e6a","name":"Landal Residence Berger Duinen - Woning 4","address":"Heereweg  91H","city":"Schoorl","operatorName":"E-Flux by Road","maxPowerKw":22,"isMegawatt":false,"status":"AVAILABLE","source":"ndw","priceKwh":0.525}},{"type":"Feature","geometry":{"type":"Point","coordinates":[4.675131,52.720728]},"properties":{"type":"charge","layer":"passenger","locationId":"67e506f39cebaf5a2e1655eb","name":"Carpe Diem","address":"Heereweg 210","city":"Groet","operatorName":"PureCharged","maxPowerKw":11,"isMegawatt":false,"status":"AVAILABLE","source":"ndw","priceKwh":0.61}},{"type":"Feature","geometry":{"type":"Point","coordinates":[4.624204,52.61553]},"properties":{"type":"charge","layer":"passenger","locationId":"1DA59C17-D8E4-4BD5-AF1E-7055E8ADFAB4","name":"TNLP008534 - Eisenhowerstraat 17, Egmond Aan Zee","address":"17 Eisenhowerstraat","city":"Egmond Aan Zee","operatorName":"TotalEnergies","maxPowerKw":14,"isMegawatt":false,"status":"AVAILABLE","source":"ndw"}},{"type":"Feature","geometry":{"type":"Point","coordinates":[4.702568,52.667847]},"properties":{"type":"charge","layer":"passenger","locationId":"36905679-0877-4983-A169-509A77B3FE94","name":"TNLP006101 - Dorpsstraat 36, Bergen (NH)","address":"36 Dorpsstraat","city":"Bergen","operatorName":"TotalEnergies","maxPowerKw":15,"isMegawatt":false,"status":"AVAILABLE","source":"ndw"}},{"type":"Feature","geometry":{"type":"Point","coordinates":[4.63057,52.66213]},"properties":{"type":"charge","layer":"passenger","locationId":"08b4d452-eaa1-4383-b624-c401c9c00f86","name":"PP001837 - Julianalaan 3, Bergen Aan Zee","address":"3 Julianalaan","city":"Bergen Aan Zee","operatorName":"TotalEnergies","maxPowerKw":11,"isMegawatt":false,"status":"UNAVAILABLE","source":"ndw"}},{"type":"Feature","geometry":{"type":"Point","coordinates":[4.708922,52.692496]},"properties":{"type":"charge","layer":"passenger","locationId":"4227644","name":"Laadnet Gerbrandtslaan 18 (Woning 71)","address":"Gerbrandtslaan 18","city":"Schoorl","operatorName":"Laadnet","maxPowerKw":11,"isMegawatt":false,"status":"AVAILABLE","source":"ndw"}},{"type":"Feature","geometry":{"type":"Point","coordinates":[4.63206,52.62001]},"properties":{"type":"charge","layer":"passenger","locationId":"8c546319436158442fb165355cd45250","name":"Prins Clausstraat t.h.v. Plantsoenstraat 11","address":"Prins Clausstraat t.h.v. Plantsoenstraat 11","city":"Egmond aan Zee","operatorName":"Vattenfall InCharge","maxPowerKw":11,"isMegawatt":false,"status":"AVAILABLE","source":"ndw","priceKwh":0.2805}},{"type":"Feature","geometry":{"type":"Point","coordinates":[4.658144,52.5963391]},"properties":{"type":"charge","layer":"passenger","locationId":"1984","name":"Shell Recharge NL De Krijt 2","address":"De Krijt 2","city":"Egmond-Binnen","operatorName":"Ubitricity","maxPowerKw":22,"isMegawatt":false,"status":"AVAILABLE","source":"ndw","priceKwh":0.267}},{"type":"Feature","geometry":{"type":"Point","coordinates":[4.63125,52.66528]},"properties":{"type":"charge","layer":"passenger","locationId":"656257BE-9CE2-4406-A311-E8A95805033A","name":"TNLP003549 - C.F. Zeiler Boulevard 36, Bergen aan Zee","address":"36 C.F. Zeiler Boulevard","city":"Bergen aan Zee","operatorName":"TotalEnergies","maxPowerKw":17,"isMegawatt":false,"status":"CHARGING","source":"ndw"}},{"type":"Feature","geometry":{"type":"Point","coordinates":[4.70277,52.66637]},"properties":{"type":"charge","layer":"passenger","locationId":"A4B27A87-2A11-4D95-AB89-EED3456A0017","name":"PP004137 - Kruisweg 17, Bergen","address":"17 Kruisweg","city":"Bergen","operatorName":"TotalEnergies","maxPowerKw":13,"isMegawatt":false,"status":"AVAILABLE","source":"ndw"}},{"type":"Feature","geometry":{"type":"Point","coordinates":[4.707963,52.67234]},"properties":{"type":"charge","layer":"passenger","locationId":"434872C5-7E48-4E10-8404-111DC0AF81D2","name":"TNLP006089 - Haelkesteijn 1, Bergen (NH)","address":"1 Haelkesteijn","city":"Bergen","operatorName":"TotalEnergies","maxPowerKw":15,"isMegawatt":false,"status":"CHARGING","source":"ndw"}},{"type":"Feature","geometry":{"type":"Point","coordinates":[4.715781,52.667683]},"properties":{"type":"charge","layer":"passenger","locationId":"F2482C46-78A9-4223-B611-7DE5B8C65731","name":"TNLP008511 - Saenehof 4a, Bergen (NH)","address":"4a Saenehof","city":"Bergen","operatorName":"TotalEnergies","maxPowerKw":14,"isMegawatt":false,"status":"UNAVAILABLE","source":"ndw"}},{"type":"Feature","geometry":{"type":"Point","coordinates":[4.62915,52.657638]},"properties":{"type":"charge","layer":"passenger","locationId":"3da43f7ba9ff400a841c","name":"Julianaduin Bergen aan Zee","address":"Parkweg 103","city":"Bergen aan Zee","operatorName":"Opcharge","maxPowerKw":22,"isMegawatt":false,"status":"CHARGING","source":"ndw","priceKwh":0.44}},{"type":"Feature","geometry":{"type":"Point","coordinates":[4.63171,52.66415]},"properties":{"type":"charge","layer":"passenger","locationId":"1529","name":"Shell Recharge NL Julianalaan 11","address":"Julianalaan 11","city":"Bergen","operatorName":"Ubitricity","maxPowerKw":11,"isMegawatt":false,"status":"CHARGING","source":"ndw","priceKwh":0.392}},{"type":"Feature","geometry":{"type":"Point","coordinates":[4.656257,52.618503]},"properties":{"type":"charge","layer":"passenger","locationId":"697a2044f3a0300f7ed79a7a","name":"Tervoort paal 1","address":"Mosselaan 124","city":"Egmond a/d Hoef","operatorName":"NXT Charging Solutions","maxPowerKw":11,"isMegawatt":false,"status":"AVAILABLE","source":"ndw","priceKwh":0.28}},{"type":"Feature","geometry":{"type":"Point","coordinates":[4.62703,52.61714]},"properties":{"type":"charge","layer":"passenger","locationId":"421fb112-49e9-4525-940c-c858113a3634","name":"PP001672 - Torensduin 18, Egmond aan Zee","address":"18 Torensduin","city":"Egmond aan Zee","operatorName":"TotalEnergies","maxPowerKw":11,"isMegawatt":false,"status":"CHARGING","source":"ndw"}},{"type":"Feature","geometry":{"type":"Point","coordinates":[4.632513,52.660773]},"properties":{"type":"charge","layer":"passenger","locationId":"632d900633c5a511244d3f81","name":"Hotel Rasch","address":"Zeeweg 2","city":"Bergen aan Zee","operatorName":"E-Flux by Road","maxPowerKw":22,"isMegawatt":false,"status":"AVAILABLE","source":"ndw","priceKwh":0.48}},{"type":"Feature","geometry":{"type":"Point","coordinates":[4.6696903,52.7238178]},"properties":{"type":"charge","layer":"passenger","locationId":"143","name":"Shell Recharge NL Korhoendersweg 1","address":"Korhoendersweg 1","city":"Groet","operatorName":"Ubitricity","maxPowerKw":22,"isMegawatt":false,"status":"AVAILABLE","source":"ndw","priceKwh":0.392}},{"type":"Feature","geometry":{"type":"Point","coordinates":[4.6872447,52.6633838]},"properties":{"type":"charge","layer":"passenger","locationId":"825","name":"Shell Recharge NL Sluislaan 15","address":"Sluislaan 15","city":"Bergen","operatorName":"Ubitricity","maxPowerKw":22,"isMegawatt":false,"status":"AVAILABLE","source":"ndw","priceKwh":0.267}},{"type":"Feature","geometry":{"type":"Point","coordinates":[4.6489677,52.6186588]},"properties":{"type":"charge","layer":"passenger","locationId":"2254","name":"Shell Recharge NL Nieuwe Egmonderstraatweg 8","address":"Nieuwe Egmonderstraatweg 8","city":"Egmond aan den Hoef","operatorName":"Ubitricity","maxPowerKw":22,"isMegawatt":false,"status":"AVAILABLE","source":"ndw","priceKwh":0.267}},{"type":"Feature","geometry":{"type":"Point","coordinates":[4.713979,52.665394]},"properties":{"type":"charge","layer":"passenger","locationId":"AD9F9777-A8BD-4BA4-AA6E-1E140662FD50","name":"TNLP008532 - Filarskiweg 1, Bergen (NH)","address":"1 Filarskiweg","city":"Bergen","operatorName":"TotalEnergies","maxPowerKw":14,"isMegawatt":false,"status":"AVAILABLE","source":"ndw"}},{"type":"Feature","geometry":{"type":"Point","coordinates":[4.625834,52.621857]},"properties":{"type":"charge","layer":"passenger","locationId":"FB5B1FB2-1FAA-4BB4-8351-ED54B2ABBFB3","name":"TNLP008176 - Dr Wiardi Beckmanlaan 93, Egmond Aan Zee","address":"93 Dr Wiardi Beckmanlaan","city":"Egmond Aan Zee","operatorName":"TotalEnergies","maxPowerKw":15,"isMegawatt":false,"status":"CHARGING","source":"ndw"}},{"type":"Feature","geometry":{"type":"Point","coordinates":[4.665451,52.722725]},"properties":{"type":"charge","layer":"passenger","locationId":"F84680FB-B80E-4DDF-8FDC-86108E1C6FF5","name":"TNLP015324 - Reigerweg 25, Groet","address":"25 Reigerweg","city":"Groet","operatorName":"TotalEnergies","maxPowerKw":13,"isMegawatt":false,"status":"CHARGING","source":"ndw"}},{"type":"Feature","geometry":{"type":"Point","coordinates":[4.705184,52.679295]},"properties":{"type":"charge","layer":"passenger","locationId":"90A14E81-41AF-4368-84E6-F65F3291A651","name":"TNLP007982 - Joseph Bech-Nes 7, Bergen (NH)","address":"7 Joseph Bech-Nes","city":"Bergen","operatorName":"TotalEnergies","maxPowerKw":13,"isMegawatt":false,"status":"AVAILABLE","source":"ndw"}},{"type":"Feature","geometry":{"type":"Point","coordinates":[4.652549,52.586863]},"properties":{"type":"charge","layer":"passenger","locationId":"4200757","name":"Laadnet Bungalowpark Mooyeveld","address":"Mooyeveld 2","city":"Egmond-Binnen","operatorName":"Laadnet","maxPowerKw":22,"isMegawatt":false,"status":"AVAILABLE","source":"ndw"}},{"type":"Feature","geometry":{"type":"Point","coordinates":[4.715647,52.662697]},"properties":{"type":"charge","layer":"passenger","locationId":"871882B8-4E68-4F36-8545-479ACEB514B5","name":"TNLP007523 - Achterweg 18, Bergen (NH)","address":"18 Achterweg","city":"Bergen","operatorName":"TotalEnergies","maxPowerKw":13,"isMegawatt":false,"status":"AVAILABLE","source":"ndw"}},{"type":"Feature","geometry":{"type":"Point","coordinates":[4.667382,52.7241]},"properties":{"type":"charge","layer":"passenger","locationId":"42A6B127-0130-4254-B66F-22C7038D6FDE","name":"TNLP006606 - Meeuwenlaan 16, Groet","address":"16 Meeuwenlaan","city":"Groet","operatorName":"TotalEnergies","maxPowerKw":15,"isMegawatt":false,"status":"AVAILABLE","source":"ndw"}},{"type":"Feature","geometry":{"type":"Point","coordinates":[4.633258,52.622467]},"properties":{"type":"charge","layer":"passenger","locationId":"6E97E69E-1FE1-4E0D-A3DD-0FF502236D45","name":"TNLP008206 - Watertorenweg 67, Egmond Aan Zee","address":"67 Watertorenweg","city":"Egmond Aan Zee","operatorName":"TotalEnergies","maxPowerKw":15,"isMegawatt":false,"status":"AVAILABLE","source":"ndw"}},{"type":"Feature","geometry":{"type":"Point","coordinates":[4.632362,52.66197]},"properties":{"type":"charge","layer":"passenger","locationId":"91013255","name":"50five-S NL 72537.0","address":"Baan van Ravenhorst 5","city":"Bergen aan Zee","operatorName":"50five","maxPowerKw":4,"isMegawatt":false,"status":"UNAVAILABLE","source":"ndw"}},{"type":"Feature","geometry":{"type":"Point","coordinates":[4.71296,52.6693062]},"properties":{"type":"charge","layer":"passenger","locationId":"2099","name":"Shell Recharge NL Natteweg 41","address":"Natteweg 41","city":"Bergen","operatorName":"Ubitricity","maxPowerKw":22,"isMegawatt":false,"status":"AVAILABLE","source":"ndw","priceKwh":0.267}},{"type":"Feature","geometry":{"type":"Point","coordinates":[4.725188,52.665985]},"properties":{"type":"charge","layer":"passenger","locationId":"918D4B47-4E47-4694-A526-614BBDF37584","name":"TNLP005778 - Zijl 39, Bergen (NH)","address":"39 Zijl","city":"Bergen","operatorName":"TotalEnergies","maxPowerKw":13,"isMegawatt":false,"status":"CHARGING","source":"ndw"}},{"type":"Feature","geometry":{"type":"Point","coordinates":[4.70005,52.6702]},"properties":{"type":"charge","layer":"passenger","locationId":"8efe3b2f77fe28e853435aa6bf57b3fc","name":"Smalle Pad t.h.v. Breelaan 9","address":"Smalle Pad t.h.v. Breelaan 9","city":"Bergen (NH)","operatorName":"Vattenfall InCharge","maxPowerKw":11,"isMegawatt":false,"status":"AVAILABLE","source":"ndw","priceKwh":0.2805}},{"type":"Feature","geometry":{"type":"Point","coordinates":[4.65329,52.59987]},"properties":{"type":"charge","layer":"passenger","locationId":"121","name":"Shell Recharge NL Visweg 45","address":"Visweg 45","city":"Egmond-Binnen","operatorName":"Ubitricity","maxPowerKw":11,"isMegawatt":false,"status":"AVAILABLE","source":"ndw","priceKwh":0.392}},{"type":"Feature","geometry":{"type":"Point","coordinates":[4.70271,52.67092]},"properties":{"type":"charge","layer":"passenger","locationId":"ACB4CE81-42DD-456A-9741-46A43E501A85","name":"TNLP007538 - Binnenhof 23, Bergen","address":"23 Binnenhof","city":"Bergen","operatorName":"TotalEnergies","maxPowerKw":17,"isMegawatt":false,"status":"AVAILABLE","source":"ndw"}},{"type":"Feature","geometry":{"type":"Point","coordinates":[4.712129,52.674023]},"properties":{"type":"charge","layer":"passenger","locationId":"D9B285D4-C231-48CB-A572-C07C02B3B16F","name":"TNLP007227 - Langerijm 18, Bergen (NH)","address":"18 Langerijm","city":"Bergen","operatorName":"TotalEnergies","maxPowerKw":15,"isMegawatt":false,"status":"AVAILABLE","source":"ndw"}},{"type":"Feature","geometry":{"type":"Point","coordinates":[4.68435,52.70858]},"properties":{"type":"charge","layer":"passenger","locationId":"1587","name":"Shell Recharge NL Oorsprongweg 1","address":"Oorsprongweg 1","city":"Bergen","operatorName":"Ubitricity","maxPowerKw":11,"isMegawatt":false,"status":"AVAILABLE","source":"ndw","priceKwh":0.392}},{"type":"Feature","geometry":{"type":"Point","coordinates":[4.706161,52.692738]},"properties":{"type":"charge","layer":"passenger","locationId":"91276499","name":"50five-S NL PD22300003112","address":"Omloop 35","city":"Bergen","operatorName":"50five","maxPowerKw":2,"isMegawatt":false,"status":"AVAILABLE","source":"ndw"}},{"type":"Feature","geometry":{"type":"Point","coordinates":[4.705418,52.67583]},"properties":{"type":"charge","layer":"passenger","locationId":"09B9FA3F-05DD-491F-B072-EB678B6145EF","name":"TNLP034283 - Haya van Somerenstraat 25, Bergen","address":"25 Haya van Somerenstraat","city":"Bergen","operatorName":"TotalEnergies","maxPowerKw":13,"isMegawatt":false,"status":"UNAVAILABLE","source":"ndw"}},{"type":"Feature","geometry":{"type":"Point","coordinates":[4.656677,52.623474]},"properties":{"type":"charge","layer":"passenger","locationId":"F573ABFB-CD56-4DC5-A8FE-44F77148EE60","name":"TNLP007264 - Anna van Burenlaan 1, Egmond aan den Hoef","address":"1 Anna van Burenlaan","city":"Egmond aan den Hoef","operatorName":"TotalEnergies","maxPowerKw":13,"isMegawatt":false,"status":"AVAILABLE","source":"ndw"}},{"type":"Feature","geometry":{"type":"Point","coordinates":[4.6587909,52.6250777]},"properties":{"type":"charge","layer":"passenger","locationId":"1908","name":"Shell Recharge NL Prinses Beatrixlaan 67","address":"Prinses Beatrixlaan 67","city":"Egmond aan den Hoef","operatorName":"Ubitricity","maxPowerKw":22,"isMegawatt":false,"status":"AVAILABLE","source":"ndw","priceKwh":0.267}},{"type":"Feature","geometry":{"type":"Point","coordinates":[4.65258,52.61849]},"properties":{"type":"charge","layer":"passenger","locationId":"48BF48C1-412E-4846-9CFB-B73F665897CE","name":"PP005589 - De Oude Watergeul 16, Egmond aan den Hoef","address":"16 De Oude Watergeul","city":"Egmond aan den Hoef","operatorName":"TotalEnergies","maxPowerKw":15,"isMegawatt":false,"status":"CHARGING","source":"ndw"}},{"type":"Feature","geometry":{"type":"Point","coordinates":[4.724616,52.666866]},"properties":{"type":"charge","layer":"passenger","locationId":"D7B70DF1-0D19-4BBA-A33A-5C90C324584D","name":"TNLP007296 - Kolk 8, Bergen (NH)","address":"8 Kolk","city":"Bergen","operatorName":"TotalEnergies","maxPowerKw":13,"isMegawatt":false,"status":"AVAILABLE","source":"ndw"}},{"type":"Feature","geometry":{"type":"Point","coordinates":[4.656802,52.619922]},"properties":{"type":"charge","layer":"passenger","locationId":"2656058","name":"Laadnet BJ Autoservice","address":"Weg over de Bisschop 10A","city":"Egmond aan den Hoef","operatorName":"Laadnet","maxPowerKw":22,"isMegawatt":false,"status":"AVAILABLE","source":"ndw"}},{"type":"Feature","geometry":{"type":"Point","coordinates":[4.69263,52.70137]},"properties":{"type":"charge","layer":"passenger","locationId":"c944f8ad-a115-42c4-ba4b-d78992c60d4f","name":"PP001202 - Roode Leeuw 36, Schoorl","address":"36 Roode Leeuw","city":"Schoorl","operatorName":"TotalEnergies","maxPowerKw":11,"isMegawatt":false,"status":"AVAILABLE","source":"ndw"}},{"type":"Feature","geometry":{"type":"Point","coordinates":[4.71894,52.6627]},"properties":{"type":"charge","layer":"passenger","locationId":"a11e7057-6bee-4ae7-9d85-4877deb08d55","name":"PP001941 - Piet Boendermakerweg 51, Bergen","address":"51 Piet Boendermakerweg","city":"Bergen","operatorName":"TotalEnergies","maxPowerKw":11,"isMegawatt":false,"status":"AVAILABLE","source":"ndw"}},{"type":"Feature","geometry":{"type":"Point","coordinates":[4.6292554,52.6159028]},"properties":{"type":"charge","layer":"passenger","locationId":"844","name":"Shell Recharge NL Zeeweg 22","address":"Zeeweg 22","city":"Egmond aan Zee","operatorName":"Ubitricity","maxPowerKw":22,"isMegawatt":false,"status":"AVAILABLE","source":"ndw","priceKwh":0.267}},{"type":"Feature","geometry":{"type":"Point","coordinates":[4.65712,52.62579]},"properties":{"type":"charge","layer":"passenger","locationId":"6a3453cef879240541c37ea84ce1c835","name":"Prinses Irenelaan 101","address":"Prinses Irenelaan 101","city":"Egmond aan den Hoef","operatorName":"Vattenfall InCharge","maxPowerKw":11,"isMegawatt":false,"status":"AVAILABLE","source":"ndw","priceKwh":0.2805}},{"type":"Feature","geometry":{"type":"Point","coordinates":[4.6583323,52.622803]},"properties":{"type":"charge","layer":"passenger","locationId":"2266","name":"Shell Recharge NL Anna van Burenlaan 42","address":"Anna van Burenlaan 42","city":"Egmond aan den Hoef","operatorName":"Ubitricity","maxPowerKw":22,"isMegawatt":false,"status":"AVAILABLE","source":"ndw","priceKwh":0.267}},{"type":"Feature","geometry":{"type":"Point","coordinates":[4.630782,52.66042]},"properties":{"type":"charge","layer":"passenger","locationId":"F123F5D2-22E6-418F-804B-8EF8B3C1160F","name":"TNLP005786 - Zeeweg 38, Bergen Aan Zee","address":"38 Zeeweg","city":"Bergen Aan Zee","operatorName":"TotalEnergies","maxPowerKw":15,"isMegawatt":false,"status":"CHARGING","source":"ndw"}},{"type":"Feature","geometry":{"type":"Point","coordinates":[4.703933,52.66107]},"properties":{"type":"charge","layer":"passenger","locationId":"C4A27BFB-E4A5-452D-9393-04815E87E54C","name":"TNLP007521 - Mericilaan 12, Bergen (NH)","address":"12 Mericilaan","city":"Bergen","operatorName":"TotalEnergies","maxPowerKw":15,"isMegawatt":false,"status":"AVAILABLE","source":"ndw"}},{"type":"Feature","geometry":{"type":"Point","coordinates":[4.714493,52.67256]},"properties":{"type":"charge","layer":"passenger","locationId":"8199CA18-B3CD-4FBC-A3B8-55D855AE6670","name":"TNLP034066 - Van Stavelenplein 22, Bergen","address":"22 Van Stavelenplein","city":"Bergen","operatorName":"TotalEnergies","maxPowerKw":13,"isMegawatt":false,"status":"UNAVAILABLE","source":"ndw"}},{"type":"Feature","geometry":{"type":"Point","coordinates":[4.697167,52.682011]},"properties":{"type":"charge","layer":"passenger","locationId":"3968","name":"50five Exploitatie Hotel Blooming","address":"Duinweg 5","city":"Bergen","operatorName":"50five","maxPowerKw":11,"isMegawatt":false,"status":"AVAILABLE","source":"ndw"}},{"type":"Feature","geometry":{"type":"Point","coordinates":[4.631959,52.61804]},"properties":{"type":"charge","layer":"passenger","locationId":"3570132","name":"Laadnet De Zorgcirkel Prins Hendrik","address":"De Loet 1","city":"Egmond aan Zee","operatorName":"Laadnet","maxPowerKw":22,"isMegawatt":false,"status":"AVAILABLE","source":"ndw"}},{"type":"Feature","geometry":{"type":"Point","coordinates":[4.72025,52.665947]},"properties":{"type":"charge","layer":"passenger","locationId":"2E8BB07F-B13F-4A54-BD98-4D2A7113A7E7","name":"TNLP008414 - Wiel 17, Bergen (NH)","address":"17 Wiel","city":"Bergen","operatorName":"TotalEnergies","maxPowerKw":14,"isMegawatt":false,"status":"UNAVAILABLE","source":"ndw"}},{"type":"Feature","geometry":{"type":"Point","coordinates":[4.701682,52.708424]},"properties":{"type":"charge","layer":"passenger","locationId":"0B502D89-A33A-40F3-8942-A476204956B8","name":"TNLP003674 - Duindoornplantsoen 10, Schoorl","address":"10 Duindoornplantsoen","city":"Schoorl","operatorName":"TotalEnergies","maxPowerKw":17,"isMegawatt":false,"status":"AVAILABLE","source":"ndw"}},{"type":"Feature","geometry":{"type":"Point","coordinates":[4.702397,52.685659]},"properties":{"type":"charge","layer":"passenger","locationId":"642e787658a7ac0012057cda","name":"Sven Kraakman 's station","address":"duinweg  129","city":"Schoorl","operatorName":"E-Flux by Road","maxPowerKw":22,"isMegawatt":false,"status":"AVAILABLE","source":"ndw","priceKwh":0.45}},{"type":"Feature","geometry":{"type":"Point","coordinates":[4.67819,52.715136]},"properties":{"type":"charge","layer":"passenger","locationId":"91057964","name":"50five-S NL 03000103","address":"Heereweg 193","city":"Schoorl","operatorName":"50five","maxPowerKw":11,"isMegawatt":false,"status":"CHARGING","source":"ndw"}},{"type":"Feature","geometry":{"type":"Point","coordinates":[4.704504,52.676772]},"properties":{"type":"charge","layer":"passenger","locationId":"5071a085a4280657a719d1303c3c2b44","name":"Joke Smitstraat 50","address":"Joke Smitstraat 50","city":"Bergen","operatorName":"Vattenfall InCharge","maxPowerKw":11,"isMegawatt":false,"status":"AVAILABLE","source":"ndw","priceKwh":0.2805}},{"type":"Feature","geometry":{"type":"Point","coordinates":[4.690676,52.708053]},"properties":{"type":"charge","layer":"passenger","locationId":"65797cd3d6e042001c945fff","name":"Landal Residence Berger Duinen - Woning 3","address":"Heereweg  91G","city":"Schoorl","operatorName":"E-Flux by Road","maxPowerKw":22,"isMegawatt":false,"status":"AVAILABLE","source":"ndw","priceKwh":0.525}},{"type":"Feature","geometry":{"type":"Point","coordinates":[4.64671,52.71897]},"properties":{"type":"charge","layer":"passenger","locationId":"1507","name":"Shell Recharge NL Hargerstrandweg 9202","address":"Hargerstrandweg 9202","city":"Bergen","operatorName":"Ubitricity","maxPowerKw":11,"isMegawatt":false,"status":"CHARGING","source":"ndw","priceKwh":0.392}},{"type":"Feature","geometry":{"type":"Point","coordinates":[4.62902,52.66051]},"properties":{"type":"charge","layer":"passenger","locationId":"FAF973EE-A405-487E-B3D0-0E5FC7B01A9A","name":"Eneco eMobility van der Wijckplein 16 Bergen aan Zee","address":"van der Wijckplein 16","city":"Bergen aan Zee","operatorName":"Eneco","maxPowerKw":22,"isMegawatt":false,"status":"AVAILABLE","source":"ndw","priceKwh":0.32}},{"type":"Feature","geometry":{"type":"Point","coordinates":[4.62906,52.62002]},"properties":{"type":"charge","layer":"passenger","locationId":"362","name":"Shell Recharge NL Pastoor van Kleefstraat 20","address":"Pastoor van Kleefstraat 20","city":"Egmond aan Zee","operatorName":"Ubitricity","maxPowerKw":11,"isMegawatt":false,"status":"AVAILABLE","source":"ndw","priceKwh":0.392}},{"type":"Feature","geometry":{"type":"Point","coordinates":[4.703068,52.687813]},"properties":{"type":"charge","layer":"passenger","locationId":"69b8088c53b4e83de70817cd","name":"Hazendael 's station","address":"Duinweg 60","city":"Schoorl","operatorName":"E-Flux by Road","maxPowerKw":22,"isMegawatt":false,"status":"AVAILABLE","source":"ndw","priceKwh":0.48}},{"type":"Feature","geometry":{"type":"Point","coordinates":[4.701412,52.673058]},"properties":{"type":"charge","layer":"passenger","locationId":"CFCD47F9-472A-4865-8BC0-92D4C9971530","name":"PP005157 - Notweg 32, Bergen","address":"32 Notweg","city":"Bergen","operatorName":"TotalEnergies","maxPowerKw":13,"isMegawatt":false,"status":"AVAILABLE","source":"ndw"}},{"type":"Feature","geometry":{"type":"Point","coordinates":[4.644494,52.596256]},"properties":{"type":"charge","layer":"passenger","locationId":"ABFAC594-5606-49CF-82F9-3F564B2535B4","name":"PP005633 - Sint Adelbertusweg 31, Egmond Binnen","address":"31 Sint Adelbertusweg","city":"Egmond Binnen","operatorName":"TotalEnergies","maxPowerKw":15,"isMegawatt":false,"status":"AVAILABLE","source":"ndw"}},{"type":"Feature","geometry":{"type":"Point","coordinates":[4.690316,52.708346]},"properties":{"type":"charge","layer":"passenger","locationId":"65797edb19ccc2001ca2f399","name":"Landal Residence Berger Duinen - Woning 10","address":"Heereweg 93a","city":"Schoorl","operatorName":"E-Flux by Road","maxPowerKw":22,"isMegawatt":false,"status":"AVAILABLE","source":"ndw","priceKwh":0.525}},{"type":"Feature","geometry":{"type":"Point","coordinates":[4.656257,52.618503]},"properties":{"type":"charge","layer":"passenger","locationId":"6911ea8a55c1cfc90de63779","name":"Tervoort paal 3-4","address":"Mosselaan 124","city":"Egmond a/d Hoef","operatorName":"NXT Charging Solutions","maxPowerKw":22,"isMegawatt":false,"status":"AVAILABLE","source":"ndw","priceKwh":0.28}},{"type":"Feature","geometry":{"type":"Point","coordinates":[4.690599,52.708831]},"properties":{"type":"charge","layer":"passenger","locationId":"65797d6beadfad001c01e068","name":"Landal Residence Berger Duinen - Woning 6","address":"Heereweg  92J","city":"Schoorl","operatorName":"E-Flux by Road","maxPowerKw":22,"isMegawatt":false,"status":"AVAILABLE","source":"ndw","priceKwh":0.525}},{"type":"Feature","geometry":{"type":"Point","coordinates":[4.657602,52.626694]},"properties":{"type":"charge","layer":"passenger","locationId":"3D019751-3ABF-4851-AC4E-C30E86BBB3F2","name":"TNLP007355 - Prins Willem Alexanderlaan 56, Egmond aan den Hoef","address":"56 Prins Willem Alexanderlaan","city":"Egmond aan den Hoef","operatorName":"TotalEnergies","maxPowerKw":15,"isMegawatt":false,"status":"AVAILABLE","source":"ndw"}},{"type":"Feature","geometry":{"type":"Point","coordinates":[4.7101335,52.661787]},"properties":{"type":"charge","layer":"passenger","locationId":"2206","name":"Shell Recharge NL Hondsdrafweg 7","address":"Hondsdrafweg 7","city":"Bergen","operatorName":"Ubitricity","maxPowerKw":22,"isMegawatt":false,"status":"AVAILABLE","source":"ndw","priceKwh":0.267}},{"type":"Feature","geometry":{"type":"Point","coordinates":[4.656257,52.618503]},"properties":{"type":"charge","layer":"passenger","locationId":"6911c3ed084eac51a267e028","name":"Tervoort paal 2","address":"mosselaan 124","city":"Egmond a/d Hoef","operatorName":"NXT Charging Solutions","maxPowerKw":22,"isMegawatt":false,"status":"AVAILABLE","source":"ndw","priceKwh":0.28}},{"type":"Feature","geometry":{"type":"Point","coordinates":[4.703749,52.708794]},"properties":{"type":"charge","layer":"passenger","locationId":"4794BD2C-50C1-416D-B21F-5D25EE3195D0","name":"TNLP008470 - Ribesweg 11, Schoorl","address":"11 Ribesweg","city":"Schoorl","operatorName":"TotalEnergies","maxPowerKw":13,"isMegawatt":false,"status":"AVAILABLE","source":"ndw"}},{"type":"Feature","geometry":{"type":"Point","coordinates":[4.654664,52.594534]},"properties":{"type":"charge","layer":"passenger","locationId":"26d51d4a-6f79-4d41-949f-546f08bab8d8","name":"Kerkplein","address":"Kerkplein 25","city":"Egmond-Binnen","operatorName":"Vattenfall InCharge","maxPowerKw":11,"isMegawatt":false,"status":"UNAVAILABLE","source":"ndw","priceKwh":0.4316}},{"type":"Feature","geometry":{"type":"Point","coordinates":[4.694521,52.699739]},"properties":{"type":"charge","layer":"passenger","locationId":"2041","name":"50five Exploitatie 2041","address":"Duinweg 15","city":"Schoorl","operatorName":"50five","maxPowerKw":11,"isMegawatt":false,"status":"AVAILABLE","source":"ndw"}},{"type":"Feature","geometry":{"type":"Point","coordinates":[4.6299,52.62291]},"properties":{"type":"charge","layer":"passenger","locationId":"9995ff9cd650a3a9e2dd2081d26ca454","name":"Jan Dirk Z'n Dal 83","address":"Jan Dirk Z'n Dal 83","city":"Egmond aan Zee","operatorName":"Vattenfall InCharge","maxPowerKw":11,"isMegawatt":false,"status":"AVAILABLE","source":"ndw","priceKwh":0.2805}},{"type":"Feature","geometry":{"type":"Point","coordinates":[4.6218556,52.619226]},"properties":{"type":"charge","layer":"passenger","locationId":"2208","name":"Shell Recharge NL Vuurtorenplein 1","address":"Vuurtorenplein 1","city":"Egmond aan Zee","operatorName":"Ubitricity","maxPowerKw":22,"isMegawatt":false,"status":"CHARGING","source":"ndw","priceKwh":0.267}},{"type":"Feature","geometry":{"type":"Point","coordinates":[4.659033,52.634443]},"properties":{"type":"charge","layer":"passenger","locationId":"90929153","name":"Van Leeuwen VAN_5936","address":"Herenweg 280 - huisje 52","city":"Egmond aan den HOef","operatorName":"Van Leeuwen","maxPowerKw":11,"isMegawatt":false,"status":"AVAILABLE","source":"ndw"}},{"type":"Feature","geometry":{"type":"Point","coordinates":[4.62495,52.62049]},"properties":{"type":"charge","layer":"passenger","locationId":"A90B2846-EBD8-481C-A9C2-5348D61E51BC","name":"PP004113 - Julianastraat 36, Egmond aan Zee","address":"36 Julianastraat","city":"Egmond aan Zee","operatorName":"TotalEnergies","maxPowerKw":13,"isMegawatt":false,"status":"AVAILABLE","source":"ndw"}},{"type":"Feature","geometry":{"type":"Point","coordinates":[4.690676,52.708053]},"properties":{"type":"charge","layer":"passenger","locationId":"65797bff885af5001c4a1243","name":"Landal Residence Berger Duinen - Woning 1","address":"Heereweg  91E","city":"Schoorl","operatorName":"E-Flux by Road","maxPowerKw":17,"isMegawatt":false,"status":"AVAILABLE","source":"ndw","priceKwh":0.525}},{"type":"Feature","geometry":{"type":"Point","coordinates":[4.700049,52.670135]},"properties":{"type":"charge","layer":"passenger","locationId":"E8BD2128-7857-420C-826E-F0C0ADEC4CA3","name":"TNLP006235 - Breelaan 5, Bergen (NH)","address":"5 Breelaan","city":"Bergen","operatorName":"TotalEnergies","maxPowerKw":13,"isMegawatt":false,"status":"AVAILABLE","source":"ndw"}},{"type":"Feature","geometry":{"type":"Point","coordinates":[4.702358,52.67819]},"properties":{"type":"charge","layer":"passenger","locationId":"8DFE0238-8863-46E9-B514-6BB8093214BA","name":"TNLP006515 - Spaak-Nes 5, Bergen (NH)","address":"5 Spaak-Nes","city":"Bergen","operatorName":"TotalEnergies","maxPowerKw":13,"isMegawatt":false,"status":"UNAVAILABLE","source":"ndw"}},{"type":"Feature","geometry":{"type":"Point","coordinates":[4.697699,52.695478]},"properties":{"type":"charge","layer":"passenger","locationId":"91091228","name":"50five-S NL 07005367","address":"Duinweg 45","city":"Schoorl","operatorName":"50five","maxPowerKw":11,"isMegawatt":false,"status":"AVAILABLE","source":"ndw"}},{"type":"Feature","geometry":{"type":"Point","coordinates":[4.623854,52.621516]},"properties":{"type":"charge","layer":"passenger","locationId":"649590e8ac9ce5001c2ef91d","name":"Aussie","address":"Prins Bernhardstraat  7","city":"Egmond aan Zee","operatorName":"E-Flux by Road","maxPowerKw":22,"isMegawatt":false,"status":"AVAILABLE","source":"ndw","priceKwh":0.48}},{"type":"Feature","geometry":{"type":"Point","coordinates":[4.6296,52.62321]},"properties":{"type":"charge","layer":"passenger","locationId":"627","name":"Shell Recharge NL Jan Dirk z'n Dal 83","address":"Jan Dirk z'n Dal 83","city":"Egmond aan Zee","operatorName":"Ubitricity","maxPowerKw":11,"isMegawatt":false,"status":"AVAILABLE","source":"ndw","priceKwh":0.392}},{"type":"Feature","geometry":{"type":"Point","coordinates":[4.653946,52.624687]},"properties":{"type":"charge","layer":"passenger","locationId":"564d8811-ea89-4fdb-bf56-b668ef95ac9d","name":"TNLP009164 - Prinses Margrietlaan 34, Egmond aan den Hoef","address":"34 Prinses Margrietlaan","city":"Egmond aan den Hoef","operatorName":"TotalEnergies","maxPowerKw":13,"isMegawatt":false,"status":"AVAILABLE","source":"ndw"}},{"type":"Feature","geometry":{"type":"Point","coordinates":[4.704076,52.67825]},"properties":{"type":"charge","layer":"passenger","locationId":"65442B17-8EEC-4830-BACD-3F5A569A829E","name":"TNLP034269 - Hallstein-Nes 20, Bergen","address":"20 Hallstein-Nes","city":"Bergen","operatorName":"TotalEnergies","maxPowerKw":13,"isMegawatt":false,"status":"UNAVAILABLE","source":"ndw"}},{"type":"Feature","geometry":{"type":"Point","coordinates":[4.701801,52.669588]},"properties":{"type":"charge","layer":"passenger","locationId":"68a3389c45c97f966a4f6d30","name":"Parkeergarage centrum Bergen","address":"Plein  4 Park","city":"Bergen","operatorName":"E-Flux by Road","maxPowerKw":22,"isMegawatt":false,"status":"AVAILABLE","source":"ndw","priceKwh":0.73}},{"type":"Feature","geometry":{"type":"Point","coordinates":[4.642775,52.726017]},"properties":{"type":"charge","layer":"passenger","locationId":"3543009","name":"Laadnet Strandstudios","address":"Heereweg 403","city":"Schoorl","operatorName":"Laadnet","maxPowerKw":22,"isMegawatt":false,"status":"AVAILABLE","source":"ndw"}},{"type":"Feature","geometry":{"type":"Point","coordinates":[4.65901,52.62279]},"properties":{"type":"charge","layer":"passenger","locationId":"646","name":"Shell Recharge NL Anna van Burenlaan 71","address":"Anna van Burenlaan 71","city":"Egmond aan den Hoef","operatorName":"Ubitricity","maxPowerKw":11,"isMegawatt":false,"status":"AVAILABLE","source":"ndw","priceKwh":0.392}},{"type":"Feature","geometry":{"type":"Point","coordinates":[4.652708,52.5960256]},"properties":{"type":"charge","layer":"passenger","locationId":"1362","name":"Shell Recharge NL Sint Adelbertusweg 32","address":"Sint Adelbertusweg 32","city":"Egmond-Binnen","operatorName":"Ubitricity","maxPowerKw":22,"isMegawatt":false,"status":"AVAILABLE","source":"ndw","priceKwh":0.267}},{"type":"Feature","geometry":{"type":"Point","coordinates":[4.711931,52.674965]},"properties":{"type":"charge","layer":"passenger","locationId":"06161C95-C844-4C3B-A84C-691CA3B47230","name":"TNLP003500 - Kerkedijk 88, Bergen","address":"88 Kerkedijk","city":"Bergen","operatorName":"TotalEnergies","maxPowerKw":17,"isMegawatt":false,"status":"AVAILABLE","source":"ndw"}},{"type":"Feature","geometry":{"type":"Point","coordinates":[4.720575,52.667152]},"properties":{"type":"charge","layer":"passenger","locationId":"6F527436-FA33-455C-9219-2DA1B8E343F5","name":"TNLP007311 - Die 1, Bergen (NH)","address":"1 Die","city":"Bergen","operatorName":"TotalEnergies","maxPowerKw":13,"isMegawatt":false,"status":"AVAILABLE","source":"ndw"}},{"type":"Feature","geometry":{"type":"Point","coordinates":[4.701479,52.669764]},"properties":{"type":"charge","layer":"passenger","locationId":"690def270a4ec5cf9a866d6c","name":"Bart Schrama 's station","address":"plein  4","city":"Bergen","operatorName":"E-Flux by Road","maxPowerKw":22,"isMegawatt":false,"status":"AVAILABLE","source":"ndw","priceKwh":0.73}},{"type":"Feature","geometry":{"type":"Point","coordinates":[4.708112,52.671864]},"properties":{"type":"charge","layer":"passenger","locationId":"D555A156-B4EA-44F7-99D1-D1A8F258C1B8","name":"TNLP008473 - Prins Hendriklaan 38, Bergen (NH)","address":"38 Prins Hendriklaan","city":"Bergen","operatorName":"TotalEnergies","maxPowerKw":14,"isMegawatt":false,"status":"AVAILABLE","source":"ndw"}},{"type":"Feature","geometry":{"type":"Point","coordinates":[4.69423,52.70242]},"properties":{"type":"charge","layer":"passenger","locationId":"7FCED639-C71D-4262-8D7C-C48AAE0C4E7B","name":"TNLP003592 - Paardenmarkt 50, Schoorl","address":"50 Paardenmarkt","city":"Schoorl","operatorName":"TotalEnergies","maxPowerKw":17,"isMegawatt":false,"status":"CHARGING","source":"ndw"}},{"type":"Feature","geometry":{"type":"Point","coordinates":[4.630658,52.660409]},"properties":{"type":"charge","layer":"passenger","locationId":"e8b39aa5-338f-4eb8-8068-dfab08c942d5","name":"Zeeweg","address":"Zeeweg 42","city":"Bergen aan Zee","operatorName":"Vattenfall InCharge","maxPowerKw":11,"isMegawatt":false,"status":"UNAVAILABLE","source":"ndw","priceKwh":0.4316}},{"type":"Feature","geometry":{"type":"Point","coordinates":[4.654587,52.599174]},"properties":{"type":"charge","layer":"passenger","locationId":"05743A35-7D50-4AED-A78F-A0CCFB189D66","name":"TNLP005817 - Visweg 45, Egmond Binnen","address":"45 Visweg","city":"Egmond Binnen","operatorName":"TotalEnergies","maxPowerKw":13,"isMegawatt":false,"status":"AVAILABLE","source":"ndw"}},{"type":"Feature","geometry":{"type":"Point","coordinates":[4.690676,52.708053]},"properties":{"type":"charge","layer":"passenger","locationId":"65797f1a5daa3d001c72837a","name":"Landal Residence Berger Duinen - Woning 12","address":"Heereweg  91A","city":"Schoorl","operatorName":"E-Flux by Road","maxPowerKw":22,"isMegawatt":false,"status":"AVAILABLE","source":"ndw","priceKwh":0.525}},{"type":"Feature","geometry":{"type":"Point","coordinates":[4.70698,52.66525]},"properties":{"type":"charge","layer":"passenger","locationId":"344","name":"Shell Recharge NL Kloosterlaan 4","address":"Kloosterlaan 4","city":"Bergen","operatorName":"Ubitricity","maxPowerKw":11,"isMegawatt":false,"status":"AVAILABLE","source":"ndw","priceKwh":0.392}},{"type":"Feature","geometry":{"type":"Point","coordinates":[4.690316,52.708346]},"properties":{"type":"charge","layer":"passenger","locationId":"65797db743293f001c19a591","name":"Landal Residence Berger Duinen - Woning 9","address":"Heereweg  93","city":"Schoorl","operatorName":"E-Flux by Road","maxPowerKw":22,"isMegawatt":false,"status":"AVAILABLE","source":"ndw","priceKwh":0.525}},{"type":"Feature","geometry":{"type":"Point","coordinates":[4.663813,52.722056]},"properties":{"type":"charge","layer":"passenger","locationId":"13eda9ff-af4a-4832-9b17-15f774836716","name":"Heereweg","address":"Heereweg 309","city":"Groet","operatorName":"Vattenfall InCharge","maxPowerKw":11,"isMegawatt":false,"status":"CHARGING","source":"ndw","priceKwh":0.4316}},{"type":"Feature","geometry":{"type":"Point","coordinates":[4.723525,52.66547]},"properties":{"type":"charge","layer":"passenger","locationId":"B3F5F837-220E-4A74-850A-1E5A9454C4C8","name":"TNLP008527 - Van Blaaderenweg 35, Bergen (NH)","address":"35 Van Blaaderenweg","city":"Bergen","operatorName":"TotalEnergies","maxPowerKw":14,"isMegawatt":false,"status":"AVAILABLE","source":"ndw"}},{"type":"Feature","geometry":{"type":"Point","coordinates":[4.700569,52.659988]},"properties":{"type":"charge","layer":"passenger","locationId":"91147265","name":"50five-S NL ICUEVE000494","address":"Nesdijk 25","city":"Bergen","operatorName":"50five","maxPowerKw":14,"isMegawatt":false,"status":"UNAVAILABLE","source":"ndw"}},{"type":"Feature","geometry":{"type":"Point","coordinates":[4.709345,52.673813]},"properties":{"type":"charge","layer":"passenger","locationId":"F95D7C9D-95DE-438B-A642-BB07249A98F6","name":"TNLP009125 - Van Teijlingenlaan 14, Bergen (NH)","address":"14 Van Teijlingenlaan","city":"Bergen","operatorName":"TotalEnergies","maxPowerKw":15,"isMegawatt":false,"status":"AVAILABLE","source":"ndw"}},{"type":"Feature","geometry":{"type":"Point","coordinates":[4.652069,52.620327]},"properties":{"type":"charge","layer":"passenger","locationId":"4551D6E3-8C3C-4BB7-B855-356915BD0513","name":"TNLP007037 - Hanswijk 1, Egmond aan den Hoef","address":"1 Hanswijk","city":"Egmond aan den Hoef","operatorName":"TotalEnergies","maxPowerKw":13,"isMegawatt":false,"status":"UNAVAILABLE","source":"ndw"}},{"type":"Feature","geometry":{"type":"Point","coordinates":[4.68058,52.664887]},"properties":{"type":"charge","layer":"passenger","locationId":"91146823","name":"50five-S NL 03012887","address":"Buerweg 29","city":"Bergen","operatorName":"50five","maxPowerKw":11,"isMegawatt":false,"status":"AVAILABLE","source":"ndw"}},{"type":"Feature","geometry":{"type":"Point","coordinates":[4.644674,52.726343]},"properties":{"type":"charge","layer":"passenger","locationId":"3518882","name":"Laadnet Strandhotel Camperduin","address":"Heereweg 395","city":"Schoorl","operatorName":"Laadnet","maxPowerKw":22,"isMegawatt":false,"status":"AVAILABLE","source":"ndw"}},{"type":"Feature","geometry":{"type":"Point","coordinates":[4.62627,52.61951]},"properties":{"type":"charge","layer":"passenger","locationId":"1647","name":"Shell Recharge NL Trompstraat 15","address":"Trompstraat 15","city":"Bergen","operatorName":"Ubitricity","maxPowerKw":11,"isMegawatt":false,"status":"CHARGING","source":"ndw","priceKwh":0.392}},{"type":"Feature","geometry":{"type":"Point","coordinates":[4.621882,52.613377]},"properties":{"type":"charge","layer":"passenger","locationId":"19eef021-a5fb-46ed-a63e-aea351e2b9b0","name":"TNLP008962 - Churchilllaan 52, Egmond aan Zee","address":"52 Churchilllaan","city":"Egmond aan Zee","operatorName":"TotalEnergies","maxPowerKw":13,"isMegawatt":false,"status":"AVAILABLE","source":"ndw"}},{"type":"Feature","geometry":{"type":"Point","coordinates":[4.694561,52.674854]},"properties":{"type":"charge","layer":"passenger","locationId":"29D84886-CFCE-4336-AECB-A21A1FB1CFB4","name":"TNLP008620 - Breelaan 92, Bergen (NH)","address":"92 Breelaan","city":"Bergen","operatorName":"TotalEnergies","maxPowerKw":13,"isMegawatt":false,"status":"AVAILABLE","source":"ndw"}},{"type":"Feature","geometry":{"type":"Point","coordinates":[4.655626,52.596077]},"properties":{"type":"charge","layer":"passenger","locationId":"4E130453-7CFE-47F7-AACA-F737C4874BC4","name":"TNLP007030 - Herenweg 59, Egmond-Binnen","address":"59 Herenweg","city":"Egmond-Binnen","operatorName":"TotalEnergies","maxPowerKw":13,"isMegawatt":false,"status":"AVAILABLE","source":"ndw"}},{"type":"Feature","geometry":{"type":"Point","coordinates":[4.62445,52.62338]},"properties":{"type":"charge","layer":"passenger","locationId":"1487","name":"Shell Recharge NL Docktor Wiardi Beckmanlaan 44","address":"Docktor Wiardi Beckmanlaan 44","city":"Bergen","operatorName":"Ubitricity","maxPowerKw":11,"isMegawatt":false,"status":"CHARGING","source":"ndw","priceKwh":0.392}},{"type":"Feature","geometry":{"type":"Point","coordinates":[4.68273,52.71457]},"properties":{"type":"charge","layer":"passenger","locationId":"1512","name":"Shell Recharge NL Heereweg 150","address":"Heereweg 150","city":"Bergen","operatorName":"Ubitricity","maxPowerKw":11,"isMegawatt":false,"status":"UNAVAILABLE","source":"ndw","priceKwh":0.392}},{"type":"Feature","geometry":{"type":"Point","coordinates":[4.70002,52.663822]},"properties":{"type":"charge","layer":"passenger","locationId":"C3AC4220-D64E-4B68-B2EB-0AE9CD5C92FC","name":"TNLP006100 - Broekbeeklaan 34, Bergen (NH)","address":"34 Broekbeeklaan","city":"Bergen","operatorName":"TotalEnergies","maxPowerKw":13,"isMegawatt":false,"status":"AVAILABLE","source":"ndw"}},{"type":"Feature","geometry":{"type":"Point","coordinates":[4.657131,52.624336]},"properties":{"type":"charge","layer":"passenger","locationId":"3f529515-2614-482a-bef6-3950309c2022","name":"Prinses Beatrixlaan","address":"Prinses Beatrixlaan 55","city":"Egmond aan den Hoef","operatorName":"Vattenfall InCharge","maxPowerKw":11,"isMegawatt":false,"status":"UNAVAILABLE","source":"ndw","priceKwh":0.4316}},{"type":"Feature","geometry":{"type":"Point","coordinates":[4.6929343,52.7009646]},"properties":{"type":"charge","layer":"passenger","locationId":"2207","name":"Shell Recharge NL Roode Leeuw 18","address":"Roode Leeuw 18","city":"Schoorl","operatorName":"Ubitricity","maxPowerKw":22,"isMegawatt":false,"status":"CHARGING","source":"ndw","priceKwh":0.267}},{"type":"Feature","geometry":{"type":"Point","coordinates":[4.622112,52.615724]},"properties":{"type":"charge","layer":"passenger","locationId":"39bf3150dcbc231312e3a670c1954001","name":"Kennedyboulevard","address":"Kennedyboulevard","city":"Egmond aan Zee","operatorName":"Vattenfall InCharge","maxPowerKw":11,"isMegawatt":false,"status":"AVAILABLE","source":"ndw","priceKwh":0.2805}},{"type":"Feature","geometry":{"type":"Point","coordinates":[4.69645,52.71089]},"properties":{"type":"charge","layer":"passenger","locationId":"1576","name":"Shell Recharge NL Middenweijdt 25","address":"Middenweijdt 25","city":"Bergen","operatorName":"Ubitricity","maxPowerKw":11,"isMegawatt":false,"status":"AVAILABLE","source":"ndw","priceKwh":0.392}},{"type":"Feature","geometry":{"type":"Point","coordinates":[4.717919,52.66316]},"properties":{"type":"charge","layer":"passenger","locationId":"B1005BB3-45BF-448C-84E5-DE7B9E4E68BF","name":"TNLP008585 - Jaap Weijandweg 18, Bergen","address":"18 Jaap Weijandweg","city":"Bergen","operatorName":"TotalEnergies","maxPowerKw":14,"isMegawatt":false,"status":"UNAVAILABLE","source":"ndw"}},{"type":"Feature","geometry":{"type":"Point","coordinates":[4.650922,52.617844]},"properties":{"type":"charge","layer":"passenger","locationId":"36888EA5-EFF2-41CF-B2E7-710C51140BE4","name":"TNLP007367 - Dorpskroft 4, Egmond aan den Hoef","address":"4 Dorpskroft","city":"Egmond aan den Hoef","operatorName":"TotalEnergies","maxPowerKw":13,"isMegawatt":false,"status":"AVAILABLE","source":"ndw"}},{"type":"Feature","geometry":{"type":"Point","coordinates":[4.649698,52.619583]},"properties":{"type":"charge","layer":"passenger","locationId":"78F32272-51EC-4981-BB65-66AE92DF925B","name":"TNLP015107 - Herenweg 185, Egmond aan den Hoef","address":"185 Herenweg","city":"Egmond aan den Hoef","operatorName":"TotalEnergies","maxPowerKw":17,"isMegawatt":false,"status":"UNAVAILABLE","source":"ndw"}},{"type":"Feature","geometry":{"type":"Point","coordinates":[4.708707,52.663303]},"properties":{"type":"charge","layer":"passenger","locationId":"88869246-D205-4C4A-B2B9-42CD7CE3614A","name":"TNLP007844 - Dokter Blokweg 2, Bergen","address":"2 Dokter Blokweg","city":"Bergen","operatorName":"TotalEnergies","maxPowerKw":15,"isMegawatt":false,"status":"UNAVAILABLE","source":"ndw"}},{"type":"Feature","geometry":{"type":"Point","coordinates":[4.62512,52.6164]},"properties":{"type":"charge","layer":"passenger","locationId":"521","name":"Shell Recharge NL Zeeweg 52","address":"Zeeweg 52","city":"Egmond aan Zee","operatorName":"Ubitricity","maxPowerKw":11,"isMegawatt":false,"status":"CHARGING","source":"ndw","priceKwh":0.392}},{"type":"Feature","geometry":{"type":"Point","coordinates":[4.715782,52.672363]},"properties":{"type":"charge","layer":"passenger","locationId":"3533D043-B242-4942-AB74-B518C0F022F3","name":"TNLP005670 - Westerweg 43, Bergen (NH)","address":"43 Westerweg","city":"Bergen","operatorName":"TotalEnergies","maxPowerKw":13,"isMegawatt":false,"status":"AVAILABLE","source":"ndw"}},{"type":"Feature","geometry":{"type":"Point","coordinates":[4.653076,52.625153]},"properties":{"type":"charge","layer":"passenger","locationId":"35408AF1-29BB-45FE-8D69-23D89B67B9D7","name":"TNLP034629 - Prinses Margrietlaan 46, Egmond aan den Hoef","address":"46 Prinses Margrietlaan","city":"Egmond aan den Hoef","operatorName":"TotalEnergies","maxPowerKw":13,"isMegawatt":false,"status":"UNAVAILABLE","source":"ndw"}},{"type":"Feature","geometry":{"type":"Point","coordinates":[4.715785,52.706408]},"properties":{"type":"charge","layer":"passenger","locationId":"91055645","name":"50five-S NL 03005168","address":"Rijksweg 14","city":"Schoorl","operatorName":"50five","maxPowerKw":4,"isMegawatt":false,"status":"CHARGING","source":"ndw"}},{"type":"Feature","geometry":{"type":"Point","coordinates":[4.70857,52.66109]},"properties":{"type":"charge","layer":"passenger","locationId":"1879405C-EF4E-40B8-8495-A020D73FDFEE","name":"TNLP006650 - Jan Roggeveenweg 17, Bergen (NH)","address":"17 Jan Roggeveenweg","city":"Bergen","operatorName":"TotalEnergies","maxPowerKw":13,"isMegawatt":false,"status":"CHARGING","source":"ndw"}},{"type":"Feature","geometry":{"type":"Point","coordinates":[4.690676,52.708053]},"properties":{"type":"charge","layer":"passenger","locationId":"65797f4c89911b001c1b6e57","name":"Landal Residence Berger Duinen - Woning 13","address":"Heereweg  91B","city":"Schoorl","operatorName":"E-Flux by Road","maxPowerKw":22,"isMegawatt":false,"status":"AVAILABLE","source":"ndw","priceKwh":0.525}},{"type":"Feature","geometry":{"type":"Point","coordinates":[4.654259,52.597782]},"properties":{"type":"charge","layer":"passenger","locationId":"156DDB59-2FEF-45B0-9D1E-DF3DD62891D5","name":"TNLP005934 - Fazantenlaan 11, Egmond Binnen","address":"11 Fazantenlaan","city":"Egmond Binnen","operatorName":"TotalEnergies","maxPowerKw":15,"isMegawatt":false,"status":"UNAVAILABLE","source":"ndw"}},{"type":"Feature","geometry":{"type":"Point","coordinates":[4.69608,52.65567]},"properties":{"type":"charge","layer":"passenger","locationId":"47f3c248-154c-43a6-81ad-6c7f2028a813","name":"PP002102 - Groeneweg 5, Bergen","address":"5 Groeneweg","city":"Bergen","operatorName":"TotalEnergies","maxPowerKw":11,"isMegawatt":false,"status":"AVAILABLE","source":"ndw"}},{"type":"Feature","geometry":{"type":"Point","coordinates":[4.70373,52.67012]},"properties":{"type":"charge","layer":"passenger","locationId":"A69B3A76-FD2F-4DB8-AF28-7FD1BAF179C4","name":"TNLP007535 - Dokter van Peltlaan 10, Bergen","address":"10 Dokter van Peltlaan","city":"Bergen","operatorName":"TotalEnergies","maxPowerKw":17,"isMegawatt":false,"status":"CHARGING","source":"ndw"}},{"type":"Feature","geometry":{"type":"Point","coordinates":[4.667292,52.726124]},"properties":{"type":"charge","layer":"passenger","locationId":"87CC4565-8BA1-4719-B90D-96171B3F812F","name":"TNLP005752 - Kievitslaan 29, Groet","address":"29 Kievitslaan","city":"Groet","operatorName":"TotalEnergies","maxPowerKw":15,"isMegawatt":false,"status":"UNAVAILABLE","source":"ndw"}},{"type":"Feature","geometry":{"type":"Point","coordinates":[4.704144,52.6724]},"properties":{"type":"charge","layer":"passenger","locationId":"A18D031D-7ABC-4FB2-AFEC-27D471EC9A35","name":"TNLP009365 - Russenweg 28, Bergen (NH)","address":"28 Russenweg","city":"Bergen","operatorName":"TotalEnergies","maxPowerKw":13,"isMegawatt":false,"status":"AVAILABLE","source":"ndw"}},{"type":"Feature","geometry":{"type":"Point","coordinates":[4.721452,52.66823]},"properties":{"type":"charge","layer":"passenger","locationId":"E47CB90D-F567-409A-B138-9B8EA1D1D107","name":"TNLP009899 - Beek 36, Bergen (NH)","address":"36 Beek","city":"Bergen","operatorName":"TotalEnergies","maxPowerKw":13,"isMegawatt":false,"status":"AVAILABLE","source":"ndw"}},{"type":"Feature","geometry":{"type":"Point","coordinates":[4.699204,52.66831]},"properties":{"type":"charge","layer":"passenger","locationId":"2eb2b337-3d48-4105-94fd-f38ef1e4a795","name":"TNLP006237 - Dorpsstraat 2, Bergen (NH)","address":"2 Dorpsstraat","city":"Bergen","operatorName":"TotalEnergies","maxPowerKw":15,"isMegawatt":false,"status":"AVAILABLE","source":"ndw"}},{"type":"Feature","geometry":{"type":"Point","coordinates":[4.71789,52.66414]},"properties":{"type":"charge","layer":"passenger","locationId":"B994DEC5-3D46-4B5E-82F5-3D45119EDCD7","name":"TNLP007537 - Kogendijk 56, Bergen","address":"56 Kogendijk","city":"Bergen","operatorName":"TotalEnergies","maxPowerKw":17,"isMegawatt":false,"status":"AVAILABLE","source":"ndw"}},{"type":"Feature","geometry":{"type":"Point","coordinates":[4.699912,52.681652]},"properties":{"type":"charge","layer":"passenger","locationId":"1E0DDE9A-BEE7-4C0B-8CF1-AADE4E9F2BB1","name":"TNLP005679 - Guardini-Nes 20, Bergen (NH)","address":"20 Guardini-Nes","city":"Bergen","operatorName":"TotalEnergies","maxPowerKw":13,"isMegawatt":false,"status":"AVAILABLE","source":"ndw"}},{"type":"Feature","geometry":{"type":"Point","coordinates":[4.657143,52.625656]},"properties":{"type":"charge","layer":"passenger","locationId":"AEBEAD56-6686-4012-8341-814CE3F3EC0C","name":"TNLP007619 - Prinses Irenelaan 121, Egmond aan den Hoef","address":"121 Prinses Irenelaan","city":"Egmond aan den Hoef","operatorName":"TotalEnergies","maxPowerKw":13,"isMegawatt":false,"status":"AVAILABLE","source":"ndw"}},{"type":"Feature","geometry":{"type":"Point","coordinates":[4.698921,52.680565]},"properties":{"type":"charge","layer":"passenger","locationId":"FE2C8FF6-7F00-4D1F-A7BE-DE6EF162FF2A","name":"TNLP008960 - Guardini-Nes 15, Bergen (NH)","address":"15 Guardini-Nes","city":"Bergen","operatorName":"TotalEnergies","maxPowerKw":14,"isMegawatt":false,"status":"AVAILABLE","source":"ndw"}},{"type":"Feature","geometry":{"type":"Point","coordinates":[4.697279,52.710186]},"properties":{"type":"charge","layer":"passenger","locationId":"4AC3FC83-8A20-4472-8032-652911CE327A","name":"TNLP005946 - Zuijderweijdt 1, Schoorl","address":"1 Zuijderweijdt","city":"Schoorl","operatorName":"TotalEnergies","maxPowerKw":13,"isMegawatt":false,"status":"AVAILABLE","source":"ndw"}},{"type":"Feature","geometry":{"type":"Point","coordinates":[4.657358,52.592545]},"properties":{"type":"charge","layer":"passenger","locationId":"F5BC5484-B2D9-40BA-8FB6-289E15CBD12A","name":"TNLP007617 - Samenweid 7, Egmond Binnen","address":"7 Samenweid","city":"Egmond Binnen","operatorName":"TotalEnergies","maxPowerKw":15,"isMegawatt":false,"status":"AVAILABLE","source":"ndw"}},{"type":"Feature","geometry":{"type":"Point","coordinates":[4.718969,52.667202]},"properties":{"type":"charge","layer":"passenger","locationId":"950e1202-bb7f-4699-b15d-b7f2f668d68a","name":"TNLP008554 - Wetering 36, Bergen (NH)","address":"36 Wetering","city":"Bergen","operatorName":"TotalEnergies","maxPowerKw":13,"isMegawatt":false,"status":"UNAVAILABLE","source":"ndw"}},{"type":"Feature","geometry":{"type":"Point","coordinates":[4.716083,52.664469]},"properties":{"type":"charge","layer":"passenger","locationId":"91066780","name":"50five-S NL 07104643","address":"Kogendijk 13","city":"Bergen","operatorName":"50five","maxPowerKw":5,"isMegawatt":false,"status":"AVAILABLE","source":"ndw"}},{"type":"Feature","geometry":{"type":"Point","coordinates":[4.719739,52.668726]},"properties":{"type":"charge","layer":"passenger","locationId":"ae5bb32b-45b0-4722-89fb-145f68ded056","name":"Zakedijkje","address":"Zakedijkje 38","city":"Bergen NH","operatorName":"Vattenfall InCharge","maxPowerKw":11,"isMegawatt":false,"status":"AVAILABLE","source":"ndw","priceKwh":0.4316}},{"type":"Feature","geometry":{"type":"Point","coordinates":[4.668805,52.72493]},"properties":{"type":"charge","layer":"passenger","locationId":"1AE4D024-5E78-4179-9944-24CC2F7B0559","name":"TNLP008865 - Houtsniplaan 15, Groet","address":"15 Houtsniplaan","city":"Groet","operatorName":"TotalEnergies","maxPowerKw":13,"isMegawatt":false,"status":"AVAILABLE","source":"ndw"}},{"type":"Feature","geometry":{"type":"Point","coordinates":[4.699458,52.699529]},"properties":{"type":"charge","layer":"passenger","locationId":"612f85a84b1ec8ed96d1d11f","name":"Villa Hazelaar","address":"Omloop 9","city":"schoorl","operatorName":"E-Flux by Road","maxPowerKw":22,"isMegawatt":false,"status":"UNAVAILABLE","source":"ndw"}},{"type":"Feature","geometry":{"type":"Point","coordinates":[4.706436,52.70765]},"properties":{"type":"charge","layer":"passenger","locationId":"F343008A-26D4-488F-947C-61EB7C1B6261","name":"TNLP034484 - Esdoornweg 51, Schoorl","address":"51 Esdoornweg","city":"Schoorl","operatorName":"TotalEnergies","maxPowerKw":13,"isMegawatt":false,"status":"UNAVAILABLE","source":"ndw"}},{"type":"Feature","geometry":{"type":"Point","coordinates":[4.721775,52.665512]},"properties":{"type":"charge","layer":"passenger","locationId":"EDCE0478-FF36-4655-9869-AC5AFACDA9DC","name":"TNLP005926 - Van Blaaderenweg 29, Bergen (NH)","address":"29 Van Blaaderenweg","city":"Bergen","operatorName":"TotalEnergies","maxPowerKw":13,"isMegawatt":false,"status":"CHARGING","source":"ndw"}},{"type":"Feature","geometry":{"type":"Point","coordinates":[4.702176,52.660587]},"properties":{"type":"charge","layer":"passenger","locationId":"0B300256-D76D-427E-B5B4-B250171DA9CA","name":"TNLP006028 - Lijtweg 160, Bergen (NH)","address":"160 Lijtweg","city":"Bergen","operatorName":"TotalEnergies","maxPowerKw":13,"isMegawatt":false,"status":"AVAILABLE","source":"ndw"}},{"type":"Feature","geometry":{"type":"Point","coordinates":[4.701463,52.677914]},"properties":{"type":"charge","layer":"passenger","locationId":"88319482-63FE-4D82-B76D-23332A084EDC","name":"TNLP005678 - Stresemann-Nes 7, Bergen (NH)","address":"7 Stresemann-Nes","city":"Bergen","operatorName":"TotalEnergies","maxPowerKw":13,"isMegawatt":false,"status":"UNAVAILABLE","source":"ndw"}},{"type":"Feature","geometry":{"type":"Point","coordinates":[4.693015,52.704105]},"properties":{"type":"charge","layer":"passenger","locationId":"6f6ca2c6-80c8-41dd-9ea8-480b7a36e458","name":"Heereweg 56","address":"Heereweg 56","city":"Schoorl","operatorName":"Vattenfall InCharge","maxPowerKw":11,"isMegawatt":false,"status":"AVAILABLE","source":"ndw","priceKwh":0.4316}},{"type":"Feature","geometry":{"type":"Point","coordinates":[4.721548,52.666501]},"properties":{"type":"charge","layer":"passenger","locationId":"20f9f536b2665917a62ae70ce9e0ec09","name":"Gouw 20","address":"Gouw 20","city":"Bergen","operatorName":"Vattenfall InCharge","maxPowerKw":11,"isMegawatt":false,"status":"AVAILABLE","source":"ndw","priceKwh":0.2805}},{"type":"Feature","geometry":{"type":"Point","coordinates":[4.704404,52.706112]},"properties":{"type":"charge","layer":"passenger","locationId":"303A02CA-E6F3-46AF-90F9-414AD45F39B0","name":"TNLP006737 - Hagedoornweg 20, Schoorl","address":"20 Hagedoornweg","city":"Schoorl","operatorName":"TotalEnergies","maxPowerKw":13,"isMegawatt":false,"status":"AVAILABLE","source":"ndw"}},{"type":"Feature","geometry":{"type":"Point","coordinates":[4.621574,52.622717]},"properties":{"type":"charge","layer":"passenger","locationId":"dbaf6827-ccdf-490e-ac33-58e42966511a","name":"Boulevard 64","address":"Boulevard 64","city":"Egmond aan Zee","operatorName":"Vattenfall InCharge","maxPowerKw":11,"isMegawatt":false,"status":"UNAVAILABLE","source":"ndw","priceKwh":0.4316}},{"type":"Feature","geometry":{"type":"MultiPolygon","coordinates":[[[[4.659189866268714,52.74730969525753],[4.660461788109783,52.74670521770988],[4.662433071335552,52.746736295565256],[4.668395661586372,52.742490898201225],[4.6690129676045675,52.74196503497237],[4.669254378843553,52.74166061577748],[4.671219031329244,52.7405820586076],[4.678893456844528,52.73916914899275],[4.679654392878586,52.73811039869097],[4.681019777340223,52.737675759285864],[4.683527199000321,52.733537099225344],[4.686895780020912,52.73264650996391],[4.689820971755255,52.732992553256565],[4.690350679484918,52.7326229516183],[4.699781532962567,52.72449227076177],[4.702309984492404,52.72167503561271],[4.704334110843994,52.720422508452316],[4.706983991081509,52.71870419799321],[4.710467244340133,52.7145303566875],[4.714456193922269,52.71127881563241],[4.7158058719209475,52.710047984951906],[4.716206867817061,52.70770759809603],[4.717861897483319,52.70263872964425],[4.719208784151764,52.69909669629013],[4.720597534554267,52.69711746083733],[4.725221067744228,52.693850367269306],[4.728852593218037,52.691404552571484],[4.738379070598055,52.68436333664794],[4.741740376050838,52.68080762689418],[4.743842494047584,52.678698823596136],[4.747706036204833,52.676851061947595],[4.752409740500902,52.67144628628907],[4.74901218183841,52.665969616723714],[4.745931354081842,52.66308019661373],[4.74516268833871,52.66336481331275],[4.742604186931073,52.66118238658593],[4.739253226399841,52.662941542379485],[4.734098310027756,52.6629314250659],[4.735207036631394,52.66138812315202],[4.733700054489004,52.66180329229612],[4.73115283453765,52.66158989825321],[4.7328521085788875,52.65989083065387],[4.731527915418167,52.65981238230491],[4.730641880646658,52.65875346415158],[4.72762392284997,52.65850023319021],[4.727553712970929,52.65739090637323],[4.725705892961065,52.65731025334956],[4.7292457758483355,52.65612217378715],[4.726822302699833,52.655490798762344],[4.725249543754303,52.65194518464829],[4.721791794213209,52.6507258658162],[4.722675190181144,52.649365742243134],[4.721935360029345,52.64918066755808],[4.720393040133934,52.65008153013635],[4.716933556166876,52.64959666097099],[4.717607836836019,52.6466506184808],[4.7128132773311755,52.64621149045809],[4.714199658432706,52.64282247641893],[4.710033458424486,52.64246831897662],[4.708866183839143,52.635509767576515],[4.709814804726464,52.632505433512755],[4.708305074193114,52.63088141035511],[4.711331240419278,52.62991480749927],[4.709795089138416,52.62872464290664],[4.715285444173413,52.625820505915904],[4.714895679415475,52.62534758793663],[4.714585224456518,52.624782685673615],[4.707953773756104,52.620349098385624],[4.705698814960652,52.621355051798496],[4.689991888657906,52.62375186468353],[4.685509702544691,52.61931187822561],[4.685804817483663,52.61777091957661],[4.683691567489212,52.61267304948785],[4.68076601757371,52.61028018722055],[4.68037261376669,52.608461184923904],[4.674441317825638,52.603772149051],[4.673878901236663,52.60095958588229],[4.673173764108345,52.596211497814636],[4.673861512636611,52.59292921653671],[4.672399570128986,52.59229740514689],[4.672580068266239,52.59090468046884],[4.6598393004487315,52.58614021978531],[4.65571234490266,52.58551263640779],[4.6549791965041445,52.58287047394872],[4.609963819769603,52.57374467642942],[4.615280303420642,52.596229950102085],[4.616602918665608,52.605851896423005],[4.616887960091317,52.60884625957657],[4.618391685839606,52.61659117770464],[4.619366332776526,52.62384436420242],[4.620414962737966,52.627296036935704],[4.621672174810753,52.63052274159394],[4.622243935915235,52.63578877022469],[4.623754603985008,52.63978788090838],[4.625388180818106,52.65569814239063],[4.626767955941477,52.664770226214195],[4.627613285821616,52.66662510967176],[4.6302368844096495,52.675668247763404],[4.632518436871877,52.681796667647895],[4.634316444673573,52.69398976641642],[4.637578944753519,52.70753701690741],[4.637418877099268,52.7119974444628],[4.636533666864573,52.71285784797894],[4.635701829180085,52.72029243761214],[4.6366053285401785,52.72866832369793],[4.6429015579884485,52.75066490628078],[4.645760598440532,52.75663866463843],[4.651038478761148,52.75584742143969],[4.658984506705446,52.74960109081319],[4.659189866268714,52.74730969525753]]]]},"properties":{"type":"boundary","gemeente":"Bergen (NH.)","code":"GM0373"}}]}