{"type":"FeatureCollection","metadata":{"gemeente":"Beverwijk","slug":"beverwijk","code":"GM0375","generated_at":"2026-08-08T12:05:52.020Z","total_passenger":154,"total_freight":0,"bounds":[4.581336560132262,52.45552044141981,4.707968416577645,52.5017441313725],"operators":["50five","E-Flux by Road","Eneco","IPCharging","Laadnet","NXT Charging Solutions","Opcharge","Spirii","TotalEnergies","Ubitricity","Vattenfall InCharge"]},"features":[{"type":"Feature","geometry":{"type":"Point","coordinates":[4.653692,52.48988]},"properties":{"type":"charge","layer":"passenger","locationId":"3B7D0936-AC64-44D2-81EA-CDDF50B9572A","name":"TNLP009749 - Wilgenhoflaan 2 B, Beverwijk","address":"2 B Wilgenhoflaan","city":"Beverwijk","operatorName":"TotalEnergies","maxPowerKw":13,"isMegawatt":false,"status":"AVAILABLE","source":"ndw"}},{"type":"Feature","geometry":{"type":"Point","coordinates":[4.64886,52.4941]},"properties":{"type":"charge","layer":"passenger","locationId":"784e54e8-2440-41ce-8334-74089ef03fb3","name":"PP001327 - Westertuinen 22, Beverwijk","address":"22 Westertuinen","city":"Beverwijk","operatorName":"TotalEnergies","maxPowerKw":11,"isMegawatt":false,"status":"UNAVAILABLE","source":"ndw"}},{"type":"Feature","geometry":{"type":"Point","coordinates":[4.686432,52.488247]},"properties":{"type":"charge","layer":"passenger","locationId":"c71e447ed8d5630c30500841bd7cad9b","name":"Marie van Zeggelenlaan 28","address":"Marie van Zeggelenlaan 28","city":"Beverwijk","operatorName":"Vattenfall InCharge","maxPowerKw":11,"isMegawatt":false,"status":"AVAILABLE","source":"ndw","priceKwh":0.2805}},{"type":"Feature","geometry":{"type":"Point","coordinates":[4.668559,52.473261]},"properties":{"type":"charge","layer":"passenger","locationId":"91179873","name":"50five-S NL Beverwijk, Randweg 17","address":"Randweg 17","city":"Beverwijk","operatorName":"50five","maxPowerKw":11,"isMegawatt":false,"status":"AVAILABLE","source":"ndw"}},{"type":"Feature","geometry":{"type":"Point","coordinates":[4.678438,52.487953]},"properties":{"type":"charge","layer":"passenger","locationId":"270DCEC0-1D0D-4AF0-80F1-4D57D80C111C","name":"TNLP008757 - Ben Websterlaan 1, Beverwijk","address":"1 Ben Websterlaan","city":"Beverwijk","operatorName":"TotalEnergies","maxPowerKw":13,"isMegawatt":false,"status":"AVAILABLE","source":"ndw"}},{"type":"Feature","geometry":{"type":"Point","coordinates":[4.65963,52.48108]},"properties":{"type":"charge","layer":"passenger","locationId":"037CF212-D9C7-48B1-9A1D-55E70AB44B04","name":"PP004201 - Meerstraat 110, Beverwijk","address":"110 Meerstraat","city":"Beverwijk","operatorName":"TotalEnergies","maxPowerKw":13,"isMegawatt":false,"status":"AVAILABLE","source":"ndw"}},{"type":"Feature","geometry":{"type":"Point","coordinates":[4.652279,52.483124]},"properties":{"type":"charge","layer":"passenger","locationId":"224aec11-7c7a-400d-a188-b3cfd5373812","name":"TNLP009421 - Hendrik Burgerstraat 2, Beverwijk","address":"2 Hendrik Burgerstraat","city":"Beverwijk","operatorName":"TotalEnergies","maxPowerKw":13,"isMegawatt":false,"status":"AVAILABLE","source":"ndw"}},{"type":"Feature","geometry":{"type":"Point","coordinates":[4.6015727,52.4935029]},"properties":{"type":"charge","layer":"passenger","locationId":"1204","name":"Shell Recharge NL Burgemeester Rothestraat 68","address":"Burgemeester Rothestraat 68","city":"Wijk aan Zee","operatorName":"Ubitricity","maxPowerKw":22,"isMegawatt":false,"status":"CHARGING","source":"ndw","priceKwh":0.267}},{"type":"Feature","geometry":{"type":"Point","coordinates":[4.669041,52.486095]},"properties":{"type":"charge","layer":"passenger","locationId":"4307C040-10E1-4F41-B4A0-36B130E20CA6","name":"TNLP009190 - Beijneslaan 74, Beverwijk","address":"74 Beijneslaan","city":"Beverwijk","operatorName":"TotalEnergies","maxPowerKw":13,"isMegawatt":false,"status":"AVAILABLE","source":"ndw"}},{"type":"Feature","geometry":{"type":"Point","coordinates":[4.592934,52.49708]},"properties":{"type":"charge","layer":"passenger","locationId":"690dfe9e0a4ec5cf9aa199d1","name":"Relweg 51-3 (Sporthal)","address":"Relweg 51","city":"Wijk aan zee","operatorName":"E-Flux by Road","maxPowerKw":11,"isMegawatt":false,"status":"AVAILABLE","source":"ndw","priceKwh":0.43}},{"type":"Feature","geometry":{"type":"Point","coordinates":[4.682224,52.490897]},"properties":{"type":"charge","layer":"passenger","locationId":"91087347","name":"50five-S NL 07001141","address":"Pytheas 58","city":"Beverwijk","operatorName":"50five","maxPowerKw":4,"isMegawatt":false,"status":"AVAILABLE","source":"ndw"}},{"type":"Feature","geometry":{"type":"Point","coordinates":[4.653515,52.478447]},"properties":{"type":"charge","layer":"passenger","locationId":"9e3f5401-c1ce-4987-a2c1-132a650a6043","name":"Laadplein - PP004140 - Halve Maan 2, Beverwijk","address":"2 Halve Maan","city":"Beverwijk","operatorName":"TotalEnergies","maxPowerKw":15,"isMegawatt":false,"status":"AVAILABLE","source":"ndw"}},{"type":"Feature","geometry":{"type":"Point","coordinates":[4.6666289,52.4998321]},"properties":{"type":"charge","layer":"passenger","locationId":"52","name":"Shell Recharge NL Asjesstraat 24","address":"Asjesstraat 24","city":"Beverwijk","operatorName":"Ubitricity","maxPowerKw":11,"isMegawatt":false,"status":"AVAILABLE","source":"ndw","priceKwh":0.392}},{"type":"Feature","geometry":{"type":"Point","coordinates":[4.66968,52.492926]},"properties":{"type":"charge","layer":"passenger","locationId":"f2344e2c-9836-45c3-981c-ca3ac8ba23af","name":"Hoflanderweg","address":"Hoflanderweg 107","city":"Beverwijk","operatorName":"Vattenfall InCharge","maxPowerKw":11,"isMegawatt":false,"status":"AVAILABLE","source":"ndw","priceKwh":0.4316}},{"type":"Feature","geometry":{"type":"Point","coordinates":[4.6879,52.49031]},"properties":{"type":"charge","layer":"passenger","locationId":"126f373fe432af6234a0213b8ec249fd","name":"Christiaan Sepplaan 6","address":"Christiaan Sepplaan 6","city":"Beverwijk","operatorName":"Vattenfall InCharge","maxPowerKw":11,"isMegawatt":false,"status":"AVAILABLE","source":"ndw","priceKwh":0.2805}},{"type":"Feature","geometry":{"type":"Point","coordinates":[4.674714,52.478105]},"properties":{"type":"charge","layer":"passenger","locationId":"OST22P0081_0012_0","name":"OST22P0081_0012_0","address":"Ringvaartweg 30","city":"Beverwijk","operatorName":"IPCharging","maxPowerKw":19,"isMegawatt":false,"status":"AVAILABLE","source":"ndw","priceKwh":0.65}},{"type":"Feature","geometry":{"type":"Point","coordinates":[4.596264,52.493565]},"properties":{"type":"charge","layer":"passenger","locationId":"93D97CBF-EFCE-456E-8056-302F5E3BCCB4","name":"TNLP009643 - Verlengde Voorstraat 40, Wijk aan Zee","address":"40 Verlengde Voorstraat","city":"Wijk aan Zee","operatorName":"TotalEnergies","maxPowerKw":13,"isMegawatt":false,"status":"CHARGING","source":"ndw"}},{"type":"Feature","geometry":{"type":"Point","coordinates":[4.681564,52.488472]},"properties":{"type":"charge","layer":"passenger","locationId":"08A119EE-5B7E-4BB9-A9CA-2B10B276B278","name":"PP005212 - Laan van Archeologie 1, Beverwijk","address":"1 Laan van Archeologie","city":"Beverwijk","operatorName":"TotalEnergies","maxPowerKw":13,"isMegawatt":false,"status":"AVAILABLE","source":"ndw"}},{"type":"Feature","geometry":{"type":"Point","coordinates":[4.651288,52.482056]},"properties":{"type":"charge","layer":"passenger","locationId":"1668BDB4-DC2C-4DA7-9759-856C7DB830D7","name":"TNLP005863 - Prinsesselaan 45, Beverwijk","address":"45 Prinsesselaan","city":"Beverwijk","operatorName":"TotalEnergies","maxPowerKw":13,"isMegawatt":false,"status":"AVAILABLE","source":"ndw"}},{"type":"Feature","geometry":{"type":"Point","coordinates":[4.644535,52.484528]},"properties":{"type":"charge","layer":"passenger","locationId":"EDAE84B1-5ABF-4698-830D-C863A0CBBF76","name":"TNLP008360 - Noorderwijkweg 1, Beverwijk","address":"1 Noorderwijkweg","city":"Beverwijk","operatorName":"TotalEnergies","maxPowerKw":14,"isMegawatt":false,"status":"AVAILABLE","source":"ndw"}},{"type":"Feature","geometry":{"type":"Point","coordinates":[4.64976,52.48494]},"properties":{"type":"charge","layer":"passenger","locationId":"350A327E-831D-4D6D-8AD9-E5D303AC5C35","name":"TNLP009034 - Romerkerkweg 50, Beverwijk","address":"50 Romerkerkweg","city":"Beverwijk","operatorName":"TotalEnergies","maxPowerKw":13,"isMegawatt":false,"status":"AVAILABLE","source":"ndw"}},{"type":"Feature","geometry":{"type":"Point","coordinates":[4.64288,52.49358]},"properties":{"type":"charge","layer":"passenger","locationId":"A4B8314B-138B-4418-B299-7EAAB8B9A255","name":"PP004005 - Laan van Diaspora 1, Beverwijk","address":"1 Laan van Diaspora","city":"Beverwijk","operatorName":"TotalEnergies","maxPowerKw":13,"isMegawatt":false,"status":"AVAILABLE","source":"ndw"}},{"type":"Feature","geometry":{"type":"Point","coordinates":[4.653061,52.487069]},"properties":{"type":"charge","layer":"passenger","locationId":"b7ded12a-8cd1-4100-968a-6bfc1f6bb6dc","name":"Boeweg","address":"Boeweg 54","city":"Beverwijk","operatorName":"Vattenfall InCharge","maxPowerKw":11,"isMegawatt":false,"status":"UNAVAILABLE","source":"ndw","priceKwh":0.4316}},{"type":"Feature","geometry":{"type":"Point","coordinates":[4.634492,52.488606]},"properties":{"type":"charge","layer":"passenger","locationId":"6397130c5360bc001df80749","name":"Mees Toxopeus laadstation","address":"Thomas Meijerlaan 1","city":"Beverwijk","operatorName":"E-Flux by Road","maxPowerKw":11,"isMegawatt":false,"status":"AVAILABLE","source":"ndw","priceKwh":0.57}},{"type":"Feature","geometry":{"type":"Point","coordinates":[4.67007,52.46699]},"properties":{"type":"charge","layer":"passenger","locationId":"63516AB7-19AA-466C-96CE-EA2FC11855C7","name":"Eneco eMobility Beveland 2 Beverwijk","address":"Beveland 2","city":"Beverwijk","operatorName":"Eneco","maxPowerKw":22,"isMegawatt":false,"status":"AVAILABLE","source":"ndw","priceKwh":0.4}},{"type":"Feature","geometry":{"type":"Point","coordinates":[4.656759,52.493822]},"properties":{"type":"charge","layer":"passenger","locationId":"0fa10398fb0e62053a78ec72aa2012db","name":"Bremmersstraat 15","address":"Bremmersstraat 15","city":"Beverwijk","operatorName":"Vattenfall InCharge","maxPowerKw":11,"isMegawatt":false,"status":"AVAILABLE","source":"ndw","priceKwh":0.2805}},{"type":"Feature","geometry":{"type":"Point","coordinates":[4.672049,52.476775]},"properties":{"type":"charge","layer":"passenger","locationId":"OST22P0081_0014_1","name":"OST22P0081_0014_1","address":"Ambachtstraat 20","city":"Beverwijk","operatorName":"IPCharging","maxPowerKw":38,"isMegawatt":false,"status":"AVAILABLE","source":"ndw","priceKwh":0.65}},{"type":"Feature","geometry":{"type":"Point","coordinates":[4.65749,52.493633]},"properties":{"type":"charge","layer":"passenger","locationId":"2038F264-AF19-41C1-AF33-906D4F116555","name":"TNLP006750 - Hilbersplein 3, Beverwijk","address":"3 Hilbersplein","city":"Beverwijk","operatorName":"TotalEnergies","maxPowerKw":13,"isMegawatt":false,"status":"AVAILABLE","source":"ndw"}},{"type":"Feature","geometry":{"type":"Point","coordinates":[4.66033,52.47715]},"properties":{"type":"charge","layer":"passenger","locationId":"287","name":"Shell Recharge NL Nieuwe Kade 11","address":"Nieuwe Kade 11","city":"Beverwijk","operatorName":"Ubitricity","maxPowerKw":11,"isMegawatt":false,"status":"AVAILABLE","source":"ndw","priceKwh":0.392}},{"type":"Feature","geometry":{"type":"Point","coordinates":[4.592934,52.49708]},"properties":{"type":"charge","layer":"passenger","locationId":"690debe4e2ecde4798a21f82","name":"Relweg 51-4 (Parkeerterrein voor R&D)","address":"Relweg 51","city":"Wijk aan zee","operatorName":"E-Flux by Road","maxPowerKw":11,"isMegawatt":false,"status":"AVAILABLE","source":"ndw","priceKwh":0.43}},{"type":"Feature","geometry":{"type":"Point","coordinates":[4.654974,52.496738]},"properties":{"type":"charge","layer":"passenger","locationId":"1ef332c7-3d50-4b80-ae7e-14981c35e284","name":"Kuikensweg","address":"Kuikensweg 157","city":"Beverwijk","operatorName":"Vattenfall InCharge","maxPowerKw":11,"isMegawatt":false,"status":"AVAILABLE","source":"ndw","priceKwh":0.4316}},{"type":"Feature","geometry":{"type":"Point","coordinates":[4.67274,52.49541]},"properties":{"type":"charge","layer":"passenger","locationId":"1521","name":"Shell Recharge NL Isarstraat 5","address":"Isarstraat 5","city":"Beverwijk","operatorName":"Ubitricity","maxPowerKw":11,"isMegawatt":false,"status":"AVAILABLE","source":"ndw","priceKwh":0.392}},{"type":"Feature","geometry":{"type":"Point","coordinates":[4.674714,52.478105]},"properties":{"type":"charge","layer":"passenger","locationId":"OST22P0081_0012_2","name":"OST22P0081_0012_2","address":"Ringvaartweg 30","city":"Beverwijk","operatorName":"IPCharging","maxPowerKw":19,"isMegawatt":false,"status":"AVAILABLE","source":"ndw","priceKwh":0.65}},{"type":"Feature","geometry":{"type":"Point","coordinates":[4.647139,52.480747]},"properties":{"type":"charge","layer":"passenger","locationId":"227F24A1-130C-4878-A75B-564A7FA2EE27","name":"TNLP009097 - Beeckzanglaan 86, Beverwijk","address":"86 Beeckzanglaan","city":"Beverwijk","operatorName":"TotalEnergies","maxPowerKw":15,"isMegawatt":false,"status":"AVAILABLE","source":"ndw"}},{"type":"Feature","geometry":{"type":"Point","coordinates":[4.662809,52.493454]},"properties":{"type":"charge","layer":"passenger","locationId":"526FB840-3CFE-4C2B-BA33-B69888B65670","name":"TNLP015045 - Calsplantsoen 49, Beverwijk","address":"49 Calsplantsoen","city":"Beverwijk","operatorName":"TotalEnergies","maxPowerKw":13,"isMegawatt":false,"status":"AVAILABLE","source":"ndw"}},{"type":"Feature","geometry":{"type":"Point","coordinates":[4.654174,52.484184]},"properties":{"type":"charge","layer":"passenger","locationId":"9F9AFEBB-BA74-45A0-AFA4-261BD611C440","name":"TNLP009062 - Kees Delfsweg 89, Beverwijk","address":"89 Kees Delfsweg","city":"Beverwijk","operatorName":"TotalEnergies","maxPowerKw":13,"isMegawatt":false,"status":"AVAILABLE","source":"ndw"}},{"type":"Feature","geometry":{"type":"Point","coordinates":[4.670618,52.491235]},"properties":{"type":"charge","layer":"passenger","locationId":"00f1df218a4b3327db243014c80df076","name":"Amerstraat 1","address":"Amerstraat 1","city":"Beverwijk","operatorName":"Vattenfall InCharge","maxPowerKw":11,"isMegawatt":false,"status":"CHARGING","source":"ndw","priceKwh":0.2805}},{"type":"Feature","geometry":{"type":"Point","coordinates":[4.639733,52.49185]},"properties":{"type":"charge","layer":"passenger","locationId":"3bdebeab-37ab-418c-aa5a-95c23fa01add","name":"PP005214 - Creutzberglaan 144, Beverwijk","address":"144 Creutzberglaan","city":"Beverwijk","operatorName":"TotalEnergies","maxPowerKw":13,"isMegawatt":false,"status":"AVAILABLE","source":"ndw"}},{"type":"Feature","geometry":{"type":"Point","coordinates":[4.672069,52.476915]},"properties":{"type":"charge","layer":"passenger","locationId":"OST22P0081_0014_0","name":"OST22P0081_0014_0","address":"Ambachtstraat 20","city":"Beverwijk","operatorName":"IPCharging","maxPowerKw":38,"isMegawatt":false,"status":"AVAILABLE","source":"ndw","priceKwh":0.65}},{"type":"Feature","geometry":{"type":"Point","coordinates":[4.66896,52.477223]},"properties":{"type":"charge","layer":"passenger","locationId":"OST22P0081_0019_1","name":"OST22P0081_0019_1","address":"Industrieweg 21","city":"Beverwijk","operatorName":"IPCharging","maxPowerKw":19,"isMegawatt":false,"status":"AVAILABLE","source":"ndw","priceKwh":0.65}},{"type":"Feature","geometry":{"type":"Point","coordinates":[4.589002,52.494164]},"properties":{"type":"charge","layer":"passenger","locationId":"71F9948A-BB1B-4879-9409-6F1CA0DA40B2","name":"TNLP008856 - Rijckert Aertszweg 79, Wijk aan Zee","address":"79 Rijckert Aertszweg","city":"Wijk aan Zee","operatorName":"TotalEnergies","maxPowerKw":14,"isMegawatt":false,"status":"UNAVAILABLE","source":"ndw"}},{"type":"Feature","geometry":{"type":"Point","coordinates":[4.69071,52.48783]},"properties":{"type":"charge","layer":"passenger","locationId":"6EEF95D3-935E-49A3-AB2E-0DF5D7D42CDF","name":"TNLP009161 - Louis Davidslaan 19, Beverwijk","address":"19 Louis Davidslaan","city":"Beverwijk","operatorName":"TotalEnergies","maxPowerKw":13,"isMegawatt":false,"status":"AVAILABLE","source":"ndw"}},{"type":"Feature","geometry":{"type":"Point","coordinates":[4.686838,52.489628]},"properties":{"type":"charge","layer":"passenger","locationId":"FE06A753-D5C0-4E97-B10C-30867D6B124F","name":"TNLP006747 - Johanna van Woudelaan 34, Beverwijk","address":"34 Johanna van Woudelaan","city":"Beverwijk","operatorName":"TotalEnergies","maxPowerKw":13,"isMegawatt":false,"status":"AVAILABLE","source":"ndw"}},{"type":"Feature","geometry":{"type":"Point","coordinates":[4.682028,52.48987]},"properties":{"type":"charge","layer":"passenger","locationId":"7B24625F-831D-4537-89D0-75844AB548F6","name":"TNLP007710 - Midgard 41, Beverwijk","address":"41 Midgard","city":"Beverwijk","operatorName":"TotalEnergies","maxPowerKw":13,"isMegawatt":false,"status":"AVAILABLE","source":"ndw"}},{"type":"Feature","geometry":{"type":"Point","coordinates":[4.68428,52.48778]},"properties":{"type":"charge","layer":"passenger","locationId":"91275442","name":"50five-S NL 03007588","address":"Herman Heijermanslaan 77","city":"Beverwijk","operatorName":"50five","maxPowerKw":4,"isMegawatt":false,"status":"CHARGING","source":"ndw"}},{"type":"Feature","geometry":{"type":"Point","coordinates":[4.66367,52.4962]},"properties":{"type":"charge","layer":"passenger","locationId":"ABFB895B-F31A-4250-9A7D-D7ECAD9F9192","name":"PP004107 - Frank Sinatraplein 24, Beverwijk","address":"24 Frank Sinatraplein","city":"Beverwijk","operatorName":"TotalEnergies","maxPowerKw":13,"isMegawatt":false,"status":"AVAILABLE","source":"ndw"}},{"type":"Feature","geometry":{"type":"Point","coordinates":[4.67241,52.4692]},"properties":{"type":"charge","layer":"passenger","locationId":"0A53C6E2-07CE-4DBD-8790-7DF969ED52E2","name":"Eneco eMobility DistributionNOW - Beverwijk","address":"Gooiland 12","city":"Beverwijk","operatorName":"Eneco","maxPowerKw":22,"isMegawatt":false,"status":"AVAILABLE","source":"ndw","priceKwh":0.32}},{"type":"Feature","geometry":{"type":"Point","coordinates":[4.677543,52.472997]},"properties":{"type":"charge","layer":"passenger","locationId":"6131d2433433400980e9cd89","name":"MaBeCo's station","address":"Gooiland 41","city":"Beverwijk","operatorName":"E-Flux by Road","maxPowerKw":22,"isMegawatt":false,"status":"AVAILABLE","source":"ndw","priceKwh":0.43}},{"type":"Feature","geometry":{"type":"Point","coordinates":[4.666595,52.50119]},"properties":{"type":"charge","layer":"passenger","locationId":"19F0F2D6-DBC6-4F16-90AC-F7202BECE671","name":"TNLP008613 - van Riemsdijklaan 121, Beverwijk","address":"121 van Riemsdijklaan","city":"Beverwijk","operatorName":"TotalEnergies","maxPowerKw":13,"isMegawatt":false,"status":"AVAILABLE","source":"ndw"}},{"type":"Feature","geometry":{"type":"Point","coordinates":[4.663758,52.471204]},"properties":{"type":"charge","layer":"passenger","locationId":"91054969","name":"50five-S NL 03000165","address":"Lijndenweg 25","city":"Beverwijk","operatorName":"50five","maxPowerKw":11,"isMegawatt":false,"status":"AVAILABLE","source":"ndw"}},{"type":"Feature","geometry":{"type":"Point","coordinates":[4.664917,52.48941]},"properties":{"type":"charge","layer":"passenger","locationId":"815F6A92-A8FC-4D73-8101-AB021062C727","name":"TNLP009355 - Kruisweg 12, Beverwijk","address":"12 Kruisweg","city":"Beverwijk","operatorName":"TotalEnergies","maxPowerKw":13,"isMegawatt":false,"status":"AVAILABLE","source":"ndw"}},{"type":"Feature","geometry":{"type":"Point","coordinates":[4.640738,52.492992]},"properties":{"type":"charge","layer":"passenger","locationId":"512F5D00-9FAE-4077-8C8F-9154413CFB8A","name":"TNLP009797 - Bankenlaan 62A, Beverwijk","address":"62A Bankenlaan","city":"Beverwijk","operatorName":"TotalEnergies","maxPowerKw":13,"isMegawatt":false,"status":"AVAILABLE","source":"ndw"}},{"type":"Feature","geometry":{"type":"Point","coordinates":[4.660274,52.487083]},"properties":{"type":"charge","layer":"passenger","locationId":"049317CA-483F-49AE-913A-C8E94A842CE2","name":"TNLP007388 - Burgemeester Scholtensstraat 39, Beverwijk","address":"39 Burgemeester Scholtensstraat","city":"Beverwijk","operatorName":"TotalEnergies","maxPowerKw":13,"isMegawatt":false,"status":"AVAILABLE","source":"ndw"}},{"type":"Feature","geometry":{"type":"Point","coordinates":[4.651446,52.486053]},"properties":{"type":"charge","layer":"passenger","locationId":"B2D91C38-6E9D-4CEB-94C8-965A507493D9","name":"TNLP009403 - Cornelis Matersweg 2, Beverwijk","address":"2 Cornelis Matersweg","city":"Beverwijk","operatorName":"TotalEnergies","maxPowerKw":13,"isMegawatt":false,"status":"AVAILABLE","source":"ndw"}},{"type":"Feature","geometry":{"type":"Point","coordinates":[4.665913,52.480271]},"properties":{"type":"charge","layer":"passenger","locationId":"6fdf5699-fda4-42f1-92a2-285f5eed7cc9","name":"Parallelweg 122","address":"Parallelweg 122","city":"Beverwijk","operatorName":"Vattenfall InCharge","maxPowerKw":50,"isMegawatt":false,"status":"CHARGING","source":"ndw","priceKwh":0.46}},{"type":"Feature","geometry":{"type":"Point","coordinates":[4.67567,52.47455]},"properties":{"type":"charge","layer":"passenger","locationId":"FA860338-A2A4-4D45-9173-3371D8B2539A","name":"Eneco eMobility Broekhuis Autoschade Beverwijk","address":"Waterland 6","city":"Beverwijk","operatorName":"Eneco","maxPowerKw":11,"isMegawatt":false,"status":"AVAILABLE","source":"ndw","priceKwh":0.45}},{"type":"Feature","geometry":{"type":"Point","coordinates":[4.638021,52.486263]},"properties":{"type":"charge","layer":"passenger","locationId":"9E43745C-DB34-483D-A299-F0F861A45D91","name":"PP005590 - Creutzberglaan 2, Beverwijk","address":"2 Creutzberglaan","city":"Beverwijk","operatorName":"TotalEnergies","maxPowerKw":13,"isMegawatt":false,"status":"UNAVAILABLE","source":"ndw"}},{"type":"Feature","geometry":{"type":"Point","coordinates":[4.670415,52.469193]},"properties":{"type":"charge","layer":"passenger","locationId":"6BC63488-6A29-42CA-8382-AE00AE4C4832","name":"TNLP009447 - Gooiland 8, Beverwijk","address":"8 Gooiland","city":"Beverwijk","operatorName":"TotalEnergies","maxPowerKw":15,"isMegawatt":false,"status":"AVAILABLE","source":"ndw"}},{"type":"Feature","geometry":{"type":"Point","coordinates":[4.66664,52.477074]},"properties":{"type":"charge","layer":"passenger","locationId":"0EADA96A-EC0D-4FAA-82BC-1FBFFB1C5A16","name":"TNLP009401 - Wijkermeerweg 36, Beverwijk","address":"36 Wijkermeerweg","city":"Beverwijk","operatorName":"TotalEnergies","maxPowerKw":15,"isMegawatt":false,"status":"UNAVAILABLE","source":"ndw"}},{"type":"Feature","geometry":{"type":"Point","coordinates":[4.678883,52.486992]},"properties":{"type":"charge","layer":"passenger","locationId":"4251391","name":"Laadnet FSB Beveiliging","address":"Hans van Kilsdonklaan 71","city":"Beverwijk","operatorName":"Laadnet","maxPowerKw":22,"isMegawatt":false,"status":"CHARGING","source":"ndw"}},{"type":"Feature","geometry":{"type":"Point","coordinates":[4.67303,52.49135]},"properties":{"type":"charge","layer":"passenger","locationId":"5b5415bc2ea455898bc9ce832cdd8458","name":"Hunzestraat 1","address":"Hunzestraat 1","city":"Beverwijk","operatorName":"Vattenfall InCharge","maxPowerKw":11,"isMegawatt":false,"status":"AVAILABLE","source":"ndw","priceKwh":0.2805}},{"type":"Feature","geometry":{"type":"Point","coordinates":[4.677025,52.475874]},"properties":{"type":"charge","layer":"passenger","locationId":"6672ebf94638d3001ce69f99","name":"NXT Charge - Beverwijk - Gooiland 70 - DC","address":"Gooiland","city":"Beverwijk","operatorName":"NXT Charging Solutions","maxPowerKw":320,"isMegawatt":false,"status":"AVAILABLE","source":"ndw","priceKwh":0.63}},{"type":"Feature","geometry":{"type":"Point","coordinates":[4.668004,52.496437]},"properties":{"type":"charge","layer":"passenger","locationId":"3212A834-1B4B-4B7B-A215-961D93E63317","name":"TNLP008014 - Van der Hoopstraat 9, Beverwijk","address":"9 Van der Hoopstraat","city":"Beverwijk","operatorName":"TotalEnergies","maxPowerKw":13,"isMegawatt":false,"status":"AVAILABLE","source":"ndw"}},{"type":"Feature","geometry":{"type":"Point","coordinates":[4.651914,52.497612]},"properties":{"type":"charge","layer":"passenger","locationId":"4DEAC25A-3F75-4BF8-9EE3-FEB5006A5FA6","name":"TNLP008236 - Martin Luther Kinglaan 39, Beverwijk","address":"39 Martin Luther Kinglaan","city":"Beverwijk","operatorName":"TotalEnergies","maxPowerKw":13,"isMegawatt":false,"status":"AVAILABLE","source":"ndw"}},{"type":"Feature","geometry":{"type":"Point","coordinates":[4.642676,52.488045]},"properties":{"type":"charge","layer":"passenger","locationId":"F967E0D9-39AB-495E-9EA1-220E177C13BF","name":"TNLP008461 - Laan van Blois 70, Beverwijk","address":"70 Laan van Blois","city":"Beverwijk","operatorName":"TotalEnergies","maxPowerKw":14,"isMegawatt":false,"status":"AVAILABLE","source":"ndw"}},{"type":"Feature","geometry":{"type":"Point","coordinates":[4.669657,52.481607]},"properties":{"type":"charge","layer":"passenger","locationId":"91261753","name":"50five-S NL Makro Nederland","address":"Parallelweg 126","city":"Beverwijk","operatorName":"50five","maxPowerKw":11,"isMegawatt":false,"status":"AVAILABLE","source":"ndw"}},{"type":"Feature","geometry":{"type":"Point","coordinates":[4.68309,52.48887]},"properties":{"type":"charge","layer":"passenger","locationId":"4241061","name":"Laadnet UvA Ventures Holding B.V.","address":"Herman Heijermanslaan 21a","city":"Beverwijk","operatorName":"Laadnet","maxPowerKw":22,"isMegawatt":false,"status":"AVAILABLE","source":"ndw"}},{"type":"Feature","geometry":{"type":"Point","coordinates":[4.688965,52.490401]},"properties":{"type":"charge","layer":"passenger","locationId":"62cbd5a725c227e114d19cd2","name":"Laadpaal","address":"Christiaan Sepplaan 1","city":"Beverwijk","operatorName":"E-Flux by Road","maxPowerKw":22,"isMegawatt":false,"status":"AVAILABLE","source":"ndw","priceKwh":0.4845}},{"type":"Feature","geometry":{"type":"Point","coordinates":[4.67883,52.49139]},"properties":{"type":"charge","layer":"passenger","locationId":"03edafa2fb77d663cbadeedb13960004","name":"Geulstraat 25","address":"Geulstraat 25","city":"Beverwijk","operatorName":"Vattenfall InCharge","maxPowerKw":11,"isMegawatt":false,"status":"AVAILABLE","source":"ndw","priceKwh":0.2805}},{"type":"Feature","geometry":{"type":"Point","coordinates":[4.64535,52.48673]},"properties":{"type":"charge","layer":"passenger","locationId":"142","name":"Shell Recharge NL Kastanjelaan 35","address":"Kastanjelaan 35","city":"Beverwijk","operatorName":"Ubitricity","maxPowerKw":11,"isMegawatt":false,"status":"AVAILABLE","source":"ndw","priceKwh":0.392}},{"type":"Feature","geometry":{"type":"Point","coordinates":[4.645122,52.482752]},"properties":{"type":"charge","layer":"passenger","locationId":"91057387","name":"50five-S NL 03007398","address":"Vondellaan 106","city":"Beverwijk","operatorName":"50five","maxPowerKw":11,"isMegawatt":false,"status":"AVAILABLE","source":"ndw"}},{"type":"Feature","geometry":{"type":"Point","coordinates":[4.657888,52.4877]},"properties":{"type":"charge","layer":"passenger","locationId":"9A6C51A2-4253-48E9-9EEE-CDF346B37C69","name":"TNLP008536 - Heemskerkerweg 21, Beverwijk","address":"21 Heemskerkerweg","city":"Beverwijk","operatorName":"TotalEnergies","maxPowerKw":13,"isMegawatt":false,"status":"AVAILABLE","source":"ndw"}},{"type":"Feature","geometry":{"type":"Point","coordinates":[4.663712,52.487144]},"properties":{"type":"charge","layer":"passenger","locationId":"D17B75FB-35F6-4725-BCCD-C50A327B95F2","name":"TNLP009105 - Munnikenweide 10, Beverwijk","address":"10 Munnikenweide","city":"Beverwijk","operatorName":"TotalEnergies","maxPowerKw":13,"isMegawatt":false,"status":"AVAILABLE","source":"ndw"}},{"type":"Feature","geometry":{"type":"Point","coordinates":[4.674714,52.478105]},"properties":{"type":"charge","layer":"passenger","locationId":"OST22P0081_0012_1","name":"OST22P0081_0012_1","address":"Ringvaartweg 30","city":"Beverwijk","operatorName":"IPCharging","maxPowerKw":19,"isMegawatt":false,"status":"AVAILABLE","source":"ndw","priceKwh":0.65}},{"type":"Feature","geometry":{"type":"Point","coordinates":[4.675775,52.468347]},"properties":{"type":"charge","layer":"passenger","locationId":"91121805","name":"50five-S NL 04003643","address":"Kagerweg 31","city":"Beverwijk","operatorName":"50five","maxPowerKw":7,"isMegawatt":false,"status":"UNAVAILABLE","source":"ndw"}},{"type":"Feature","geometry":{"type":"Point","coordinates":[4.658639,52.483494]},"properties":{"type":"charge","layer":"passenger","locationId":"886A45E0-1E8E-46F4-811A-343840F2A285","name":"TNLP034235 - Hobbesteeg 47, Beverwijk","address":"47 Hobbesteeg","city":"Beverwijk","operatorName":"TotalEnergies","maxPowerKw":13,"isMegawatt":false,"status":"AVAILABLE","source":"ndw"}},{"type":"Feature","geometry":{"type":"Point","coordinates":[4.657547,52.475734]},"properties":{"type":"charge","layer":"passenger","locationId":"32401","name":"Circle K Beverwijk","address":"Parallelweg 1","city":"Beverwijk","operatorName":"Spirii","maxPowerKw":175,"isMegawatt":false,"status":"AVAILABLE","source":"ndw","priceKwh":0.65}},{"type":"Feature","geometry":{"type":"Point","coordinates":[4.65559,52.48442]},"properties":{"type":"charge","layer":"passenger","locationId":"99187690-4d30-4f8b-bd31-433dfdb58f6c","name":"PP001113 - Baanstraat 61, Beverwijk","address":"61 Baanstraat","city":"Beverwijk","operatorName":"TotalEnergies","maxPowerKw":17,"isMegawatt":false,"status":"AVAILABLE","source":"ndw"}},{"type":"Feature","geometry":{"type":"Point","coordinates":[4.65596,52.4821]},"properties":{"type":"charge","layer":"passenger","locationId":"434DB76C-28F4-4646-B91C-E395099B36FC","name":"PP002493 - Markt 23, Beverwijk","address":"23 Markt","city":"Beverwijk","operatorName":"TotalEnergies","maxPowerKw":13,"isMegawatt":false,"status":"AVAILABLE","source":"ndw"}},{"type":"Feature","geometry":{"type":"Point","coordinates":[4.592934,52.49708]},"properties":{"type":"charge","layer":"passenger","locationId":"690de911f1c03d841c7a4f0a","name":"Relweg 51 - Orangerie - links","address":"Relweg 51","city":"Wijk aan zee","operatorName":"E-Flux by Road","maxPowerKw":22,"isMegawatt":false,"status":"AVAILABLE","source":"ndw"}},{"type":"Feature","geometry":{"type":"Point","coordinates":[4.67369,52.491467]},"properties":{"type":"charge","layer":"passenger","locationId":"F30BC471-C1A8-47E1-B817-4960B5CE4B09","name":"TNLP015305 - Drechtstraat 46, Beverwijk","address":"46 Drechtstraat","city":"Beverwijk","operatorName":"TotalEnergies","maxPowerKw":17,"isMegawatt":false,"status":"UNAVAILABLE","source":"ndw"}},{"type":"Feature","geometry":{"type":"Point","coordinates":[4.65521,52.4917]},"properties":{"type":"charge","layer":"passenger","locationId":"346","name":"Shell Recharge NL Laan van Kanaän 70","address":"Laan van Kanaän 70","city":"Beverwijk","operatorName":"Ubitricity","maxPowerKw":11,"isMegawatt":false,"status":"AVAILABLE","source":"ndw","priceKwh":0.392}},{"type":"Feature","geometry":{"type":"Point","coordinates":[4.5921848,52.4925325]},"properties":{"type":"charge","layer":"passenger","locationId":"817","name":"Shell Recharge NL Voorstraat 12","address":"Voorstraat 12","city":"Wijk aan Zee","operatorName":"Ubitricity","maxPowerKw":22,"isMegawatt":false,"status":"CHARGING","source":"ndw","priceKwh":0.267}},{"type":"Feature","geometry":{"type":"Point","coordinates":[4.662097,52.49087]},"properties":{"type":"charge","layer":"passenger","locationId":"4287235","name":"Laadnet Uitvaartverzorging Eeken","address":"Laan van Meerestein 10","city":"Beverwijk","operatorName":"Laadnet","maxPowerKw":22,"isMegawatt":false,"status":"UNAVAILABLE","source":"ndw"}},{"type":"Feature","geometry":{"type":"Point","coordinates":[4.652137,52.478769]},"properties":{"type":"charge","layer":"passenger","locationId":"91106144","name":"50five-S NL 17B01661","address":"Velserweg 16","city":"Beverwijk","operatorName":"50five","maxPowerKw":22,"isMegawatt":false,"status":"AVAILABLE","source":"ndw"}},{"type":"Feature","geometry":{"type":"Point","coordinates":[4.682221,52.475963]},"properties":{"type":"charge","layer":"passenger","locationId":"62becf8fb5a06ae02d3da52f","name":"Gasterij Vuurland 's station","address":"noorderweg 15","city":"beverwijk","operatorName":"E-Flux by Road","maxPowerKw":22,"isMegawatt":false,"status":"AVAILABLE","source":"ndw","priceKwh":0.63}},{"type":"Feature","geometry":{"type":"Point","coordinates":[4.592934,52.49708]},"properties":{"type":"charge","layer":"passenger","locationId":"690de98623c3886ae624247a","name":"Relweg 51 - Orangerie - rechts","address":"Relweg 51","city":"Wijk aan zee","operatorName":"E-Flux by Road","maxPowerKw":11,"isMegawatt":false,"status":"AVAILABLE","source":"ndw","priceKwh":0.43}},{"type":"Feature","geometry":{"type":"Point","coordinates":[4.672146,52.464722]},"properties":{"type":"charge","layer":"passenger","locationId":"EBA4E5D7-197E-4F22-81C0-6DB8C7901338","name":"Eneco eMobility Etos DC - Rijnland 4 - Beverwijk","address":"Rijnland 4","city":"Beverwijk","operatorName":"Eneco","maxPowerKw":11,"isMegawatt":false,"status":"AVAILABLE","source":"ndw","priceKwh":0.3}},{"type":"Feature","geometry":{"type":"Point","coordinates":[4.6553481,52.4851931]},"properties":{"type":"charge","layer":"passenger","locationId":"2313","name":"Shell Recharge NL Romerkerkweg 7","address":"Romerkerkweg 7","city":"Beverwijk","operatorName":"Ubitricity","maxPowerKw":22,"isMegawatt":false,"status":"AVAILABLE","source":"ndw","priceKwh":0.267}},{"type":"Feature","geometry":{"type":"Point","coordinates":[4.588798,52.493946]},"properties":{"type":"charge","layer":"passenger","locationId":"d5bbcc7b-9c12-4231-8610-7a0326b7506d","name":"TNLP006513 - Rijckert Aertszweg 79a, Wijk aan Zee","address":"79a Rijckert Aertszweg","city":"Wijk aan Zee","operatorName":"TotalEnergies","maxPowerKw":15,"isMegawatt":false,"status":"UNAVAILABLE","source":"ndw"}},{"type":"Feature","geometry":{"type":"Point","coordinates":[4.64827,52.486557]},"properties":{"type":"charge","layer":"passenger","locationId":"E54EDFC4-146F-4187-8E9E-1C399AA953EC","name":"TNLP007711 - Lijsterbeslaan 58, Beverwijk","address":"58 Lijsterbeslaan","city":"Beverwijk","operatorName":"TotalEnergies","maxPowerKw":13,"isMegawatt":false,"status":"CHARGING","source":"ndw"}},{"type":"Feature","geometry":{"type":"Point","coordinates":[4.684595,52.491894]},"properties":{"type":"charge","layer":"passenger","locationId":"DF382BBE-80CC-47BB-8180-E150DCDF6D86","name":"TNLP009913 - Spinsteen 9, Beverwijk","address":"9 Spinsteen","city":"Beverwijk","operatorName":"TotalEnergies","maxPowerKw":13,"isMegawatt":false,"status":"CHARGING","source":"ndw"}},{"type":"Feature","geometry":{"type":"Point","coordinates":[4.6481448,52.4895781]},"properties":{"type":"charge","layer":"passenger","locationId":"1292","name":"Shell Recharge NL Leliestraat 16","address":"Leliestraat 16","city":"Beverwijk","operatorName":"Ubitricity","maxPowerKw":22,"isMegawatt":false,"status":"CHARGING","source":"ndw","priceKwh":0.267}},{"type":"Feature","geometry":{"type":"Point","coordinates":[4.657697,52.49199]},"properties":{"type":"charge","layer":"passenger","locationId":"55896668-1E14-46E7-BF56-96F8BC73B01D","name":"TNLP009750 - Eenhoornlaan 37, Beverwijk","address":"37 Eenhoornlaan","city":"Beverwijk","operatorName":"TotalEnergies","maxPowerKw":13,"isMegawatt":false,"status":"AVAILABLE","source":"ndw"}},{"type":"Feature","geometry":{"type":"Point","coordinates":[4.6768834,52.4928581]},"properties":{"type":"charge","layer":"passenger","locationId":"1347","name":"Shell Recharge NL Rubiconstraat 5","address":"Rubiconstraat 5","city":"Beverwijk","operatorName":"Ubitricity","maxPowerKw":22,"isMegawatt":false,"status":"UNAVAILABLE","source":"ndw","priceKwh":0.267}},{"type":"Feature","geometry":{"type":"Point","coordinates":[4.662727,52.478936]},"properties":{"type":"charge","layer":"passenger","locationId":"a289fc62a7bc4ad880ce","name":"Beverwijk Bowlingbaan BIJ45","address":"Parallelweg 45","city":"Beverwijk","operatorName":"Opcharge","maxPowerKw":22,"isMegawatt":false,"status":"AVAILABLE","source":"ndw","priceKwh":0.49}},{"type":"Feature","geometry":{"type":"Point","coordinates":[4.66217,52.473762]},"properties":{"type":"charge","layer":"passenger","locationId":"2601645","name":"Laadnet Braam Recycling","address":"Zuiderkade 12b","city":"Beverwijk","operatorName":"Laadnet","maxPowerKw":22,"isMegawatt":false,"status":"UNAVAILABLE","source":"ndw"}},{"type":"Feature","geometry":{"type":"Point","coordinates":[4.6440503,52.4902519]},"properties":{"type":"charge","layer":"passenger","locationId":"2314","name":"Shell Recharge NL Seringenhof 12","address":"Seringenhof 12","city":"Beverwijk","operatorName":"Ubitricity","maxPowerKw":22,"isMegawatt":false,"status":"AVAILABLE","source":"ndw","priceKwh":0.267}},{"type":"Feature","geometry":{"type":"Point","coordinates":[4.66203,52.4923]},"properties":{"type":"charge","layer":"passenger","locationId":"7c06c46b-b347-4323-8998-b5f01cafc7fd","name":"PP001200 - Schouwenaarsstraat 5, Beverwijk","address":"5 Schouwenaarsstraat","city":"Beverwijk","operatorName":"TotalEnergies","maxPowerKw":11,"isMegawatt":false,"status":"AVAILABLE","source":"ndw"}},{"type":"Feature","geometry":{"type":"Point","coordinates":[4.660254,52.499138]},"properties":{"type":"charge","layer":"passenger","locationId":"B931A0B4-B97D-4480-B8C2-C4F28137EE26","name":"TNLP034538 - Kingford Smithstraat 19, Beverwijk","address":"19 Kingford Smithstraat","city":"Beverwijk","operatorName":"TotalEnergies","maxPowerKw":13,"isMegawatt":false,"status":"UNAVAILABLE","source":"ndw"}},{"type":"Feature","geometry":{"type":"Point","coordinates":[4.65435,52.47812]},"properties":{"type":"charge","layer":"passenger","locationId":"CC1D597C-33A4-41FD-9462-270CEDD1F23A","name":"PP001090 - Stationsplein 48, Beverwijk","address":"48 Stationsplein","city":"Beverwijk","operatorName":"TotalEnergies","maxPowerKw":11,"isMegawatt":false,"status":"AVAILABLE","source":"ndw"}},{"type":"Feature","geometry":{"type":"Point","coordinates":[4.659637,52.49841]},"properties":{"type":"charge","layer":"passenger","locationId":"0E756C96-B4A7-4793-8403-41D9CE069979","name":"TNLP009025 - De Dalen 36, Beverwijk","address":"36 De Dalen","city":"Beverwijk","operatorName":"TotalEnergies","maxPowerKw":15,"isMegawatt":false,"status":"AVAILABLE","source":"ndw"}},{"type":"Feature","geometry":{"type":"Point","coordinates":[4.67609,52.48832]},"properties":{"type":"charge","layer":"passenger","locationId":"719bcdb4-6489-4ddd-bf87-3932a4ee48ac","name":"PP001267 - Zwaansmeerstraat 12, Beverwijk","address":"12 Zwaansmeerstraat","city":"Beverwijk","operatorName":"TotalEnergies","maxPowerKw":11,"isMegawatt":false,"status":"AVAILABLE","source":"ndw"}},{"type":"Feature","geometry":{"type":"Point","coordinates":[4.675361,52.474282]},"properties":{"type":"charge","layer":"passenger","locationId":"91201007","name":"50five-S NL 04004262","address":"Waterland 17","city":"Beverwijk","operatorName":"50five","maxPowerKw":7,"isMegawatt":false,"status":"AVAILABLE","source":"ndw"}},{"type":"Feature","geometry":{"type":"Point","coordinates":[4.692291,52.491074]},"properties":{"type":"charge","layer":"passenger","locationId":"90D5DD86-5E5E-482E-9096-8FF22699042C","name":"TNLP034502 - Stan Kentonlaan 39, Beverwijk","address":"39 Stan Kentonlaan","city":"Beverwijk","operatorName":"TotalEnergies","maxPowerKw":13,"isMegawatt":false,"status":"UNAVAILABLE","source":"ndw"}},{"type":"Feature","geometry":{"type":"Point","coordinates":[4.64898,52.48463]},"properties":{"type":"charge","layer":"passenger","locationId":"405","name":"Shell Recharge NL Groenelaan 73","address":"Groenelaan 73","city":"Beverwijk","operatorName":"Ubitricity","maxPowerKw":11,"isMegawatt":false,"status":"AVAILABLE","source":"ndw","priceKwh":0.392}},{"type":"Feature","geometry":{"type":"Point","coordinates":[4.677129,52.485508]},"properties":{"type":"charge","layer":"passenger","locationId":"EC8E708A-1D39-431C-A31A-402F5ABA31E1","name":"TNLP009366 - Hans van Kilsdonklaan 21, Beverwijk","address":"21 Hans van Kilsdonklaan","city":"Beverwijk","operatorName":"TotalEnergies","maxPowerKw":13,"isMegawatt":false,"status":"AVAILABLE","source":"ndw"}},{"type":"Feature","geometry":{"type":"Point","coordinates":[4.6528573,52.487487]},"properties":{"type":"charge","layer":"passenger","locationId":"2077","name":"Shell Recharge NL Sparrenstraat 9","address":"Sparrenstraat 9","city":"Beverwijk","operatorName":"Ubitricity","maxPowerKw":22,"isMegawatt":false,"status":"AVAILABLE","source":"ndw","priceKwh":0.267}},{"type":"Feature","geometry":{"type":"Point","coordinates":[4.64519,52.48426]},"properties":{"type":"charge","layer":"passenger","locationId":"301","name":"Shell Recharge NL Duinwijklaan 1","address":"Duinwijklaan 1","city":"Beverwijk","operatorName":"Ubitricity","maxPowerKw":11,"isMegawatt":false,"status":"CHARGING","source":"ndw","priceKwh":0.392}},{"type":"Feature","geometry":{"type":"Point","coordinates":[4.666183,52.4873]},"properties":{"type":"charge","layer":"passenger","locationId":"98677fa6-261c-4955-b777-054bb9b27212","name":"PP005602 - Margrietplantsoen 15, Beverwijk","address":"15 Margrietplantsoen","city":"Beverwijk","operatorName":"TotalEnergies","maxPowerKw":13,"isMegawatt":false,"status":"AVAILABLE","source":"ndw"}},{"type":"Feature","geometry":{"type":"Point","coordinates":[4.6844,52.48703]},"properties":{"type":"charge","layer":"passenger","locationId":"6afe108d-2e15-4710-a16f-f65665c030a2","name":"PP001122 - Eduard Jacobslaan 47, Beverwijk","address":"47 Eduard Jacobslaan","city":"Beverwijk","operatorName":"TotalEnergies","maxPowerKw":11,"isMegawatt":false,"status":"CHARGING","source":"ndw"}},{"type":"Feature","geometry":{"type":"Point","coordinates":[4.663452,52.477685]},"properties":{"type":"charge","layer":"passenger","locationId":"61289fe8c5c3ed96c8ccc330","name":"Havenstraat 9, Beverwijk (Visser Elektro)","address":"Havenstraat 9","city":"Beverwijk","operatorName":"E-Flux by Road","maxPowerKw":22,"isMegawatt":false,"status":"AVAILABLE","source":"ndw","priceKwh":0.62}},{"type":"Feature","geometry":{"type":"Point","coordinates":[4.66256,52.4727]},"properties":{"type":"charge","layer":"passenger","locationId":"E7498297-C1D3-4A13-B6A7-CD20E7CC61F7","name":"TNLP008562 - Zuiderkade 27, Beverwijk","address":"27 Zuiderkade","city":"Beverwijk","operatorName":"TotalEnergies","maxPowerKw":13,"isMegawatt":false,"status":"AVAILABLE","source":"ndw"}},{"type":"Feature","geometry":{"type":"Point","coordinates":[4.6743453,52.4958656]},"properties":{"type":"charge","layer":"passenger","locationId":"847","name":"Shell Recharge NL Lahnstraat 19","address":"Lahnstraat 19","city":"Beverwijk","operatorName":"Ubitricity","maxPowerKw":22,"isMegawatt":false,"status":"AVAILABLE","source":"ndw","priceKwh":0.267}},{"type":"Feature","geometry":{"type":"Point","coordinates":[4.693134,52.49103]},"properties":{"type":"charge","layer":"passenger","locationId":"067F75FB-484B-4E6E-8912-DB19EAC273D0","name":"TNLP007993 - Stan Kentonlaan 21, Beverwijk","address":"21 Stan Kentonlaan","city":"Beverwijk","operatorName":"TotalEnergies","maxPowerKw":13,"isMegawatt":false,"status":"AVAILABLE","source":"ndw"}},{"type":"Feature","geometry":{"type":"Point","coordinates":[4.647732,52.49259]},"properties":{"type":"charge","layer":"passenger","locationId":"AC7C17B2-D726-4B90-9353-720993AC9136","name":"TNLP009716 - Hornlaan 20, Beverwijk","address":"20 Hornlaan","city":"Beverwijk","operatorName":"TotalEnergies","maxPowerKw":13,"isMegawatt":false,"status":"AVAILABLE","source":"ndw"}},{"type":"Feature","geometry":{"type":"Point","coordinates":[4.646993,52.485283]},"properties":{"type":"charge","layer":"passenger","locationId":"A4A7F788-99A6-46C7-8FE2-40DB74D2D301","name":"TNLP008637 - Boogaardlaan 2c, Beverwijk","address":"2c Boogaardlaan","city":"Beverwijk","operatorName":"TotalEnergies","maxPowerKw":13,"isMegawatt":false,"status":"AVAILABLE","source":"ndw"}},{"type":"Feature","geometry":{"type":"Point","coordinates":[4.6655237,52.4880206]},"properties":{"type":"charge","layer":"passenger","locationId":"2312","name":"Shell Recharge NL Beatrixlaan 41","address":"Beatrixlaan 41","city":"Beverwijk","operatorName":"Ubitricity","maxPowerKw":22,"isMegawatt":false,"status":"AVAILABLE","source":"ndw","priceKwh":0.267}},{"type":"Feature","geometry":{"type":"Point","coordinates":[4.658401,52.497177]},"properties":{"type":"charge","layer":"passenger","locationId":"EDA29602-AFF1-4651-8A80-D4EC210CA76D","name":"TNLP006107 - Alkmaarseweg 450, Beverwijk","address":"450 Alkmaarseweg","city":"Beverwijk","operatorName":"TotalEnergies","maxPowerKw":13,"isMegawatt":false,"status":"AVAILABLE","source":"ndw"}},{"type":"Feature","geometry":{"type":"Point","coordinates":[4.655237,52.48766]},"properties":{"type":"charge","layer":"passenger","locationId":"c20a20bc-2623-4aa4-9eb7-1825bb25ba26","name":"TNLP008455 - Arendsweg 53, Beverwijk","address":"53 Arendsweg","city":"Beverwijk","operatorName":"TotalEnergies","maxPowerKw":13,"isMegawatt":false,"status":"AVAILABLE","source":"ndw"}},{"type":"Feature","geometry":{"type":"Point","coordinates":[4.663543,52.471171]},"properties":{"type":"charge","layer":"passenger","locationId":"63773f1577c2213a12856eac","name":"Middelkoop","address":"Lijndenweg  25","city":"Beverwijk","operatorName":"E-Flux by Road","maxPowerKw":22,"isMegawatt":false,"status":"AVAILABLE","source":"ndw","priceKwh":0.48}},{"type":"Feature","geometry":{"type":"Point","coordinates":[4.652382,52.48898]},"properties":{"type":"charge","layer":"passenger","locationId":"2DC9D004-74CD-404F-9FFB-4F2D7DCBA535","name":"TNLP009171 - Arendsweg 124, Beverwijk","address":"124 Arendsweg","city":"Beverwijk","operatorName":"TotalEnergies","maxPowerKw":13,"isMegawatt":false,"status":"AVAILABLE","source":"ndw"}},{"type":"Feature","geometry":{"type":"Point","coordinates":[4.65749,52.4897]},"properties":{"type":"charge","layer":"passenger","locationId":"b70afd85-6f92-46b2-b199-a40c026527cb","name":"PP001989 - Oostertuinen 3, Beverwijk","address":"3 Oostertuinen","city":"Beverwijk","operatorName":"TotalEnergies","maxPowerKw":11,"isMegawatt":false,"status":"AVAILABLE","source":"ndw"}},{"type":"Feature","geometry":{"type":"Point","coordinates":[4.604101,52.49217]},"properties":{"type":"charge","layer":"passenger","locationId":"02A63C51-D1B3-4311-82E3-72D5FEB051C5","name":"TNLP009846 - Zeestraat 359, Wijk aan Zee","address":"359 Zeestraat","city":"Wijk aan Zee","operatorName":"TotalEnergies","maxPowerKw":13,"isMegawatt":false,"status":"AVAILABLE","source":"ndw"}},{"type":"Feature","geometry":{"type":"Point","coordinates":[4.66826,52.48022]},"properties":{"type":"charge","layer":"passenger","locationId":"54","name":"Shell Recharge NL Parallelweg 95","address":"Parallelweg 95","city":"Beverwijk","operatorName":"Ubitricity","maxPowerKw":11,"isMegawatt":false,"status":"AVAILABLE","source":"ndw","priceKwh":0.392}},{"type":"Feature","geometry":{"type":"Point","coordinates":[4.665327,52.49646]},"properties":{"type":"charge","layer":"passenger","locationId":"74861B14-6671-4DAD-B955-FBD86E8AC143","name":"TNLP007916 - Pelikaanhof 58, Beverwijk","address":"58 Pelikaanhof","city":"Beverwijk","operatorName":"TotalEnergies","maxPowerKw":15,"isMegawatt":false,"status":"AVAILABLE","source":"ndw"}},{"type":"Feature","geometry":{"type":"Point","coordinates":[4.68947,52.48868]},"properties":{"type":"charge","layer":"passenger","locationId":"1553","name":"Shell Recharge NL Laan van Broekpolder 204","address":"Laan van Broekpolder 204","city":"Beverwijk","operatorName":"Ubitricity","maxPowerKw":11,"isMegawatt":false,"status":"AVAILABLE","source":"ndw","priceKwh":0.392}},{"type":"Feature","geometry":{"type":"Point","coordinates":[4.655234,52.49077]},"properties":{"type":"charge","layer":"passenger","locationId":"4B8CAB94-894B-4729-A21C-AC5993707747","name":"TNLP008444 - Oostertuinen 2, Beverwijk","address":"2 Oostertuinen","city":"Beverwijk","operatorName":"TotalEnergies","maxPowerKw":13,"isMegawatt":false,"status":"AVAILABLE","source":"ndw"}},{"type":"Feature","geometry":{"type":"Point","coordinates":[4.658911,52.491207]},"properties":{"type":"charge","layer":"passenger","locationId":"1E619256-C7A4-44A8-B670-6935D89BC213","name":"TNLP008358 - Raamveld 30, Beverwijk","address":"30 Raamveld","city":"Beverwijk","operatorName":"TotalEnergies","maxPowerKw":13,"isMegawatt":false,"status":"AVAILABLE","source":"ndw"}},{"type":"Feature","geometry":{"type":"Point","coordinates":[4.643757,52.49405]},"properties":{"type":"charge","layer":"passenger","locationId":"7690788B-4C22-4737-A7CB-12C8C9A1A254","name":"TNLP034481 - Jacques Martensstraat 21, Beverwijk","address":"21 Jacques Martensstraat","city":"Beverwijk","operatorName":"TotalEnergies","maxPowerKw":13,"isMegawatt":false,"status":"UNAVAILABLE","source":"ndw"}},{"type":"Feature","geometry":{"type":"Point","coordinates":[4.684175,52.485313]},"properties":{"type":"charge","layer":"passenger","locationId":"53DA0782-3EE9-451E-9F02-CA3E01C89521","name":"TNLP015059 - Eduard Jacobslaan 1, Beverwijk","address":"1 Eduard Jacobslaan","city":"Beverwijk","operatorName":"TotalEnergies","maxPowerKw":13,"isMegawatt":false,"status":"CHARGING","source":"ndw"}},{"type":"Feature","geometry":{"type":"Point","coordinates":[4.642866,52.486595]},"properties":{"type":"charge","layer":"passenger","locationId":"8C103338-0C66-4C7C-A077-673B68515672","name":"TNLP009723 - Warande 18, Beverwijk","address":"18 Warande","city":"Beverwijk","operatorName":"TotalEnergies","maxPowerKw":13,"isMegawatt":false,"status":"AVAILABLE","source":"ndw"}},{"type":"Feature","geometry":{"type":"Point","coordinates":[4.687608,52.490204]},"properties":{"type":"charge","layer":"passenger","locationId":"D14F51D4-9027-43C6-AE08-CC0C44A62972","name":"TNLP009374 - Christiaan Sepplaan 1, Beverwijk","address":"1 Christiaan Sepplaan","city":"Beverwijk","operatorName":"TotalEnergies","maxPowerKw":13,"isMegawatt":false,"status":"AVAILABLE","source":"ndw"}},{"type":"Feature","geometry":{"type":"Point","coordinates":[4.685912,52.490566]},"properties":{"type":"charge","layer":"passenger","locationId":"F905BE49-D476-4D2F-B219-409B63B61069","name":"PP005038 - Pieter Cheeuwenlaan 2, Beverwijk","address":"2 Pieter Cheeuwenlaan","city":"Beverwijk","operatorName":"TotalEnergies","maxPowerKw":13,"isMegawatt":false,"status":"AVAILABLE","source":"ndw"}},{"type":"Feature","geometry":{"type":"Point","coordinates":[4.656554,52.47985]},"properties":{"type":"charge","layer":"passenger","locationId":"D5398B62-5569-4AB6-A637-00DDCB801258","name":"TNLP008617 - Meerstraat 44, Beverwijk","address":"44 Meerstraat","city":"Beverwijk","operatorName":"TotalEnergies","maxPowerKw":14,"isMegawatt":false,"status":"AVAILABLE","source":"ndw"}},{"type":"Feature","geometry":{"type":"Point","coordinates":[4.657506,52.485107]},"properties":{"type":"charge","layer":"passenger","locationId":"76E913E0-6906-40D2-8A3F-C2F4C7C12ADA","name":"TNLP007881 - Jan Alsweg 1, Beverwijk","address":"1 Jan Alsweg","city":"Beverwijk","operatorName":"TotalEnergies","maxPowerKw":13,"isMegawatt":false,"status":"AVAILABLE","source":"ndw"}},{"type":"Feature","geometry":{"type":"Point","coordinates":[4.675577,52.490986]},"properties":{"type":"charge","layer":"passenger","locationId":"AED304E5-3B76-4A17-A721-8D222B9CD2B2","name":"TNLP009783 - Dinkelstraat 77, Beverwijk","address":"77 Dinkelstraat","city":"Beverwijk","operatorName":"TotalEnergies","maxPowerKw":13,"isMegawatt":false,"status":"CHARGING","source":"ndw"}},{"type":"Feature","geometry":{"type":"Point","coordinates":[4.662627,52.49109]},"properties":{"type":"charge","layer":"passenger","locationId":"18971A88-E7A8-4E26-8E56-0F1876C4F51B","name":"TNLP009413 - Laan van Meerestein 12, Beverwijk","address":"12 Laan van Meerestein","city":"Beverwijk","operatorName":"TotalEnergies","maxPowerKw":13,"isMegawatt":false,"status":"CHARGING","source":"ndw"}},{"type":"Feature","geometry":{"type":"Point","coordinates":[4.6503,52.48168]},"properties":{"type":"charge","layer":"passenger","locationId":"629E85D4-A8E0-4780-8F52-0917FA63C2A9","name":"TNLP034665 - Dr. Schuitstraat 14, Beverwijk","address":"14 Dr. Schuitstraat","city":"Beverwijk","operatorName":"TotalEnergies","maxPowerKw":13,"isMegawatt":false,"status":"UNAVAILABLE","source":"ndw"}},{"type":"Feature","geometry":{"type":"Point","coordinates":[4.66463,52.4852]},"properties":{"type":"charge","layer":"passenger","locationId":"15556B2A-F444-42CF-9433-84098E94D0C2","name":"TNLP003560 - Vlietgors 43, Beverwijk","address":"43 Vlietgors","city":"Beverwijk","operatorName":"TotalEnergies","maxPowerKw":17,"isMegawatt":false,"status":"AVAILABLE","source":"ndw"}},{"type":"Feature","geometry":{"type":"Point","coordinates":[4.662076,52.496174]},"properties":{"type":"charge","layer":"passenger","locationId":"9CD84863-5BB6-49EB-8420-AE0226F2E7AD","name":"TNLP009191 - Dellaertlaan 6, Beverwijk","address":"6 Dellaertlaan","city":"Beverwijk","operatorName":"TotalEnergies","maxPowerKw":15,"isMegawatt":false,"status":"AVAILABLE","source":"ndw"}},{"type":"Feature","geometry":{"type":"Point","coordinates":[4.655299,52.482105]},"properties":{"type":"charge","layer":"passenger","locationId":"8763A293-87B2-457F-AE73-E22C0E9CBFFC","name":"TNLP009359 - Markt 68, Beverwijk","address":"68 Markt","city":"Beverwijk","operatorName":"TotalEnergies","maxPowerKw":13,"isMegawatt":false,"status":"AVAILABLE","source":"ndw"}},{"type":"Feature","geometry":{"type":"Point","coordinates":[4.665974,52.491338]},"properties":{"type":"charge","layer":"passenger","locationId":"91121662","name":"50five-S NL 07105996","address":"Van Loenenlaan 1","city":"Beverwijk","operatorName":"50five","maxPowerKw":14,"isMegawatt":false,"status":"UNAVAILABLE","source":"ndw"}},{"type":"Feature","geometry":{"type":"Point","coordinates":[4.593536,52.49558]},"properties":{"type":"charge","layer":"passenger","locationId":"c01ee08d-cc77-4665-8644-6a0e9cd9f1d7","name":"PP001192 - Dorpsduinen 23, Wijk aan Zee","address":"23 Dorpsduinen","city":"Wijk aan Zee","operatorName":"TotalEnergies","maxPowerKw":11,"isMegawatt":false,"status":"UNAVAILABLE","source":"ndw"}},{"type":"Feature","geometry":{"type":"Point","coordinates":[4.663018,52.477]},"properties":{"type":"charge","layer":"passenger","locationId":"D76B2740-39DF-4CD6-9C1C-E662F8B6E28A","name":"TNLP009423 - Havenstraat 3, Beverwijk","address":"3 Havenstraat","city":"Beverwijk","operatorName":"TotalEnergies","maxPowerKw":15,"isMegawatt":false,"status":"UNAVAILABLE","source":"ndw"}},{"type":"Feature","geometry":{"type":"Point","coordinates":[4.66202,52.49615]},"properties":{"type":"charge","layer":"passenger","locationId":"59d857d0b2105920bd1237b0650fada0","name":"Dellaertlaan 6a","address":"Dellaertlaan 6a","city":"Beverwijk","operatorName":"Vattenfall InCharge","maxPowerKw":11,"isMegawatt":false,"status":"CHARGING","source":"ndw","priceKwh":0.2805}},{"type":"Feature","geometry":{"type":"Point","coordinates":[4.653762,52.48048]},"properties":{"type":"charge","layer":"passenger","locationId":"c4652cf6-627a-4472-98ee-8908b4b9ae98","name":"TNLP008540 - Meester van Lingenlaan 79, Beverwijk","address":"79 Meester van Lingenlaan","city":"Beverwijk","operatorName":"TotalEnergies","maxPowerKw":14,"isMegawatt":false,"status":"AVAILABLE","source":"ndw"}},{"type":"Feature","geometry":{"type":"Point","coordinates":[4.675318,52.478046]},"properties":{"type":"charge","layer":"passenger","locationId":"001EFD28-0D01-494F-A4E6-54E546878D70","name":"TNLP009240 - Montageweg 35, Beverwijk","address":"35 Montageweg","city":"Beverwijk","operatorName":"TotalEnergies","maxPowerKw":15,"isMegawatt":false,"status":"AVAILABLE","source":"ndw"}},{"type":"Feature","geometry":{"type":"Point","coordinates":[4.661868,52.488992]},"properties":{"type":"charge","layer":"passenger","locationId":"6dd93671-a44b-4781-b255-3bf318bf8576","name":"Marga Klompelaan","address":"Marga Klompelaan 28","city":"Beverwijk","operatorName":"Vattenfall InCharge","maxPowerKw":11,"isMegawatt":false,"status":"AVAILABLE","source":"ndw","priceKwh":0.4316}},{"type":"Feature","geometry":{"type":"Point","coordinates":[4.662895,52.47224]},"properties":{"type":"charge","layer":"passenger","locationId":"91275763","name":"50five-S NL 18B05080","address":"Zuiderkade 29","city":"Beverwijk","operatorName":"50five","maxPowerKw":11,"isMegawatt":false,"status":"AVAILABLE","source":"ndw"}},{"type":"Feature","geometry":{"type":"Point","coordinates":[4.67812,52.48671]},"properties":{"type":"charge","layer":"passenger","locationId":"e7265232-fa32-4985-bfe7-3fe17fb1d0d1","name":"PP001085 - Boy Edgarlaan 19, Beverwijk","address":"19 Boy Edgarlaan","city":"Beverwijk","operatorName":"TotalEnergies","maxPowerKw":11,"isMegawatt":false,"status":"AVAILABLE","source":"ndw"}},{"type":"Feature","geometry":{"type":"Point","coordinates":[4.68043,52.49266]},"properties":{"type":"charge","layer":"passenger","locationId":"14d2378e-f3f9-46dc-a150-b80ad92cb672","name":"TNLP009727 - Belgiëlaan 61, Beverwijk","address":"61 Belgiëlaan","city":"Beverwijk","operatorName":"TotalEnergies","maxPowerKw":13,"isMegawatt":false,"status":"CHARGING","source":"ndw"}},{"type":"Feature","geometry":{"type":"Point","coordinates":[4.672374,52.477083]},"properties":{"type":"charge","layer":"passenger","locationId":"OST22P0081_0019_0","name":"OST22P0081_0019_0","address":"Montageweg 35","city":"Beverwijk","operatorName":"IPCharging","maxPowerKw":19,"isMegawatt":false,"status":"AVAILABLE","source":"ndw","priceKwh":0.65}},{"type":"Feature","geometry":{"type":"Point","coordinates":[4.656573,52.491408]},"properties":{"type":"charge","layer":"passenger","locationId":"b1f411f2c61cc364d0b541f44c1dd47e","name":"Eenhoornlaan 8","address":"Eenhoornlaan 8","city":"Beverwijk","operatorName":"Vattenfall InCharge","maxPowerKw":11,"isMegawatt":false,"status":"AVAILABLE","source":"ndw","priceKwh":0.2805}},{"type":"Feature","geometry":{"type":"MultiPolygon","coordinates":[[[[4.6698864591502645,52.49839908467197],[4.672854628971763,52.49696647606138],[4.6735008347253135,52.496533474628876],[4.675069030390876,52.49558770761692],[4.674407167032898,52.49515518958724],[4.676988380755352,52.494430077051774],[4.677992909914741,52.493364724962994],[4.678609138030714,52.49371942200432],[4.679923198819459,52.4931689273951],[4.680509740053919,52.49353921986449],[4.682034594406481,52.492822949690535],[4.683720747498192,52.49274638045425],[4.683838673840042,52.492720482896566],[4.685971972650712,52.49173724080129],[4.68708611020032,52.49239180932171],[4.690382467770161,52.49083051545306],[4.690991273618182,52.49131732193451],[4.694741085018794,52.49133928102794],[4.69492969891398,52.49068037893773],[4.694600903708954,52.48958680700533],[4.694550247291426,52.48829989978143],[4.695508383610184,52.48738560699353],[4.697601575369733,52.48751238399282],[4.699665524245394,52.489799387713674],[4.703720891458864,52.48853281123367],[4.703093485768627,52.487559551234895],[4.707968416577645,52.4863326080833],[4.7059058241868605,52.48444327127311],[4.706158161291381,52.482839616248185],[4.705471563730988,52.48185638400344],[4.700728504753783,52.48023690354333],[4.698734445474187,52.477137069420166],[4.69927828266801,52.474532803921655],[4.697279707057803,52.47201000478253],[4.697818150056524,52.47103392986658],[4.694608933061765,52.468082162579464],[4.690080545860593,52.46562476340117],[4.685145815537968,52.463661909739265],[4.684265851680919,52.463521096547105],[4.6850689019631035,52.462556856206234],[4.684586951957288,52.46222518481346],[4.6829992467800015,52.461132174955445],[4.674847564537356,52.45552044141981],[4.661924297411581,52.461756788815926],[4.667605448933747,52.46842625637081],[4.6643676150627975,52.470570797504095],[4.6541576768922805,52.47666097784895],[4.6533327402976825,52.4771547609822],[4.649289498637684,52.47653326154436],[4.64901428784643,52.476608048891066],[4.646735753825288,52.47708159150468],[4.647635236287858,52.47842447827837],[4.640695790943964,52.47939067242508],[4.637836860231315,52.480133960902435],[4.6209582072240645,52.482328106429975],[4.618190661911017,52.48328838640294],[4.613552804558447,52.483803053639974],[4.604049064395365,52.481468431609834],[4.602720209165779,52.48335055987298],[4.596118246910604,52.48597365080521],[4.590506208888703,52.48724743839907],[4.581336560132262,52.48932048382547],[4.586562586159282,52.49916128049285],[4.591665335857331,52.49784023581694],[4.591694485111929,52.49827896029941],[4.595545150107487,52.49819874851636],[4.597983339941927,52.4968453184897],[4.599929989793624,52.497260935418254],[4.598635130063457,52.495944512946195],[4.604313175691751,52.49438882270292],[4.606296877926412,52.494785838034275],[4.606295171357328,52.49480882006776],[4.607470171718825,52.49457451807093],[4.6115093373799185,52.49664184180558],[4.613036767631955,52.496331052314844],[4.621400440012889,52.49786211921499],[4.630955356820357,52.498658003711235],[4.631365558893689,52.4986921564526],[4.63389299437479,52.498902587571465],[4.634999034934456,52.49952913758984],[4.635019622273163,52.4990614413448],[4.645105128641938,52.499569168279784],[4.646311696815906,52.49908345091479],[4.649430080587952,52.49912159432593],[4.649451495207622,52.499048667674806],[4.65002058558664,52.49842381493259],[4.6512424308106715,52.49884539473026],[4.652560630009113,52.498187528939276],[4.65537873186347,52.49792531006059],[4.657397631391029,52.49866402855385],[4.65747557687084,52.498675411138485],[4.666053515207957,52.5017441313725],[4.666913570299449,52.50105333748962],[4.666301298315177,52.50074423364274],[4.668328558448835,52.49991676179055],[4.6698864591502645,52.49839908467197]]]]},"properties":{"type":"boundary","gemeente":"Beverwijk","code":"GM0375"}}]}