{"type":"FeatureCollection","metadata":{"gemeente":"Bloemendaal","slug":"bloemendaal","code":"GM0377","generated_at":"2026-08-08T12:05:52.020Z","total_passenger":100,"total_freight":0,"bounds":[4.541323030416286,52.309298171707894,4.631647172370925,52.43803730058374],"operators":["50five","ChargeCars B.V.","DAEN Mobility","E-Flux by Road","Laadpaal24","NXT Charging Solutions","Opcharge","TotalEnergies","Ubitricity","Vattenfall InCharge"]},"features":[{"type":"Feature","geometry":{"type":"Point","coordinates":[4.620264,52.389926]},"properties":{"type":"charge","layer":"passenger","locationId":"91230471","name":"50five-S NL 17B22629","address":"Julianalaan 144","city":"Overveen","operatorName":"50five","maxPowerKw":11,"isMegawatt":false,"status":"AVAILABLE","source":"ndw"}},{"type":"Feature","geometry":{"type":"Point","coordinates":[4.624108,52.398872]},"properties":{"type":"charge","layer":"passenger","locationId":"D5B39904-99D4-469E-92A1-EDDE35B60083","name":"TNLP009957 - Iepenlaan 2, Bloemendaal","address":"2 Iepenlaan","city":"Bloemendaal","operatorName":"TotalEnergies","maxPowerKw":13,"isMegawatt":false,"status":"AVAILABLE","source":"ndw"}},{"type":"Feature","geometry":{"type":"Point","coordinates":[4.574464,52.31988]},"properties":{"type":"charge","layer":"passenger","locationId":"95189967-E55C-4635-AAC6-4912CF22012C","name":"PP005419 - Teylingerweg 66, Vogelenzang","address":"66 Teylingerweg","city":"Vogelenzang","operatorName":"TotalEnergies","maxPowerKw":13,"isMegawatt":false,"status":"AVAILABLE","source":"ndw"}},{"type":"Feature","geometry":{"type":"Point","coordinates":[4.57214,52.31605]},"properties":{"type":"charge","layer":"passenger","locationId":"1313df9a17d198b10ce9e2dbcd907086","name":"Deken Zondaglaan 5","address":"Deken Zondaglaan 5","city":"Vogelenzang","operatorName":"Vattenfall InCharge","maxPowerKw":11,"isMegawatt":false,"status":"AVAILABLE","source":"ndw","priceKwh":0.2805}},{"type":"Feature","geometry":{"type":"Point","coordinates":[4.619358,52.402946]},"properties":{"type":"charge","layer":"passenger","locationId":"36551042-0856-44BC-A48C-BD00D58AEDAC","name":"PP005488 - Bloemendaalseweg 115, Bloemendaal","address":"115 Bloemendaalseweg","city":"Bloemendaal","operatorName":"TotalEnergies","maxPowerKw":13,"isMegawatt":false,"status":"AVAILABLE","source":"ndw"}},{"type":"Feature","geometry":{"type":"Point","coordinates":[4.61732,52.39017]},"properties":{"type":"charge","layer":"passenger","locationId":"4572CE4D-33E7-4761-A328-240455A3F9A9","name":"PP001278 - Waldeck Pyrmontlaan 3, Overveen","address":"3 Waldeck Pyrmontlaan","city":"Overveen","operatorName":"TotalEnergies","maxPowerKw":11,"isMegawatt":false,"status":"AVAILABLE","source":"ndw"}},{"type":"Feature","geometry":{"type":"Point","coordinates":[4.600794,52.357499]},"properties":{"type":"charge","layer":"passenger","locationId":"3cfd9ffc38ac18e1975d8340aef5e7ba","name":"Verbenalaan 5","address":"Verbenalaan 5","city":"Aerdenhout","operatorName":"Vattenfall InCharge","maxPowerKw":11,"isMegawatt":false,"status":"AVAILABLE","source":"ndw","priceKwh":0.2805}},{"type":"Feature","geometry":{"type":"Point","coordinates":[4.602372,52.316746]},"properties":{"type":"charge","layer":"passenger","locationId":"E3E76581-7B5D-4D92-B3D3-5098E2113145","name":"TNLP007891 - van Kinsbergenlaan 60, Bennebroek","address":"60 van Kinsbergenlaan","city":"Bennebroek","operatorName":"TotalEnergies","maxPowerKw":13,"isMegawatt":false,"status":"AVAILABLE","source":"ndw"}},{"type":"Feature","geometry":{"type":"Point","coordinates":[4.603597,52.316529]},"properties":{"type":"charge","layer":"passenger","locationId":"922838","name":"DAE-NL-2000522","address":"de Ruyterlaan 105","city":"Bennebroek","operatorName":"DAEN Mobility","maxPowerKw":11,"isMegawatt":false,"status":"AVAILABLE","source":"ndw","priceKwh":0.38}},{"type":"Feature","geometry":{"type":"Point","coordinates":[4.601167,52.32196]},"properties":{"type":"charge","layer":"passenger","locationId":"4F3499A4-49F2-4B61-8797-6A0C7A41D1D3","name":"TNLP009463 - Binnenweg 12, Bennebroek","address":"12 Binnenweg","city":"Bennebroek","operatorName":"TotalEnergies","maxPowerKw":13,"isMegawatt":false,"status":"AVAILABLE","source":"ndw"}},{"type":"Feature","geometry":{"type":"Point","coordinates":[4.5899448,52.3250058]},"properties":{"type":"charge","layer":"passenger","locationId":"1797","name":"Shell Recharge NL Tulpenlaan 41","address":"Tulpenlaan 41","city":"Bennebroek","operatorName":"Ubitricity","maxPowerKw":22,"isMegawatt":false,"status":"AVAILABLE","source":"ndw","priceKwh":0.267}},{"type":"Feature","geometry":{"type":"Point","coordinates":[4.611395,52.39142]},"properties":{"type":"charge","layer":"passenger","locationId":"C1CA6804-046A-4D51-BED8-15925722D822","name":"TNLP034652 - Jan Willem Frisolaan 2, Overveen","address":"2 Jan Willem Frisolaan","city":"Overveen","operatorName":"TotalEnergies","maxPowerKw":13,"isMegawatt":false,"status":"UNAVAILABLE","source":"ndw"}},{"type":"Feature","geometry":{"type":"Point","coordinates":[4.620963,52.400997]},"properties":{"type":"charge","layer":"passenger","locationId":"BCBCF5B6-F613-478B-91E7-652CC694087D","name":"TNLP008581 - Kastanjelaan 7, Bloemendaal","address":"7 Kastanjelaan","city":"Bloemendaal","operatorName":"TotalEnergies","maxPowerKw":14,"isMegawatt":false,"status":"AVAILABLE","source":"ndw"}},{"type":"Feature","geometry":{"type":"Point","coordinates":[4.604035,52.363138]},"properties":{"type":"charge","layer":"passenger","locationId":"91043359","name":"50five-S NL 17B16645","address":"Anjelierenlaan 1","city":"Aerdenhout","operatorName":"50five","maxPowerKw":11,"isMegawatt":false,"status":"AVAILABLE","source":"ndw"}},{"type":"Feature","geometry":{"type":"Point","coordinates":[4.616885,52.38941]},"properties":{"type":"charge","layer":"passenger","locationId":"FFA0F0A2-E883-4E3A-A2BE-4D0F66A29D05","name":"TNLP034073 - Waldeck Pyrmontlaan 21, Overveen","address":"21 Waldeck Pyrmontlaan","city":"Overveen","operatorName":"TotalEnergies","maxPowerKw":13,"isMegawatt":false,"status":"CHARGING","source":"ndw"}},{"type":"Feature","geometry":{"type":"Point","coordinates":[4.604634,52.365646]},"properties":{"type":"charge","layer":"passenger","locationId":"445BB444-8E91-453D-AE6F-F8DCBA1019FD","name":"TNLP007739 - Jaap Buijshof 86, Aerdenhout","address":"86 Jaap Buijshof","city":"Aerdenhout","operatorName":"TotalEnergies","maxPowerKw":13,"isMegawatt":false,"status":"AVAILABLE","source":"ndw"}},{"type":"Feature","geometry":{"type":"Point","coordinates":[4.600722,52.31778]},"properties":{"type":"charge","layer":"passenger","locationId":"D4422989-1987-42D5-AA26-6F7397954940","name":"TNLP009790 - de Ruyterlaan 141, Bennebroek","address":"141 de Ruyterlaan","city":"Bennebroek","operatorName":"TotalEnergies","maxPowerKw":13,"isMegawatt":false,"status":"UNAVAILABLE","source":"ndw"}},{"type":"Feature","geometry":{"type":"Point","coordinates":[4.620576,52.402996]},"properties":{"type":"charge","layer":"passenger","locationId":"432e8690-efb8-4360-8536-1f1516f94d5f","name":"TNLP034004 - Vijverweg 20B, Bloemendaal","address":"20B Vijverweg","city":"Bloemendaal","operatorName":"TotalEnergies","maxPowerKw":13,"isMegawatt":false,"status":"AVAILABLE","source":"ndw"}},{"type":"Feature","geometry":{"type":"Point","coordinates":[4.598328,52.32109]},"properties":{"type":"charge","layer":"passenger","locationId":"9F621F71-5775-4728-A374-2602F5405A31","name":"TNLP009023 - Bennebroekerdreef 65, Bennebroek","address":"65 Bennebroekerdreef","city":"Bennebroek","operatorName":"TotalEnergies","maxPowerKw":13,"isMegawatt":false,"status":"AVAILABLE","source":"ndw"}},{"type":"Feature","geometry":{"type":"Point","coordinates":[4.593713,52.320062]},"properties":{"type":"charge","layer":"passenger","locationId":"91196688","name":"50five-S NL 03011727","address":"Willinklaan 17","city":"Bennebroek","operatorName":"50five","maxPowerKw":11,"isMegawatt":false,"status":"AVAILABLE","source":"ndw"}},{"type":"Feature","geometry":{"type":"Point","coordinates":[4.5894579,52.3228736]},"properties":{"type":"charge","layer":"passenger","locationId":"1181","name":"Shell Recharge NL Narcissenlaan 55","address":"Narcissenlaan 55","city":"Bennebroek","operatorName":"Ubitricity","maxPowerKw":22,"isMegawatt":false,"status":"AVAILABLE","source":"ndw","priceKwh":0.267}},{"type":"Feature","geometry":{"type":"Point","coordinates":[4.616898,52.390408]},"properties":{"type":"charge","layer":"passenger","locationId":"5F0A75B7-F052-4BFA-AB35-F2F3C97F2B0B","name":"TNLP005771 - Waldeck Pyrmontlaan 4, Overveen","address":"4 Waldeck Pyrmontlaan","city":"Overveen","operatorName":"TotalEnergies","maxPowerKw":13,"isMegawatt":false,"status":"AVAILABLE","source":"ndw"}},{"type":"Feature","geometry":{"type":"Point","coordinates":[4.610772,52.408437]},"properties":{"type":"charge","layer":"passenger","locationId":"67acc8cb949d77da5aac38f9","name":"Thuis","address":"Arnoldlaan 5","city":"Bloemendaal","operatorName":"ChargeCars B.V.","maxPowerKw":11,"isMegawatt":false,"status":"AVAILABLE","source":"ndw","priceKwh":0.43}},{"type":"Feature","geometry":{"type":"Point","coordinates":[4.590766,52.326855]},"properties":{"type":"charge","layer":"passenger","locationId":"C3B2873B-0077-4C5F-95C8-C51FE17DDC41","name":"TNLP006085 - Beukenlaan 27, Bennebroek","address":"27 Beukenlaan","city":"Bennebroek","operatorName":"TotalEnergies","maxPowerKw":13,"isMegawatt":false,"status":"AVAILABLE","source":"ndw"}},{"type":"Feature","geometry":{"type":"Point","coordinates":[4.60076,52.31819]},"properties":{"type":"charge","layer":"passenger","locationId":"29BCCF51-0D2B-416A-AD92-6926E2303317","name":"TNLP009795 - de Ruyterlaan 141a, Bennebroek","address":"141a de Ruyterlaan","city":"Bennebroek","operatorName":"TotalEnergies","maxPowerKw":13,"isMegawatt":false,"status":"AVAILABLE","source":"ndw"}},{"type":"Feature","geometry":{"type":"Point","coordinates":[4.616779,52.405056]},"properties":{"type":"charge","layer":"passenger","locationId":"894F25DC-A8CD-446A-AE18-4C726E0DB227","name":"TNLP009170 - Koepellaan 12, Bloemendaal","address":"12 Koepellaan","city":"Bloemendaal","operatorName":"TotalEnergies","maxPowerKw":15,"isMegawatt":false,"status":"AVAILABLE","source":"ndw"}},{"type":"Feature","geometry":{"type":"Point","coordinates":[4.585388,52.320976]},"properties":{"type":"charge","layer":"passenger","locationId":"60E362BF-56E5-494F-999D-5C4A68D9AD2F","name":"TNLP009129 - Leidsevaart 78, Vogelenzang","address":"78 Leidsevaart","city":"Vogelenzang","operatorName":"TotalEnergies","maxPowerKw":15,"isMegawatt":false,"status":"CHARGING","source":"ndw"}},{"type":"Feature","geometry":{"type":"Point","coordinates":[4.597269,52.323895]},"properties":{"type":"charge","layer":"passenger","locationId":"4F824163-AAE7-40BE-A962-D8CC1545B01C","name":"TNLP009672 - J.F. van Lieroppark 12, Bennebroek","address":"12 J.F. van Lieroppark","city":"Bennebroek","operatorName":"TotalEnergies","maxPowerKw":15,"isMegawatt":false,"status":"AVAILABLE","source":"ndw"}},{"type":"Feature","geometry":{"type":"Point","coordinates":[4.601509,52.32192]},"properties":{"type":"charge","layer":"passenger","locationId":"066441b6-744a-447d-9502-1a1ad47734cb","name":"TNLP034045 - Binnenweg 8, Bennebroek","address":"8 Binnenweg","city":"Bennebroek","operatorName":"TotalEnergies","maxPowerKw":13,"isMegawatt":false,"status":"CHARGING","source":"ndw"}},{"type":"Feature","geometry":{"type":"Point","coordinates":[4.61956,52.40785]},"properties":{"type":"charge","layer":"passenger","locationId":"11D56563-14E3-41FF-843D-B31D20A906E6","name":"PP004330 - Donkerelaan 18, Bloemendaal","address":"18 Donkerelaan","city":"Bloemendaal","operatorName":"TotalEnergies","maxPowerKw":13,"isMegawatt":false,"status":"AVAILABLE","source":"ndw"}},{"type":"Feature","geometry":{"type":"Point","coordinates":[4.62747,52.41355]},"properties":{"type":"charge","layer":"passenger","locationId":"1527","name":"Shell Recharge NL Johan Verhulstweg 22","address":"Johan Verhulstweg 22","city":"Bloemendaal","operatorName":"Ubitricity","maxPowerKw":11,"isMegawatt":false,"status":"AVAILABLE","source":"ndw","priceKwh":0.392}},{"type":"Feature","geometry":{"type":"Point","coordinates":[4.582637,52.33034]},"properties":{"type":"charge","layer":"passenger","locationId":"4744","name":"50five Exploitatie Plantage Vogelenzang","address":"Vogelenzangseweg 49","city":"Vogelenzang","operatorName":"50five","maxPowerKw":22,"isMegawatt":false,"status":"UNAVAILABLE","source":"ndw"}},{"type":"Feature","geometry":{"type":"Point","coordinates":[4.606401,52.316486]},"properties":{"type":"charge","layer":"passenger","locationId":"5DA7D5D3-1D89-418E-8A0F-4E01DB5617E9","name":"TNLP006611 - Abraham van der Hulstlaan 2, Bennebroek","address":"2 Abraham van der Hulstlaan","city":"Bennebroek","operatorName":"TotalEnergies","maxPowerKw":13,"isMegawatt":false,"status":"AVAILABLE","source":"ndw"}},{"type":"Feature","geometry":{"type":"Point","coordinates":[4.610908,52.393105]},"properties":{"type":"charge","layer":"passenger","locationId":"aa4a2655-c80f-4cf2-b925-49dabd44aea0","name":"TNLP034630 - Cearálaan 26, Overveen","address":"26 Cearálaan","city":"Overveen","operatorName":"TotalEnergies","maxPowerKw":13,"isMegawatt":false,"status":"CHARGING","source":"ndw"}},{"type":"Feature","geometry":{"type":"Point","coordinates":[4.63068,52.41162]},"properties":{"type":"charge","layer":"passenger","locationId":"9D07054A-D3FD-486E-B9B1-4342F0F3247C","name":"TNLP006554 - Veen en Duin 258, Bloemendaal","address":"258 Veen en Duin","city":"Bloemendaal","operatorName":"TotalEnergies","maxPowerKw":15,"isMegawatt":false,"status":"CHARGING","source":"ndw"}},{"type":"Feature","geometry":{"type":"Point","coordinates":[4.60357,52.31888]},"properties":{"type":"charge","layer":"passenger","locationId":"8EBC1DD4-B4B1-4F21-BEA9-B9685CEA3D32","name":"PP001208 - Witte de Withlaan 2, Bennebroek","address":"2 Witte de Withlaan","city":"Bennebroek","operatorName":"TotalEnergies","maxPowerKw":13,"isMegawatt":false,"status":"CHARGING","source":"ndw"}},{"type":"Feature","geometry":{"type":"Point","coordinates":[4.577589,52.318096]},"properties":{"type":"charge","layer":"passenger","locationId":"7040A978-3AE5-4BD7-9601-66090E853C0F","name":"PP005405 - Graaf Willemlaan 72, Vogelenzang","address":"72 Graaf Willemlaan","city":"Vogelenzang","operatorName":"TotalEnergies","maxPowerKw":15,"isMegawatt":false,"status":"AVAILABLE","source":"ndw"}},{"type":"Feature","geometry":{"type":"Point","coordinates":[4.622129,52.407587]},"properties":{"type":"charge","layer":"passenger","locationId":"5984b9638bb20cffe4c49e785c2c7ee2","name":"Donkerelaan 64a","address":"Donkerelaan 64a","city":"Bloemendaal","operatorName":"Vattenfall InCharge","maxPowerKw":11,"isMegawatt":false,"status":"AVAILABLE","source":"ndw","priceKwh":0.2805}},{"type":"Feature","geometry":{"type":"Point","coordinates":[4.610687,52.317116]},"properties":{"type":"charge","layer":"passenger","locationId":"435F8554-A3F2-4FE6-9EC6-EAB2DC61001F","name":"TNLP009478 - Jacob van Heemskerklaan 28, Bennebroek","address":"28 Jacob van Heemskerklaan","city":"Bennebroek","operatorName":"TotalEnergies","maxPowerKw":13,"isMegawatt":false,"status":"AVAILABLE","source":"ndw"}},{"type":"Feature","geometry":{"type":"Point","coordinates":[4.62398,52.40549]},"properties":{"type":"charge","layer":"passenger","locationId":"1584","name":"Shell Recharge NL Noorder Stationsweg 2","address":"Noorder Stationsweg 2","city":"Bloemendaal","operatorName":"Ubitricity","maxPowerKw":11,"isMegawatt":false,"status":"AVAILABLE","source":"ndw","priceKwh":0.392}},{"type":"Feature","geometry":{"type":"Point","coordinates":[4.6001382,52.3917607]},"properties":{"type":"charge","layer":"passenger","locationId":"1983","name":"Shell Recharge NL Tetterodeweg 15","address":"Tetterodeweg 15","city":"Overveen","operatorName":"Ubitricity","maxPowerKw":22,"isMegawatt":false,"status":"AVAILABLE","source":"ndw","priceKwh":0.267}},{"type":"Feature","geometry":{"type":"Point","coordinates":[4.62479,52.400257]},"properties":{"type":"charge","layer":"passenger","locationId":"2C498027-0A80-4B6F-A38A-914EAC1C8F98","name":"PP005485 - Iepenlaan 36, Bloemendaal","address":"36 Iepenlaan","city":"Bloemendaal","operatorName":"TotalEnergies","maxPowerKw":13,"isMegawatt":false,"status":"AVAILABLE","source":"ndw"}},{"type":"Feature","geometry":{"type":"Point","coordinates":[4.572802,52.317814]},"properties":{"type":"charge","layer":"passenger","locationId":"56EEA946-9329-4859-B3D8-CF5E59A4C665","name":"TNLP006639 - Teylingerweg 23, Vogelenzang","address":"23 Teylingerweg","city":"Vogelenzang","operatorName":"TotalEnergies","maxPowerKw":15,"isMegawatt":false,"status":"AVAILABLE","source":"ndw"}},{"type":"Feature","geometry":{"type":"Point","coordinates":[4.575987,52.321117]},"properties":{"type":"charge","layer":"passenger","locationId":"CA8D84CE-A6C9-4695-8037-7AF80A25EC9C","name":"TNLP007759 - Kerkweg 1 a, Vogelenzang","address":"1 a Kerkweg","city":"Vogelenzang","operatorName":"TotalEnergies","maxPowerKw":15,"isMegawatt":false,"status":"AVAILABLE","source":"ndw"}},{"type":"Feature","geometry":{"type":"Point","coordinates":[4.61475,52.38978]},"properties":{"type":"charge","layer":"passenger","locationId":"411fca344ae00cad2c63c30317a19061","name":"Ernst Casimirlaan 92","address":"Ernst Casimirlaan 92","city":"Overveen","operatorName":"Vattenfall InCharge","maxPowerKw":11,"isMegawatt":false,"status":"AVAILABLE","source":"ndw","priceKwh":0.2805}},{"type":"Feature","geometry":{"type":"Point","coordinates":[4.555463,52.408262]},"properties":{"type":"charge","layer":"passenger","locationId":"69cbd2fe6af03437ebc2a27d","name":"Bezoekersladers de Lakens","address":"Zeeweg 60","city":"Overveen","operatorName":"NXT Charging Solutions","maxPowerKw":22,"isMegawatt":false,"status":"AVAILABLE","source":"ndw","priceKwh":0.56}},{"type":"Feature","geometry":{"type":"Point","coordinates":[4.61384,52.40825]},"properties":{"type":"charge","layer":"passenger","locationId":"08f0b241-5e9f-4be4-b67b-26eaf1d7717c","name":"PP001511 - Brederodelaan 114, Bloemendaal","address":"114 Brederodelaan","city":"Bloemendaal","operatorName":"TotalEnergies","maxPowerKw":11,"isMegawatt":false,"status":"AVAILABLE","source":"ndw"}},{"type":"Feature","geometry":{"type":"Point","coordinates":[4.6194861,52.3897284]},"properties":{"type":"charge","layer":"passenger","locationId":"843","name":"Shell Recharge NL Oranjelaan 4","address":"Oranjelaan 4","city":"Overveen","operatorName":"Ubitricity","maxPowerKw":22,"isMegawatt":false,"status":"AVAILABLE","source":"ndw","priceKwh":0.267}},{"type":"Feature","geometry":{"type":"Point","coordinates":[4.61049,52.39345]},"properties":{"type":"charge","layer":"passenger","locationId":"622","name":"Shell Recharge NL Cearalaan 26","address":"Cearalaan 26","city":"Overveen","operatorName":"Ubitricity","maxPowerKw":11,"isMegawatt":false,"status":"AVAILABLE","source":"ndw","priceKwh":0.392}},{"type":"Feature","geometry":{"type":"Point","coordinates":[4.589664,52.324375]},"properties":{"type":"charge","layer":"passenger","locationId":"67a46aa0b8c95a726f7881a2","name":"Tulpenlaan","address":"Tulpenlaan 36","city":"Bennebroek","operatorName":"E-Flux by Road","maxPowerKw":22,"isMegawatt":false,"status":"AVAILABLE","source":"ndw","priceKwh":0.43}},{"type":"Feature","geometry":{"type":"Point","coordinates":[4.618953,52.424278]},"properties":{"type":"charge","layer":"passenger","locationId":"91151286","name":"50five-S NL 03013682","address":"Duin en Beeklaan 16","city":"Bloemendaal","operatorName":"50five","maxPowerKw":17,"isMegawatt":false,"status":"CHARGING","source":"ndw"}},{"type":"Feature","geometry":{"type":"Point","coordinates":[4.600469,52.37204]},"properties":{"type":"charge","layer":"passenger","locationId":"67e40305be186561e324cb38","name":"paolo Tofani 's station","address":"Generaal Spoorlaan  1","city":"Aerdenhout","operatorName":"E-Flux by Road","maxPowerKw":11,"isMegawatt":false,"status":"AVAILABLE","source":"ndw","priceKwh":0.43}},{"type":"Feature","geometry":{"type":"Point","coordinates":[4.607931,52.39111]},"properties":{"type":"charge","layer":"passenger","locationId":"2E492E33-FA40-4558-9740-23E9B77DB1D4","name":"TNLP015132 - Tetterodeweg 4, Overveen","address":"4 Tetterodeweg","city":"Overveen","operatorName":"TotalEnergies","maxPowerKw":17,"isMegawatt":false,"status":"UNAVAILABLE","source":"ndw"}},{"type":"Feature","geometry":{"type":"Point","coordinates":[4.615007,52.390915]},"properties":{"type":"charge","layer":"passenger","locationId":"e2ec5407-c92a-4eaa-8ea5-93a2768c044f","name":"TNLP009604 - Julianalaan 70, Overveen","address":"70 Julianalaan","city":"Overveen","operatorName":"TotalEnergies","maxPowerKw":13,"isMegawatt":false,"status":"AVAILABLE","source":"ndw"}},{"type":"Feature","geometry":{"type":"Point","coordinates":[4.6075,52.38753]},"properties":{"type":"charge","layer":"passenger","locationId":"DC4998BD-2812-4DE6-A9E4-2BEBC7353582","name":"PP002305 - Korte Zijlweg 3, Overveen","address":"3 Korte Zijlweg","city":"Overveen","operatorName":"TotalEnergies","maxPowerKw":17,"isMegawatt":false,"status":"AVAILABLE","source":"ndw"}},{"type":"Feature","geometry":{"type":"Point","coordinates":[4.614984,52.390134]},"properties":{"type":"charge","layer":"passenger","locationId":"4e5a7f8a7e1542500b1ed8b8be3fd66e","name":"Prins Hendriklaan 9","address":"Prins Hendriklaan 9","city":"Overveen","operatorName":"Vattenfall InCharge","maxPowerKw":11,"isMegawatt":false,"status":"AVAILABLE","source":"ndw","priceKwh":0.2805}},{"type":"Feature","geometry":{"type":"Point","coordinates":[4.625596,52.405152]},"properties":{"type":"charge","layer":"passenger","locationId":"91149581","name":"50five-S NL 07115438","address":"Noorder Stationsweg 18","city":"Bloemendaal","operatorName":"50five","maxPowerKw":11,"isMegawatt":false,"status":"AVAILABLE","source":"ndw"}},{"type":"Feature","geometry":{"type":"Point","coordinates":[4.604537,52.409702]},"properties":{"type":"charge","layer":"passenger","locationId":"D8A9EEA9-E629-49C0-9715-458B8E4B55B1","name":"TNLP008849 - Hoge Duin en Daalseweg 4, Bloemendaal","address":"4 Hoge Duin en Daalseweg","city":"Bloemendaal","operatorName":"TotalEnergies","maxPowerKw":14,"isMegawatt":false,"status":"AVAILABLE","source":"ndw"}},{"type":"Feature","geometry":{"type":"Point","coordinates":[4.612062,52.39629]},"properties":{"type":"charge","layer":"passenger","locationId":"DDD075AF-3CEA-46F8-8715-EA9974AD6B4F","name":"TNLP034239 - Bloemendaalseweg 160, Overveen","address":"160 Bloemendaalseweg","city":"Overveen","operatorName":"TotalEnergies","maxPowerKw":13,"isMegawatt":false,"status":"AVAILABLE","source":"ndw"}},{"type":"Feature","geometry":{"type":"Point","coordinates":[4.601141,52.360433]},"properties":{"type":"charge","layer":"passenger","locationId":"81fadbbd1eff0171a75ac4610817aeeb","name":"Teding van Berkhoutlaan 5","address":"Teding van Berkhoutlaan 5","city":"Aerdenhout","operatorName":"Vattenfall InCharge","maxPowerKw":11,"isMegawatt":false,"status":"AVAILABLE","source":"ndw","priceKwh":0.2805}},{"type":"Feature","geometry":{"type":"Point","coordinates":[4.59899,52.375765]},"properties":{"type":"charge","layer":"passenger","locationId":"91179589","name":"50five-S NL Overveen, Elswoutslaan 24","address":"Elswoutslaan 24","city":"Overveen","operatorName":"50five","maxPowerKw":11,"isMegawatt":false,"status":"AVAILABLE","source":"ndw"}},{"type":"Feature","geometry":{"type":"Point","coordinates":[4.605248,52.315742]},"properties":{"type":"charge","layer":"passenger","locationId":"7daf0bd0-f727-4f6e-a739-1aca1b9b414d","name":"TNLP034225 - Jan van Evertsenlaan 2, Bennebroek","address":"2 Jan van Evertsenlaan","city":"Bennebroek","operatorName":"TotalEnergies","maxPowerKw":13,"isMegawatt":false,"status":"AVAILABLE","source":"ndw"}},{"type":"Feature","geometry":{"type":"Point","coordinates":[4.61039,52.392082]},"properties":{"type":"charge","layer":"passenger","locationId":"d686634a-7ced-4499-8eab-a6adf2fd70c2","name":"TNLP009093 - Cearálaan 58, Overveen","address":"58 Cearálaan","city":"Overveen","operatorName":"TotalEnergies","maxPowerKw":13,"isMegawatt":false,"status":"AVAILABLE","source":"ndw"}},{"type":"Feature","geometry":{"type":"Point","coordinates":[4.61872,52.40078]},"properties":{"type":"charge","layer":"passenger","locationId":"5b8796b7-5143-4cf1-9835-e52b1579cbe6","name":"TNLP007991 - Bispinckpark 39, Bloemendaal","address":"39 Bispinckpark","city":"Bloemendaal","operatorName":"TotalEnergies","maxPowerKw":13,"isMegawatt":false,"status":"AVAILABLE","source":"ndw"}},{"type":"Feature","geometry":{"type":"Point","coordinates":[4.600529,52.320283]},"properties":{"type":"charge","layer":"passenger","locationId":"6bcd29ee3a6eff057a99c1fd2939acf4","name":"Wilhelminalaan 37","address":"Wilhelminalaan 37","city":"Bennebroek","operatorName":"Vattenfall InCharge","maxPowerKw":11,"isMegawatt":false,"status":"AVAILABLE","source":"ndw","priceKwh":0.2805}},{"type":"Feature","geometry":{"type":"Point","coordinates":[4.603462,52.3637]},"properties":{"type":"charge","layer":"passenger","locationId":"8FAF9C4B-90CB-41AE-9168-46358B5810F3","name":"TNLP009676 - Spiegelenburghlaan 22, Aerdenhout","address":"22 Spiegelenburghlaan","city":"Aerdenhout","operatorName":"TotalEnergies","maxPowerKw":13,"isMegawatt":false,"status":"AVAILABLE","source":"ndw"}},{"type":"Feature","geometry":{"type":"Point","coordinates":[4.614304,52.395203]},"properties":{"type":"charge","layer":"passenger","locationId":"2F09CDA5-F7DC-4FE3-8AA2-5BDC6B2FE633","name":"TNLP007890 - Dompvloedslaan 12, Overveen","address":"12 Dompvloedslaan","city":"Overveen","operatorName":"TotalEnergies","maxPowerKw":13,"isMegawatt":false,"status":"AVAILABLE","source":"ndw"}},{"type":"Feature","geometry":{"type":"Point","coordinates":[4.579669,52.31916]},"properties":{"type":"charge","layer":"passenger","locationId":"A2102832-6CD9-43DE-BC05-CBB10ED7FD21","name":"TNLP009674 - Gravin Margarethahof 6, Vogelenzang","address":"6 Gravin Margarethahof","city":"Vogelenzang","operatorName":"TotalEnergies","maxPowerKw":15,"isMegawatt":false,"status":"AVAILABLE","source":"ndw"}},{"type":"Feature","geometry":{"type":"Point","coordinates":[4.596499,52.31806]},"properties":{"type":"charge","layer":"passenger","locationId":"A6311C46-B6A3-46AA-8D1A-B6556F182644","name":"TNLP008859 - Schoollaan 126, Bennebroek","address":"126 Schoollaan","city":"Bennebroek","operatorName":"TotalEnergies","maxPowerKw":14,"isMegawatt":false,"status":"UNAVAILABLE","source":"ndw"}},{"type":"Feature","geometry":{"type":"Point","coordinates":[4.544367,52.401867]},"properties":{"type":"charge","layer":"passenger","locationId":"9942ded6-e3bb-4b8b-8d0c-270e181f5e03","name":"TNLP015424 - Zeeweg 89, Overveen","address":"89 Zeeweg","city":"Overveen","operatorName":"TotalEnergies","maxPowerKw":17,"isMegawatt":false,"status":"UNAVAILABLE","source":"ndw"}},{"type":"Feature","geometry":{"type":"Point","coordinates":[4.618301,52.393154]},"properties":{"type":"charge","layer":"passenger","locationId":"E041E035-98F2-474F-B2CF-26E78EE22535","name":"TNLP009085 - Willem de Zwijgerlaan 74, Overveen","address":"74 Willem de Zwijgerlaan","city":"Overveen","operatorName":"TotalEnergies","maxPowerKw":15,"isMegawatt":false,"status":"AVAILABLE","source":"ndw"}},{"type":"Feature","geometry":{"type":"Point","coordinates":[4.62138,52.38877]},"properties":{"type":"charge","layer":"passenger","locationId":"1530","name":"Shell Recharge NL Julianalaan 178","address":"Julianalaan 178","city":"Bloemendaal","operatorName":"Ubitricity","maxPowerKw":11,"isMegawatt":false,"status":"AVAILABLE","source":"ndw","priceKwh":0.392}},{"type":"Feature","geometry":{"type":"Point","coordinates":[4.609456,52.407242]},"properties":{"type":"charge","layer":"passenger","locationId":"63f745ef59dfe100129f0bcc","name":"Rob Schuijt's station","address":"Koninginneduinweg 13","city":"Bloemendaal","operatorName":"E-Flux by Road","maxPowerKw":14,"isMegawatt":false,"status":"CHARGING","source":"ndw","priceKwh":0.88}},{"type":"Feature","geometry":{"type":"Point","coordinates":[4.597195,52.355186]},"properties":{"type":"charge","layer":"passenger","locationId":"36680089f39d4c4f8762c793808aca6f","name":"Aerdenhout Klooster Alverna","address":"Boekenroodeweg 9","city":"Aerdenhout","operatorName":"Opcharge","maxPowerKw":22,"isMegawatt":false,"status":"AVAILABLE","source":"ndw","priceKwh":0.49}},{"type":"Feature","geometry":{"type":"Point","coordinates":[4.5908,52.35394]},"properties":{"type":"charge","layer":"passenger","locationId":"25","name":"Laadpaal24 25","address":"Boekenroodeweg 47","city":"Aerdenhout","operatorName":"Laadpaal24","maxPowerKw":11,"isMegawatt":false,"status":"CHARGING","source":"ndw"}},{"type":"Feature","geometry":{"type":"Point","coordinates":[4.608737,52.3158163]},"properties":{"type":"charge","layer":"passenger","locationId":"1982","name":"Shell Recharge NL Isaäc Sweerslaan 5","address":"Isaäc Sweerslaan 5","city":"Bennebroek","operatorName":"Ubitricity","maxPowerKw":22,"isMegawatt":false,"status":"AVAILABLE","source":"ndw","priceKwh":0.267}},{"type":"Feature","geometry":{"type":"Point","coordinates":[4.57592,52.31895]},"properties":{"type":"charge","layer":"passenger","locationId":"F91117E4-D422-4969-8BE4-C39995B1A219","name":"PP005270 - Vogelenzangseweg 300, Vogelenzang","address":"300 Vogelenzangseweg","city":"Vogelenzang","operatorName":"TotalEnergies","maxPowerKw":15,"isMegawatt":false,"status":"AVAILABLE","source":"ndw"}},{"type":"Feature","geometry":{"type":"Point","coordinates":[4.593616,52.324306]},"properties":{"type":"charge","layer":"passenger","locationId":"D1EB2F20-44CA-437A-AB22-2EB055EE54EB","name":"TNLP015354 - Hyacinthenlaan 11a, Bennebroek","address":"11a Hyacinthenlaan","city":"Bennebroek","operatorName":"TotalEnergies","maxPowerKw":13,"isMegawatt":false,"status":"CHARGING","source":"ndw"}},{"type":"Feature","geometry":{"type":"Point","coordinates":[4.62738,52.40442]},"properties":{"type":"charge","layer":"passenger","locationId":"FCE5708E-08A0-4C99-90C4-F2D29007782B","name":"PP005267 - Zuider Stationsweg 20, Bloemendaal","address":"20 Zuider Stationsweg","city":"Bloemendaal","operatorName":"TotalEnergies","maxPowerKw":13,"isMegawatt":false,"status":"AVAILABLE","source":"ndw"}},{"type":"Feature","geometry":{"type":"Point","coordinates":[4.61807,52.40476]},"properties":{"type":"charge","layer":"passenger","locationId":"7F04F919-2E30-4EE5-96EC-5CA039224298","name":"TNLP003601 - Koepellaan 10, Bloemendaal","address":"10 Koepellaan","city":"Bloemendaal","operatorName":"TotalEnergies","maxPowerKw":17,"isMegawatt":false,"status":"AVAILABLE","source":"ndw"}},{"type":"Feature","geometry":{"type":"Point","coordinates":[4.612111,52.39617]},"properties":{"type":"charge","layer":"passenger","locationId":"D7D4D375-28E8-4DB2-9A39-97F9F904CE30","name":"TNLP008834 - Bloemendaalseweg 160, Overveen","address":"160 Bloemendaalseweg","city":"Overveen","operatorName":"TotalEnergies","maxPowerKw":14,"isMegawatt":false,"status":"AVAILABLE","source":"ndw"}},{"type":"Feature","geometry":{"type":"Point","coordinates":[4.58156,52.36713]},"properties":{"type":"charge","layer":"passenger","locationId":"9ea660b7-3d31-4e39-8805-71e67b281888","name":"PP001235 - Veldlaan 41, Aerdenhout","address":"41 Veldlaan","city":"Aerdenhout","operatorName":"TotalEnergies","maxPowerKw":11,"isMegawatt":false,"status":"AVAILABLE","source":"ndw"}},{"type":"Feature","geometry":{"type":"Point","coordinates":[4.617682,52.41831]},"properties":{"type":"charge","layer":"passenger","locationId":"7A9804D3-9BDE-44CF-81A3-63226825B806","name":"TNLP009882 - Zocherlaan 76, Bloemendaal","address":"76 Zocherlaan","city":"Bloemendaal","operatorName":"TotalEnergies","maxPowerKw":13,"isMegawatt":false,"status":"AVAILABLE","source":"ndw"}},{"type":"Feature","geometry":{"type":"Point","coordinates":[4.61905,52.39554]},"properties":{"type":"charge","layer":"passenger","locationId":"17","name":"Shell Recharge NL Blekersveld 18","address":"Blekersveld 18","city":"Overveen","operatorName":"Ubitricity","maxPowerKw":11,"isMegawatt":false,"status":"AVAILABLE","source":"ndw","priceKwh":0.392}},{"type":"Feature","geometry":{"type":"Point","coordinates":[4.59316,52.32447]},"properties":{"type":"charge","layer":"passenger","locationId":"D1D0ADDC-191C-414B-B0F8-380292161B1E","name":"PP004326 - Hyacinthenlaan 11, Bennebroek","address":"11 Hyacinthenlaan","city":"Bennebroek","operatorName":"TotalEnergies","maxPowerKw":13,"isMegawatt":false,"status":"AVAILABLE","source":"ndw"}},{"type":"Feature","geometry":{"type":"Point","coordinates":[4.622637,52.390854]},"properties":{"type":"charge","layer":"passenger","locationId":"1981439E-A0F7-4778-8AC1-7F99304B52ED","name":"TNLP007224 - Adriaan Stoopplein 13, Overveen","address":"13 Adriaan Stoopplein","city":"Overveen","operatorName":"TotalEnergies","maxPowerKw":13,"isMegawatt":false,"status":"AVAILABLE","source":"ndw"}},{"type":"Feature","geometry":{"type":"Point","coordinates":[4.61918,52.3992]},"properties":{"type":"charge","layer":"passenger","locationId":"8C028603-C5CC-48E2-B563-6F4753DED771","name":"PP002473","address":"Verbindingsweg 2","city":"Bloemendaal","operatorName":"TotalEnergies","maxPowerKw":17,"isMegawatt":false,"status":"UNAVAILABLE","source":"ndw"}},{"type":"Feature","geometry":{"type":"Point","coordinates":[4.603674,52.363697]},"properties":{"type":"charge","layer":"passenger","locationId":"05e4d50ac77854afece37fb6a49d4c51","name":"Spiegelenburghlaan 23","address":"Spiegelenburghlaan 23","city":"Aerdenhout","operatorName":"Vattenfall InCharge","maxPowerKw":11,"isMegawatt":false,"status":"AVAILABLE","source":"ndw","priceKwh":0.2805}},{"type":"Feature","geometry":{"type":"Point","coordinates":[4.579235,52.332187]},"properties":{"type":"charge","layer":"passenger","locationId":"650ae0d27c0f1b00209bbcaa","name":"Laadstation De Kievit","address":"Vogelenzangseweg  172","city":"Vogelenzang","operatorName":"E-Flux by Road","maxPowerKw":11,"isMegawatt":false,"status":"AVAILABLE","source":"ndw","priceKwh":0.53}},{"type":"Feature","geometry":{"type":"Point","coordinates":[4.581161,52.365074]},"properties":{"type":"charge","layer":"passenger","locationId":"C3D297DC-047C-4E0C-83AC-D73370AC1BE3","name":"TNLP009673 - Zandvoorterweg 25, Aerdenhout","address":"25 Zandvoorterweg","city":"Aerdenhout","operatorName":"TotalEnergies","maxPowerKw":13,"isMegawatt":false,"status":"AVAILABLE","source":"ndw"}},{"type":"Feature","geometry":{"type":"Point","coordinates":[4.597766,52.323697]},"properties":{"type":"charge","layer":"passenger","locationId":"152caa5d-c257-43cc-ae9b-0865340131c5","name":"J.F. van Lieroppark","address":"J.F. van Lieroppark 12","city":"Bennebroek","operatorName":"Vattenfall InCharge","maxPowerKw":11,"isMegawatt":false,"status":"AVAILABLE","source":"ndw","priceKwh":0.4316}},{"type":"Feature","geometry":{"type":"Point","coordinates":[4.61606,52.39491]},"properties":{"type":"charge","layer":"passenger","locationId":"2A1D08A7-25B3-4C49-B23D-E1E32BBC247F","name":"TNLP015458 - Dompvloedslaan 19, Overveen","address":"19 Dompvloedslaan","city":"Overveen","operatorName":"TotalEnergies","maxPowerKw":13,"isMegawatt":false,"status":"AVAILABLE","source":"ndw"}},{"type":"Feature","geometry":{"type":"Point","coordinates":[4.604285,52.364635]},"properties":{"type":"charge","layer":"passenger","locationId":"b7d5fe75-b15c-4924-86d8-62b50d2a0140","name":"TNLP015150","address":"Spiegelenburghlaan 1","city":"Aerdenhout","operatorName":"TotalEnergies","maxPowerKw":17,"isMegawatt":false,"status":"UNAVAILABLE","source":"ndw"}},{"type":"Feature","geometry":{"type":"Point","coordinates":[4.58953,52.32322]},"properties":{"type":"charge","layer":"passenger","locationId":"ec2ec2e2-7e69-4f12-9e9f-14cfa25a0935","name":"TNLP006645 - Narcissenlaan 51, Bennebroek","address":"51 Narcissenlaan","city":"Bennebroek","operatorName":"TotalEnergies","maxPowerKw":13,"isMegawatt":false,"status":"AVAILABLE","source":"ndw"}},{"type":"Feature","geometry":{"type":"Point","coordinates":[4.60196,52.32336]},"properties":{"type":"charge","layer":"passenger","locationId":"8157e97295fb64cf0eca999974cb9671","name":"Binnenweg 63","address":"Binnenweg 63","city":"Bennebroek","operatorName":"Vattenfall InCharge","maxPowerKw":11,"isMegawatt":false,"status":"AVAILABLE","source":"ndw","priceKwh":0.2805}},{"type":"Feature","geometry":{"type":"Point","coordinates":[4.613359,52.408134]},"properties":{"type":"charge","layer":"passenger","locationId":"B2302415-D474-457E-A257-67E9B7C73370","name":"TNLP009941 - Brederodelaan 114, Bloemendaal","address":"114 Brederodelaan","city":"Bloemendaal","operatorName":"TotalEnergies","maxPowerKw":13,"isMegawatt":false,"status":"AVAILABLE","source":"ndw"}},{"type":"Feature","geometry":{"type":"Point","coordinates":[4.627392,52.406104]},"properties":{"type":"charge","layer":"passenger","locationId":"91150766","name":"50five-S NL 07116505","address":"Van Wickevoort Crommelinlaan 14","city":"Bloemendaal","operatorName":"50five","maxPowerKw":11,"isMegawatt":false,"status":"AVAILABLE","source":"ndw"}},{"type":"Feature","geometry":{"type":"Point","coordinates":[4.602076,52.360096]},"properties":{"type":"charge","layer":"passenger","locationId":"91051233","name":"50five-S NL 03013210","address":"Zandvoorterweg 88","city":"Aerdenhout","operatorName":"50five","maxPowerKw":22,"isMegawatt":false,"status":"AVAILABLE","source":"ndw"}},{"type":"Feature","geometry":{"type":"Point","coordinates":[4.614906,52.394273]},"properties":{"type":"charge","layer":"passenger","locationId":"91085062","name":"50five-S NL 07003020","address":"Rio Grandelaan 12","city":"Overveen","operatorName":"50five","maxPowerKw":14,"isMegawatt":false,"status":"AVAILABLE","source":"ndw"}},{"type":"Feature","geometry":{"type":"Point","coordinates":[4.620298,52.391297]},"properties":{"type":"charge","layer":"passenger","locationId":"91275195","name":"50five-S NL 03000324","address":"Kennemerpark 7","city":"Overveen","operatorName":"50five","maxPowerKw":17,"isMegawatt":false,"status":"AVAILABLE","source":"ndw"}},{"type":"Feature","geometry":{"type":"MultiPolygon","coordinates":[[[[4.617247980457574,52.4251251281591],[4.6208423124291915,52.42438442497059],[4.621468019403362,52.424904182997324],[4.62499179484261,52.42349216520922],[4.623575933059528,52.42207500715015],[4.624489527649513,52.421620207280284],[4.625913573932323,52.420556849157116],[4.625432920041189,52.420095506409616],[4.627053239694646,52.417359598908575],[4.626398663991065,52.41652878564628],[4.628735085982125,52.415844364301144],[4.627841668230507,52.414708061851314],[4.628841935661576,52.41430827468829],[4.627617560572514,52.4125975506677],[4.62999316310188,52.411965383142196],[4.631610549634219,52.41167114001875],[4.631647172370925,52.41166550100258],[4.629285273173356,52.40712402781407],[4.624408738016709,52.397740415193766],[4.624387026766204,52.397695734260445],[4.623670384682039,52.39577257458024],[4.623703271580333,52.39168707584609],[4.621605382300905,52.38798174160731],[4.616253771401774,52.388822396311056],[4.610819173697699,52.389821101326575],[4.608581626043221,52.38552156521454],[4.60533244137311,52.38549307340133],[4.602016683395574,52.384619392524954],[4.600530639149572,52.38292099889827],[4.600256376060231,52.38076228870291],[4.599782744059264,52.378962741123885],[4.599551411940689,52.37721944889028],[4.601066533735703,52.376801849505185],[4.601171120848888,52.37551533133206],[4.601452154146001,52.37277051896226],[4.601833933896053,52.372185671491415],[4.604586175944724,52.37135526001346],[4.603772964318116,52.36885689459954],[4.6041574383152835,52.36759251178262],[4.607323569742324,52.367044734361215],[4.605723363470968,52.36340488513627],[4.602262180961923,52.356703143881575],[4.596808248100063,52.34549592514609],[4.593582522854719,52.33780986159615],[4.590262993168416,52.328523015055225],[4.590187432063986,52.328352384894664],[4.590803248942473,52.3282105753291],[4.591306846411455,52.32823250919374],[4.591778503154789,52.32852647756816],[4.593368395320886,52.32811766294246],[4.5938737098264015,52.32864621225974],[4.5969850181311465,52.32789494562285],[4.597297255083376,52.32782915678164],[4.606234708467483,52.32376317918901],[4.606524040306295,52.32363152709406],[4.607258461915346,52.32329734422542],[4.6073669630965,52.323376439386735],[4.607619800992976,52.32356074650855],[4.607814241835938,52.32349069762291],[4.611383476824841,52.322204762150456],[4.6115298151194315,52.318335110487915],[4.6116756318049985,52.31356012786797],[4.602885572014751,52.315846703918446],[4.601456843433823,52.316521408284615],[4.599457457571798,52.31710065753355],[4.599455653204618,52.31710117670475],[4.596572549692997,52.317706250751456],[4.595087390057874,52.31767639113919],[4.593320987378752,52.317777974759686],[4.593312843762369,52.31777801536286],[4.591033360934284,52.317789289807045],[4.587686137320327,52.317881085019586],[4.587990524408016,52.316939519525846],[4.587468730691533,52.316763340371836],[4.586888634875227,52.316995613592574],[4.5866102043430015,52.317011582730686],[4.5860900481278,52.31731536376716],[4.585936249819124,52.317570728104556],[4.585792246773023,52.31819753232288],[4.583435103713052,52.3183825167622],[4.573240336025661,52.31535567269607],[4.569075271917563,52.31648317346184],[4.568446611979799,52.315641857407854],[4.563707232373594,52.309298171707894],[4.547322159134312,52.31399671927059],[4.56500097588626,52.344339167319234],[4.570035380912162,52.35336318592696],[4.574505029374265,52.36145040807699],[4.576623700869807,52.36517142746957],[4.5795701650587235,52.37034179966508],[4.579718056682054,52.370602372169365],[4.591458761179864,52.39136259561075],[4.591658716166414,52.39171563549172],[4.543043126647208,52.401093593752215],[4.541323030416286,52.40139590879374],[4.554776861194666,52.422609652489285],[4.559637025512696,52.43789552971114],[4.560096482865303,52.43803730058374],[4.563185042670996,52.437647257855765],[4.58469007981278,52.43484243295947],[4.587822553997437,52.43443633507326],[4.615048338904283,52.425935213205534],[4.617247980457574,52.4251251281591]]]]},"properties":{"type":"boundary","gemeente":"Bloemendaal","code":"GM0377"}}]}