{"type":"FeatureCollection","metadata":{"gemeente":"Bodegraven-Reeuwijk","slug":"bodegraven-reeuwijk","code":"GM1901","generated_at":"2026-08-08T12:05:52.020Z","total_passenger":99,"total_freight":2,"bounds":[4.659967250492324,52.01324240690714,4.87320071151265,52.122287913738134],"operators":["50five","Allego","E-Flux by Road","Eneco","Fastned","IONITY","Laadnet","NXT Charging Solutions","Spirii","Van Leeuwen","Van Mossel Energie Lease","bp pulse"]},"features":[{"type":"Feature","geometry":{"type":"Point","coordinates":[4.762242,52.075839]},"properties":{"type":"charge","layer":"passenger","locationId":"NLLOC003945","name":"NL, Akkermunt 18, 2412AE, Bodegraven","address":"Akkermunt 18","city":"Bodegraven","operatorName":"Allego","maxPowerKw":11,"isMegawatt":false,"status":"AVAILABLE","source":"ndw","priceKwh":0.511}},{"type":"Feature","geometry":{"type":"Point","coordinates":[4.751677,52.080591]},"properties":{"type":"charge","layer":"passenger","locationId":"NLLOC016013","name":"NL, Prins Bernhardstraat 2, 2411 TL Bodegraven","address":"Prins Bernhardstraat 2","city":"Bodegraven","operatorName":"Allego","maxPowerKw":11,"isMegawatt":false,"status":"AVAILABLE","source":"ndw","priceKwh":0.511}},{"type":"Feature","geometry":{"type":"Point","coordinates":[4.740068,52.087198]},"properties":{"type":"charge","layer":"passenger","locationId":"NLLOC008444","name":"NL, Dammekant 2b 2411 CD Bodegraven","address":"Dammekant 2 b","city":"Bodegraven","operatorName":"Allego","maxPowerKw":11,"isMegawatt":false,"status":"CHARGING","source":"ndw","priceKwh":0.511}},{"type":"Feature","geometry":{"type":"Point","coordinates":[4.74613,52.084159]},"properties":{"type":"charge","layer":"passenger","locationId":"NLLOC006637","name":"NL, van Tolstraat 10d, 2411 BR, Bodegraven","address":"van Tolstraat 10d","city":"Bodegraven","operatorName":"Allego","maxPowerKw":11,"isMegawatt":false,"status":"AVAILABLE","source":"ndw","priceKwh":0.511}},{"type":"Feature","geometry":{"type":"Point","coordinates":[4.742116,52.070731]},"properties":{"type":"charge","layer":"passenger","locationId":"31e7d2a3-72c7-40a4-8653-0dab2b3a819f","name":"bp pulse Express Bodegraven #5","address":"Europaweg 2","city":"Bodegraven","operatorName":"bp pulse","maxPowerKw":300,"isMegawatt":false,"status":"AVAILABLE","source":"ndw","priceKwh":0.7}},{"type":"Feature","geometry":{"type":"Point","coordinates":[4.755045,52.06837]},"properties":{"type":"charge","layer":"passenger","locationId":"4205686","name":"Laadnet Vandersterre Holland B.V.","address":"Duitslandweg 7","city":"Bodegraven","operatorName":"Laadnet","maxPowerKw":22,"isMegawatt":false,"status":"AVAILABLE","source":"ndw"}},{"type":"Feature","geometry":{"type":"Point","coordinates":[4.75209,52.079984]},"properties":{"type":"charge","layer":"passenger","locationId":"NLLOC007028","name":"NL, Henegouwerhof 88, 2411KA, Bodegraven","address":"Henegouwerhof 88","city":"Bodegraven","operatorName":"Allego","maxPowerKw":11,"isMegawatt":false,"status":"AVAILABLE","source":"ndw","priceKwh":0.511}},{"type":"Feature","geometry":{"type":"Point","coordinates":[4.748302,52.082961]},"properties":{"type":"charge","layer":"passenger","locationId":"NLLOC004167","name":"NLD, Julianastraat 6, 2411 CV Bodegraven","address":"Julianastraat 6","city":"Bodegraven","operatorName":"Allego","maxPowerKw":11,"isMegawatt":false,"status":"AVAILABLE","source":"ndw","priceKwh":0.511}},{"type":"Feature","geometry":{"type":"Point","coordinates":[4.733832,52.056973]},"properties":{"type":"charge","layer":"passenger","locationId":"694a85dc349575d402e61969","name":"Nabij bungalow 245","address":"Verlengde Breevaart 3","city":"Reeuwijk","operatorName":"E-Flux by Road","maxPowerKw":11,"isMegawatt":false,"status":"AVAILABLE","source":"ndw","priceKwh":0.85}},{"type":"Feature","geometry":{"type":"Point","coordinates":[4.76145,52.067967]},"properties":{"type":"charge","layer":"passenger","locationId":"693c1c307ed8c6e0bffbf7bd","name":"Tolnasingel 6-16 Publiek DC 75 kW","address":"Tolnasingel 6-16","city":"Bodegraven","operatorName":"E-Flux by Road","maxPowerKw":40,"isMegawatt":false,"status":"AVAILABLE","source":"ndw","priceKwh":1.02}},{"type":"Feature","geometry":{"type":"Point","coordinates":[4.798402,52.046085]},"properties":{"type":"charge","layer":"passenger","locationId":"66ebe001fbdf56001ccdb36d","name":"Voetbalvereniging WDS","address":"J.H. Kielastraat 29","city":"Driebruggen","operatorName":"E-Flux by Road","maxPowerKw":22,"isMegawatt":false,"status":"AVAILABLE","source":"ndw","priceKwh":0.48}},{"type":"Feature","geometry":{"type":"Point","coordinates":[4.80126,52.042339]},"properties":{"type":"charge","layer":"passenger","locationId":"1519133","name":"Laadnet Van Bijsterveld Installaties werkplaats","address":"Esdoornstraat 23","city":"Driebruggen","operatorName":"Laadnet","maxPowerKw":11,"isMegawatt":false,"status":"AVAILABLE","source":"ndw"}},{"type":"Feature","geometry":{"type":"Point","coordinates":[4.757457,52.080658]},"properties":{"type":"charge","layer":"passenger","locationId":"91203136","name":"50five-S NL ALFEN_ICU_210009","address":"De Bleek 4","city":"Bodegraven-Reeuwijk","operatorName":"50five","maxPowerKw":11,"isMegawatt":false,"status":"AVAILABLE","source":"ndw"}},{"type":"Feature","geometry":{"type":"Point","coordinates":[4.74802,52.078394]},"properties":{"type":"charge","layer":"passenger","locationId":"91202752","name":"50five-S NL 07114719","address":"Cortenhoeve 1","city":"Bodegraven","operatorName":"50five","maxPowerKw":11,"isMegawatt":false,"status":"AVAILABLE","source":"ndw"}},{"type":"Feature","geometry":{"type":"Point","coordinates":[4.761972,52.071784]},"properties":{"type":"charge","layer":"passenger","locationId":"60b9fa804e477f3814e42180","name":"Griekenlandweg 7, Bodegraven (DL Logistics Group)","address":"Griekenlandweg 7","city":"Bodegraven","operatorName":"E-Flux by Road","maxPowerKw":22,"isMegawatt":false,"status":"AVAILABLE","source":"ndw","priceKwh":0.53}},{"type":"Feature","geometry":{"type":"Point","coordinates":[4.759002,52.069414]},"properties":{"type":"charge","layer":"passenger","locationId":"609936409dc65c1caad14947","name":"NXT Charge - Bodegraven - Terrassonsingel 1 - AC","address":"Terrassonsingel 3-1","city":"Bodegraven","operatorName":"NXT Charging Solutions","maxPowerKw":22,"isMegawatt":false,"status":"AVAILABLE","source":"ndw","priceKwh":0.46}},{"type":"Feature","geometry":{"type":"Point","coordinates":[4.717051,52.037183]},"properties":{"type":"charge","layer":"passenger","locationId":"NLLOC007016","name":"NL, Doggersbanklaan 30, 2811 DR, Reeuwijk","address":"Doggersbanklaan 30","city":"Reeuwijk","operatorName":"Allego","maxPowerKw":11,"isMegawatt":false,"status":"AVAILABLE","source":"ndw","priceKwh":0.511}},{"type":"Feature","geometry":{"type":"Point","coordinates":[4.741877,52.087891]},"properties":{"type":"charge","layer":"passenger","locationId":"67e3eac2d6c1e93309b9aca9","name":"Martin Van Dooijeweert 's station","address":"Rond de Watertoren 10","city":"Bodegraven","operatorName":"E-Flux by Road","maxPowerKw":11,"isMegawatt":false,"status":"AVAILABLE","source":"ndw","priceKwh":0.29}},{"type":"Feature","geometry":{"type":"Point","coordinates":[4.741842,52.065998]},"properties":{"type":"charge","layer":"passenger","locationId":"32414","name":"Circle K Bodegraven inz Reeuwijk","address":"Rijksweg A12","city":"Bodegraven","operatorName":"Spirii","maxPowerKw":175,"isMegawatt":false,"status":"AVAILABLE","source":"ndw","priceKwh":0.65}},{"type":"Feature","geometry":{"type":"Point","coordinates":[4.727885,52.044016]},"properties":{"type":"charge","layer":"passenger","locationId":"91054633","name":"50five-S NL 07110895","address":"Doornappel 4","city":"Reeuwijk","operatorName":"50five","maxPowerKw":11,"isMegawatt":false,"status":"AVAILABLE","source":"ndw"}},{"type":"Feature","geometry":{"type":"Point","coordinates":[4.724035,52.045964]},"properties":{"type":"charge","layer":"passenger","locationId":"3968803","name":"Laadnet Zalencentrum de Brug","address":"Dunantlaan 1","city":"Reeuwijk","operatorName":"Laadnet","maxPowerKw":11,"isMegawatt":false,"status":"AVAILABLE","source":"ndw"}},{"type":"Feature","geometry":{"type":"Point","coordinates":[4.81067,52.078917]},"properties":{"type":"charge","layer":"passenger","locationId":"6940181b8eac6f953310a3f4","name":"Carina Notmeijer 's station","address":"Weijland  57","city":"Nieuwerbrug aan den Rijn","operatorName":"Van Mossel Energie Lease","maxPowerKw":11,"isMegawatt":false,"status":"AVAILABLE","source":"ndw","priceKwh":0.403}},{"type":"Feature","geometry":{"type":"Point","coordinates":[4.732817,52.025797]},"properties":{"type":"charge","layer":"passenger","locationId":"91105158","name":"50five-S NL 09000664","address":"Plattweg 26b","city":"Reeuwijk","operatorName":"50five","maxPowerKw":21,"isMegawatt":false,"status":"AVAILABLE","source":"ndw"}},{"type":"Feature","geometry":{"type":"Point","coordinates":[4.715556,52.04038]},"properties":{"type":"charge","layer":"passenger","locationId":"62a0c3f335d56b26c2bb7e69","name":"G.A. Bras Onroerendgoed B.V.","address":"Jan Tinbergenstraat 16 A","city":"Reeuwijk","operatorName":"E-Flux by Road","maxPowerKw":22,"isMegawatt":false,"status":"AVAILABLE","source":"ndw","priceKwh":0.73}},{"type":"Feature","geometry":{"type":"Point","coordinates":[4.799231,52.044747]},"properties":{"type":"charge","layer":"passenger","locationId":"NLLOC007346","name":"NL, Burgemeester Brinkmanhof 1, 3465KR, Driebruggen","address":"Burgemeester Brinkmanhof 1","city":"Driebruggen","operatorName":"Allego","maxPowerKw":11,"isMegawatt":false,"status":"UNAVAILABLE","source":"ndw","priceKwh":0.511}},{"type":"Feature","geometry":{"type":"Point","coordinates":[4.700229,52.064937]},"properties":{"type":"charge","layer":"passenger","locationId":"6a0e0a80d7736512fd349202","name":"EV charging TD","address":"Tempeldijk 9a","city":"Reeuwijk","operatorName":"E-Flux by Road","maxPowerKw":14,"isMegawatt":false,"status":"AVAILABLE","source":"ndw","priceKwh":0.38}},{"type":"Feature","geometry":{"type":"Point","coordinates":[4.721195,52.047577]},"properties":{"type":"charge","layer":"passenger","locationId":"NLLOC016449","name":"NL, Van Goghstraat 35, 2811 VX Reeuwijk","address":"Van Goghstraat 35","city":"Reeuwijk","operatorName":"Allego","maxPowerKw":11,"isMegawatt":false,"status":"AVAILABLE","source":"ndw","priceKwh":0.511}},{"type":"Feature","geometry":{"type":"Point","coordinates":[4.823764,52.06265]},"properties":{"type":"charge","layer":"passenger","locationId":"91069598","name":"50five-S NL 07002678","address":"Prins Johan Frisostraat 6","city":"Waarder","operatorName":"50five","maxPowerKw":14,"isMegawatt":false,"status":"AVAILABLE","source":"ndw"}},{"type":"Feature","geometry":{"type":"Point","coordinates":[4.741258,52.083601]},"properties":{"type":"charge","layer":"passenger","locationId":"NLLOC010236","name":"NL, Baas en Domburgstraat 65, 2411 MW Bodegraven","address":"Baas en Domburgstraat 65","city":"Bodegraven","operatorName":"Allego","maxPowerKw":11,"isMegawatt":false,"status":"AVAILABLE","source":"ndw","priceKwh":0.511}},{"type":"Feature","geometry":{"type":"Point","coordinates":[4.755688,52.07]},"properties":{"type":"charge","layer":"passenger","locationId":"65cf13eb12ba48001c08e516","name":"Doornekamp ABC Bedrijfsadviseurs","address":"Italieweg 25","city":"Bodegraven","operatorName":"E-Flux by Road","maxPowerKw":22,"isMegawatt":false,"status":"AVAILABLE","source":"ndw","priceKwh":0.43}},{"type":"Feature","geometry":{"type":"Point","coordinates":[4.689668,52.052639]},"properties":{"type":"charge","layer":"passenger","locationId":"1811813","name":"Laadnet Vergeer Holland","address":"Reewal 22A","city":"Reeuwijk","operatorName":"Laadnet","maxPowerKw":11,"isMegawatt":false,"status":"AVAILABLE","source":"ndw"}},{"type":"Feature","geometry":{"type":"Point","coordinates":[4.762594,52.06779]},"properties":{"type":"charge","layer":"passenger","locationId":"4189","name":"50five Exploitatie Crow Business Center Bodegraven l Openbaar","address":"Tolnasingel 1","city":"Bodegraven","operatorName":"50five","maxPowerKw":11,"isMegawatt":false,"status":"AVAILABLE","source":"ndw"}},{"type":"Feature","geometry":{"type":"Point","coordinates":[4.744647,52.086502]},"properties":{"type":"charge","layer":"passenger","locationId":"NLLOC005417","name":"NLD Burgm. G.R. Vonklaan 4, 2411 AZ Bodegraven","address":"Burgm. G.R. Vonklaan 4","city":"Bodegraven","operatorName":"Allego","maxPowerKw":11,"isMegawatt":false,"status":"AVAILABLE","source":"ndw","priceKwh":0.511}},{"type":"Feature","geometry":{"type":"Point","coordinates":[4.821879,52.063424]},"properties":{"type":"charge","layer":"passenger","locationId":"NLLOC017928","name":"NL, Molendijk 30, 3466 NB Waarder","address":"Molendijk 30","city":"Waarder","operatorName":"Allego","maxPowerKw":11,"isMegawatt":false,"status":"AVAILABLE","source":"ndw","priceKwh":0.511}},{"type":"Feature","geometry":{"type":"Point","coordinates":[4.735711,52.088528]},"properties":{"type":"charge","layer":"passenger","locationId":"91105704","name":"50five-S NL 09101156","address":"Klipperaak 201","city":"Bodegraven","operatorName":"50five","maxPowerKw":11,"isMegawatt":false,"status":"AVAILABLE","source":"ndw"}},{"type":"Feature","geometry":{"type":"Point","coordinates":[4.719896,52.042019]},"properties":{"type":"charge","layer":"passenger","locationId":"62c7f7dbad5ce11a14943bec","name":"Fokkerstraat 16","address":"Fokkerstraat 16","city":"Reeuwijk","operatorName":"E-Flux by Road","maxPowerKw":22,"isMegawatt":false,"status":"AVAILABLE","source":"ndw","priceKwh":0.53}},{"type":"Feature","geometry":{"type":"Point","coordinates":[4.75247,52.084241]},"properties":{"type":"charge","layer":"passenger","locationId":"NLLOC008246","name":"NL, Noordstraat 78 2411 BL Bodegraven","address":"Noordstraat 78","city":"Bodegraven","operatorName":"Allego","maxPowerKw":11,"isMegawatt":false,"status":"AVAILABLE","source":"ndw","priceKwh":0.511}},{"type":"Feature","geometry":{"type":"Point","coordinates":[4.725157,52.051691]},"properties":{"type":"charge","layer":"passenger","locationId":"91233249","name":"50five-S NL 07004704","address":"Raadhuisweg 153","city":"Reeuwijk","operatorName":"50five","maxPowerKw":11,"isMegawatt":false,"status":"AVAILABLE","source":"ndw"}},{"type":"Feature","geometry":{"type":"Point","coordinates":[4.738982,52.024097]},"properties":{"type":"charge","layer":"passenger","locationId":"90928568","name":"Van Leeuwen Laden","address":"Korssendijk 17","city":"Reeuwijk","operatorName":"Van Leeuwen","maxPowerKw":11,"isMegawatt":false,"status":"AVAILABLE","source":"ndw"}},{"type":"Feature","geometry":{"type":"Point","coordinates":[4.745643,52.072796]},"properties":{"type":"charge","layer":"passenger","locationId":"64df65c32fa708001c789121","name":"Kempenaar Bodegraven","address":"Broekveldselaan  7","city":"Bodegraven","operatorName":"E-Flux by Road","maxPowerKw":22,"isMegawatt":false,"status":"AVAILABLE","source":"ndw","priceKwh":0.48}},{"type":"Feature","geometry":{"type":"Point","coordinates":[4.75106,52.08531]},"properties":{"type":"charge","layer":"passenger","locationId":"NLLOC013215","name":"NL, Bodelohof 4, 2411VJ, Bodegraven","address":"Bodelohof 4","city":"Bodegraven","operatorName":"Allego","maxPowerKw":11,"isMegawatt":false,"status":"AVAILABLE","source":"ndw","priceKwh":0.511}},{"type":"Feature","geometry":{"type":"Point","coordinates":[4.755109,52.071067]},"properties":{"type":"charge","layer":"passenger","locationId":"EAEBD51D-A84F-46BF-9CC2-9ADA992E1BA1","name":"Eneco eMobility Zorggroep Sirjon - Broekveldselaan 20 - Bodegraven","address":"Broekveldselaan 20","city":"Bodegraven","operatorName":"Eneco","maxPowerKw":11,"isMegawatt":false,"status":"AVAILABLE","source":"ndw","priceKwh":0.6}},{"type":"Feature","geometry":{"type":"Point","coordinates":[4.762943,52.076856]},"properties":{"type":"charge","layer":"passenger","locationId":"91093617","name":"50five-S NL 03011798","address":"Akkermunt 168","city":"Bodegraven-Reeuwijk","operatorName":"50five","maxPowerKw":11,"isMegawatt":false,"status":"AVAILABLE","source":"ndw"}},{"type":"Feature","geometry":{"type":"Point","coordinates":[4.752557,52.076235]},"properties":{"type":"charge","layer":"passenger","locationId":"91169683","name":"50five-S NL 07108489","address":"Goudplevier 8","city":"Bodegraven","operatorName":"50five","maxPowerKw":14,"isMegawatt":false,"status":"AVAILABLE","source":"ndw"}},{"type":"Feature","geometry":{"type":"Point","coordinates":[4.823929,52.060737]},"properties":{"type":"charge","layer":"passenger","locationId":"2584225","name":"Laadnet Prins Bernhardstraat 43","address":"Prins Bernhardstraat 43","city":"Waarder","operatorName":"Laadnet","maxPowerKw":11,"isMegawatt":false,"status":"AVAILABLE","source":"ndw"}},{"type":"Feature","geometry":{"type":"Point","coordinates":[4.721888,52.037032]},"properties":{"type":"charge","layer":"passenger","locationId":"6357caa9b18082cd1d3eaa31","name":"Bert Bras 's station","address":"Burgemeester Lucassenlaan  1","city":"Reeuwijk","operatorName":"E-Flux by Road","maxPowerKw":22,"isMegawatt":false,"status":"AVAILABLE","source":"ndw","priceKwh":0.88}},{"type":"Feature","geometry":{"type":"Point","coordinates":[4.690227,52.053623]},"properties":{"type":"charge","layer":"passenger","locationId":"91106226","name":"50five-S NL 07000720","address":"Reewal 18","city":"Reeuwijk","operatorName":"50five","maxPowerKw":22,"isMegawatt":false,"status":"AVAILABLE","source":"ndw"}},{"type":"Feature","geometry":{"type":"Point","coordinates":[4.784386,52.08476]},"properties":{"type":"charge","layer":"passenger","locationId":"91068292","name":"50five-S NL 17B06229","address":"Noordzijde 135","city":"Bodegraven-Reeuwijk","operatorName":"50five","maxPowerKw":14,"isMegawatt":false,"status":"AVAILABLE","source":"ndw"}},{"type":"Feature","geometry":{"type":"Point","coordinates":[4.72038,52.0372]},"properties":{"type":"charge","layer":"passenger","locationId":"6357cb84c71fdbac79f65b1d","name":"Bert Bras 's station","address":"Burgemeester Lucassenlaan 1","city":"Reeuwijk","operatorName":"E-Flux by Road","maxPowerKw":22,"isMegawatt":false,"status":"AVAILABLE","source":"ndw","priceKwh":0.88}},{"type":"Feature","geometry":{"type":"Point","coordinates":[4.757793,52.077237]},"properties":{"type":"charge","layer":"passenger","locationId":"NLLOC003948","name":"NLD Grondel 2, 2411 DL Bodegraven","address":"Grondel 2","city":"Bodegraven","operatorName":"Allego","maxPowerKw":11,"isMegawatt":false,"status":"AVAILABLE","source":"ndw","priceKwh":0.511}},{"type":"Feature","geometry":{"type":"Point","coordinates":[4.743372,52.080854]},"properties":{"type":"charge","layer":"passenger","locationId":"NLLOC004216","name":"NLD Gravenstein 26, 2411 GL Bodegraven","address":"Gravenstein 26","city":"Bodegraven","operatorName":"Allego","maxPowerKw":11,"isMegawatt":false,"status":"AVAILABLE","source":"ndw","priceKwh":0.511}},{"type":"Feature","geometry":{"type":"Point","coordinates":[4.754563,52.087366]},"properties":{"type":"charge","layer":"passenger","locationId":"NLLOC007498","name":"NL, Koninginneweg 57, 2411 XL, Bodegraven","address":"Koninginneweg 57","city":"Bodegraven","operatorName":"Allego","maxPowerKw":11,"isMegawatt":false,"status":"AVAILABLE","source":"ndw","priceKwh":0.511}},{"type":"Feature","geometry":{"type":"Point","coordinates":[4.740474,52.02403]},"properties":{"type":"charge","layer":"passenger","locationId":"89237873","name":"Van Leeuwen Platteweg 83","address":"Platteweg 83","city":"Reeuwijk","operatorName":"Van Leeuwen","maxPowerKw":11,"isMegawatt":false,"status":"AVAILABLE","source":"ndw"}},{"type":"Feature","geometry":{"type":"Point","coordinates":[4.825422,52.080276]},"properties":{"type":"charge","layer":"passenger","locationId":"NLLOC014064","name":"NL, De Bree 38, 2415 BG Nieuwerbrug aan den Rijn","address":"De Bree 38","city":"Nieuwerbrug aan den Rijn","operatorName":"Allego","maxPowerKw":11,"isMegawatt":false,"status":"AVAILABLE","source":"ndw","priceKwh":0.511}},{"type":"Feature","geometry":{"type":"Point","coordinates":[4.74168,52.087864]},"properties":{"type":"charge","layer":"passenger","locationId":"NLLOC013824","name":"NL, Rond de Watertoren, 12, 2411SE, Bodegraven","address":"Rond de Watertoren 12","city":"Bodegraven","operatorName":"Allego","maxPowerKw":11,"isMegawatt":false,"status":"AVAILABLE","source":"ndw","priceKwh":0.511}},{"type":"Feature","geometry":{"type":"Point","coordinates":[4.727665,52.047024]},"properties":{"type":"charge","layer":"passenger","locationId":"NLLOC005535","name":"NLD, Reeuwijk,Kievitsbloem 2","address":"Kievitsbloem 2","city":"Reeuwijk","operatorName":"Allego","maxPowerKw":11,"isMegawatt":false,"status":"AVAILABLE","source":"ndw","priceKwh":0.511}},{"type":"Feature","geometry":{"type":"Point","coordinates":[4.797775,52.042562]},"properties":{"type":"charge","layer":"passenger","locationId":"NLLOC006848","name":"NL, Kastanjelaan 26, 3465TD, Driebruggen","address":"Kastanjelaan 26","city":"Driebruggen","operatorName":"Allego","maxPowerKw":11,"isMegawatt":false,"status":"AVAILABLE","source":"ndw","priceKwh":0.511}},{"type":"Feature","geometry":{"type":"Point","coordinates":[4.689693,52.054225]},"properties":{"type":"charge","layer":"passenger","locationId":"91106466","name":"50five-S NL 09101978","address":"Reewal 18","city":"Reeuwijk","operatorName":"50five","maxPowerKw":22,"isMegawatt":false,"status":"AVAILABLE","source":"ndw"}},{"type":"Feature","geometry":{"type":"Point","coordinates":[4.761453,52.067963]},"properties":{"type":"charge","layer":"passenger","locationId":"6493f1c498b024001c052e38","name":"Tolnasingel 6-16 AC","address":"Tolnasingel 6-16","city":"Bodegraven","operatorName":"E-Flux by Road","maxPowerKw":22,"isMegawatt":false,"status":"AVAILABLE","source":"ndw","priceKwh":0.78}},{"type":"Feature","geometry":{"type":"Point","coordinates":[4.747008,52.080063]},"properties":{"type":"charge","layer":"passenger","locationId":"NLLOC007158","name":"NL, Schoutendreef 35, 2411 GA, Bodegraven","address":"Schoutendreef 35","city":"Bodegraven","operatorName":"Allego","maxPowerKw":11,"isMegawatt":false,"status":"AVAILABLE","source":"ndw","priceKwh":0.511}},{"type":"Feature","geometry":{"type":"Point","coordinates":[4.743219,52.075989]},"properties":{"type":"charge","layer":"passenger","locationId":"NLLOC007475","name":"NL, Groene Zoom 55, 2411 SM, Bodegraven","address":"Groene Zoom 55","city":"Bodegraven","operatorName":"Allego","maxPowerKw":11,"isMegawatt":false,"status":"AVAILABLE","source":"ndw","priceKwh":0.511}},{"type":"Feature","geometry":{"type":"Point","coordinates":[4.73655,52.087673]},"properties":{"type":"charge","layer":"passenger","locationId":"91108761","name":"50five-S NL 18B13194","address":"Klipperaak 101","city":"Bodegraven","operatorName":"50five","maxPowerKw":11,"isMegawatt":false,"status":"AVAILABLE","source":"ndw"}},{"type":"Feature","geometry":{"type":"Point","coordinates":[4.722232,52.044965]},"properties":{"type":"charge","layer":"passenger","locationId":"91093629","name":"50five-S NL 07111878","address":"Raadhuisweg 33","city":"Reeuwijk","operatorName":"50five","maxPowerKw":11,"isMegawatt":false,"status":"AVAILABLE","source":"ndw"}},{"type":"Feature","geometry":{"type":"Point","coordinates":[4.765374,52.075488]},"properties":{"type":"charge","layer":"passenger","locationId":"91052288","name":"50five-S NL 07006394","address":"klaproos 51","city":"Bodegraven","operatorName":"50five","maxPowerKw":22,"isMegawatt":false,"status":"AVAILABLE","source":"ndw"}},{"type":"Feature","geometry":{"type":"Point","coordinates":[4.760262,52.070484]},"properties":{"type":"charge","layer":"passenger","locationId":"655768382f667d001cc9d3e1","name":"Lek/Habo Bodegraven","address":"Spanjeweg 6","city":"Bodegraven","operatorName":"E-Flux by Road","maxPowerKw":22,"isMegawatt":false,"status":"AVAILABLE","source":"ndw","priceKwh":0.43}},{"type":"Feature","geometry":{"type":"Point","coordinates":[4.727868,52.052027]},"properties":{"type":"charge","layer":"passenger","locationId":"NLLOC013878","name":"NL, Hooiweide 1, 2811 JD Reeuwijk","address":"Hooiweide 1","city":"Reeuwijk","operatorName":"Allego","maxPowerKw":11,"isMegawatt":false,"status":"AVAILABLE","source":"ndw","priceKwh":0.511}},{"type":"Feature","geometry":{"type":"Point","coordinates":[4.754006,52.07587]},"properties":{"type":"charge","layer":"passenger","locationId":"NLLOC006474","name":"NL, Raaigras 1, 2411DW, Bodegraven","address":"Raaigras 1","city":"Bodegraven","operatorName":"Allego","maxPowerKw":11,"isMegawatt":false,"status":"AVAILABLE","source":"ndw","priceKwh":0.511}},{"type":"Feature","geometry":{"type":"Point","coordinates":[4.765532,52.072779]},"properties":{"type":"charge","layer":"passenger","locationId":"NLLOC011308","name":"NL, Ridderspoor 37, 2412 AX Bodegraven","address":"Ridderspoor 37","city":"Bodegraven","operatorName":"Allego","maxPowerKw":11,"isMegawatt":false,"status":"AVAILABLE","source":"ndw","priceKwh":0.511}},{"type":"Feature","geometry":{"type":"Point","coordinates":[4.720296,52.031997]},"properties":{"type":"charge","layer":"passenger","locationId":"6357c3eac71fdb8d8cf4b3e4","name":"Bert Bras 's station","address":"Burgemeester Lucasselaan  1","city":"Reeuwijk","operatorName":"E-Flux by Road","maxPowerKw":22,"isMegawatt":false,"status":"AVAILABLE","source":"ndw","priceKwh":0.88}},{"type":"Feature","geometry":{"type":"Point","coordinates":[4.731607,52.050421]},"properties":{"type":"charge","layer":"passenger","locationId":"NLLOC004398","name":"NLD Haarmos 2, 2811 GT Reeuwijk","address":"Haarmos 2","city":"Reeuwijk","operatorName":"Allego","maxPowerKw":11,"isMegawatt":false,"status":"AVAILABLE","source":"ndw","priceKwh":0.511}},{"type":"Feature","geometry":{"type":"Point","coordinates":[4.754557,52.080571]},"properties":{"type":"charge","layer":"passenger","locationId":"NLLOC005830","name":"NLD Koetshuis 16 2411 SK Bodegraven","address":"Koetshuis 16","city":"Bodegraven","operatorName":"Allego","maxPowerKw":11,"isMegawatt":false,"status":"AVAILABLE","source":"ndw","priceKwh":0.511}},{"type":"Feature","geometry":{"type":"Point","coordinates":[4.720809,52.042759]},"properties":{"type":"charge","layer":"passenger","locationId":"NLLOC005418","name":"NLD, Reeuwijk, Raadhuisweg 1","address":"Raadhuisweg 1","city":"Reeuwijk","operatorName":"Allego","maxPowerKw":11,"isMegawatt":false,"status":"AVAILABLE","source":"ndw","priceKwh":0.511}},{"type":"Feature","geometry":{"type":"Point","coordinates":[4.752108,52.076064]},"properties":{"type":"charge","layer":"passenger","locationId":"NLLOC008350","name":"NL, Roerdomp 2 2411 LX Bodegraven","address":"Roerdomp 2","city":"Bodegraven","operatorName":"Allego","maxPowerKw":11,"isMegawatt":false,"status":"AVAILABLE","source":"ndw","priceKwh":0.511}},{"type":"Feature","geometry":{"type":"Point","coordinates":[4.754238,52.068527]},"properties":{"type":"charge","layer":"passenger","locationId":"4205685","name":"Laadnet Vandersterre Holland B.V.","address":"Duitslandweg 11","city":"Bodegraven","operatorName":"Laadnet","maxPowerKw":11,"isMegawatt":false,"status":"UNAVAILABLE","source":"ndw"}},{"type":"Feature","geometry":{"type":"Point","coordinates":[4.757066,52.073899]},"properties":{"type":"charge","layer":"passenger","locationId":"NLLOC007441","name":"NL, Groene Ree 38, 2411ZG, Bodegraven","address":"Groene Ree 38","city":"Bodegraven","operatorName":"Allego","maxPowerKw":11,"isMegawatt":false,"status":"AVAILABLE","source":"ndw","priceKwh":0.511}},{"type":"Feature","geometry":{"type":"Point","coordinates":[4.765508,52.075939]},"properties":{"type":"charge","layer":"passenger","locationId":"NLLOC008278","name":"NL, Dotterbloem 8, 2412 AP Bodegraven","address":"Dotterbloem 8","city":"Bodegraven","operatorName":"Allego","maxPowerKw":11,"isMegawatt":false,"status":"AVAILABLE","source":"ndw","priceKwh":0.511}},{"type":"Feature","geometry":{"type":"Point","coordinates":[4.717995,52.04474]},"properties":{"type":"charge","layer":"passenger","locationId":"NLLOC006676","name":"NL, Van Brederodestraat 2, 2811 XH, Reeuwijk","address":"Van Brederodestraat 2","city":"Reeuwijk","operatorName":"Allego","maxPowerKw":11,"isMegawatt":false,"status":"AVAILABLE","source":"ndw","priceKwh":0.511}},{"type":"Feature","geometry":{"type":"Point","coordinates":[4.751074,52.083176]},"properties":{"type":"charge","layer":"passenger","locationId":"NLLOC003841","name":"NLD, Emmakade 1a, 2411 JA Bodegraven","address":"Emmakade 1a","city":"Bodegraven","operatorName":"Allego","maxPowerKw":11,"isMegawatt":false,"status":"AVAILABLE","source":"ndw","priceKwh":0.511}},{"type":"Feature","geometry":{"type":"Point","coordinates":[4.692032,52.053745]},"properties":{"type":"charge","layer":"passenger","locationId":"NLLOC006173","name":"NL, Melkschouw 13, 2811LM, Reeuwijk","address":"Melkschouw 13","city":"Reeuwijk","operatorName":"Allego","maxPowerKw":11,"isMegawatt":false,"status":"AVAILABLE","source":"ndw","priceKwh":0.511}},{"type":"Feature","geometry":{"type":"Point","coordinates":[4.744981,52.074375]},"properties":{"type":"charge","layer":"passenger","locationId":"NLLOC009507","name":"NL, Eiber 7001, 2411, JJ Bodegraven","address":"Eiber 7001","city":"Bodegraven","operatorName":"Allego","maxPowerKw":11,"isMegawatt":false,"status":"AVAILABLE","source":"ndw","priceKwh":0.511}},{"type":"Feature","geometry":{"type":"Point","coordinates":[4.714219,52.039267]},"properties":{"type":"charge","layer":"passenger","locationId":"3134847","name":"Laadnet Verzamelgebouw Reeuwijk - wegzijde","address":"Leeghwaterstraat 25","city":"Reeuwijk","operatorName":"Laadnet","maxPowerKw":22,"isMegawatt":false,"status":"AVAILABLE","source":"ndw"}},{"type":"Feature","geometry":{"type":"Point","coordinates":[4.810885,52.077517]},"properties":{"type":"charge","layer":"passenger","locationId":"NLLOC014611","name":"NL, Graaf Albrechtstraat, 4, 2415AW, Nieuwerbrug aan den Rijn","address":"Graaf Albrechtstraat 4","city":"Nieuwerbrug aan den Rijn","operatorName":"Allego","maxPowerKw":11,"isMegawatt":false,"status":"AVAILABLE","source":"ndw","priceKwh":0.511}},{"type":"Feature","geometry":{"type":"Point","coordinates":[4.757103,52.085114]},"properties":{"type":"charge","layer":"passenger","locationId":"NLLOC004199","name":"NLD Ingelanden 16, 2411 WP Bodegraven","address":"Ingelanden 16","city":"Bodegraven","operatorName":"Allego","maxPowerKw":11,"isMegawatt":false,"status":"AVAILABLE","source":"ndw","priceKwh":0.511}},{"type":"Feature","geometry":{"type":"Point","coordinates":[4.74583,52.078396]},"properties":{"type":"charge","layer":"passenger","locationId":"NLLOC007988","name":"NL, Heemraadslaan 11 , 2411 SV Bodegraven","address":"Heemraadslaan 11","city":"Bodegraven","operatorName":"Allego","maxPowerKw":11,"isMegawatt":false,"status":"AVAILABLE","source":"ndw","priceKwh":0.511}},{"type":"Feature","geometry":{"type":"Point","coordinates":[4.758527,52.075065]},"properties":{"type":"charge","layer":"passenger","locationId":"NLLOC013425","name":"NL, Hooijerdijk 43, 2411 ZT Bodegraven","address":"Hooijerdijk 43","city":"Bodegraven","operatorName":"Allego","maxPowerKw":22,"isMegawatt":false,"status":"AVAILABLE","source":"ndw","priceKwh":0.511}},{"type":"Feature","geometry":{"type":"Point","coordinates":[4.804834,52.045373]},"properties":{"type":"charge","layer":"passenger","locationId":"NLLOC004203","name":"NLD Kievitlaan 4 3465 KP Driebruggen","address":"Kievitlaan 4","city":"Driebruggen","operatorName":"Allego","maxPowerKw":11,"isMegawatt":false,"status":"AVAILABLE","source":"ndw","priceKwh":0.511}},{"type":"Feature","geometry":{"type":"Point","coordinates":[4.747287,52.081652]},"properties":{"type":"charge","layer":"passenger","locationId":"NLLOC007138","name":"NL, Spoorstraat 45, 2411ED, Bodegraven-Reeuwijk","address":"Spoorstraat 45","city":"Bodegraven-Reeuwijk","operatorName":"Allego","maxPowerKw":11,"isMegawatt":false,"status":"AVAILABLE","source":"ndw","priceKwh":0.511}},{"type":"Feature","geometry":{"type":"Point","coordinates":[4.762694,52.076326]},"properties":{"type":"charge","layer":"passenger","locationId":"91276379","name":"50five-S NL 17B27010","address":"Akkermunt 178","city":"Bodegraven","operatorName":"50five","maxPowerKw":4,"isMegawatt":false,"status":"AVAILABLE","source":"ndw"}},{"type":"Feature","geometry":{"type":"Point","coordinates":[4.742241,52.085356]},"properties":{"type":"charge","layer":"passenger","locationId":"NLLOC015781","name":"NL, Overtocht, 39, 2411BT, Bodegraven","address":"Overtocht 39","city":"Bodegraven","operatorName":"Allego","maxPowerKw":11,"isMegawatt":false,"status":"AVAILABLE","source":"ndw","priceKwh":0.511}},{"type":"Feature","geometry":{"type":"Point","coordinates":[4.721708,52.049363]},"properties":{"type":"charge","layer":"passenger","locationId":"NLLOC005997","name":"NLD, Groen van Prinstererlaan 31 2811 VG Reeuwijk","address":"Groen van Prinstererlaan 31","city":"Reeuwijk","operatorName":"Allego","maxPowerKw":11,"isMegawatt":false,"status":"AVAILABLE","source":"ndw","priceKwh":0.511}},{"type":"Feature","geometry":{"type":"Point","coordinates":[4.734959,52.100994]},"properties":{"type":"charge","layer":"passenger","locationId":"655730104710a2001c71d87c","name":"MB Eassee schuur","address":"Dammekant 129a","city":"Bodegraven","operatorName":"E-Flux by Road","maxPowerKw":11,"isMegawatt":false,"status":"AVAILABLE","source":"ndw","priceKwh":0.63}},{"type":"Feature","geometry":{"type":"Point","coordinates":[4.821182,52.063872]},"properties":{"type":"charge","layer":"passenger","locationId":"91231980","name":"50five-S NL 07115221","address":"Korte Waarder 37","city":"Nieuwerbrug aan den Rijn","operatorName":"50five","maxPowerKw":11,"isMegawatt":false,"status":"AVAILABLE","source":"ndw"}},{"type":"Feature","geometry":{"type":"Point","coordinates":[4.820524,52.077608]},"properties":{"type":"charge","layer":"passenger","locationId":"NLLOC006815","name":"NL, Graaf Adolfstraat 14, 2415 AL, Nieuwerbrug aan den Rijn","address":"Graaf Adolfstraat 14","city":"Nieuwerbrug aan den Rijn","operatorName":"Allego","maxPowerKw":11,"isMegawatt":false,"status":"AVAILABLE","source":"ndw","priceKwh":0.511}},{"type":"Feature","geometry":{"type":"Point","coordinates":[4.753902,52.078023]},"properties":{"type":"charge","layer":"passenger","locationId":"NLLOC005533","name":"NLD,Bodegraven-Reeuwijk, Bourgondischelaan 19","address":"Bourgondischelaan 19","city":"Bodegraven-Reeuwijk","operatorName":"Allego","maxPowerKw":11,"isMegawatt":false,"status":"AVAILABLE","source":"ndw","priceKwh":0.511}},{"type":"Feature","geometry":{"type":"Point","coordinates":[4.814283,52.076618]},"properties":{"type":"charge","layer":"passenger","locationId":"NLLOC006846","name":"NL, Gravin Jacobastraat 18, 2415 AX, Nieuwerbrug aan den Rijn","address":"Gravin Jacobastraat 18","city":"Nieuwerbrug aan den Rijn","operatorName":"Allego","maxPowerKw":11,"isMegawatt":false,"status":"AVAILABLE","source":"ndw","priceKwh":0.511}},{"type":"Feature","geometry":{"type":"Point","coordinates":[4.749524,52.077181]},"properties":{"type":"charge","layer":"passenger","locationId":"NLLOC009851","name":"NL, Leeuwerik, 2, 2411KR, Bodegraven","address":"Leeuwerik 2 a","city":"Bodegraven","operatorName":"Allego","maxPowerKw":11,"isMegawatt":false,"status":"AVAILABLE","source":"ndw","priceKwh":0.511}},{"type":"Feature","geometry":{"type":"Point","coordinates":[4.741176,52.078415]},"properties":{"type":"charge","layer":"passenger","locationId":"NLLOC004392","name":"NLD Wilgenoord 29, 2411 TC Bodegraven","address":"Wilgenoord 29","city":"Bodegraven","operatorName":"Allego","maxPowerKw":11,"isMegawatt":false,"status":"AVAILABLE","source":"ndw","priceKwh":0.511}},{"type":"Feature","geometry":{"type":"Point","coordinates":[4.7449,52.0755]},"properties":{"type":"charge","layer":"passenger","locationId":"NLENV00016","name":"Goudseweg 131, 2411 HK Bodegraven ","address":"Goudseweg  131","city":"Bodegraven","operatorName":"","maxPowerKw":200,"isMegawatt":false,"status":"AVAILABLE","source":"ndw","priceKwh":0.58}},{"type":"Feature","geometry":{"type":"Point","coordinates":[4.743438,52.089417]},"properties":{"type":"charge","layer":"passenger","locationId":"NLLOC015773","name":"NL, Oranjehof 12, 2411 XA Bodegraven","address":"Oranjehof 12","city":"Bodegraven-Reeuwijk","operatorName":"Allego","maxPowerKw":11,"isMegawatt":false,"status":"AVAILABLE","source":"ndw","priceKwh":0.511}},{"type":"Feature","geometry":{"type":"Point","coordinates":[4.738413,52.066539]},"properties":{"type":"charge","layer":"freight","locationId":"57","name":"IONITY GmbH IONITY Bodegraven","address":"La Place Goudseweg 32","city":"Bodegraven","operatorName":"IONITY","maxPowerKw":350,"isMegawatt":false,"status":"AVAILABLE","source":"ndw","priceKwh":0.6283,"freightKind":"hpc","freightReason":"power"}},{"type":"Feature","geometry":{"type":"Point","coordinates":[4.821356,52.064535]},"properties":{"type":"charge","layer":"freight","locationId":"51051","name":"Fastned Nieuwerbrug","address":"Molendijk","city":"Waarder","operatorName":"Fastned","maxPowerKw":400,"isMegawatt":false,"status":"AVAILABLE","source":"ndw","priceKwh":0.6364,"freightKind":"hpc","freightReason":"power"}},{"type":"Feature","geometry":{"type":"MultiPolygon","coordinates":[[[[4.792079959381114,52.122287913738134],[4.825314741614415,52.107151626823814],[4.82438950312317,52.10540361348729],[4.823055892496678,52.1051933435445],[4.823394815524161,52.092801753854324],[4.825635608269697,52.08008200468145],[4.825629831942529,52.0797928626115],[4.826492881730042,52.07952770513535],[4.8262760202024655,52.074644102307296],[4.8330455961224335,52.074827448538365],[4.832789598163128,52.072951560421764],[4.834035753222439,52.072736365551066],[4.8298083468604665,52.06682391602975],[4.840376857273264,52.06888056973634],[4.855231888124497,52.068814022019616],[4.87320071151265,52.068745835238566],[4.8682254154038,52.06344677401791],[4.856305558496174,52.05915224182821],[4.848049024337301,52.05816515251585],[4.8390940658164645,52.054167875470455],[4.829490954912946,52.04981388187023],[4.829361494036783,52.04927999407074],[4.8171937343554845,52.03693155716724],[4.811823025726418,52.03382496518343],[4.806705153026412,52.03316776124178],[4.8086713398618395,52.029654342158416],[4.809660657765122,52.0275063508881],[4.809934228725333,52.026764938109245],[4.798700971667406,52.022272143534515],[4.785078243446273,52.01645453298531],[4.775944750448087,52.01406456311175],[4.766206384267417,52.01324240690714],[4.750879952740499,52.01408879353768],[4.750991459097498,52.01389922803527],[4.750352400977463,52.01394026631079],[4.750049028145752,52.01450396985684],[4.749629654542505,52.015283189080876],[4.749148649666596,52.016176899850635],[4.746016780701568,52.01697684597028],[4.7436975575703135,52.02260855964062],[4.736782676679049,52.02274871985461],[4.736296407623993,52.024218334209166],[4.73461860490111,52.02427942704861],[4.734400032089602,52.02502065646349],[4.7301548188790825,52.0248839716555],[4.729963759131127,52.02562869903783],[4.727607347611854,52.02531510443658],[4.72741975458245,52.02598863210868],[4.726342618276171,52.025926504436036],[4.725267839400206,52.02576850280206],[4.722302150175776,52.026016808143666],[4.722213203815717,52.02628980280358],[4.721511489117194,52.02603285973751],[4.721210905780703,52.026108154648725],[4.721180301958419,52.0264731708491],[4.7198520958017625,52.02648475315873],[4.719933736761537,52.02846939180217],[4.7199032186994705,52.03027358792327],[4.719871059810841,52.03520134424374],[4.717581212996317,52.03530726060131],[4.716260561950166,52.03822320966847],[4.712392954617089,52.03896359097085],[4.709229328024716,52.039550065175945],[4.706038988986196,52.04012021077849],[4.705105644173095,52.04028321920084],[4.687399265187063,52.04308563921147],[4.6870589865482835,52.04383655358038],[4.677310994323195,52.04397152117411],[4.679542719747013,52.05124673180089],[4.679803585629012,52.05207291238242],[4.669000916079424,52.05234196028563],[4.669699430372297,52.05550504178543],[4.66696417563215,52.05762776796534],[4.66402360172578,52.05770542532382],[4.659967250492324,52.064104660373346],[4.665910113282573,52.063951980433686],[4.6656595552132405,52.06572430400187],[4.6772465371488865,52.065520928214376],[4.678997091452928,52.06019744110473],[4.6792979485844,52.059216319357105],[4.681973090496234,52.05910449389786],[4.683120785595097,52.062607904166164],[4.68534655964872,52.069384793314924],[4.686148574569905,52.0692147653182],[4.6862594715851005,52.06952621467366],[4.694410810625988,52.067767831467364],[4.696834382814573,52.07400619314519],[4.704904647515968,52.076836861703775],[4.713027257901976,52.076929854944645],[4.715505489055814,52.081188882166074],[4.713101604817391,52.084338857476276],[4.708757683757769,52.093644326876266],[4.707004969080331,52.09329696972949],[4.705067468118492,52.094639154162884],[4.704731335216549,52.09524128207446],[4.724440140675889,52.09958233687607],[4.7245171366717935,52.0995999087224],[4.733072718144661,52.10147597611739],[4.734809290846081,52.10187686779921],[4.734517595278176,52.10261509880786],[4.74022244436446,52.10464858513156],[4.738856266939849,52.10650792613547],[4.746379535868081,52.107516379084224],[4.753225593249172,52.108513080203146],[4.759328298569908,52.110345135306595],[4.7602390932009655,52.11184545106412],[4.7610492696624105,52.112846648255356],[4.762532214399998,52.113712127694704],[4.766675309603142,52.113145612921144],[4.769219166921437,52.11331204468507],[4.769976947308024,52.114785458956966],[4.770860771433139,52.115138063127404],[4.774928219953631,52.11484324135946],[4.775948453915467,52.115780414385085],[4.776507451714485,52.116004555919915],[4.778258878173062,52.11584170706057],[4.779542202618748,52.11765387697488],[4.780449939693605,52.11796167496894],[4.783151003544059,52.11732053322433],[4.783968968711926,52.11743776535459],[4.784438332218862,52.11803654133846],[4.783019034730963,52.119763360279194],[4.783305759158796,52.12037394080292],[4.784069106053273,52.120756583150985],[4.785372206940612,52.12066252865482],[4.787507821863502,52.11999382149392],[4.791892865192318,52.120461001852675],[4.792079959381114,52.122287913738134]]]]},"properties":{"type":"boundary","gemeente":"Bodegraven-Reeuwijk","code":"GM1901"}}]}