{"type":"FeatureCollection","metadata":{"gemeente":"Bunschoten","slug":"bunschoten","code":"GM0313","generated_at":"2026-08-08T12:05:52.020Z","total_passenger":82,"total_freight":0,"bounds":[5.310662214634204,52.20552848718709,5.40364204770594,52.273611314773326],"operators":["50five","Alva Charging Services","Blink Charging","DAEN Mobility","E-Flux by Road","Laadnet","Lanova Laadpalen","Shell Recharge","TotalEnergies","Ubitricity","Vattenfall InCharge"]},"features":[{"type":"Feature","geometry":{"type":"Point","coordinates":[5.365265,52.233585]},"properties":{"type":"charge","layer":"passenger","locationId":"5467","name":"Shell Recharge NL9370 - MRA-e Bunschoten Spakenburg","address":"De Kronkels","city":"Bunschoten-Spakenburg","operatorName":"Shell Recharge","maxPowerKw":50,"isMegawatt":false,"status":"AVAILABLE","source":"ndw","priceKwh":0.543}},{"type":"Feature","geometry":{"type":"Point","coordinates":[5.380025,52.237762]},"properties":{"type":"charge","layer":"passenger","locationId":"51D8936D-B82C-4544-9E03-4E8131418B82","name":"TNLP009944 - Boterland 1, Bunschoten-Spakenburg","address":"1 Boterland","city":"Bunschoten-Spakenburg","operatorName":"TotalEnergies","maxPowerKw":17,"isMegawatt":false,"status":"UNAVAILABLE","source":"ndw"}},{"type":"Feature","geometry":{"type":"Point","coordinates":[5.367758,52.251549]},"properties":{"type":"charge","layer":"passenger","locationId":"1153751","name":"PBLR-0018683","address":"Van Hogendorplaan 5","city":"Bunschoten-Spakenburg","operatorName":"DAEN Mobility","maxPowerKw":11,"isMegawatt":false,"status":"AVAILABLE","source":"ndw"}},{"type":"Feature","geometry":{"type":"Point","coordinates":[5.376625,52.230647]},"properties":{"type":"charge","layer":"passenger","locationId":"400a95c2-2974-44fa-853f-c77a584f047c","name":"Moobi - PRO130 - Vakgarage Blokhuis - Bunschoten-Spakenburg","address":"Haarbrug 1","city":"Bunschoten-Spakenburg","operatorName":"Blink Charging","maxPowerKw":12,"isMegawatt":false,"status":"AVAILABLE","source":"ndw","priceKwh":0.42}},{"type":"Feature","geometry":{"type":"Point","coordinates":[5.37143,52.225377]},"properties":{"type":"charge","layer":"passenger","locationId":"69720dd7d7cd5c22b49719d1","name":"Laadpaal 4 rechts rechts","address":"Het Steenland  23","city":"Bunschoten-Spakenburg","operatorName":"E-Flux by Road","maxPowerKw":11,"isMegawatt":false,"status":"AVAILABLE","source":"ndw","priceKwh":0.63}},{"type":"Feature","geometry":{"type":"Point","coordinates":[5.370823,52.233486]},"properties":{"type":"charge","layer":"passenger","locationId":"29EF6B65-D976-4E34-85FD-01B0616ACCBF","name":"TNLP007439 - Melkrijder 11, Bunschoten-Spakenburg","address":"11 Melkrijder","city":"Bunschoten-Spakenburg","operatorName":"TotalEnergies","maxPowerKw":17,"isMegawatt":false,"status":"UNAVAILABLE","source":"ndw"}},{"type":"Feature","geometry":{"type":"Point","coordinates":[5.375013,52.25791]},"properties":{"type":"charge","layer":"passenger","locationId":"98228E4A-A468-421D-A818-2ECC65043356","name":"TNLP005898 - Westdijk 14a, Bunschoten-Spakenburg","address":"14a Westdijk","city":"Bunschoten-Spakenburg","operatorName":"TotalEnergies","maxPowerKw":17,"isMegawatt":false,"status":"CHARGING","source":"ndw"}},{"type":"Feature","geometry":{"type":"Point","coordinates":[5.367444,52.23583]},"properties":{"type":"charge","layer":"passenger","locationId":"295a0a4d8f08879d64e6f0cc3487b381","name":"Meerkoet 52","address":"Meerkoet 52","city":"Bunschoten-Spakenburg","operatorName":"Vattenfall InCharge","maxPowerKw":22,"isMegawatt":false,"status":"CHARGING","source":"ndw"}},{"type":"Feature","geometry":{"type":"Point","coordinates":[5.367451,52.228484]},"properties":{"type":"charge","layer":"passenger","locationId":"642c0f33ba2df4001220cc86","name":"Schaap & Van Dijk","address":"Dieselweg 6","city":"Bunschoten","operatorName":"E-Flux by Road","maxPowerKw":11,"isMegawatt":false,"status":"AVAILABLE","source":"ndw","priceKwh":0.48}},{"type":"Feature","geometry":{"type":"Point","coordinates":[5.380872,52.250927]},"properties":{"type":"charge","layer":"passenger","locationId":"56C20C60-3563-4E87-BCEF-A9BB81AE0BAB","name":"TNLP034303 - Oostsingel 62, Bunschoten-Spakenburg","address":"62 Oostsingel","city":"Bunschoten-Spakenburg","operatorName":"TotalEnergies","maxPowerKw":13,"isMegawatt":false,"status":"UNAVAILABLE","source":"ndw"}},{"type":"Feature","geometry":{"type":"Point","coordinates":[5.373331,52.24451]},"properties":{"type":"charge","layer":"passenger","locationId":"7FF22753-456E-4744-90D7-DFDDBB48F1F8","name":"TNLP034159 - Bosmanshof 20, Bunschoten-Spakenburg","address":"20 Bosmanshof","city":"Bunschoten-Spakenburg","operatorName":"TotalEnergies","maxPowerKw":13,"isMegawatt":false,"status":"UNAVAILABLE","source":"ndw"}},{"type":"Feature","geometry":{"type":"Point","coordinates":[5.358355,52.245153]},"properties":{"type":"charge","layer":"passenger","locationId":"c683c7934b4f39599c82cd1a0f2c3be1","name":"Bikkersweg 96a","address":"Bikkersweg 96a","city":"Bunschoten-Spakenburg","operatorName":"Vattenfall InCharge","maxPowerKw":11,"isMegawatt":false,"status":"AVAILABLE","source":"ndw","priceKwh":0.2805}},{"type":"Feature","geometry":{"type":"Point","coordinates":[5.367371,52.229717]},"properties":{"type":"charge","layer":"passenger","locationId":"6953fb4274654893f5f909ec","name":"BunGas (achterhek)","address":"Edisonweg 7","city":"Bunschoten-Spakenburg","operatorName":"E-Flux by Road","maxPowerKw":11,"isMegawatt":false,"status":"AVAILABLE","source":"ndw","priceKwh":0.43}},{"type":"Feature","geometry":{"type":"Point","coordinates":[5.36428,52.243233]},"properties":{"type":"charge","layer":"passenger","locationId":"F62AEFCB-43BB-4B69-AA12-5C8996444E27","name":"TNLP007287 - Vogelpad 1, Bunschoten-Spakenburg","address":"1 Vogelpad","city":"Bunschoten-Spakenburg","operatorName":"TotalEnergies","maxPowerKw":17,"isMegawatt":false,"status":"AVAILABLE","source":"ndw"}},{"type":"Feature","geometry":{"type":"Point","coordinates":[5.381493,52.236244]},"properties":{"type":"charge","layer":"passenger","locationId":"B4D819C7-6063-4B82-A4BE-E2E15183D47B","name":"TNLP034195 - Dwarskamp 21, Bunschoten-Spakenburg","address":"21 Dwarskamp","city":"Bunschoten-Spakenburg","operatorName":"TotalEnergies","maxPowerKw":13,"isMegawatt":false,"status":"UNAVAILABLE","source":"ndw"}},{"type":"Feature","geometry":{"type":"Point","coordinates":[5.358521,52.228649]},"properties":{"type":"charge","layer":"passenger","locationId":"3966506","name":"Laadnet Hapam","address":"Voltaweg 32","city":"Bunschoten-Spakenburg","operatorName":"Laadnet","maxPowerKw":22,"isMegawatt":false,"status":"AVAILABLE","source":"ndw"}},{"type":"Feature","geometry":{"type":"Point","coordinates":[5.383279,52.248245]},"properties":{"type":"charge","layer":"passenger","locationId":"AF7D562E-055C-400A-89A2-A6DF42095429","name":"TNLP006661 - Stuurboord 6, Bunschoten-Spakenburg","address":"6 Stuurboord","city":"Bunschoten-Spakenburg","operatorName":"TotalEnergies","maxPowerKw":17,"isMegawatt":false,"status":"UNAVAILABLE","source":"ndw"}},{"type":"Feature","geometry":{"type":"Point","coordinates":[5.3806105,52.2484477]},"properties":{"type":"charge","layer":"passenger","locationId":"2689","name":"Shell Recharge NL Bakboord 2","address":"Bakboord 2","city":"Bunschoten-Spakenburg","operatorName":"Ubitricity","maxPowerKw":22,"isMegawatt":false,"status":"AVAILABLE","source":"ndw","priceKwh":0.267}},{"type":"Feature","geometry":{"type":"Point","coordinates":[5.3821,52.244031]},"properties":{"type":"charge","layer":"passenger","locationId":"91054118","name":"50five-S NL 07006005","address":"Voorsteven 31","city":"Bunschoten-Spakenburg","operatorName":"50five","maxPowerKw":11,"isMegawatt":false,"status":"AVAILABLE","source":"ndw"}},{"type":"Feature","geometry":{"type":"Point","coordinates":[5.368991,52.23751]},"properties":{"type":"charge","layer":"passenger","locationId":"60CAB316-5571-450D-A6F7-9D70063465EB","name":"TNLP007532 - Torenvalk 47, Bunschoten-Spakenburg","address":"47 Torenvalk","city":"Bunschoten-Spakenburg","operatorName":"TotalEnergies","maxPowerKw":17,"isMegawatt":false,"status":"UNAVAILABLE","source":"ndw"}},{"type":"Feature","geometry":{"type":"Point","coordinates":[5.362425,52.245274]},"properties":{"type":"charge","layer":"passenger","locationId":"568377C0-2D6B-47C0-9175-8C9F245349C5","name":"TNLP005929 - Verdistraat 88, Bunschoten-Spakenburg","address":"88 Verdistraat","city":"Bunschoten-Spakenburg","operatorName":"TotalEnergies","maxPowerKw":11,"isMegawatt":false,"status":"CHARGING","source":"ndw"}},{"type":"Feature","geometry":{"type":"Point","coordinates":[5.382552,52.249088]},"properties":{"type":"charge","layer":"passenger","locationId":"682c766f9c51b1fc82518c4b","name":"Slijterij Henk Peter Laadstation","address":"Zuidwenk  78e","city":"Spakenburg","operatorName":"E-Flux by Road","maxPowerKw":14,"isMegawatt":false,"status":"AVAILABLE","source":"ndw"}},{"type":"Feature","geometry":{"type":"Point","coordinates":[5.369992,52.246002]},"properties":{"type":"charge","layer":"passenger","locationId":"099876E0-2C63-4782-A552-C23C1D26474E","name":"TNLP007534 - Dopperstraat 118, Bunschoten-Spakenburg","address":"118 Dopperstraat","city":"Bunschoten-Spakenburg","operatorName":"TotalEnergies","maxPowerKw":17,"isMegawatt":false,"status":"AVAILABLE","source":"ndw"}},{"type":"Feature","geometry":{"type":"Point","coordinates":[5.371653,52.225224]},"properties":{"type":"charge","layer":"passenger","locationId":"673c950a2f8e87fc2a97e439","name":"I-techniek lader 2","address":"Het Steenland 18","city":"Bunschoten","operatorName":"E-Flux by Road","maxPowerKw":22,"isMegawatt":false,"status":"AVAILABLE","source":"ndw"}},{"type":"Feature","geometry":{"type":"Point","coordinates":[5.380933,52.25104]},"properties":{"type":"charge","layer":"passenger","locationId":"6E33C7D7-FE96-4A1B-A0B9-460DEAEC71C7","name":"TNLP006213 - Spieringweg 2, Bunschoten-Spakenburg","address":"2 Spieringweg","city":"Bunschoten-Spakenburg","operatorName":"TotalEnergies","maxPowerKw":17,"isMegawatt":false,"status":"AVAILABLE","source":"ndw"}},{"type":"Feature","geometry":{"type":"Point","coordinates":[5.384989,52.254684]},"properties":{"type":"charge","layer":"passenger","locationId":"FC899C89-E123-4F07-BE28-E7106988AA31","name":"TNLP005931 - Zuiderzeekade 4, Bunschoten-Spakenburg","address":"4 Zuiderzeekade","city":"Bunschoten-Spakenburg","operatorName":"TotalEnergies","maxPowerKw":11,"isMegawatt":false,"status":"AVAILABLE","source":"ndw"}},{"type":"Feature","geometry":{"type":"Point","coordinates":[5.371435,52.225422]},"properties":{"type":"charge","layer":"passenger","locationId":"697217922f20591f95394b48","name":"Laadpaal 2 links rechts","address":"Het Steenland 23","city":"Bunschoten-Spakenburg","operatorName":"E-Flux by Road","maxPowerKw":11,"isMegawatt":false,"status":"AVAILABLE","source":"ndw","priceKwh":0.63}},{"type":"Feature","geometry":{"type":"Point","coordinates":[5.382723,52.245167]},"properties":{"type":"charge","layer":"passenger","locationId":"91233189","name":"50five-S NL ICUCOMPACT001475","address":"Vuronger 27","city":"Bunschoten-Spakenburg","operatorName":"50five","maxPowerKw":4,"isMegawatt":false,"status":"UNAVAILABLE","source":"ndw"}},{"type":"Feature","geometry":{"type":"Point","coordinates":[5.367418,52.233147]},"properties":{"type":"charge","layer":"passenger","locationId":"62c6bbbb16dbbea0abf52749","name":"De Kronkels 3, Bunschoten","address":"De Kronkels 3","city":"Bunschoten","operatorName":"Alva Charging Services","maxPowerKw":50,"isMegawatt":false,"status":"AVAILABLE","source":"ndw","priceKwh":0.668}},{"type":"Feature","geometry":{"type":"Point","coordinates":[5.376602,52.247432]},"properties":{"type":"charge","layer":"passenger","locationId":"66733ac4ed5064001c346a42","name":"WIJKGEBOUW BUNSCHOTEN","address":"Koningin Wilhelminastraat 32","city":"Bunschoten","operatorName":"E-Flux by Road","maxPowerKw":11,"isMegawatt":false,"status":"AVAILABLE","source":"ndw","priceKwh":0.53}},{"type":"Feature","geometry":{"type":"Point","coordinates":[5.384013,52.24792]},"properties":{"type":"charge","layer":"passenger","locationId":"91147949","name":"50five-S NL 07103878","address":"Overstag 2","city":"Bunschoten-Spakenburg","operatorName":"50five","maxPowerKw":11,"isMegawatt":false,"status":"AVAILABLE","source":"ndw"}},{"type":"Feature","geometry":{"type":"Point","coordinates":[5.373344,52.242973]},"properties":{"type":"charge","layer":"passenger","locationId":"40738299-D00E-4962-B7FC-002C56EF36B6","name":"TNLP005987 - Stadsspui 4, Bunschoten-Spakenburg","address":"4 Stadsspui","city":"Bunschoten-Spakenburg","operatorName":"TotalEnergies","maxPowerKw":17,"isMegawatt":false,"status":"UNAVAILABLE","source":"ndw"}},{"type":"Feature","geometry":{"type":"Point","coordinates":[5.381704,52.237023]},"properties":{"type":"charge","layer":"passenger","locationId":"65dbae6dd61080001cb10177","name":"Openbaar Broekland 15 laadpaal","address":"Broekland 15","city":"Bunschoten","operatorName":"E-Flux by Road","maxPowerKw":14,"isMegawatt":false,"status":"AVAILABLE","source":"ndw","priceKwh":0.48}},{"type":"Feature","geometry":{"type":"Point","coordinates":[5.371714,52.253696]},"properties":{"type":"charge","layer":"passenger","locationId":"45777F66-6F29-4181-91AC-308308FEF0F7","name":"TNLP008324 - Oude Gest 3, Bunschoten-Spakenburg","address":"3 Oude Gest","city":"Bunschoten-Spakenburg","operatorName":"TotalEnergies","maxPowerKw":13,"isMegawatt":false,"status":"AVAILABLE","source":"ndw"}},{"type":"Feature","geometry":{"type":"Point","coordinates":[5.37918,52.238966]},"properties":{"type":"charge","layer":"passenger","locationId":"891b0e76d057977bca9a351f47340314","name":"Lage Hof 16","address":"Lage Hof 16","city":"Bunschoten-Spakenburg","operatorName":"Vattenfall InCharge","maxPowerKw":11,"isMegawatt":false,"status":"AVAILABLE","source":"ndw","priceKwh":0.2805}},{"type":"Feature","geometry":{"type":"Point","coordinates":[5.379882,52.23619]},"properties":{"type":"charge","layer":"passenger","locationId":"5248EF70-4D13-4E8E-A5F7-1E5967185E09","name":"TNLP007000 - Zandkamp 7, Bunschoten-Spakenburg","address":"7 Zandkamp","city":"Bunschoten-Spakenburg","operatorName":"TotalEnergies","maxPowerKw":17,"isMegawatt":false,"status":"UNAVAILABLE","source":"ndw"}},{"type":"Feature","geometry":{"type":"Point","coordinates":[5.330835,52.25318]},"properties":{"type":"charge","layer":"passenger","locationId":"A37DB4D5-732E-40CF-996A-05E63FB883B8","name":"TNLP007234 - Vaartweg 3, Eemdijk","address":"3 Vaartweg","city":"Eemdijk","operatorName":"TotalEnergies","maxPowerKw":17,"isMegawatt":false,"status":"AVAILABLE","source":"ndw"}},{"type":"Feature","geometry":{"type":"Point","coordinates":[5.3793558,52.2384164]},"properties":{"type":"charge","layer":"passenger","locationId":"1683","name":"Shell Recharge NL Hoge Hof 62","address":"Hoge Hof 62","city":"Bunschoten-Spakenburg","operatorName":"Ubitricity","maxPowerKw":22,"isMegawatt":false,"status":"AVAILABLE","source":"ndw","priceKwh":0.267}},{"type":"Feature","geometry":{"type":"Point","coordinates":[5.367491,52.230076]},"properties":{"type":"charge","layer":"passenger","locationId":"669265b354113e001c063abd","name":"Bungas","address":"Edisonweg 7","city":"Bunschoten","operatorName":"E-Flux by Road","maxPowerKw":22,"isMegawatt":false,"status":"AVAILABLE","source":"ndw","priceKwh":0.43}},{"type":"Feature","geometry":{"type":"Point","coordinates":[5.371653,52.225224]},"properties":{"type":"charge","layer":"passenger","locationId":"673c9328b88c2f2b8f169fd4","name":"I-techniek lader 1","address":"Het Steenland 18","city":"Bunschoten","operatorName":"E-Flux by Road","maxPowerKw":22,"isMegawatt":false,"status":"AVAILABLE","source":"ndw","priceKwh":0.58}},{"type":"Feature","geometry":{"type":"Point","coordinates":[5.377429,52.230442]},"properties":{"type":"charge","layer":"passenger","locationId":"654bb5a58c6caa001b201bc9","name":"Redlink station 1","address":"Nijverheidsweg 2","city":"Bunschoten","operatorName":"E-Flux by Road","maxPowerKw":22,"isMegawatt":false,"status":"AVAILABLE","source":"ndw","priceKwh":0.42}},{"type":"Feature","geometry":{"type":"Point","coordinates":[5.377475,52.232245]},"properties":{"type":"charge","layer":"passenger","locationId":"91105501","name":"50five-S NL 18B11907","address":"nijverheidsweg 17","city":"Bunschoten Spakenburg","operatorName":"50five","maxPowerKw":10,"isMegawatt":false,"status":"AVAILABLE","source":"ndw"}},{"type":"Feature","geometry":{"type":"Point","coordinates":[5.371241,52.252316]},"properties":{"type":"charge","layer":"passenger","locationId":"E25C83F3-D9FE-4435-B54A-9D42787A536D","name":"TNLP008492 - Van Westrhenen 28, Bunschoten-Spakenburg","address":"28 Van Westrhenen","city":"Bunschoten-Spakenburg","operatorName":"TotalEnergies","maxPowerKw":13,"isMegawatt":false,"status":"AVAILABLE","source":"ndw"}},{"type":"Feature","geometry":{"type":"Point","coordinates":[5.366491,52.233491]},"properties":{"type":"charge","layer":"passenger","locationId":"68ff9a41a3c23c734f5b39b0","name":"EHI Stolle BV station 2","address":"De Kronkels  4A","city":"Bunschoten","operatorName":"Lanova Laadpalen","maxPowerKw":11,"isMegawatt":false,"status":"AVAILABLE","source":"ndw","priceKwh":0.59}},{"type":"Feature","geometry":{"type":"Point","coordinates":[5.371227,52.225481]},"properties":{"type":"charge","layer":"passenger","locationId":"69720baf109850752c11701b","name":"Laadpaal 1 links bij hek","address":"Het Steenland  23","city":"Bunschoten-Spakenburg","operatorName":"E-Flux by Road","maxPowerKw":11,"isMegawatt":false,"status":"AVAILABLE","source":"ndw","priceKwh":0.63}},{"type":"Feature","geometry":{"type":"Point","coordinates":[5.36725,52.24937]},"properties":{"type":"charge","layer":"passenger","locationId":"195554D4-DD33-484B-8039-D9044107F844","name":"TNLP007026 - Feike Asmastraat 22, Bunschoten-Spakenburg","address":"22 Feike Asmastraat","city":"Bunschoten-Spakenburg","operatorName":"TotalEnergies","maxPowerKw":17,"isMegawatt":false,"status":"AVAILABLE","source":"ndw"}},{"type":"Feature","geometry":{"type":"Point","coordinates":[5.383338,52.248682]},"properties":{"type":"charge","layer":"passenger","locationId":"65bb9a81ff8cc2001cf3a871","name":"Oldschool-gym","address":"Zuidwenk  80 AA","city":"Bunschoten","operatorName":"E-Flux by Road","maxPowerKw":12,"isMegawatt":false,"status":"CHARGING","source":"ndw","priceKwh":0.48}},{"type":"Feature","geometry":{"type":"Point","coordinates":[5.366491,52.233491]},"properties":{"type":"charge","layer":"passenger","locationId":"68ff9ac0c7d6008747b91700","name":"EHI Stolle BV station 1","address":"De Kronkels 4A","city":"Bunschoten","operatorName":"Lanova Laadpalen","maxPowerKw":11,"isMegawatt":false,"status":"AVAILABLE","source":"ndw","priceKwh":0.59}},{"type":"Feature","geometry":{"type":"Point","coordinates":[5.371269,52.225325]},"properties":{"type":"charge","layer":"passenger","locationId":"69720c9cd8564409d7edba45","name":"Laadpaal 3 rechts links","address":"Het Steenland 23","city":"Bunschoten-Spakenburg","operatorName":"E-Flux by Road","maxPowerKw":11,"isMegawatt":false,"status":"AVAILABLE","source":"ndw","priceKwh":0.63}},{"type":"Feature","geometry":{"type":"Point","coordinates":[5.382565,52.233924]},"properties":{"type":"charge","layer":"passenger","locationId":"91229256","name":"50five-S NL 07103296","address":"Achterste Kamp 58","city":"Bunschoten-Spakenburg","operatorName":"50five","maxPowerKw":11,"isMegawatt":false,"status":"AVAILABLE","source":"ndw"}},{"type":"Feature","geometry":{"type":"Point","coordinates":[5.373287,52.2496]},"properties":{"type":"charge","layer":"passenger","locationId":"AA347AF6-CF81-4223-9D72-677E5812D01E","name":"TNLP005951 - Op de ree 76, Bunschoten-Spakenburg","address":"76 Op de ree","city":"Bunschoten-Spakenburg","operatorName":"TotalEnergies","maxPowerKw":11,"isMegawatt":false,"status":"AVAILABLE","source":"ndw"}},{"type":"Feature","geometry":{"type":"Point","coordinates":[5.368959,52.226261]},"properties":{"type":"charge","layer":"passenger","locationId":"64e491a8c7c531001cc2f39c","name":"Bowork","address":"Amersfoortseweg 30-23","city":"bunschoten","operatorName":"E-Flux by Road","maxPowerKw":11,"isMegawatt":false,"status":"AVAILABLE","source":"ndw","priceKwh":0.88}},{"type":"Feature","geometry":{"type":"Point","coordinates":[5.380988,52.234398]},"properties":{"type":"charge","layer":"passenger","locationId":"4842EED1-8C84-459F-B6D5-F777380B51E1","name":"TNLP008432 - Achterste Kamp 33, Bunschoten-Spakenburg","address":"33 Achterste Kamp","city":"Bunschoten-Spakenburg","operatorName":"TotalEnergies","maxPowerKw":13,"isMegawatt":false,"status":"UNAVAILABLE","source":"ndw"}},{"type":"Feature","geometry":{"type":"Point","coordinates":[5.344134,52.22739]},"properties":{"type":"charge","layer":"passenger","locationId":"61129b5a8639bba3ad4b7d83","name":"Station Weidezicht","address":"Bisschopsweg 20","city":"Bunschoten","operatorName":"E-Flux by Road","maxPowerKw":22,"isMegawatt":false,"status":"AVAILABLE","source":"ndw","priceKwh":0.28}},{"type":"Feature","geometry":{"type":"Point","coordinates":[5.3638782,52.2388977]},"properties":{"type":"charge","layer":"passenger","locationId":"2413","name":"Shell Recharge NL Roodborstje 12","address":"Roodborstje 12","city":"Bunschoten-Spakenburg","operatorName":"Ubitricity","maxPowerKw":22,"isMegawatt":false,"status":"AVAILABLE","source":"ndw","priceKwh":0.267}},{"type":"Feature","geometry":{"type":"Point","coordinates":[5.38071,52.23862]},"properties":{"type":"charge","layer":"passenger","locationId":"9e9a1f207e0628949769929d9134ff10","name":"Hoge Hof 13","address":"Hoge Hof 13","city":"Bunschoten-Spakenburg","operatorName":"Vattenfall InCharge","maxPowerKw":11,"isMegawatt":false,"status":"AVAILABLE","source":"ndw","priceKwh":0.2805}},{"type":"Feature","geometry":{"type":"Point","coordinates":[5.366585,52.246348]},"properties":{"type":"charge","layer":"passenger","locationId":"c327883f578e5a31ee869abd513e03f6","name":"Schubertstraat 13","address":"Schubertstraat 13","city":"Bunschoten-Spakenburg","operatorName":"Vattenfall InCharge","maxPowerKw":11,"isMegawatt":false,"status":"AVAILABLE","source":"ndw","priceKwh":0.2805}},{"type":"Feature","geometry":{"type":"Point","coordinates":[5.377273,52.232392]},"properties":{"type":"charge","layer":"passenger","locationId":"91106560","name":"50five-S NL 18B05643","address":"Nijverheidsweg 17","city":"Bunschoten Spakenburg","operatorName":"50five","maxPowerKw":10,"isMegawatt":false,"status":"AVAILABLE","source":"ndw"}},{"type":"Feature","geometry":{"type":"Point","coordinates":[5.382797,52.232647]},"properties":{"type":"charge","layer":"passenger","locationId":"0D09E500-CD09-434E-B6B1-4DAE28B68DDA","name":"TNLP005953 - Bunschoter Veenkamp 57, Bunschoten-Spakenburg","address":"57 Bunschoter Veenkamp","city":"Bunschoten-Spakenburg","operatorName":"TotalEnergies","maxPowerKw":17,"isMegawatt":false,"status":"UNAVAILABLE","source":"ndw"}},{"type":"Feature","geometry":{"type":"Point","coordinates":[5.381213,52.25682]},"properties":{"type":"charge","layer":"passenger","locationId":"10AD82F6-39E3-4372-B2D7-C12E1345D758","name":"TNLP005957 - Havenstraat 57, Bunschoten-Spakenburg","address":"57 Havenstraat","city":"Bunschoten-Spakenburg","operatorName":"TotalEnergies","maxPowerKw":11,"isMegawatt":false,"status":"UNAVAILABLE","source":"ndw"}},{"type":"Feature","geometry":{"type":"Point","coordinates":[5.364473,52.229991]},"properties":{"type":"charge","layer":"passenger","locationId":"3456026","name":"Laadnet Van Halteren Techologys","address":"De Kronkels 27","city":"Bunschoten-Spakenburg","operatorName":"Laadnet","maxPowerKw":22,"isMegawatt":false,"status":"AVAILABLE","source":"ndw"}},{"type":"Feature","geometry":{"type":"Point","coordinates":[5.373949,52.234352]},"properties":{"type":"charge","layer":"passenger","locationId":"C9C8275B-2D91-4A6A-B7E8-665789E0B457","name":"TNLP005959 - Rembrandt van Rijnstraat 18, Bunschoten-Spakenburg","address":"18 Rembrandt van Rijnstraat","city":"Bunschoten-Spakenburg","operatorName":"TotalEnergies","maxPowerKw":11,"isMegawatt":false,"status":"UNAVAILABLE","source":"ndw"}},{"type":"Feature","geometry":{"type":"Point","coordinates":[5.3805565,52.2469034]},"properties":{"type":"charge","layer":"passenger","locationId":"1198","name":"Shell Recharge NL Botter 36","address":"Botter 36","city":"Bunschoten-Spakenburg","operatorName":"Ubitricity","maxPowerKw":22,"isMegawatt":false,"status":"AVAILABLE","source":"ndw","priceKwh":0.267}},{"type":"Feature","geometry":{"type":"Point","coordinates":[5.387118,52.249986]},"properties":{"type":"charge","layer":"passenger","locationId":"68e61cc113ed174764b6b80c","name":"FishPartners Spakenburg","address":"Haringweg  39","city":"Spakenburg","operatorName":"E-Flux by Road","maxPowerKw":23,"isMegawatt":false,"status":"AVAILABLE","source":"ndw","priceKwh":1.03}},{"type":"Feature","geometry":{"type":"Point","coordinates":[5.370185,52.25395]},"properties":{"type":"charge","layer":"passenger","locationId":"0B6B08B8-9534-41C9-884F-7053B2447853","name":"TNLP005958 - Almareplantsoen 2, Bunschoten-Spakenburg","address":"2 Almareplantsoen","city":"Bunschoten-Spakenburg","operatorName":"TotalEnergies","maxPowerKw":11,"isMegawatt":false,"status":"AVAILABLE","source":"ndw"}},{"type":"Feature","geometry":{"type":"Point","coordinates":[5.380082,52.24399]},"properties":{"type":"charge","layer":"passenger","locationId":"9EDD042B-8B64-4EFF-A528-09FFE7952890","name":"TNLP009087 - Plecht 148, Bunschoten-Spakenburg","address":"148 Plecht","city":"Bunschoten-Spakenburg","operatorName":"TotalEnergies","maxPowerKw":17,"isMegawatt":false,"status":"UNAVAILABLE","source":"ndw"}},{"type":"Feature","geometry":{"type":"Point","coordinates":[5.367642,52.22922]},"properties":{"type":"charge","layer":"passenger","locationId":"E8DB314A-48CC-4A58-8D9B-DC46D0A3A7C8","name":"TNLP008478 - Einsteinweg 35F, Bunschoten-Spakenburg","address":"35F Einsteinweg","city":"Bunschoten-Spakenburg","operatorName":"TotalEnergies","maxPowerKw":13,"isMegawatt":false,"status":"UNAVAILABLE","source":"ndw"}},{"type":"Feature","geometry":{"type":"Point","coordinates":[5.367833,52.252224]},"properties":{"type":"charge","layer":"passenger","locationId":"957A4F76-5992-452A-B589-31245E7D585C","name":"TNLP034338 - Van Hogendorplaan 10, Bunschoten-Spakenburg","address":"10 Van Hogendorplaan","city":"Bunschoten-Spakenburg","operatorName":"TotalEnergies","maxPowerKw":13,"isMegawatt":false,"status":"UNAVAILABLE","source":"ndw"}},{"type":"Feature","geometry":{"type":"Point","coordinates":[5.366218,52.240368]},"properties":{"type":"charge","layer":"passenger","locationId":"ECCBC205-959E-4285-AB1D-12C5CBCE6266","name":"TNLP005933 - Tuinfluiter 5, Bunschoten-Spakenburg","address":"5 Tuinfluiter","city":"Bunschoten-Spakenburg","operatorName":"TotalEnergies","maxPowerKw":11,"isMegawatt":false,"status":"UNAVAILABLE","source":"ndw"}},{"type":"Feature","geometry":{"type":"Point","coordinates":[5.3673,52.24931]},"properties":{"type":"charge","layer":"passenger","locationId":"be149174970e8d40de2c0b747fbeaed6","name":"Feike Asmastraat 22","address":"Feike Asmastraat 22","city":"Bunschoten-Spakenburg","operatorName":"Vattenfall InCharge","maxPowerKw":11,"isMegawatt":false,"status":"AVAILABLE","source":"ndw","priceKwh":0.2805}},{"type":"Feature","geometry":{"type":"Point","coordinates":[5.363978,52.23406]},"properties":{"type":"charge","layer":"passenger","locationId":"4B405FFC-813D-45C2-AA47-18300B811379","name":"TNLP006191 - de Kronkels 2, Bunschoten-Spakenburg","address":"2 de Kronkels","city":"Bunschoten-Spakenburg","operatorName":"TotalEnergies","maxPowerKw":17,"isMegawatt":false,"status":"UNAVAILABLE","source":"ndw"}},{"type":"Feature","geometry":{"type":"Point","coordinates":[5.372094,52.25679]},"properties":{"type":"charge","layer":"passenger","locationId":"6430E1E6-7A68-4BCA-8559-1E4D9D767997","name":"TNLP007643 - Eemmeerlaan 2, Bunschoten-Spakenburg","address":"2 Eemmeerlaan","city":"Bunschoten-Spakenburg","operatorName":"TotalEnergies","maxPowerKw":17,"isMegawatt":false,"status":"AVAILABLE","source":"ndw"}},{"type":"Feature","geometry":{"type":"Point","coordinates":[5.38196,52.250355]},"properties":{"type":"charge","layer":"passenger","locationId":"CE5A9F8F-E1B7-4494-A786-A63123578D24","name":"TNLP006937 - Ansjovisweg 18, Bunschoten-Spakenburg","address":"18 Ansjovisweg","city":"Bunschoten-Spakenburg","operatorName":"TotalEnergies","maxPowerKw":17,"isMegawatt":false,"status":"UNAVAILABLE","source":"ndw"}},{"type":"Feature","geometry":{"type":"Point","coordinates":[5.362806,52.236717]},"properties":{"type":"charge","layer":"passenger","locationId":"EBD31489-466D-4740-B9D3-62D11226AEDF","name":"TNLP007629 - Plevier 2, Bunschoten-Spakenburg","address":"2 Plevier","city":"Bunschoten-Spakenburg","operatorName":"TotalEnergies","maxPowerKw":17,"isMegawatt":false,"status":"UNAVAILABLE","source":"ndw"}},{"type":"Feature","geometry":{"type":"Point","coordinates":[5.376518,52.240128]},"properties":{"type":"charge","layer":"passenger","locationId":"67bae88210e0fa3636acadc319a2ec43","name":"Da Costastraat 25","address":"Da Costastraat 25","city":"Bunschoten-Spakenburg","operatorName":"Vattenfall InCharge","maxPowerKw":11,"isMegawatt":false,"status":"AVAILABLE","source":"ndw","priceKwh":0.2805}},{"type":"Feature","geometry":{"type":"Point","coordinates":[5.380305,52.245068]},"properties":{"type":"charge","layer":"passenger","locationId":"C01C8358-7D20-44F5-B63C-EB181FC27512","name":"TNLP005954 - Zwaard 13, Bunschoten-Spakenburg","address":"13 Zwaard","city":"Bunschoten-Spakenburg","operatorName":"TotalEnergies","maxPowerKw":11,"isMegawatt":false,"status":"UNAVAILABLE","source":"ndw"}},{"type":"Feature","geometry":{"type":"Point","coordinates":[5.373101,52.24455]},"properties":{"type":"charge","layer":"passenger","locationId":"026035D0-D917-497E-B656-5BA5CB6048DA","name":"TNLP007442 - Chopinstraat 11, Bunschoten-Spakenburg","address":"11 Chopinstraat","city":"Bunschoten-Spakenburg","operatorName":"TotalEnergies","maxPowerKw":17,"isMegawatt":false,"status":"UNAVAILABLE","source":"ndw"}},{"type":"Feature","geometry":{"type":"Point","coordinates":[5.378836,52.235188]},"properties":{"type":"charge","layer":"passenger","locationId":"53D08E2F-1355-4122-8692-6D6625BFD65C","name":"TNLP005986 - Tabakskamp 107, Bunschoten-Spakenburg","address":"107 Tabakskamp","city":"Bunschoten-Spakenburg","operatorName":"TotalEnergies","maxPowerKw":17,"isMegawatt":false,"status":"UNAVAILABLE","source":"ndw"}},{"type":"Feature","geometry":{"type":"Point","coordinates":[5.385067,52.254604]},"properties":{"type":"charge","layer":"passenger","locationId":"e242f17985a07583e981711e4e03d1f8","name":"Zuiderzeekade 4a","address":"Zuiderzeekade 4a","city":"Bunschoten-Spakenburg","operatorName":"Vattenfall InCharge","maxPowerKw":11,"isMegawatt":false,"status":"AVAILABLE","source":"ndw","priceKwh":0.2805}},{"type":"Feature","geometry":{"type":"Point","coordinates":[5.37758,52.23348]},"properties":{"type":"charge","layer":"passenger","locationId":"420D6ABF-575A-46B3-A8E1-C9BA4701177A","name":"TNLP007282 - Huurdemanskamp 32, Bunschoten-Spakenburg","address":"32 Huurdemanskamp","city":"Bunschoten-Spakenburg","operatorName":"TotalEnergies","maxPowerKw":17,"isMegawatt":false,"status":"UNAVAILABLE","source":"ndw"}},{"type":"Feature","geometry":{"type":"Point","coordinates":[5.373259,52.249693]},"properties":{"type":"charge","layer":"passenger","locationId":"a4784623f0964de967ddee7a5f8a0213","name":"Op de Ree 68","address":"Op de Ree 68","city":"Bunschoten-Spakenburg","operatorName":"Vattenfall InCharge","maxPowerKw":11,"isMegawatt":false,"status":"AVAILABLE","source":"ndw","priceKwh":0.2805}},{"type":"Feature","geometry":{"type":"Point","coordinates":[5.381573,52.237343]},"properties":{"type":"charge","layer":"passenger","locationId":"67078040c06791001c7da800","name":"Broekland 5","address":"Broekland 5","city":"Bunschoten","operatorName":"E-Flux by Road","maxPowerKw":11,"isMegawatt":false,"status":"AVAILABLE","source":"ndw","priceKwh":0.53}},{"type":"Feature","geometry":{"type":"MultiPolygon","coordinates":[[[[5.331241010796636,52.273611314773326],[5.339673429575406,52.270204716726624],[5.340880754763289,52.270699189255005],[5.350022110598312,52.26881840158404],[5.35692682957023,52.26983564120848],[5.361100590238309,52.2682915710379],[5.363313493637096,52.268477207366686],[5.36668779919634,52.26695399643446],[5.371426239542505,52.263188673532085],[5.370061320621981,52.26316725202983],[5.370291421825147,52.26226430735904],[5.372414421843833,52.26084399017293],[5.3732525514502,52.26129223643057],[5.371290340801987,52.26268401081457],[5.371409114524199,52.26274372318611],[5.374225498840391,52.261668651610115],[5.374199629934904,52.26165273869923],[5.3747248164684525,52.260025420358026],[5.377459953455515,52.25902024095739],[5.38169630998251,52.25801968189964],[5.3821139441492845,52.25927657744132],[5.382523391137212,52.25918550703713],[5.384046429665987,52.25716162982853],[5.3887707409501875,52.25395728821527],[5.388974440570705,52.25282727328875],[5.400852375372837,52.24745653779554],[5.40364204770594,52.24709940935097],[5.396593543102795,52.22979121151362],[5.394768582547916,52.22485127560244],[5.393211838332782,52.22064629880705],[5.395522872299325,52.219154650494225],[5.39273590838423,52.20552848718709],[5.3853976747843255,52.20643398168286],[5.378074366526801,52.20706539405182],[5.373293995297584,52.207801239708104],[5.36487913775624,52.209365069002615],[5.364434250852986,52.209844767528104],[5.359118837996272,52.210361807731665],[5.3583643200023445,52.20971589391146],[5.330541637849066,52.21473250026353],[5.334323786845675,52.22012390525421],[5.335263884880561,52.226311453131615],[5.335541501225918,52.228452786923896],[5.319756540182373,52.231002206281595],[5.312278190105686,52.232829592798026],[5.313410305356732,52.235253153312804],[5.310893288982008,52.24212029836299],[5.310662214634204,52.24632662820141],[5.3141291813498075,52.25195487607876],[5.324231787160498,52.25298405463525],[5.328583317428291,52.25531817074042],[5.32836850776639,52.257170885354206],[5.323177617023093,52.26054416667588],[5.322032299250828,52.26232669557921],[5.322621650312399,52.26388208277057],[5.326728589115525,52.26614560080364],[5.328534430877973,52.26870649317169],[5.331241010796636,52.273611314773326]]]]},"properties":{"type":"boundary","gemeente":"Bunschoten","code":"GM0313"}}]}