{"type":"FeatureCollection","metadata":{"gemeente":"Capelle aan den IJssel","slug":"capelle-aan-den-ijssel","code":"GM0502","generated_at":"2026-08-08T12:05:52.020Z","total_passenger":71,"total_freight":2,"bounds":[4.537185622439363,51.90620453312675,4.619488886274293,51.965491875701034],"operators":["50five","Alva Charging Services","E-Flux by Road","EV Company","Eneco","Fleet Charge Services","IONITY","Laadnet","Lidl","Opcharge","Pluq","Shell Recharge","Smappee","Spirii","Tango electric","Van Leeuwen","Vattenfall InCharge"]},"features":[{"type":"Feature","geometry":{"type":"Point","coordinates":[4.612128,51.929408]},"properties":{"type":"charge","layer":"passenger","locationId":"91186935","name":"50five-S NL ICUEVE000658","address":"Tjalk 6","city":"Capelle aan Den IJssel","operatorName":"50five","maxPowerKw":11,"isMegawatt":false,"status":"UNAVAILABLE","source":"ndw"}},{"type":"Feature","geometry":{"type":"Point","coordinates":[4.575882,51.921203]},"properties":{"type":"charge","layer":"passenger","locationId":"0F265AC1-B883-4592-8FA7-F58B6A95D030","name":"Eneco eMobility Parkeergarage Blinq","address":"Valeriusrondeel 690","city":"Capelle aan den IJssel","operatorName":"Eneco","maxPowerKw":22,"isMegawatt":false,"status":"AVAILABLE","source":"ndw","priceKwh":0.42}},{"type":"Feature","geometry":{"type":"Point","coordinates":[4.541729,51.915334]},"properties":{"type":"charge","layer":"passenger","locationId":"4742575","name":"Laadnet Fascinatio Boulevard","address":"Fascinatio Boulevard 522","city":"Capelle aan den Ijssel","operatorName":"Laadnet","maxPowerKw":22,"isMegawatt":false,"status":"AVAILABLE","source":"ndw"}},{"type":"Feature","geometry":{"type":"Point","coordinates":[4.574387,51.956498]},"properties":{"type":"charge","layer":"passenger","locationId":"62ab22a7cab6ba572ecb30da","name":"Ligusterbaan Pelikaan","address":"Ligusterbaan 8-12","city":"Capelle aan de IJssel","operatorName":"E-Flux by Road","maxPowerKw":22,"isMegawatt":false,"status":"AVAILABLE","source":"ndw","priceKwh":0.73}},{"type":"Feature","geometry":{"type":"Point","coordinates":[4.584668,51.963947]},"properties":{"type":"charge","layer":"passenger","locationId":"91105277","name":"50five-S NL 04000718","address":"Venkelbaan 101","city":"Capelle aan den IJssel","operatorName":"50five","maxPowerKw":21,"isMegawatt":false,"status":"AVAILABLE","source":"ndw"}},{"type":"Feature","geometry":{"type":"Point","coordinates":[4.561556,51.939224]},"properties":{"type":"charge","layer":"passenger","locationId":"d2b320530cf74e02ab2af813ec1a3b5f","name":"Capelle a/d IJssel IJsselland Ziekenhuis ","address":"Prins Constantijnweg 2","city":"Capelle a/d IJssel","operatorName":"Opcharge","maxPowerKw":22,"isMegawatt":false,"status":"AVAILABLE","source":"ndw","priceKwh":0.44}},{"type":"Feature","geometry":{"type":"Point","coordinates":[4.563391,51.958467]},"properties":{"type":"charge","layer":"passenger","locationId":"91179491","name":"50five-S NL Capelle Aan Den Ijssel, Barbizonlaan 25","address":"Barbizonlaan 25","city":"Capelle aan den IJssel","operatorName":"50five","maxPowerKw":22,"isMegawatt":false,"status":"AVAILABLE","source":"ndw"}},{"type":"Feature","geometry":{"type":"Point","coordinates":[4.562976,51.95412]},"properties":{"type":"charge","layer":"passenger","locationId":"32410","name":"Circle K Capelle a/d IJssel - Alexandrium","address":"Capelseweg 399","city":"Capelle a/d IJssel","operatorName":"Spirii","maxPowerKw":175,"isMegawatt":false,"status":"AVAILABLE","source":"ndw","priceKwh":0.65}},{"type":"Feature","geometry":{"type":"Point","coordinates":[4.574762,51.958861]},"properties":{"type":"charge","layer":"passenger","locationId":"CA93D342-E881-4C21-94D0-DF8088CDE433","name":"Eneco eMobility CED - Capelle aan den IJssel","address":"Rietbaan 40","city":"Capelle aan den IJssel","operatorName":"Eneco","maxPowerKw":22,"isMegawatt":false,"status":"AVAILABLE","source":"ndw","priceKwh":0.4}},{"type":"Feature","geometry":{"type":"Point","coordinates":[4.545349,51.911001]},"properties":{"type":"charge","layer":"passenger","locationId":"dc9cbadbdc5649e78eaebfda0a3f4602","name":"FIT Vastgoed - Rivium 2e straat 22, Capelle ad IJssel 00080 ","address":"Rivium 2e straat 22, ","city":"Zuid-Holland","operatorName":"Opcharge","maxPowerKw":22,"isMegawatt":false,"status":"AVAILABLE","source":"ndw","priceKwh":0.49}},{"type":"Feature","geometry":{"type":"Point","coordinates":[4.565466,51.952215]},"properties":{"type":"charge","layer":"passenger","locationId":"298faf89-6e5a-434c-b22b-660f47011de3","name":"Hoofdweg","address":"Hoofdweg 1","city":"Capelle a/d IJssel","operatorName":"Vattenfall InCharge","maxPowerKw":50,"isMegawatt":false,"status":"AVAILABLE","source":"ndw","priceKwh":0.46}},{"type":"Feature","geometry":{"type":"Point","coordinates":[4.544062,51.906482]},"properties":{"type":"charge","layer":"passenger","locationId":"89600416","name":"Van Leeuwen Schaardijk 372","address":"Schaardijk 372","city":"Capelle ad ijssel","operatorName":"Van Leeuwen","maxPowerKw":22,"isMegawatt":false,"status":"AVAILABLE","source":"ndw"}},{"type":"Feature","geometry":{"type":"Point","coordinates":[4.542778,51.913067]},"properties":{"type":"charge","layer":"passenger","locationId":"6810acfcd0e82453301671a8","name":"PVM Vastgoedbeheer (Rivium Westlaan)","address":"Rivium Westlaan 72-86","city":"Capelle aan den Ijssel","operatorName":"Pluq","maxPowerKw":11,"isMegawatt":false,"status":"AVAILABLE","source":"ndw","priceKwh":0.4}},{"type":"Feature","geometry":{"type":"Point","coordinates":[4.545568,51.907285]},"properties":{"type":"charge","layer":"passenger","locationId":"49ecb541673547c88b5cf6eb7e614f91","name":"FIT Vastgoed - Rivium Promenade 138, Capelle a/d IJssel","address":"Rivium Promenade 138","city":"Capelle aan den IJssel","operatorName":"Opcharge","maxPowerKw":22,"isMegawatt":false,"status":"AVAILABLE","source":"ndw","priceKwh":0.5}},{"type":"Feature","geometry":{"type":"Point","coordinates":[4.577272,51.959795]},"properties":{"type":"charge","layer":"passenger","locationId":"1C0C79AD-E5DE-4D29-8C72-32B0506C6F34","name":"Eneco eMobility Eneco Installatiebedrijven - Molenbaan Capelle","address":"Molenbaan 17","city":"Capelle aan den IJssel","operatorName":"Eneco","maxPowerKw":22,"isMegawatt":false,"status":"AVAILABLE","source":"ndw","priceKwh":0.32}},{"type":"Feature","geometry":{"type":"Point","coordinates":[4.601419,51.942369]},"properties":{"type":"charge","layer":"passenger","locationId":"228d558c-dd7e-4383-9acb-5664765860e8","name":"Lidl CAPELLE A/D IJSSEL","address":"Schermerhoek 509","city":"Capelle aan den IJssel","operatorName":"Lidl","maxPowerKw":50,"isMegawatt":false,"status":"AVAILABLE","source":"ndw"}},{"type":"Feature","geometry":{"type":"Point","coordinates":[4.6032,51.942401]},"properties":{"type":"charge","layer":"passenger","locationId":"584","name":"Shell Recharge NL9070 - Gamma Capelle aan de IJssel","address":"Wormerhoek 4","city":"Capelle Aan Den Ijssel","operatorName":"Shell Recharge","maxPowerKw":150,"isMegawatt":false,"status":"AVAILABLE","source":"ndw","priceKwh":0.7025}},{"type":"Feature","geometry":{"type":"Point","coordinates":[4.561201,51.911896]},"properties":{"type":"charge","layer":"passenger","locationId":"68821dc6a1225132a619feba","name":"Plan Bee laadstation","address":"Adm. Helfrichweg  2K","city":"Capelle a/d IJssel","operatorName":"E-Flux by Road","maxPowerKw":22,"isMegawatt":false,"status":"AVAILABLE","source":"ndw","priceKwh":0.45}},{"type":"Feature","geometry":{"type":"Point","coordinates":[4.611557,51.927654]},"properties":{"type":"charge","layer":"passenger","locationId":"91051158","name":"50five-S NL 07003922","address":"Paradijsselpark 168","city":"Capelle aan den IJssel","operatorName":"50five","maxPowerKw":11,"isMegawatt":false,"status":"UNAVAILABLE","source":"ndw"}},{"type":"Feature","geometry":{"type":"Point","coordinates":[4.538749,51.914152]},"properties":{"type":"charge","layer":"passenger","locationId":"89620022","name":"Van Leeuwen Rivium Quadrant 141-181","address":"Rivium Quadrant 141-181","city":"Capelle a/d IJssel","operatorName":"Van Leeuwen","maxPowerKw":22,"isMegawatt":false,"status":"AVAILABLE","source":"ndw"}},{"type":"Feature","geometry":{"type":"Point","coordinates":[4.550768,51.916221]},"properties":{"type":"charge","layer":"passenger","locationId":"0B829E6E-74F2-4B1A-AAF8-F1A587E5D320","name":"Eneco eMobility Fascinatio Boulevard 776 Capelle aan den IJssel","address":"Fascinatio Boulevard 776","city":"Capelle aan den IJssel","operatorName":"Eneco","maxPowerKw":22,"isMegawatt":false,"status":"UNAVAILABLE","source":"ndw","priceKwh":0.32}},{"type":"Feature","geometry":{"type":"Point","coordinates":[4.577834,51.957392]},"properties":{"type":"charge","layer":"passenger","locationId":"611371684c0257b3cfc20369","name":"Rietbaan 2-12, 29085 LP Capelle aan den IJssel, NL","address":"Rietbaan 2-12,","city":"Capelle aan den IJssel","operatorName":"E-Flux by Road","maxPowerKw":22,"isMegawatt":false,"status":"UNAVAILABLE","source":"ndw"}},{"type":"Feature","geometry":{"type":"Point","coordinates":[4.568182,51.954798]},"properties":{"type":"charge","layer":"passenger","locationId":"90159732","name":"Van Leeuwen Lylantse Plein 1","address":"Lylantse Plein 1","city":"Capelle aan den Ijssel","operatorName":"Van Leeuwen","maxPowerKw":22,"isMegawatt":false,"status":"AVAILABLE","source":"ndw"}},{"type":"Feature","geometry":{"type":"Point","coordinates":[4.587405,51.941398]},"properties":{"type":"charge","layer":"passenger","locationId":"65b3d321f14fa8001ca46e81","name":"Eflux laadpaal","address":"Bermweg  452","city":"Capelle aan de IJssel","operatorName":"E-Flux by Road","maxPowerKw":22,"isMegawatt":false,"status":"UNAVAILABLE","source":"ndw"}},{"type":"Feature","geometry":{"type":"Point","coordinates":[4.540738,51.914359]},"properties":{"type":"charge","layer":"passenger","locationId":"4175062","name":"Laadnet Zicht Rivium Quadrant","address":"Rivium Quadrant 241","city":"Capelle aan den IJssel","operatorName":"Laadnet","maxPowerKw":22,"isMegawatt":false,"status":"AVAILABLE","source":"ndw"}},{"type":"Feature","geometry":{"type":"Point","coordinates":[4.565515,51.937525]},"properties":{"type":"charge","layer":"passenger","locationId":"91052063","name":"50five-S NL 07113641","address":"Beltmolen 32","city":"Capelle aan den IJssel","operatorName":"50five","maxPowerKw":11,"isMegawatt":false,"status":"AVAILABLE","source":"ndw"}},{"type":"Feature","geometry":{"type":"Point","coordinates":[4.544786,51.913698]},"properties":{"type":"charge","layer":"passenger","locationId":"L_0000142380","name":"Tango Capelle aan den IJssel Zuid - 202320","address":"Abraham van Rijckevorselweg zz 8","city":"Capelle a/d/ IJssel","operatorName":"Tango electric","maxPowerKw":80,"isMegawatt":false,"status":"UNAVAILABLE","source":"ndw","priceKwh":0.57}},{"type":"Feature","geometry":{"type":"Point","coordinates":[4.602625,51.943439]},"properties":{"type":"charge","layer":"passenger","locationId":"60b4d94d4d510b5e0d42a3d4","name":"The Scorpio - Capelle","address":"Wormerhoek 14","city":"Capelle a/d IJssel","operatorName":"Fleet Charge Services","maxPowerKw":22,"isMegawatt":false,"status":"AVAILABLE","source":"ndw","priceKwh":0.52}},{"type":"Feature","geometry":{"type":"Point","coordinates":[4.570818,51.954596]},"properties":{"type":"charge","layer":"passenger","locationId":"830","name":"Shell Recharge NL9229 - Karwei Capelle aan de IJssel","address":"Hoofdweg 11","city":"Capelle Aan Den Ijssel","operatorName":"Shell Recharge","maxPowerKw":150,"isMegawatt":false,"status":"AVAILABLE","source":"ndw","priceKwh":0.7025}},{"type":"Feature","geometry":{"type":"Point","coordinates":[4.542734,51.916413]},"properties":{"type":"charge","layer":"passenger","locationId":"67598c126f9ccb07408e885b","name":"Jimmy Parmanand","address":"Priamsingel 147","city":"Capelle aan den IJssel","operatorName":"EV Company","maxPowerKw":11,"isMegawatt":false,"status":"AVAILABLE","source":"ndw","priceKwh":0.2698}},{"type":"Feature","geometry":{"type":"Point","coordinates":[4.575014,51.956843]},"properties":{"type":"charge","layer":"passenger","locationId":"91088746","name":"50five-S NL ICUEVE900209","address":"Vlierbaan 2","city":"Capelle aan den IJssel","operatorName":"50five","maxPowerKw":11,"isMegawatt":false,"status":"UNAVAILABLE","source":"ndw"}},{"type":"Feature","geometry":{"type":"Point","coordinates":[4.54588,51.913766]},"properties":{"type":"charge","layer":"passenger","locationId":"69f48a3687e2ac31b50a03ad","name":"Cero Rivium BV Capelle aan den IJssel","address":"Rivium Boulevard 201-234","city":"Capelle aan den IJssel","operatorName":"E-Flux by Road","maxPowerKw":22,"isMegawatt":false,"status":"AVAILABLE","source":"ndw","priceKwh":0.52}},{"type":"Feature","geometry":{"type":"Point","coordinates":[4.543078,51.919027]},"properties":{"type":"charge","layer":"passenger","locationId":"91277126","name":"Van Leeuwen Blauwtrust Groep","address":"Fascinatio Boulevard 1302","city":"Capelle aan den IJssel","operatorName":"Van Leeuwen","maxPowerKw":22,"isMegawatt":false,"status":"AVAILABLE","source":"ndw"}},{"type":"Feature","geometry":{"type":"Point","coordinates":[4.582037,51.962389]},"properties":{"type":"charge","layer":"passenger","locationId":"6183b97c6f10ee743799e840","name":"Seannies | Dalkruid","address":"Dalkruidbaan 161","city":"Capelle aan den IJssel","operatorName":"E-Flux by Road","maxPowerKw":22,"isMegawatt":false,"status":"UNAVAILABLE","source":"ndw"}},{"type":"Feature","geometry":{"type":"Point","coordinates":[4.581758,51.957982]},"properties":{"type":"charge","layer":"passenger","locationId":"6335872548e6174dc4dc9ecd","name":"Praxis Capelle a/d IJssel MEGA","address":"Hoofdweg 46b","city":"Capelle aan den Ijssel","operatorName":"Alva Charging Services","maxPowerKw":76,"isMegawatt":false,"status":"CHARGING","source":"ndw","priceKwh":0.668}},{"type":"Feature","geometry":{"type":"Point","coordinates":[4.582773,51.962177]},"properties":{"type":"charge","layer":"passenger","locationId":"6BA77EA2-398F-4402-AD07-168F19BEEA12","name":"Eneco eMobility Laagland BV - Capelle aan den IJssel","address":"Dalkruidbaan 149","city":"Capelle aan den Ijssel","operatorName":"Eneco","maxPowerKw":22,"isMegawatt":false,"status":"AVAILABLE","source":"ndw","priceKwh":0.32}},{"type":"Feature","geometry":{"type":"Point","coordinates":[4.58108,51.935632]},"properties":{"type":"charge","layer":"passenger","locationId":"2749","name":"50five Exploitatie 2749","address":"Kanaalweg 33 / 35","city":"Capelle aan den IJssel","operatorName":"50five","maxPowerKw":11,"isMegawatt":false,"status":"AVAILABLE","source":"ndw"}},{"type":"Feature","geometry":{"type":"Point","coordinates":[4.585097,51.963615]},"properties":{"type":"charge","layer":"passenger","locationId":"91106635","name":"50five-S NL 08105089","address":"Venkelbaan 101","city":"Capelle aan den IJssel","operatorName":"50five","maxPowerKw":21,"isMegawatt":false,"status":"AVAILABLE","source":"ndw"}},{"type":"Feature","geometry":{"type":"Point","coordinates":[4.543413,51.911496]},"properties":{"type":"charge","layer":"passenger","locationId":"91276431","name":"50five-S NL 09140267","address":"Rivium Westlaan 42","city":"Capelle aan den IJssel","operatorName":"50five","maxPowerKw":11,"isMegawatt":false,"status":"UNAVAILABLE","source":"ndw"}},{"type":"Feature","geometry":{"type":"Point","coordinates":[4.566295,51.925575]},"properties":{"type":"charge","layer":"passenger","locationId":"e71a59ad-93c4-48bf-b4db-e7199dfc96b7","name":"Rhijnspoor","address":"Rhijnspoor 299","city":"Capelle a/d IJssel","operatorName":"Vattenfall InCharge","maxPowerKw":50,"isMegawatt":false,"status":"AVAILABLE","source":"ndw","priceKwh":0.46}},{"type":"Feature","geometry":{"type":"Point","coordinates":[4.587556,51.923117]},"properties":{"type":"charge","layer":"passenger","locationId":"91149613","name":"50five-S NL 07111076","address":"Mient 4","city":"Capelle aan den IJssel","operatorName":"50five","maxPowerKw":6,"isMegawatt":false,"status":"AVAILABLE","source":"ndw"}},{"type":"Feature","geometry":{"type":"Point","coordinates":[4.538997,51.913166]},"properties":{"type":"charge","layer":"passenger","locationId":"1480","name":"Van Leeuwen Stone Capelle aan den Ijssel","address":"Rivium Quadrant 59","city":"Capelle a/d Ijssel","operatorName":"Van Leeuwen","maxPowerKw":22,"isMegawatt":false,"status":"AVAILABLE","source":"ndw"}},{"type":"Feature","geometry":{"type":"Point","coordinates":[4.54567,51.91027]},"properties":{"type":"charge","layer":"passenger","locationId":"9E26007F-EA8C-42FA-ABB3-FB1E8342AC0D","name":"Eneco eMobility EVB-P1345041","address":"Rivium 11-27","city":"Capelle aan den IJssel","operatorName":"Eneco","maxPowerKw":22,"isMegawatt":false,"status":"UNAVAILABLE","source":"ndw","priceKwh":0.3}},{"type":"Feature","geometry":{"type":"Point","coordinates":[4.588289,51.958616]},"properties":{"type":"charge","layer":"passenger","locationId":"91179503","name":"50five-S NL Capelle Aan Den Ijssel, Burgemeester Schalijlaan 2","address":"Burgemeester Schalijlaan 2","city":"Capelle aan den IJssel","operatorName":"50five","maxPowerKw":11,"isMegawatt":false,"status":"AVAILABLE","source":"ndw"}},{"type":"Feature","geometry":{"type":"Point","coordinates":[4.5444,51.91565]},"properties":{"type":"charge","layer":"passenger","locationId":"91276448","name":"50five-S NL 18B03684","address":"742 742","city":"Capelle aan den IJssel","operatorName":"50five","maxPowerKw":11,"isMegawatt":false,"status":"AVAILABLE","source":"ndw"}},{"type":"Feature","geometry":{"type":"Point","coordinates":[4.557564,51.918153]},"properties":{"type":"charge","layer":"passenger","locationId":"4235677","name":"Laadnet De Zellingen 01","address":"Tsjaikovskistraat 1","city":"Capelle aan den IJssel","operatorName":"Laadnet","maxPowerKw":22,"isMegawatt":false,"status":"AVAILABLE","source":"ndw"}},{"type":"Feature","geometry":{"type":"Point","coordinates":[4.573609,51.956895]},"properties":{"type":"charge","layer":"passenger","locationId":"62ab2603d148aa3bf291295a","name":"Ligusterbaan Albatros","address":"Ligusterbaan 14","city":"Capelle Aan Den IJssel","operatorName":"E-Flux by Road","maxPowerKw":22,"isMegawatt":false,"status":"AVAILABLE","source":"ndw","priceKwh":0.73}},{"type":"Feature","geometry":{"type":"Point","coordinates":[4.540335,51.917659]},"properties":{"type":"charge","layer":"passenger","locationId":"91168543","name":"50five-S NL 03003272","address":"Solislaan 46","city":"Capelle aan Den IJssel","operatorName":"50five","maxPowerKw":4,"isMegawatt":false,"status":"AVAILABLE","source":"ndw"}},{"type":"Feature","geometry":{"type":"Point","coordinates":[4.564822,51.923522]},"properties":{"type":"charge","layer":"passenger","locationId":"FC7C7640-1395-4F92-A902-38B9D29EB1D6","name":"Eneco eMobility Rhijnspoor 247 Capelle aan den IJssel","address":"Rhijnspoor 247","city":"Capelle aan den Ijssel","operatorName":"Eneco","maxPowerKw":22,"isMegawatt":false,"status":"UNAVAILABLE","source":"ndw","priceKwh":0.32}},{"type":"Feature","geometry":{"type":"Point","coordinates":[4.544921,51.914521]},"properties":{"type":"charge","layer":"passenger","locationId":"L_0000142379","name":"Tango Capelle aan den IJssel Noord - 202319","address":"Abraham van Rijckevorselweg nz 7","city":"Capelle a/d IJssel","operatorName":"Tango electric","maxPowerKw":160,"isMegawatt":false,"status":"UNAVAILABLE","source":"ndw","priceKwh":0.57}},{"type":"Feature","geometry":{"type":"Point","coordinates":[4.583963,51.962072]},"properties":{"type":"charge","layer":"passenger","locationId":"77DA3270-A4FE-4C56-9BF7-DFFCFC2D8765","name":"Eneco eMobility Cornusbaan 21 Capelle aan den IJssel","address":"Cornusbaan 21","city":"Capelle aan den IJssel","operatorName":"Eneco","maxPowerKw":22,"isMegawatt":false,"status":"AVAILABLE","source":"ndw","priceKwh":0.32}},{"type":"Feature","geometry":{"type":"Point","coordinates":[4.574025,51.955839]},"properties":{"type":"charge","layer":"passenger","locationId":"89146496","name":"Van Leeuwen Ligusterbaan","address":"Ligusterbaan 1","city":"Capelle aan den IJssel","operatorName":"Van Leeuwen","maxPowerKw":22,"isMegawatt":false,"status":"AVAILABLE","source":"ndw"}},{"type":"Feature","geometry":{"type":"Point","coordinates":[4.573897,51.958454]},"properties":{"type":"charge","layer":"passenger","locationId":"89156578","name":"Van Leeuwen Hallmark","address":"Rietbaan 48","city":"Capelle a/d Ijssel","operatorName":"Van Leeuwen","maxPowerKw":22,"isMegawatt":false,"status":"AVAILABLE","source":"ndw"}},{"type":"Feature","geometry":{"type":"Point","coordinates":[4.543585,51.915359]},"properties":{"type":"charge","layer":"passenger","locationId":"66351453","name":"Van Leeuwen Fascinatio Boulevard 582","address":"Fascinatio Boulevard 582","city":"Capelle ad IJssel","operatorName":"Van Leeuwen","maxPowerKw":22,"isMegawatt":false,"status":"AVAILABLE","source":"ndw"}},{"type":"Feature","geometry":{"type":"Point","coordinates":[4.577834,51.957392]},"properties":{"type":"charge","layer":"passenger","locationId":"619cbaa169f2b4efe154a935","name":"De Hongerige Wolf","address":"de Hongerige Wolf 16","city":"Stegeren","operatorName":"E-Flux by Road","maxPowerKw":22,"isMegawatt":false,"status":"UNAVAILABLE","source":"ndw"}},{"type":"Feature","geometry":{"type":"Point","coordinates":[4.571746,51.955596]},"properties":{"type":"charge","layer":"passenger","locationId":"89081733","name":"Van Leeuwen Cypresbaan 3","address":"Cypresbaan 3","city":"Capelle aan den Ijssel","operatorName":"Van Leeuwen","maxPowerKw":22,"isMegawatt":false,"status":"AVAILABLE","source":"ndw"}},{"type":"Feature","geometry":{"type":"Point","coordinates":[4.561327,51.911734]},"properties":{"type":"charge","layer":"passenger","locationId":"68821d143aa1c20066c353c5","name":"Plan Bee laadstation","address":"Adm. Helfrichweg  2P","city":"Capelle a/d IJssel","operatorName":"E-Flux by Road","maxPowerKw":22,"isMegawatt":false,"status":"AVAILABLE","source":"ndw","priceKwh":0.45}},{"type":"Feature","geometry":{"type":"Point","coordinates":[4.563183,51.917423]},"properties":{"type":"charge","layer":"passenger","locationId":"6947b726d324e1b95ca3bd95","name":"EV-charger@184","address":"Vivaldistraat  184","city":"Capelle aan den ijssel","operatorName":"E-Flux by Road","maxPowerKw":22,"isMegawatt":false,"status":"AVAILABLE","source":"ndw","priceKwh":0.28}},{"type":"Feature","geometry":{"type":"Point","coordinates":[4.571243,51.955791]},"properties":{"type":"charge","layer":"passenger","locationId":"2357","name":"50five Exploitatie Openbaar","address":"Cypresbaan 7","city":"Capelle aan de IJssel","operatorName":"50five","maxPowerKw":22,"isMegawatt":false,"status":"AVAILABLE","source":"ndw"}},{"type":"Feature","geometry":{"type":"Point","coordinates":[4.561844,51.922014]},"properties":{"type":"charge","layer":"passenger","locationId":"41C158C3-D7C2-4707-BF85-DE6DDBDCA52C","name":"Eneco eMobility Tauw Group B.V. - Capelle aan den IJssel","address":"Rhijnspoor 209","city":"Capelle aan den IJssel","operatorName":"Eneco","maxPowerKw":22,"isMegawatt":false,"status":"AVAILABLE","source":"ndw","priceKwh":0.32}},{"type":"Feature","geometry":{"type":"Point","coordinates":[4.543463,51.91671]},"properties":{"type":"charge","layer":"passenger","locationId":"8cb06acb-ba23-44db-bd07-d1a72eeaba2b","name":"Tjaliehof","address":"Tjaliehof 7","city":"Capelle aan den IJssel","operatorName":"Vattenfall InCharge","maxPowerKw":7,"isMegawatt":false,"status":"AVAILABLE","source":"ndw","priceKwh":0.2489}},{"type":"Feature","geometry":{"type":"Point","coordinates":[4.577834,51.957392]},"properties":{"type":"charge","layer":"passenger","locationId":"619cbab802300435d8c0731e","name":"Tjongerschans Ziekenhuis","address":"Thialfweg 44","city":"Heerenveen","operatorName":"E-Flux by Road","maxPowerKw":22,"isMegawatt":false,"status":"UNAVAILABLE","source":"ndw"}},{"type":"Feature","geometry":{"type":"Point","coordinates":[4.555689,51.916786]},"properties":{"type":"charge","layer":"passenger","locationId":"64ec4cc1171628001cf3516a","name":"Social Sales","address":"Chopinstraat 103","city":"Capelle aan den IJssel","operatorName":"E-Flux by Road","maxPowerKw":11,"isMegawatt":false,"status":"AVAILABLE","source":"ndw","priceKwh":0.33}},{"type":"Feature","geometry":{"type":"Point","coordinates":[4.583298,51.953609]},"properties":{"type":"charge","layer":"passenger","locationId":"62ab28a9ff4caba7446b9f41","name":"Stationsplein","address":"Stationplein 14-16","city":"Capelle Aan De IJssel","operatorName":"E-Flux by Road","maxPowerKw":22,"isMegawatt":false,"status":"AVAILABLE","source":"ndw","priceKwh":0.73}},{"type":"Feature","geometry":{"type":"Point","coordinates":[4.546518,51.907249]},"properties":{"type":"charge","layer":"passenger","locationId":"91107810","name":"50five-S NL 04002782","address":"Rivium Promenade 200","city":"Capelle aan den IJssel","operatorName":"50five","maxPowerKw":7,"isMegawatt":false,"status":"UNAVAILABLE","source":"ndw"}},{"type":"Feature","geometry":{"type":"Point","coordinates":[4.575025,51.958654]},"properties":{"type":"charge","layer":"passenger","locationId":"923607","name":"Profotonet","address":"17 Rietbaan","city":"Capelle aan den ijssel","operatorName":"Smappee","maxPowerKw":22,"isMegawatt":false,"status":"AVAILABLE","source":"ndw","priceKwh":0.275}},{"type":"Feature","geometry":{"type":"Point","coordinates":[4.577898,51.924773]},"properties":{"type":"charge","layer":"passenger","locationId":"91094129","name":"50five-S NL 07101476","address":"Jacob Catslaan 29","city":"Capelle aan den IJssel","operatorName":"50five","maxPowerKw":7,"isMegawatt":false,"status":"AVAILABLE","source":"ndw"}},{"type":"Feature","geometry":{"type":"Point","coordinates":[4.570817,51.956862]},"properties":{"type":"charge","layer":"passenger","locationId":"75958bde8892459f89026b53dfa617f4","name":"Westpoort Vastgoed Cypresbaan Capelle a/d IJssel","address":"Cypresbaan 51-55","city":"Capelle aan den IJssel","operatorName":"Opcharge","maxPowerKw":22,"isMegawatt":false,"status":"AVAILABLE","source":"ndw","priceKwh":0.46}},{"type":"Feature","geometry":{"type":"Point","coordinates":[4.545265,51.909931]},"properties":{"type":"charge","layer":"passenger","locationId":"d6cae760-69a5-4a6e-9d73-d4464b075bc0","name":"Rivium Boulevard 41","address":"Rivium Boulevard 41","city":"Capelle aan den IJSSEL","operatorName":"Vattenfall InCharge","maxPowerKw":22,"isMegawatt":false,"status":"AVAILABLE","source":"ndw","priceKwh":0.38}},{"type":"Feature","geometry":{"type":"Point","coordinates":[4.579871,51.96166]},"properties":{"type":"charge","layer":"passenger","locationId":"62850542","name":"Van Leeuwen essebaan 63-69","address":"essebaan 63-69","city":"Rotterdam","operatorName":"Van Leeuwen","maxPowerKw":22,"isMegawatt":false,"status":"AVAILABLE","source":"ndw"}},{"type":"Feature","geometry":{"type":"Point","coordinates":[4.584808,51.963159]},"properties":{"type":"charge","layer":"passenger","locationId":"91093677","name":"50five-S NL 03011795","address":"Venkelbaan 82","city":"Capelle aan den IJssel","operatorName":"50five","maxPowerKw":11,"isMegawatt":false,"status":"AVAILABLE","source":"ndw"}},{"type":"Feature","geometry":{"type":"Point","coordinates":[4.578413,51.956974]},"properties":{"type":"charge","layer":"freight","locationId":"aebe37d0-ac93-45a7-86f0-fff592c412a3","name":"Tango Capelle aan den IJssel Hoofdweg 1-2","address":"Hoofdweg Zuid 30","city":"Capelle aan den IJssel","operatorName":"Tango electric","maxPowerKw":350,"isMegawatt":false,"status":"AVAILABLE","source":"ndw","priceKwh":0.27,"freightKind":"hpc","freightReason":"power"}},{"type":"Feature","geometry":{"type":"Point","coordinates":[4.566049,51.9249]},"properties":{"type":"charge","layer":"freight","locationId":"2092","name":"IONITY GmbH IONITY Capelle aan den IJssel","address":"Rhijnspoor Near 277","city":"Capelle aan den IJssel","operatorName":"IONITY","maxPowerKw":400,"isMegawatt":false,"status":"AVAILABLE","source":"ndw","priceKwh":0.6283,"freightKind":"hpc","freightReason":"power"}},{"type":"Feature","geometry":{"type":"MultiPolygon","coordinates":[[[[4.590188574346949,51.96014289046937],[4.595049359000462,51.9560370166808],[4.595332404456837,51.95579790777426],[4.599392331291625,51.95198415481583],[4.602068266512764,51.949475541462384],[4.599742576888979,51.94766608338022],[4.6036992760550435,51.944807774082605],[4.605905573988035,51.94323222497885],[4.610497246865031,51.93990879049209],[4.614246011101763,51.9372308267649],[4.6189243256101165,51.9338948171118],[4.619488886274293,51.93349203849048],[4.617704237663643,51.931049894051995],[4.615068225341988,51.92735336512155],[4.613236091041473,51.926076956162944],[4.610724797719123,51.92534081213057],[4.607054322704516,51.925682117175505],[4.601683661958514,51.92665077386742],[4.598155922369752,51.92608268554317],[4.59395977898258,51.924475910141986],[4.588137149858964,51.92179583628889],[4.582840229533253,51.9207767076269],[4.581280844964339,51.91986795479535],[4.579491459730572,51.91682911882285],[4.579455080926434,51.91675356273798],[4.577152022237058,51.914551417807154],[4.571183785273329,51.91186537413485],[4.566061467733793,51.90924629198523],[4.558685601557827,51.908238752972565],[4.549901701739876,51.90672841055461],[4.550640869598624,51.90883238533548],[4.5511714431664485,51.90902712201555],[4.550940069305371,51.909319452534234],[4.551051007349476,51.90963786545922],[4.551218033688874,51.90961321905438],[4.552839550144224,51.910124805083946],[4.555552811044914,51.910541140691706],[4.556828767615017,51.910385590218226],[4.556716866159795,51.9121157537981],[4.556496299922063,51.91480303681306],[4.554025332865342,51.91477946836856],[4.554256700382942,51.91650496778864],[4.553996252230622,51.91661772033092],[4.5503361134864155,51.91486182268132],[4.550101344001827,51.91437801477408],[4.54863958301776,51.91040149150275],[4.547233280163702,51.90694640943742],[4.546133826113076,51.90657786402245],[4.543388850459089,51.90622003236791],[4.542136350966031,51.90620453312675],[4.541677368602695,51.90685230175625],[4.540084933979947,51.90909967188454],[4.539220279561129,51.911692316002316],[4.538332655940638,51.91189782497141],[4.537185622439363,51.91403629698316],[4.537439174907209,51.91468226819836],[4.538231348935153,51.914910898481104],[4.538222390706814,51.91534417915082],[4.540522903788623,51.91524186513607],[4.537851855994515,51.91931730425293],[4.537549817823661,51.91977841057026],[4.5451615382669335,51.91929140728759],[4.5520792303548205,51.91944956852241],[4.556327652477916,51.92031632785175],[4.556910085187012,51.919913809493515],[4.55772800927976,51.92036252378943],[4.560885991853431,51.92166271611248],[4.561524287383445,51.92187443034491],[4.5614528111651325,51.92217309006135],[4.563185779542306,51.92282387528321],[4.564551615906645,51.9236325231383],[4.565777576495247,51.92506426928253],[4.565688711526341,51.925550925775354],[4.565995783637946,51.92573737121707],[4.566239140859462,51.92590872504761],[4.565155256024838,51.92891425217476],[4.565152985603959,51.92917888396833],[4.564702604563573,51.92954708558667],[4.565288460699115,51.92982569474984],[4.564387289253417,51.931954171239646],[4.5642130298938035,51.93236576662483],[4.562724421876055,51.935881361639986],[4.562646758559009,51.93606476077827],[4.560594559694458,51.940910072863346],[4.567594249719391,51.94198188498924],[4.570499436248967,51.94242660811489],[4.572779732121522,51.94345607806526],[4.567437291852003,51.947957797466806],[4.564604184490438,51.950349531715894],[4.564063400526317,51.95080889300315],[4.562405514699174,51.95472430335451],[4.561587367528348,51.95665400054466],[4.562898976741365,51.95686468119938],[4.562052955744627,51.95887463695008],[4.56436696433355,51.9599246292531],[4.566795266847424,51.957881837054714],[4.567890870392046,51.958186844650065],[4.570507908885062,51.95910000254446],[4.575149158497221,51.961267245631376],[4.580385269008731,51.96375889690232],[4.583805467052546,51.965491875701034],[4.583992173733809,51.96536906246077],[4.588459883091934,51.9616026542683],[4.590188574346949,51.96014289046937]]]]},"properties":{"type":"boundary","gemeente":"Capelle aan den IJssel","code":"GM0502"}}]}