{"type":"FeatureCollection","metadata":{"gemeente":"Castricum","slug":"castricum","code":"GM0383","generated_at":"2026-08-08T12:05:52.020Z","total_passenger":183,"total_freight":0,"bounds":[4.598301651897403,52.526728321729486,4.781621828271171,52.59257784529333],"operators":["50five","Allego","E-Flux by Road","Eneco","NXT Charging Solutions","Tesla","TotalEnergies","Ubitricity","Valk Energy","Van Leeuwen","Vattenfall InCharge"]},"features":[{"type":"Feature","geometry":{"type":"Point","coordinates":[4.67038,52.55468]},"properties":{"type":"charge","layer":"passenger","locationId":"318","name":"Shell Recharge NL Oranjelaan 4","address":"Oranjelaan 4","city":"Castricum","operatorName":"Ubitricity","maxPowerKw":11,"isMegawatt":false,"status":"AVAILABLE","source":"ndw","priceKwh":0.392}},{"type":"Feature","geometry":{"type":"Point","coordinates":[4.736203,52.562782]},"properties":{"type":"charge","layer":"passenger","locationId":"e63cd85282b40e58c8d6cd3f42b036c4","name":"Heer Derckplantsoen 7","address":"Heer Derckplantsoen 7","city":"Akersloot","operatorName":"Vattenfall InCharge","maxPowerKw":11,"isMegawatt":false,"status":"AVAILABLE","source":"ndw","priceKwh":0.2805}},{"type":"Feature","geometry":{"type":"Point","coordinates":[4.668422,52.552513]},"properties":{"type":"charge","layer":"passenger","locationId":"604DD66B-0695-4CAF-9897-84FD8A00EABB","name":"TNLP008355 - Juliana van Stolbergstraat 5, Castricum","address":"5 Juliana van Stolbergstraat","city":"Castricum","operatorName":"TotalEnergies","maxPowerKw":13,"isMegawatt":false,"status":"AVAILABLE","source":"ndw"}},{"type":"Feature","geometry":{"type":"Point","coordinates":[4.66124,52.54046]},"properties":{"type":"charge","layer":"passenger","locationId":"6C15E1C1-3D54-4CE6-8C31-DEB83B4FC279","name":"TNLP006084 - Oude Haarlemmerweg 61, Castricum","address":"61 Oude Haarlemmerweg","city":"Castricum","operatorName":"TotalEnergies","maxPowerKw":13,"isMegawatt":false,"status":"AVAILABLE","source":"ndw"}},{"type":"Feature","geometry":{"type":"Point","coordinates":[4.684273,52.57232]},"properties":{"type":"charge","layer":"passenger","locationId":"1DFAA4CC-16AF-429C-B4EB-1E88BD45301E","name":"TNLP009147 - Jasmijnlint 26, Limmen","address":"26 Jasmijnlint","city":"Limmen","operatorName":"TotalEnergies","maxPowerKw":15,"isMegawatt":false,"status":"AVAILABLE","source":"ndw"}},{"type":"Feature","geometry":{"type":"Point","coordinates":[4.697092,52.569722]},"properties":{"type":"charge","layer":"passenger","locationId":"68790167573685595252a47b","name":"Laadpaal openbaar","address":"Jan Valkeringlaan 17","city":"Limmen","operatorName":"E-Flux by Road","maxPowerKw":22,"isMegawatt":false,"status":"AVAILABLE","source":"ndw","priceKwh":0.47}},{"type":"Feature","geometry":{"type":"Point","coordinates":[4.647764,52.560226]},"properties":{"type":"charge","layer":"passenger","locationId":"6ACC8FA5-B9AD-4D59-95DD-42D54D95F7F5","name":"PP005009 - Eikenhorst 29, Castricum","address":"29 Eikenhorst","city":"Castricum","operatorName":"TotalEnergies","maxPowerKw":13,"isMegawatt":false,"status":"AVAILABLE","source":"ndw"}},{"type":"Feature","geometry":{"type":"Point","coordinates":[4.688949,52.548654]},"properties":{"type":"charge","layer":"passenger","locationId":"67cc3e3e0c025d4622e85559","name":"Arjan Smit 's station","address":"Jo Imminkstraat  6","city":"Castricum","operatorName":"E-Flux by Road","maxPowerKw":11,"isMegawatt":false,"status":"CHARGING","source":"ndw","priceKwh":0.54}},{"type":"Feature","geometry":{"type":"Point","coordinates":[4.68064,52.550743]},"properties":{"type":"charge","layer":"passenger","locationId":"22995CAE-665F-41A6-8768-BC8D9EE3DEB2","name":"TNLP008341 - Henri Dunantsingel 118, Castricum","address":"118 Henri Dunantsingel","city":"Castricum","operatorName":"TotalEnergies","maxPowerKw":14,"isMegawatt":false,"status":"AVAILABLE","source":"ndw"}},{"type":"Feature","geometry":{"type":"Point","coordinates":[4.704299,52.56927]},"properties":{"type":"charge","layer":"passenger","locationId":"E145E58B-3BE3-4577-8B34-508F60542C94","name":"TNLP009537 - t Kieftenland 29, Limmen","address":"29 t Kieftenland","city":"Limmen","operatorName":"TotalEnergies","maxPowerKw":13,"isMegawatt":false,"status":"CHARGING","source":"ndw"}},{"type":"Feature","geometry":{"type":"Point","coordinates":[4.647515,52.560436]},"properties":{"type":"charge","layer":"passenger","locationId":"F4372545-E160-44DD-8317-D4CEBEEE32E3","name":"TNLP034051 - Eikenhorst 37, Castricum","address":"37 Eikenhorst","city":"Castricum","operatorName":"TotalEnergies","maxPowerKw":13,"isMegawatt":false,"status":"UNAVAILABLE","source":"ndw"}},{"type":"Feature","geometry":{"type":"Point","coordinates":[4.694239,52.567512]},"properties":{"type":"charge","layer":"passenger","locationId":"0c32c76b785a8b96a9e3ca0956f70f81","name":"Thalia 40","address":"Thalia 40","city":"Limmen","operatorName":"Vattenfall InCharge","maxPowerKw":11,"isMegawatt":false,"status":"AVAILABLE","source":"ndw","priceKwh":0.2805}},{"type":"Feature","geometry":{"type":"Point","coordinates":[4.66591,52.55621]},"properties":{"type":"charge","layer":"passenger","locationId":"313","name":"Shell Recharge NL Oranjelaan 2B","address":"Oranjelaan 2B","city":"Castricum","operatorName":"Ubitricity","maxPowerKw":11,"isMegawatt":false,"status":"AVAILABLE","source":"ndw","priceKwh":0.392}},{"type":"Feature","geometry":{"type":"Point","coordinates":[4.6816465,52.5547657]},"properties":{"type":"charge","layer":"passenger","locationId":"2252","name":"Shell Recharge NL Ganzerik 17","address":"Ganzerik 17","city":"Castricum","operatorName":"Ubitricity","maxPowerKw":22,"isMegawatt":false,"status":"AVAILABLE","source":"ndw","priceKwh":0.267}},{"type":"Feature","geometry":{"type":"Point","coordinates":[4.693809,52.5662]},"properties":{"type":"charge","layer":"passenger","locationId":"2DC87DCC-EDA3-4645-AEC3-3BCC19E6FD0A","name":"TNLP009135 - Thalia 1, Limmen","address":"1 Thalia","city":"Limmen","operatorName":"TotalEnergies","maxPowerKw":15,"isMegawatt":false,"status":"AVAILABLE","source":"ndw"}},{"type":"Feature","geometry":{"type":"Point","coordinates":[4.67632,52.55625]},"properties":{"type":"charge","layer":"passenger","locationId":"500","name":"Shell Recharge NL Offenbachstraat 1","address":"Offenbachstraat 1","city":"Castricum","operatorName":"Ubitricity","maxPowerKw":11,"isMegawatt":false,"status":"AVAILABLE","source":"ndw","priceKwh":0.392}},{"type":"Feature","geometry":{"type":"Point","coordinates":[4.674227,52.55165]},"properties":{"type":"charge","layer":"passenger","locationId":"F98140E3-2E40-43BC-8119-FD27FD5B215C","name":"TNLP007856 - Geesterduin 1, Castricum","address":"1 Geesterduin","city":"Castricum","operatorName":"TotalEnergies","maxPowerKw":15,"isMegawatt":false,"status":"AVAILABLE","source":"ndw"}},{"type":"Feature","geometry":{"type":"Point","coordinates":[4.665997,52.549034]},"properties":{"type":"charge","layer":"passenger","locationId":"0D364B63-BE1C-4F62-AA9D-486CC8CF448B","name":"TNLP005889 - Koningin Wilhelminalaan 21, Castricum","address":"21 Koningin Wilhelminalaan","city":"Castricum","operatorName":"TotalEnergies","maxPowerKw":13,"isMegawatt":false,"status":"CHARGING","source":"ndw"}},{"type":"Feature","geometry":{"type":"Point","coordinates":[4.661545,52.55337]},"properties":{"type":"charge","layer":"passenger","locationId":"4F12153B-0B2B-4EBA-A17F-EF0ACB063347","name":"TNLP006637 - Kamperfoelielaan 19, Castricum","address":"19 Kamperfoelielaan","city":"Castricum","operatorName":"TotalEnergies","maxPowerKw":13,"isMegawatt":false,"status":"AVAILABLE","source":"ndw"}},{"type":"Feature","geometry":{"type":"Point","coordinates":[4.6810658,52.5479204]},"properties":{"type":"charge","layer":"passenger","locationId":"1078","name":"Shell Recharge NL Augusta de Witstraat 31","address":"Augusta de Witstraat 31","city":"Castricum","operatorName":"Ubitricity","maxPowerKw":22,"isMegawatt":false,"status":"AVAILABLE","source":"ndw","priceKwh":0.267}},{"type":"Feature","geometry":{"type":"Point","coordinates":[4.67012,52.54451]},"properties":{"type":"charge","layer":"passenger","locationId":"BD58672D-9C30-4C85-A8A8-E0E647D4974D","name":"TNLP009347 - Breedeweg 50, Castricum","address":"50 Breedeweg","city":"Castricum","operatorName":"TotalEnergies","maxPowerKw":15,"isMegawatt":false,"status":"CHARGING","source":"ndw"}},{"type":"Feature","geometry":{"type":"Point","coordinates":[4.726199,52.55913]},"properties":{"type":"charge","layer":"passenger","locationId":"7B756ECF-25B3-4334-9FEE-0BC7E05EC78B","name":"TNLP005886 - Startingerweg 32, Akersloot","address":"32 Startingerweg","city":"Akersloot","operatorName":"TotalEnergies","maxPowerKw":13,"isMegawatt":false,"status":"CHARGING","source":"ndw"}},{"type":"Feature","geometry":{"type":"Point","coordinates":[4.6777156,52.5433404]},"properties":{"type":"charge","layer":"passenger","locationId":"1912","name":"Shell Recharge NL Voorweide 1","address":"Voorweide 1","city":"Castricum","operatorName":"Ubitricity","maxPowerKw":22,"isMegawatt":false,"status":"AVAILABLE","source":"ndw","priceKwh":0.267}},{"type":"Feature","geometry":{"type":"Point","coordinates":[4.693583,52.571622]},"properties":{"type":"charge","layer":"passenger","locationId":"91109828","name":"50five-S NL 08104845","address":"Rijksweg 102","city":"Limmen","operatorName":"50five","maxPowerKw":22,"isMegawatt":false,"status":"AVAILABLE","source":"ndw"}},{"type":"Feature","geometry":{"type":"Point","coordinates":[4.66521,52.54692]},"properties":{"type":"charge","layer":"passenger","locationId":"EA6851AE-24BB-4158-BD7F-A1AA6A62A015","name":"PP004006 - Dorpsstraat 69, Castricum","address":"69 Dorpsstraat","city":"Castricum","operatorName":"TotalEnergies","maxPowerKw":13,"isMegawatt":false,"status":"AVAILABLE","source":"ndw"}},{"type":"Feature","geometry":{"type":"Point","coordinates":[4.682,52.5533]},"properties":{"type":"charge","layer":"passenger","locationId":"489","name":"Shell Recharge NL Helmbloem 2","address":"Helmbloem 2","city":"Castricum","operatorName":"Ubitricity","maxPowerKw":11,"isMegawatt":false,"status":"AVAILABLE","source":"ndw","priceKwh":0.392}},{"type":"Feature","geometry":{"type":"Point","coordinates":[4.672339,52.553955]},"properties":{"type":"charge","layer":"passenger","locationId":"DDF3A1C4-3139-4D51-930D-AA7D6D01F82B","name":"TNLP034268 - Oranjelaan 42, Castricum","address":"42 Oranjelaan","city":"Castricum","operatorName":"TotalEnergies","maxPowerKw":13,"isMegawatt":false,"status":"UNAVAILABLE","source":"ndw"}},{"type":"Feature","geometry":{"type":"Point","coordinates":[4.68358,52.548107]},"properties":{"type":"charge","layer":"passenger","locationId":"46BEB3CA-F817-459E-9905-F2E53D291A55","name":"TNLP034693 - Henriëtte Roland Holststraat 55, Castricum","address":"55 Henriëtte Roland Holststraat","city":"Castricum","operatorName":"TotalEnergies","maxPowerKw":13,"isMegawatt":false,"status":"UNAVAILABLE","source":"ndw"}},{"type":"Feature","geometry":{"type":"Point","coordinates":[4.688364,52.57485]},"properties":{"type":"charge","layer":"passenger","locationId":"FD29B3A9-806F-4F66-BB75-4A1353C7746E","name":"PP004120 - Breetjes 1, Limmen","address":"1 Breetjes","city":"Limmen","operatorName":"TotalEnergies","maxPowerKw":13,"isMegawatt":false,"status":"AVAILABLE","source":"ndw"}},{"type":"Feature","geometry":{"type":"Point","coordinates":[4.668742,52.556046]},"properties":{"type":"charge","layer":"passenger","locationId":"18FC6B48-10A9-4B83-9177-D7043951411F","name":"TNLP008477 - Zoutmanlaan 17, Castricum","address":"17 Zoutmanlaan","city":"Castricum","operatorName":"TotalEnergies","maxPowerKw":14,"isMegawatt":false,"status":"AVAILABLE","source":"ndw"}},{"type":"Feature","geometry":{"type":"Point","coordinates":[4.681552,52.545933]},"properties":{"type":"charge","layer":"passenger","locationId":"AC234D07-AEB3-42E5-947E-37F8A0BE7F75","name":"PP005614 - Belle van Zuylenlaan 77, Castricum","address":"77 Belle van Zuylenlaan","city":"Castricum","operatorName":"TotalEnergies","maxPowerKw":13,"isMegawatt":false,"status":"AVAILABLE","source":"ndw"}},{"type":"Feature","geometry":{"type":"Point","coordinates":[4.670585,52.545757]},"properties":{"type":"charge","layer":"passenger","locationId":"E7D81AE3-4145-43A9-82EE-1FF442CCD5B0","name":"PP005011 - Cieweg 24, Castricum","address":"24 Cieweg","city":"Castricum","operatorName":"TotalEnergies","maxPowerKw":13,"isMegawatt":false,"status":"AVAILABLE","source":"ndw"}},{"type":"Feature","geometry":{"type":"Point","coordinates":[4.647265,52.561264]},"properties":{"type":"charge","layer":"passenger","locationId":"E4DE391E-FF1E-4253-B17C-61B1CC37C1CE","name":"TNLP009203 - Koningsduin 17, Castricum","address":"17 Koningsduin","city":"Castricum","operatorName":"TotalEnergies","maxPowerKw":13,"isMegawatt":false,"status":"AVAILABLE","source":"ndw"}},{"type":"Feature","geometry":{"type":"Point","coordinates":[4.677604,52.54418]},"properties":{"type":"charge","layer":"passenger","locationId":"83ACC0D7-4A3A-4C29-9297-B0280ABB5B46","name":"TNLP007963 - Ossecamp 27, Castricum","address":"27 Ossecamp","city":"Castricum","operatorName":"TotalEnergies","maxPowerKw":13,"isMegawatt":false,"status":"AVAILABLE","source":"ndw"}},{"type":"Feature","geometry":{"type":"Point","coordinates":[4.7323688,52.5615263]},"properties":{"type":"charge","layer":"passenger","locationId":"2229","name":"Shell Recharge NL Bachstraat 6","address":"Bachstraat 6","city":"Akersloot","operatorName":"Ubitricity","maxPowerKw":22,"isMegawatt":false,"status":"AVAILABLE","source":"ndw","priceKwh":0.267}},{"type":"Feature","geometry":{"type":"Point","coordinates":[4.664439,52.55133]},"properties":{"type":"charge","layer":"passenger","locationId":"52e9f1c3-4bd9-42ac-80c4-630c8320cff4","name":"TNLP006227 - Torenstraat 85, Castricum","address":"85 Torenstraat","city":"Castricum","operatorName":"TotalEnergies","maxPowerKw":13,"isMegawatt":false,"status":"CHARGING","source":"ndw"}},{"type":"Feature","geometry":{"type":"Point","coordinates":[4.6656211,52.5434637]},"properties":{"type":"charge","layer":"passenger","locationId":"2249","name":"Shell Recharge NL Meester Nijsenstraat 2","address":"Meester Nijsenstraat 2","city":"Castricum","operatorName":"Ubitricity","maxPowerKw":22,"isMegawatt":false,"status":"AVAILABLE","source":"ndw","priceKwh":0.267}},{"type":"Feature","geometry":{"type":"Point","coordinates":[4.690493,52.564193]},"properties":{"type":"charge","layer":"passenger","locationId":"63b59693ea7428001de00ab4","name":"Carcharger Limmen","address":"Rijksweg  26","city":"Limmen","operatorName":"E-Flux by Road","maxPowerKw":11,"isMegawatt":false,"status":"AVAILABLE","source":"ndw","priceKwh":0.33}},{"type":"Feature","geometry":{"type":"Point","coordinates":[4.668026,52.544827]},"properties":{"type":"charge","layer":"passenger","locationId":"1C2D3EA1-427C-46DF-A567-C6A44BD8558F","name":"PP005611 - Breedeweg 41, Castricum","address":"41 Breedeweg","city":"Castricum","operatorName":"TotalEnergies","maxPowerKw":15,"isMegawatt":false,"status":"CHARGING","source":"ndw"}},{"type":"Feature","geometry":{"type":"Point","coordinates":[4.68569,52.54675]},"properties":{"type":"charge","layer":"passenger","locationId":"596","name":"Shell Recharge NL Zuster Meyboomstraat 7","address":"Zuster Meyboomstraat 7","city":"Castricum","operatorName":"Ubitricity","maxPowerKw":11,"isMegawatt":false,"status":"AVAILABLE","source":"ndw","priceKwh":0.392}},{"type":"Feature","geometry":{"type":"Point","coordinates":[4.7296214,52.5625536]},"properties":{"type":"charge","layer":"passenger","locationId":"1073","name":"Shell Recharge NL Verdistraat 1","address":"Verdistraat 1","city":"Akersloot","operatorName":"Ubitricity","maxPowerKw":22,"isMegawatt":false,"status":"AVAILABLE","source":"ndw","priceKwh":0.267}},{"type":"Feature","geometry":{"type":"Point","coordinates":[4.678546,52.547626]},"properties":{"type":"charge","layer":"passenger","locationId":"0BCCEC59-A084-468C-9F68-94B367E1E2A2","name":"TNLP007960 - Nansenlaan 49, Castricum","address":"49 Nansenlaan","city":"Castricum","operatorName":"TotalEnergies","maxPowerKw":13,"isMegawatt":false,"status":"AVAILABLE","source":"ndw"}},{"type":"Feature","geometry":{"type":"Point","coordinates":[4.69808,52.57493]},"properties":{"type":"charge","layer":"passenger","locationId":"cabf8653735832109f1d3919ef478594","name":"Bloemenhof 25","address":"Bloemenhof 25","city":"Limmen","operatorName":"Vattenfall InCharge","maxPowerKw":11,"isMegawatt":false,"status":"AVAILABLE","source":"ndw","priceKwh":0.2805}},{"type":"Feature","geometry":{"type":"Point","coordinates":[4.729117,52.55667]},"properties":{"type":"charge","layer":"passenger","locationId":"43DF9F5E-5FBA-48F5-9C0C-3B5A33C27946","name":"TNLP009313 - Lange Dresch 31, Akersloot","address":"31 Lange Dresch","city":"Akersloot","operatorName":"TotalEnergies","maxPowerKw":13,"isMegawatt":false,"status":"AVAILABLE","source":"ndw"}},{"type":"Feature","geometry":{"type":"Point","coordinates":[4.6796858,52.5570067]},"properties":{"type":"charge","layer":"passenger","locationId":"2579","name":"Shell Recharge NL Plantenhove 103","address":"Plantenhove 103","city":"Castricum","operatorName":"Ubitricity","maxPowerKw":22,"isMegawatt":false,"status":"UNAVAILABLE","source":"ndw","priceKwh":0.267}},{"type":"Feature","geometry":{"type":"Point","coordinates":[4.66858,52.55348]},"properties":{"type":"charge","layer":"passenger","locationId":"322","name":"Shell Recharge NL Louise de Colignystraat 2","address":"Louise de Colignystraat 2","city":"Castricum","operatorName":"Ubitricity","maxPowerKw":11,"isMegawatt":false,"status":"AVAILABLE","source":"ndw","priceKwh":0.392}},{"type":"Feature","geometry":{"type":"Point","coordinates":[4.725378,52.557379]},"properties":{"type":"charge","layer":"passenger","locationId":"6890e5640412a170699117e4","name":"Startingerweg 31C","address":"Startingerweg 31C","city":"Akersloot","operatorName":"E-Flux by Road","maxPowerKw":22,"isMegawatt":false,"status":"AVAILABLE","source":"ndw","priceKwh":0.43}},{"type":"Feature","geometry":{"type":"Point","coordinates":[4.6987692,52.572802]},"properties":{"type":"charge","layer":"passenger","locationId":"891","name":"Shell Recharge NL Zonnedauw 3","address":"Zonnedauw 3","city":"Limmen","operatorName":"Ubitricity","maxPowerKw":22,"isMegawatt":false,"status":"AVAILABLE","source":"ndw","priceKwh":0.267}},{"type":"Feature","geometry":{"type":"Point","coordinates":[4.675433,52.546867]},"properties":{"type":"charge","layer":"passenger","locationId":"3A17F63E-40B3-426F-8164-55653232622F","name":"TNLP009441 - Walingstuin 14, Castricum","address":"14 Walingstuin","city":"Castricum","operatorName":"TotalEnergies","maxPowerKw":15,"isMegawatt":false,"status":"UNAVAILABLE","source":"ndw"}},{"type":"Feature","geometry":{"type":"Point","coordinates":[4.675595,52.558376]},"properties":{"type":"charge","layer":"passenger","locationId":"5B087542-AE02-4378-8CEC-0807BB36DB15","name":"TNLP009496 - Tulpenveld 112, Castricum","address":"112 Tulpenveld","city":"Castricum","operatorName":"TotalEnergies","maxPowerKw":15,"isMegawatt":false,"status":"UNAVAILABLE","source":"ndw"}},{"type":"Feature","geometry":{"type":"Point","coordinates":[4.686073,52.548878]},"properties":{"type":"charge","layer":"passenger","locationId":"E427B706-B4D6-4EAC-A17D-30ECF1FF38A0","name":"PP005550 - Fien de la Marstraat 2, Castricum","address":"2 Fien de la Marstraat","city":"Castricum","operatorName":"TotalEnergies","maxPowerKw":13,"isMegawatt":false,"status":"AVAILABLE","source":"ndw"}},{"type":"Feature","geometry":{"type":"Point","coordinates":[4.7316493,52.554245]},"properties":{"type":"charge","layer":"passenger","locationId":"1680","name":"Shell Recharge NL Koningsweg t.h.v. Speenkruidlaan 1","address":"Koningsweg t.h.v. Speenkruidlaan 1","city":"Akersloot","operatorName":"Ubitricity","maxPowerKw":22,"isMegawatt":false,"status":"AVAILABLE","source":"ndw","priceKwh":0.267}},{"type":"Feature","geometry":{"type":"Point","coordinates":[4.683257,52.55334]},"properties":{"type":"charge","layer":"passenger","locationId":"5F880AF9-D025-4BA8-B819-80DEB1FE7362","name":"TNLP008482 - De Bloemen 61, Castricum","address":"61 De Bloemen","city":"Castricum","operatorName":"TotalEnergies","maxPowerKw":14,"isMegawatt":false,"status":"AVAILABLE","source":"ndw"}},{"type":"Feature","geometry":{"type":"Point","coordinates":[4.65593,52.55844]},"properties":{"type":"charge","layer":"passenger","locationId":"8B12E257-7310-41BA-B2BF-1B8BA2689A38","name":"PP004002 - Van der Mijleweg 27, Castricum","address":"27 Van der Mijleweg","city":"Castricum","operatorName":"TotalEnergies","maxPowerKw":13,"isMegawatt":false,"status":"AVAILABLE","source":"ndw"}},{"type":"Feature","geometry":{"type":"Point","coordinates":[4.68001,52.5561]},"properties":{"type":"charge","layer":"passenger","locationId":"532","name":"Shell Recharge NL Tijm 2","address":"Tijm 2","city":"Castricum","operatorName":"Ubitricity","maxPowerKw":11,"isMegawatt":false,"status":"AVAILABLE","source":"ndw","priceKwh":0.392}},{"type":"Feature","geometry":{"type":"Point","coordinates":[4.682107,52.54883]},"properties":{"type":"charge","layer":"passenger","locationId":"9744C955-4A79-402B-B9AA-10EB2A255946","name":"TNLP015209 - Harriët Freezerstraat 13, Castricum","address":"13 Harriët Freezerstraat","city":"Castricum","operatorName":"TotalEnergies","maxPowerKw":17,"isMegawatt":false,"status":"UNAVAILABLE","source":"ndw"}},{"type":"Feature","geometry":{"type":"Point","coordinates":[4.6865,52.573071]},"properties":{"type":"charge","layer":"passenger","locationId":"6a2678dac04f2719065d1afd","name":"Straatzijde openbaar","address":"Kapelweg  10","city":"Limmen","operatorName":"E-Flux by Road","maxPowerKw":11,"isMegawatt":false,"status":"CHARGING","source":"ndw","priceKwh":0.43}},{"type":"Feature","geometry":{"type":"Point","coordinates":[4.664079,52.55676]},"properties":{"type":"charge","layer":"passenger","locationId":"05199F93-87D9-4791-999F-0F7E1A4F9956","name":"TNLP006561 - Berkenlaan 21, Castricum","address":"21 Berkenlaan","city":"Castricum","operatorName":"TotalEnergies","maxPowerKw":13,"isMegawatt":false,"status":"AVAILABLE","source":"ndw"}},{"type":"Feature","geometry":{"type":"Point","coordinates":[4.703945,52.572964]},"properties":{"type":"charge","layer":"passenger","locationId":"EA7D745D-AD6F-444E-8620-69B2EB211F13","name":"TNLP006450 - Lage Weide 105, Limmen","address":"105 Lage Weide","city":"Limmen","operatorName":"TotalEnergies","maxPowerKw":13,"isMegawatt":false,"status":"AVAILABLE","source":"ndw"}},{"type":"Feature","geometry":{"type":"Point","coordinates":[4.680808,52.544834]},"properties":{"type":"charge","layer":"passenger","locationId":"33EC296E-1FCB-44C6-A9FF-5C6D0357E938","name":"TNLP006569 - Oosterweide 4, Castricum","address":"4 Oosterweide","city":"Castricum","operatorName":"TotalEnergies","maxPowerKw":13,"isMegawatt":false,"status":"AVAILABLE","source":"ndw"}},{"type":"Feature","geometry":{"type":"Point","coordinates":[4.693423,52.571295]},"properties":{"type":"charge","layer":"passenger","locationId":"91106730","name":"50five-S NL 09102307","address":"Rijksweg 100","city":"Limmen","operatorName":"50five","maxPowerKw":11,"isMegawatt":false,"status":"AVAILABLE","source":"ndw"}},{"type":"Feature","geometry":{"type":"Point","coordinates":[4.662481,52.55609]},"properties":{"type":"charge","layer":"passenger","locationId":"3B0F9DDA-9529-42BB-B59F-2D20A7A672AF","name":"TNLP005685 - Lindenlaan 91, Castricum","address":"91 Lindenlaan","city":"Castricum","operatorName":"TotalEnergies","maxPowerKw":13,"isMegawatt":false,"status":"AVAILABLE","source":"ndw"}},{"type":"Feature","geometry":{"type":"Point","coordinates":[4.727403,52.555847]},"properties":{"type":"charge","layer":"passenger","locationId":"A3D0305E-53B4-4DF2-A09F-7012843F890F","name":"TNLP006652 - Delving 11, Akersloot","address":"11 Delving","city":"Akersloot","operatorName":"TotalEnergies","maxPowerKw":13,"isMegawatt":false,"status":"CHARGING","source":"ndw"}},{"type":"Feature","geometry":{"type":"Point","coordinates":[4.722702,52.547693]},"properties":{"type":"charge","layer":"passenger","locationId":"NLLOC000096","name":"Allego - Van der Valk Akersloot A9","address":"Geesterweg 1","city":"Akersloot","operatorName":"Allego","maxPowerKw":50,"isMegawatt":false,"status":"AVAILABLE","source":"ndw","priceKwh":0.655}},{"type":"Feature","geometry":{"type":"Point","coordinates":[4.73284,52.554333]},"properties":{"type":"charge","layer":"passenger","locationId":"C1934E42-DE46-44DC-A008-E379B0785266","name":"TNLP006990 - Boschweg 70, Akersloot","address":"70 Boschweg","city":"Akersloot","operatorName":"TotalEnergies","maxPowerKw":13,"isMegawatt":false,"status":"AVAILABLE","source":"ndw"}},{"type":"Feature","geometry":{"type":"Point","coordinates":[4.73013,52.55982]},"properties":{"type":"charge","layer":"passenger","locationId":"092E1594-D732-491F-A266-4CB5BD6DF56B","name":"PP005015 - Mendelssohnplein 17, Akersloot","address":"17 Mendelssohnplein","city":"Akersloot","operatorName":"TotalEnergies","maxPowerKw":13,"isMegawatt":false,"status":"AVAILABLE","source":"ndw"}},{"type":"Feature","geometry":{"type":"Point","coordinates":[4.671017,52.556683]},"properties":{"type":"charge","layer":"passenger","locationId":"679940C2-8A60-4EC2-85C1-2AC2FF915C94","name":"TNLP009382 - Kooiplein 2, Castricum","address":"2 Kooiplein","city":"Castricum","operatorName":"TotalEnergies","maxPowerKw":13,"isMegawatt":false,"status":"UNAVAILABLE","source":"ndw"}},{"type":"Feature","geometry":{"type":"Point","coordinates":[4.674068,52.55638]},"properties":{"type":"charge","layer":"passenger","locationId":"72F11130-F14C-4F90-8351-5E2ACAA4E062","name":"TNLP006131 - Beethovensingel 35, Castricum","address":"35 Beethovensingel","city":"Castricum","operatorName":"TotalEnergies","maxPowerKw":15,"isMegawatt":false,"status":"AVAILABLE","source":"ndw"}},{"type":"Feature","geometry":{"type":"Point","coordinates":[4.651453,52.55832]},"properties":{"type":"charge","layer":"passenger","locationId":"b9d93f2a-9b92-4e68-9c48-6c5ea1ba9935","name":"Laadplein - PP005043 - Duinakker 25, Castricum","address":"25 Duinakker","city":"Castricum","operatorName":"TotalEnergies","maxPowerKw":15,"isMegawatt":false,"status":"AVAILABLE","source":"ndw"}},{"type":"Feature","geometry":{"type":"Point","coordinates":[4.735094,52.55983]},"properties":{"type":"charge","layer":"passenger","locationId":"9470A905-0E96-4323-9C58-EF5FB5D8C99C","name":"TNLP009573 - Kerklaan 9 A, Akersloot","address":"9 A Kerklaan","city":"Akersloot","operatorName":"TotalEnergies","maxPowerKw":13,"isMegawatt":false,"status":"AVAILABLE","source":"ndw"}},{"type":"Feature","geometry":{"type":"Point","coordinates":[4.667815,52.554695]},"properties":{"type":"charge","layer":"passenger","locationId":"9B413FD2-20D6-4ACC-AE37-D1F79258230F","name":"TNLP034657 - Eerste Groenelaan 80, Castricum","address":"80 Eerste Groenelaan","city":"Castricum","operatorName":"TotalEnergies","maxPowerKw":13,"isMegawatt":false,"status":"UNAVAILABLE","source":"ndw"}},{"type":"Feature","geometry":{"type":"Point","coordinates":[4.722943,52.547629]},"properties":{"type":"charge","layer":"passenger","locationId":"69afbdd6a59b7c858b2f1176","name":"Van der Valk - Akersloot - Charging Stations","address":"Geesterweg 1","city":"Akersloot","operatorName":"Valk Energy","maxPowerKw":11,"isMegawatt":false,"status":"AVAILABLE","source":"ndw","priceKwh":0.59}},{"type":"Feature","geometry":{"type":"Point","coordinates":[4.651514,52.555976]},"properties":{"type":"charge","layer":"passenger","locationId":"91052539","name":"50five-S NL 07103540","address":"Koningshof 2","city":"Castricum","operatorName":"50five","maxPowerKw":11,"isMegawatt":false,"status":"AVAILABLE","source":"ndw"}},{"type":"Feature","geometry":{"type":"Point","coordinates":[4.729498,52.557316]},"properties":{"type":"charge","layer":"passenger","locationId":"46CE4DC2-72E7-4F4E-829F-92401678D214","name":"TNLP034055 - Lange Dresch 3, Akersloot","address":"3 Lange Dresch","city":"Akersloot","operatorName":"TotalEnergies","maxPowerKw":13,"isMegawatt":false,"status":"AVAILABLE","source":"ndw"}},{"type":"Feature","geometry":{"type":"Point","coordinates":[4.701284,52.57101]},"properties":{"type":"charge","layer":"passenger","locationId":"09E5A566-9062-4A87-A3C8-4C8972986C91","name":"TNLP034325 - Koningsdam 1, Limmen","address":"1 Koningsdam","city":"Limmen","operatorName":"TotalEnergies","maxPowerKw":13,"isMegawatt":false,"status":"UNAVAILABLE","source":"ndw"}},{"type":"Feature","geometry":{"type":"Point","coordinates":[4.6619717,52.5607293]},"properties":{"type":"charge","layer":"passenger","locationId":"2384","name":"Shell Recharge NL Van Haerlemlaan 27","address":"Van Haerlemlaan 27","city":"Castricum","operatorName":"Ubitricity","maxPowerKw":22,"isMegawatt":false,"status":"AVAILABLE","source":"ndw","priceKwh":0.267}},{"type":"Feature","geometry":{"type":"Point","coordinates":[4.678271,52.55448]},"properties":{"type":"charge","layer":"passenger","locationId":"EC90EFC9-5791-473C-9E3F-00AD69891505","name":"PP005592 - Bloemgaarde 21, Castricum","address":"21 Bloemgaarde","city":"Castricum","operatorName":"TotalEnergies","maxPowerKw":13,"isMegawatt":false,"status":"AVAILABLE","source":"ndw"}},{"type":"Feature","geometry":{"type":"Point","coordinates":[4.664822,52.554745]},"properties":{"type":"charge","layer":"passenger","locationId":"082B8F78-5BD1-4CAA-9D34-F1F0DCD3E628","name":"TNLP008542 - Eerste Groenelaan 63, Castricum","address":"63 Eerste Groenelaan","city":"Castricum","operatorName":"TotalEnergies","maxPowerKw":14,"isMegawatt":false,"status":"AVAILABLE","source":"ndw"}},{"type":"Feature","geometry":{"type":"Point","coordinates":[4.680225,52.55437]},"properties":{"type":"charge","layer":"passenger","locationId":"1D768306-F0CE-4920-9CCB-10AC6063812E","name":"TNLP009340 - De Bloemen 50, Castricum","address":"50 De Bloemen","city":"Castricum","operatorName":"TotalEnergies","maxPowerKw":13,"isMegawatt":false,"status":"AVAILABLE","source":"ndw"}},{"type":"Feature","geometry":{"type":"Point","coordinates":[4.7228,52.547449]},"properties":{"type":"charge","layer":"passenger","locationId":"f20159bd-41f4-4dff-a3a4-1f9c7aec8301","name":"Akersloot, Netherlands","address":"1A, Geesterweg","city":"Akersloot","operatorName":"Tesla","maxPowerKw":250,"isMegawatt":false,"status":"AVAILABLE","source":"ndw","priceKwh":0.53}},{"type":"Feature","geometry":{"type":"Point","coordinates":[4.644339,52.558254]},"properties":{"type":"charge","layer":"passenger","locationId":"91108339","name":"50five-S NL ICUCOMPACT002262","address":"Oude Parklaan 115","city":"Castricum","operatorName":"50five","maxPowerKw":11,"isMegawatt":false,"status":"UNAVAILABLE","source":"ndw"}},{"type":"Feature","geometry":{"type":"Point","coordinates":[4.630598,52.562942]},"properties":{"type":"charge","layer":"passenger","locationId":"69cbce97894fd252f5db34df","name":"Bezoekersladers Bakkum","address":"Zeeweg 31","city":"Castricum","operatorName":"NXT Charging Solutions","maxPowerKw":22,"isMegawatt":false,"status":"AVAILABLE","source":"ndw","priceKwh":0.56}},{"type":"Feature","geometry":{"type":"Point","coordinates":[4.6634269,52.5549262]},"properties":{"type":"charge","layer":"passenger","locationId":"147","name":"Shell Recharge NL Eerste Groenelaan 50","address":"Eerste Groenelaan 50","city":"Castricum","operatorName":"Ubitricity","maxPowerKw":11,"isMegawatt":false,"status":"AVAILABLE","source":"ndw","priceKwh":0.392}},{"type":"Feature","geometry":{"type":"Point","coordinates":[4.675214,52.54879]},"properties":{"type":"charge","layer":"passenger","locationId":"3E8D0836-5981-4A19-9F23-C1D0FA613679","name":"TNLP006638 - Sans Souci 93, Castricum","address":"93 Sans Souci","city":"Castricum","operatorName":"TotalEnergies","maxPowerKw":13,"isMegawatt":false,"status":"AVAILABLE","source":"ndw"}},{"type":"Feature","geometry":{"type":"Point","coordinates":[4.694226,52.578247]},"properties":{"type":"charge","layer":"passenger","locationId":"7acb59fb24d788b7816c9dc844cba71a","name":"Walnootlint 14","address":"Walnootlint 14","city":"Limmen","operatorName":"Vattenfall InCharge","maxPowerKw":11,"isMegawatt":false,"status":"CHARGING","source":"ndw","priceKwh":0.2805}},{"type":"Feature","geometry":{"type":"Point","coordinates":[4.6927,52.57556]},"properties":{"type":"charge","layer":"passenger","locationId":"0F8AD957-D940-4CE9-AE2D-AACFBDD8A308","name":"TNLP006534 - Wilgenlint 9, Limmen","address":"9 Wilgenlint","city":"Limmen","operatorName":"TotalEnergies","maxPowerKw":13,"isMegawatt":false,"status":"UNAVAILABLE","source":"ndw"}},{"type":"Feature","geometry":{"type":"Point","coordinates":[4.662501,52.540962]},"properties":{"type":"charge","layer":"passenger","locationId":"C05F49A9-8483-403D-981F-857229C48AA4","name":"TNLP009225 - Schinjer 23, Castricum","address":"23 Schinjer","city":"Castricum","operatorName":"TotalEnergies","maxPowerKw":13,"isMegawatt":false,"status":"CHARGING","source":"ndw"}},{"type":"Feature","geometry":{"type":"Point","coordinates":[4.697893,52.580998]},"properties":{"type":"charge","layer":"passenger","locationId":"91056971","name":"50five-S NL 07111895","address":"Rijksweg 178","city":"Limmen","operatorName":"50five","maxPowerKw":14,"isMegawatt":false,"status":"AVAILABLE","source":"ndw"}},{"type":"Feature","geometry":{"type":"Point","coordinates":[4.652123,52.559685]},"properties":{"type":"charge","layer":"passenger","locationId":"804C963D-0792-4BD9-AF04-A1CC58853869","name":"PP005613 - Duinmeiershof 8, Castricum","address":"8 Duinmeiershof","city":"Castricum","operatorName":"TotalEnergies","maxPowerKw":13,"isMegawatt":false,"status":"UNAVAILABLE","source":"ndw"}},{"type":"Feature","geometry":{"type":"Point","coordinates":[4.6947,52.56916]},"properties":{"type":"charge","layer":"passenger","locationId":"a103967200382495e0296449fab83588","name":"Middenweg 17","address":"Middenweg 17","city":"Limmen","operatorName":"Vattenfall InCharge","maxPowerKw":11,"isMegawatt":false,"status":"AVAILABLE","source":"ndw","priceKwh":0.2805}},{"type":"Feature","geometry":{"type":"Point","coordinates":[4.691145,52.57526]},"properties":{"type":"charge","layer":"passenger","locationId":"F20B29EC-F9B3-4258-BDAF-B3E0F51CC28F","name":"TNLP008551 - Kastanjelint 21, Limmen","address":"21 Kastanjelint","city":"Limmen","operatorName":"TotalEnergies","maxPowerKw":14,"isMegawatt":false,"status":"AVAILABLE","source":"ndw"}},{"type":"Feature","geometry":{"type":"Point","coordinates":[4.69624,52.57116]},"properties":{"type":"charge","layer":"passenger","locationId":"998CE777-9D37-457B-B393-1805EB6896B2","name":"TNLP003623 - Roelat 78, Limmen","address":"78 Roelat","city":"Limmen","operatorName":"TotalEnergies","maxPowerKw":17,"isMegawatt":false,"status":"AVAILABLE","source":"ndw"}},{"type":"Feature","geometry":{"type":"Point","coordinates":[4.65654,52.55971]},"properties":{"type":"charge","layer":"passenger","locationId":"1651","name":"Shell Recharge NL Van Bergenlaan 10","address":"Van Bergenlaan 10","city":"Castricum","operatorName":"Ubitricity","maxPowerKw":11,"isMegawatt":false,"status":"UNAVAILABLE","source":"ndw","priceKwh":0.392}},{"type":"Feature","geometry":{"type":"Point","coordinates":[4.777827,52.54661]},"properties":{"type":"charge","layer":"passenger","locationId":"1856BC69-E6F7-4DEB-8147-75AA37468219","name":"TNLP007806 - Pontweg 1, De Woude","address":"1 Pontweg","city":"De Woude","operatorName":"TotalEnergies","maxPowerKw":15,"isMegawatt":false,"status":"AVAILABLE","source":"ndw"}},{"type":"Feature","geometry":{"type":"Point","coordinates":[4.66244,52.55096]},"properties":{"type":"charge","layer":"passenger","locationId":"5D27CCD4-250F-4775-AC8A-C5D147765DE8","name":"TNLP003594 - De Brink 32, Castricum","address":"32 De Brink","city":"Castricum","operatorName":"TotalEnergies","maxPowerKw":17,"isMegawatt":false,"status":"UNAVAILABLE","source":"ndw"}},{"type":"Feature","geometry":{"type":"Point","coordinates":[4.658184,52.55963]},"properties":{"type":"charge","layer":"passenger","locationId":"98C6BFCD-BDDE-40C3-A6C4-CA2D67153B2E","name":"TNLP034304 - Van Assendelftlaan 12, Castricum","address":"12 Van Assendelftlaan","city":"Castricum","operatorName":"TotalEnergies","maxPowerKw":13,"isMegawatt":false,"status":"UNAVAILABLE","source":"ndw"}},{"type":"Feature","geometry":{"type":"Point","coordinates":[4.681839,52.550346]},"properties":{"type":"charge","layer":"passenger","locationId":"7E707A81-4CA8-42E7-A366-3250007A11A0","name":"PP005615 - Henri Dunantsingel 152, Castricum","address":"152 Henri Dunantsingel","city":"Castricum","operatorName":"TotalEnergies","maxPowerKw":13,"isMegawatt":false,"status":"AVAILABLE","source":"ndw"}},{"type":"Feature","geometry":{"type":"Point","coordinates":[4.67917,52.54911]},"properties":{"type":"charge","layer":"passenger","locationId":"156","name":"Shell Recharge NL Rooseveltlaan 23","address":"Rooseveltlaan 23","city":"Castricum","operatorName":"Ubitricity","maxPowerKw":11,"isMegawatt":false,"status":"AVAILABLE","source":"ndw","priceKwh":0.392}},{"type":"Feature","geometry":{"type":"Point","coordinates":[4.686607,52.572969]},"properties":{"type":"charge","layer":"passenger","locationId":"66aa0b84afc3e0001ca0d22c","name":"Laadpaal straat","address":"Kapelweg  10","city":"Limmen","operatorName":"E-Flux by Road","maxPowerKw":11,"isMegawatt":false,"status":"AVAILABLE","source":"ndw","priceKwh":0.43}},{"type":"Feature","geometry":{"type":"Point","coordinates":[4.687818,52.55016]},"properties":{"type":"charge","layer":"passenger","locationId":"74E61B97-A7AE-4F54-81C1-F1EE36134BDF","name":"TNLP006587 - Rosa Spierstraat 1, Castricum","address":"1 Rosa Spierstraat","city":"Castricum","operatorName":"TotalEnergies","maxPowerKw":13,"isMegawatt":false,"status":"AVAILABLE","source":"ndw"}},{"type":"Feature","geometry":{"type":"Point","coordinates":[4.68988,52.568749]},"properties":{"type":"charge","layer":"passenger","locationId":"91094776","name":"50five-S NL 07003315","address":"Molenweg Molenweg 36","city":"Limmen","operatorName":"50five","maxPowerKw":22,"isMegawatt":false,"status":"AVAILABLE","source":"ndw"}},{"type":"Feature","geometry":{"type":"Point","coordinates":[4.661873,52.550053]},"properties":{"type":"charge","layer":"passenger","locationId":"B4E688E8-1370-4CAD-8EA5-CA5B0942E0D0","name":"TNLP009955 - Brink 32 a, Castricum","address":"32 a Brink","city":"Castricum","operatorName":"TotalEnergies","maxPowerKw":17,"isMegawatt":false,"status":"UNAVAILABLE","source":"ndw"}},{"type":"Feature","geometry":{"type":"Point","coordinates":[4.694647,52.578411]},"properties":{"type":"charge","layer":"passenger","locationId":"6a50ea898de259065d5f68be","name":"Bart Dirkson 's station","address":"Schipperslaan  4 h","city":"Limmen","operatorName":"E-Flux by Road","maxPowerKw":11,"isMegawatt":false,"status":"AVAILABLE","source":"ndw","priceKwh":0.33}},{"type":"Feature","geometry":{"type":"Point","coordinates":[4.677298,52.551899]},"properties":{"type":"charge","layer":"passenger","locationId":"452ebba2651c41475cc47a1fec14d1f4","name":"Henri Dunantsingel 1","address":"Henri Dunantsingel 1","city":"Castricum","operatorName":"Vattenfall InCharge","maxPowerKw":11,"isMegawatt":false,"status":"AVAILABLE","source":"ndw","priceKwh":0.2805}},{"type":"Feature","geometry":{"type":"Point","coordinates":[4.7259281,52.5575003]},"properties":{"type":"charge","layer":"passenger","locationId":"1277","name":"Shell Recharge NL Keizerskroon 3","address":"Keizerskroon 3","city":"Akersloot","operatorName":"Ubitricity","maxPowerKw":22,"isMegawatt":false,"status":"AVAILABLE","source":"ndw","priceKwh":0.267}},{"type":"Feature","geometry":{"type":"Point","coordinates":[4.689202,52.548414]},"properties":{"type":"charge","layer":"passenger","locationId":"68b01d46095b9835ef99dd85","name":"Dodewaard","address":"Jo Imminkstraat 7","city":"Castricum","operatorName":"E-Flux by Road","maxPowerKw":11,"isMegawatt":false,"status":"AVAILABLE","source":"ndw","priceKwh":0.51}},{"type":"Feature","geometry":{"type":"Point","coordinates":[4.701474,52.5708]},"properties":{"type":"charge","layer":"passenger","locationId":"44b327a5-315e-4cf1-b338-e63326b5236b","name":"TNLP005745 - Koningsdam 1, Limmen","address":"1 Koningsdam","city":"Limmen","operatorName":"TotalEnergies","maxPowerKw":13,"isMegawatt":false,"status":"UNAVAILABLE","source":"ndw"}},{"type":"Feature","geometry":{"type":"Point","coordinates":[4.687507,52.5476]},"properties":{"type":"charge","layer":"passenger","locationId":"1fc25770d6cec1b00409675ee51847a6","name":"Fien de la Marstraat 41","address":"Fien de la Marstraat 41","city":"Castricum","operatorName":"Vattenfall InCharge","maxPowerKw":11,"isMegawatt":false,"status":"AVAILABLE","source":"ndw","priceKwh":0.2805}},{"type":"Feature","geometry":{"type":"Point","coordinates":[4.693649,52.565894]},"properties":{"type":"charge","layer":"passenger","locationId":"91094341","name":"50five-S NL 17B08173","address":"Helmar 4","city":"Limmen","operatorName":"50five","maxPowerKw":11,"isMegawatt":false,"status":"AVAILABLE","source":"ndw"}},{"type":"Feature","geometry":{"type":"Point","coordinates":[4.6859,52.54881]},"properties":{"type":"charge","layer":"passenger","locationId":"4a435551e6c19e5cf0286226997c807e","name":"Fien de la Marstraat 8","address":"Fien de la Marstraat 8","city":"Castricum","operatorName":"Vattenfall InCharge","maxPowerKw":11,"isMegawatt":false,"status":"AVAILABLE","source":"ndw","priceKwh":0.2805}},{"type":"Feature","geometry":{"type":"Point","coordinates":[4.669432,52.54914]},"properties":{"type":"charge","layer":"passenger","locationId":"37F70D4B-955E-420A-9CAC-0B9C67D7BA52","name":"TNLP009254 - Dokter van Nieveltweg 2A, Castricum","address":"2A Dokter van Nieveltweg","city":"Castricum","operatorName":"TotalEnergies","maxPowerKw":15,"isMegawatt":false,"status":"AVAILABLE","source":"ndw"}},{"type":"Feature","geometry":{"type":"Point","coordinates":[4.644897,52.532322]},"properties":{"type":"charge","layer":"passenger","locationId":"69cbd0ba0007899c767ae0df","name":"Bezoekersladers Geversduin","address":"Beverwijkerstraatweg 205","city":"Castricum","operatorName":"NXT Charging Solutions","maxPowerKw":22,"isMegawatt":false,"status":"AVAILABLE","source":"ndw","priceKwh":0.56}},{"type":"Feature","geometry":{"type":"Point","coordinates":[4.67379,52.544697]},"properties":{"type":"charge","layer":"passenger","locationId":"33429644-C29A-40D2-801F-6781354F9688","name":"TNLP006012 - Cieweg 58, Castricum","address":"58 Cieweg","city":"Castricum","operatorName":"TotalEnergies","maxPowerKw":13,"isMegawatt":false,"status":"CHARGING","source":"ndw"}},{"type":"Feature","geometry":{"type":"Point","coordinates":[4.671171,52.5513386]},"properties":{"type":"charge","layer":"passenger","locationId":"2211","name":"Shell Recharge NL Willem de Rijkelaan 18","address":"Willem de Rijkelaan 18","city":"Castricum","operatorName":"Ubitricity","maxPowerKw":22,"isMegawatt":false,"status":"AVAILABLE","source":"ndw","priceKwh":0.267}},{"type":"Feature","geometry":{"type":"Point","coordinates":[4.64787,52.56116]},"properties":{"type":"charge","layer":"passenger","locationId":"718e821a-6cf9-4971-a0c7-d1fc6f429285","name":"PP001919 - Koningsduin 16, Castricum","address":"16 Koningsduin","city":"Castricum","operatorName":"TotalEnergies","maxPowerKw":11,"isMegawatt":false,"status":"AVAILABLE","source":"ndw"}},{"type":"Feature","geometry":{"type":"Point","coordinates":[4.65395,52.56559]},"properties":{"type":"charge","layer":"passenger","locationId":"5B1FA46D-1EFE-4011-98D5-AD569D255880","name":"Eneco eMobility Heereweg Castricum 38 Castricum","address":"Heereweg Castricum 38","city":"Castricum","operatorName":"Eneco","maxPowerKw":22,"isMegawatt":false,"status":"AVAILABLE","source":"ndw","priceKwh":0.32}},{"type":"Feature","geometry":{"type":"Point","coordinates":[4.611182,52.556484]},"properties":{"type":"charge","layer":"passenger","locationId":"91183286","name":"50five-S NL P aan Zee","address":"Zeeweg 10","city":"Castricum","operatorName":"50five","maxPowerKw":11,"isMegawatt":false,"status":"CHARGING","source":"ndw"}},{"type":"Feature","geometry":{"type":"Point","coordinates":[4.702357,52.573635]},"properties":{"type":"charge","layer":"passenger","locationId":"07CF4B48-DEF4-43BF-9973-FF579FFD8639","name":"TNLP008517 - Lage Weide 3a 121, Limmen","address":"3a 121 Lage Weide","city":"Limmen","operatorName":"TotalEnergies","maxPowerKw":14,"isMegawatt":false,"status":"AVAILABLE","source":"ndw"}},{"type":"Feature","geometry":{"type":"Point","coordinates":[4.6593,52.54538]},"properties":{"type":"charge","layer":"passenger","locationId":"A2B6266C-FE5F-4CE8-9B18-F95396EC3D42","name":"TNLP003624 - Stationsweg 2, Castricum","address":"2 Stationsweg","city":"Castricum","operatorName":"TotalEnergies","maxPowerKw":17,"isMegawatt":false,"status":"AVAILABLE","source":"ndw"}},{"type":"Feature","geometry":{"type":"Point","coordinates":[4.696128,52.568016]},"properties":{"type":"charge","layer":"passenger","locationId":"ed709b3df9939aeb26f230d22a90360d","name":"Enterij 16","address":"Enterij 16","city":"Limmen","operatorName":"Vattenfall InCharge","maxPowerKw":11,"isMegawatt":false,"status":"AVAILABLE","source":"ndw","priceKwh":0.2805}},{"type":"Feature","geometry":{"type":"Point","coordinates":[4.667432,52.548386]},"properties":{"type":"charge","layer":"passenger","locationId":"807A00CF-5275-4E2B-8C2D-44A3CC798FE0","name":"TNLP034277 - Koningin Wilhelminalaan 48, Castricum","address":"48 Koningin Wilhelminalaan","city":"Castricum","operatorName":"TotalEnergies","maxPowerKw":13,"isMegawatt":false,"status":"UNAVAILABLE","source":"ndw"}},{"type":"Feature","geometry":{"type":"Point","coordinates":[4.6967,52.57382]},"properties":{"type":"charge","layer":"passenger","locationId":"6fb3337a1587a0da7e2f6938bc3eb26e","name":"Ratelaar t.h.v. Rietorchis 17","address":"Ratelaar t.h.v. Rietorchis 17","city":"Limmen","operatorName":"Vattenfall InCharge","maxPowerKw":11,"isMegawatt":false,"status":"AVAILABLE","source":"ndw","priceKwh":0.2805}},{"type":"Feature","geometry":{"type":"Point","coordinates":[4.678047,52.555413]},"properties":{"type":"charge","layer":"passenger","locationId":"c227f748e9e6629ec9e2fb737ea20de2","name":"Plantenhove 59","address":"Plantenhove 59","city":"Castricum","operatorName":"Vattenfall InCharge","maxPowerKw":11,"isMegawatt":false,"status":"AVAILABLE","source":"ndw","priceKwh":0.2805}},{"type":"Feature","geometry":{"type":"Point","coordinates":[4.67781,52.55338]},"properties":{"type":"charge","layer":"passenger","locationId":"1667","name":"Shell Recharge NL Zwanebloem 11","address":"Zwanebloem 11","city":"Castricum","operatorName":"Ubitricity","maxPowerKw":11,"isMegawatt":false,"status":"AVAILABLE","source":"ndw","priceKwh":0.392}},{"type":"Feature","geometry":{"type":"Point","coordinates":[4.668304,52.55108]},"properties":{"type":"charge","layer":"passenger","locationId":"DA6150D7-394C-4436-9F20-3B2ED8023508","name":"TNLP005666 - Willem de Zwijgerlaan 15, Castricum","address":"15 Willem de Zwijgerlaan","city":"Castricum","operatorName":"TotalEnergies","maxPowerKw":13,"isMegawatt":false,"status":"AVAILABLE","source":"ndw"}},{"type":"Feature","geometry":{"type":"Point","coordinates":[4.677339,52.551945]},"properties":{"type":"charge","layer":"passenger","locationId":"87BE663D-7E41-41C5-BDD8-AC170741EA51","name":"TNLP007962 - Henri Dunantsingel 1, Castricum","address":"1 Henri Dunantsingel","city":"Castricum","operatorName":"TotalEnergies","maxPowerKw":13,"isMegawatt":false,"status":"AVAILABLE","source":"ndw"}},{"type":"Feature","geometry":{"type":"Point","coordinates":[4.66269,52.54582]},"properties":{"type":"charge","layer":"passenger","locationId":"9F69C2B4-F0C9-4E22-BD7A-405D392CFDD3","name":"PP004017 - Verlegde Overtoom 17, Castricum","address":"17 Verlegde Overtoom","city":"Castricum","operatorName":"TotalEnergies","maxPowerKw":13,"isMegawatt":false,"status":"AVAILABLE","source":"ndw"}},{"type":"Feature","geometry":{"type":"Point","coordinates":[4.73164,52.56344]},"properties":{"type":"charge","layer":"passenger","locationId":"8ce516cf-8b14-4177-be9b-6952ad31cc8a","name":"PP001839 - Rembrandtsingel 3A, Akersloot","address":"3A Rembrandtsingel","city":"Akersloot","operatorName":"TotalEnergies","maxPowerKw":11,"isMegawatt":false,"status":"AVAILABLE","source":"ndw"}},{"type":"Feature","geometry":{"type":"Point","coordinates":[4.660989,52.543636]},"properties":{"type":"charge","layer":"passenger","locationId":"5DA1D684-E2AA-42C2-8678-6ED1680DBEA0","name":"TNLP008552 - Beverwijkerstraatweg 6, Castricum","address":"6 Beverwijkerstraatweg","city":"Castricum","operatorName":"TotalEnergies","maxPowerKw":14,"isMegawatt":false,"status":"AVAILABLE","source":"ndw"}},{"type":"Feature","geometry":{"type":"Point","coordinates":[4.676848,52.54555]},"properties":{"type":"charge","layer":"passenger","locationId":"A744C977-5067-4B14-8E9D-049F7E7F8B5B","name":"TNLP006266 - Braveld 13, Castricum","address":"13 Braveld","city":"Castricum","operatorName":"TotalEnergies","maxPowerKw":13,"isMegawatt":false,"status":"AVAILABLE","source":"ndw"}},{"type":"Feature","geometry":{"type":"Point","coordinates":[4.648938,52.560085]},"properties":{"type":"charge","layer":"passenger","locationId":"BA63C0F5-1EA2-4A01-A536-8CB6848C6929","name":"TNLP008435 - Eikenhorst 1, Castricum","address":"1 Eikenhorst","city":"Castricum","operatorName":"TotalEnergies","maxPowerKw":13,"isMegawatt":false,"status":"AVAILABLE","source":"ndw"}},{"type":"Feature","geometry":{"type":"Point","coordinates":[4.679953,52.55214]},"properties":{"type":"charge","layer":"passenger","locationId":"FD0294C8-92A0-4B2E-BA44-3952AF38EE2D","name":"TNLP009380 - Dotterbloem 21, Castricum","address":"21 Dotterbloem","city":"Castricum","operatorName":"TotalEnergies","maxPowerKw":13,"isMegawatt":false,"status":"UNAVAILABLE","source":"ndw"}},{"type":"Feature","geometry":{"type":"Point","coordinates":[4.674112,52.54791]},"properties":{"type":"charge","layer":"passenger","locationId":"3C744B23-FBF9-40D1-9354-32C3F4C4C86F","name":"TNLP008000 - De Loet 2, Castricum","address":"2 De Loet","city":"Castricum","operatorName":"TotalEnergies","maxPowerKw":13,"isMegawatt":false,"status":"AVAILABLE","source":"ndw"}},{"type":"Feature","geometry":{"type":"Point","coordinates":[4.683942,52.547623]},"properties":{"type":"charge","layer":"passenger","locationId":"CA9C6955-830B-413C-95F4-665070BDCBA1","name":"TNLP008344 - Laan van Albert's Hoeve 138, Castricum","address":"138 Laan van Albert's Hoeve","city":"Castricum","operatorName":"TotalEnergies","maxPowerKw":14,"isMegawatt":false,"status":"AVAILABLE","source":"ndw"}},{"type":"Feature","geometry":{"type":"Point","coordinates":[4.657309,52.552753]},"properties":{"type":"charge","layer":"passenger","locationId":"9F8BDF81-9A90-4D48-9F78-D173AF3B591A","name":"TNLP009487 - Schelgeest 1, Castricum","address":"1 Schelgeest","city":"Castricum","operatorName":"TotalEnergies","maxPowerKw":15,"isMegawatt":false,"status":"CHARGING","source":"ndw"}},{"type":"Feature","geometry":{"type":"Point","coordinates":[4.66377,52.54651]},"properties":{"type":"charge","layer":"passenger","locationId":"498","name":"Shell Recharge NL Kerkpad 24","address":"Kerkpad 24","city":"Castricum","operatorName":"Ubitricity","maxPowerKw":11,"isMegawatt":false,"status":"AVAILABLE","source":"ndw","priceKwh":0.392}},{"type":"Feature","geometry":{"type":"Point","coordinates":[4.662888,52.543896]},"properties":{"type":"charge","layer":"passenger","locationId":"A90EB1EB-5E1C-4E12-B2DD-01236A7B49D6","name":"TNLP015052 - Huibert van Ginhovenstraat 12, Castricum","address":"12 Huibert van Ginhovenstraat","city":"Castricum","operatorName":"TotalEnergies","maxPowerKw":13,"isMegawatt":false,"status":"UNAVAILABLE","source":"ndw"}},{"type":"Feature","geometry":{"type":"Point","coordinates":[4.67428,52.55415]},"properties":{"type":"charge","layer":"passenger","locationId":"516","name":"Shell Recharge NL Händelstraat 30","address":"Händelstraat 30","city":"Castricum","operatorName":"Ubitricity","maxPowerKw":11,"isMegawatt":false,"status":"AVAILABLE","source":"ndw","priceKwh":0.392}},{"type":"Feature","geometry":{"type":"Point","coordinates":[4.687172,52.550945]},"properties":{"type":"charge","layer":"passenger","locationId":"5E8F05B9-17C4-45D1-AAF8-9F13BB822690","name":"TNLP006403 - De Bloemen 67, Castricum","address":"67 De Bloemen","city":"Castricum","operatorName":"TotalEnergies","maxPowerKw":15,"isMegawatt":false,"status":"AVAILABLE","source":"ndw"}},{"type":"Feature","geometry":{"type":"Point","coordinates":[4.672224,52.552784]},"properties":{"type":"charge","layer":"passenger","locationId":"4FD72B72-9530-43DF-A8BC-6FEC8FA44110","name":"TNLP007853 - Hendrik Casimirstraat 48, Castricum","address":"48 Hendrik Casimirstraat","city":"Castricum","operatorName":"TotalEnergies","maxPowerKw":13,"isMegawatt":false,"status":"UNAVAILABLE","source":"ndw"}},{"type":"Feature","geometry":{"type":"Point","coordinates":[4.67824,52.54258]},"properties":{"type":"charge","layer":"passenger","locationId":"8BD6030A-1E1C-404B-9879-9D295D030DB6","name":"PP005014 - Klapweide 55, Castricum","address":"55 Klapweide","city":"Castricum","operatorName":"TotalEnergies","maxPowerKw":13,"isMegawatt":false,"status":"AVAILABLE","source":"ndw"}},{"type":"Feature","geometry":{"type":"Point","coordinates":[4.684236,52.555016]},"properties":{"type":"charge","layer":"passenger","locationId":"5DE7B70B-BF38-47E0-B9C2-B51F97D04603","name":"PP005610 - Wederik 14, Castricum","address":"14 Wederik","city":"Castricum","operatorName":"TotalEnergies","maxPowerKw":13,"isMegawatt":false,"status":"AVAILABLE","source":"ndw"}},{"type":"Feature","geometry":{"type":"Point","coordinates":[4.67132,52.54797]},"properties":{"type":"charge","layer":"passenger","locationId":"8da29199-cf67-4aca-899b-5f35920623d3","name":"PP001210 - Wayenburgh 12, Castricum","address":"12 Wayenburgh","city":"Castricum","operatorName":"TotalEnergies","maxPowerKw":11,"isMegawatt":false,"status":"AVAILABLE","source":"ndw"}},{"type":"Feature","geometry":{"type":"Point","coordinates":[4.644642,52.557053]},"properties":{"type":"charge","layer":"passenger","locationId":"91107527","name":"50five-S NL 03007782","address":"Oude Parklaan 117","city":"Castricum","operatorName":"50five","maxPowerKw":11,"isMegawatt":false,"status":"AVAILABLE","source":"ndw"}},{"type":"Feature","geometry":{"type":"Point","coordinates":[4.666214,52.54415]},"properties":{"type":"charge","layer":"passenger","locationId":"A5689629-EFFA-4E98-A9E3-9C4CD6A8918F","name":"TNLP006208 - Peter Duymstraat 1, Castricum","address":"1 Peter Duymstraat","city":"Castricum","operatorName":"TotalEnergies","maxPowerKw":13,"isMegawatt":false,"status":"AVAILABLE","source":"ndw"}},{"type":"Feature","geometry":{"type":"Point","coordinates":[4.6592,52.55991]},"properties":{"type":"charge","layer":"passenger","locationId":"4C988E86-8851-48A8-B6FF-91006BC780F0","name":"PP004034 - Van Polanenlaan 8, Castricum","address":"8 Van Polanenlaan","city":"Castricum","operatorName":"TotalEnergies","maxPowerKw":15,"isMegawatt":false,"status":"UNAVAILABLE","source":"ndw"}},{"type":"Feature","geometry":{"type":"Point","coordinates":[4.6689,52.55818]},"properties":{"type":"charge","layer":"passenger","locationId":"5FBD3435-864F-455F-A674-B3F84E1B768E","name":"TNLP003563 - JH van Kinsbergenstraat 18, Castricum","address":"18 JH van Kinsbergenstraat","city":"Castricum","operatorName":"TotalEnergies","maxPowerKw":17,"isMegawatt":false,"status":"AVAILABLE","source":"ndw"}},{"type":"Feature","geometry":{"type":"Point","coordinates":[4.67826,52.5451]},"properties":{"type":"charge","layer":"passenger","locationId":"487","name":"Shell Recharge NL Dorcamp 25","address":"Dorcamp 25","city":"Castricum","operatorName":"Ubitricity","maxPowerKw":11,"isMegawatt":false,"status":"CHARGING","source":"ndw","priceKwh":0.392}},{"type":"Feature","geometry":{"type":"Point","coordinates":[4.661601,52.545956]},"properties":{"type":"charge","layer":"passenger","locationId":"2730E5E3-2BC7-4686-91F3-8B6C829F9F33","name":"TNLP006588 - Dorpsstraat 32, Castricum","address":"32 Dorpsstraat","city":"Castricum","operatorName":"TotalEnergies","maxPowerKw":15,"isMegawatt":false,"status":"CHARGING","source":"ndw"}},{"type":"Feature","geometry":{"type":"Point","coordinates":[4.727345,52.558346]},"properties":{"type":"charge","layer":"passenger","locationId":"3955A044-9F87-4CBE-8E96-FE7ECA7A7EF7","name":"TNLP005682 - Tijgerlelie 14, Akersloot","address":"14 Tijgerlelie","city":"Akersloot","operatorName":"TotalEnergies","maxPowerKw":15,"isMegawatt":false,"status":"AVAILABLE","source":"ndw"}},{"type":"Feature","geometry":{"type":"Point","coordinates":[4.6721,52.55578]},"properties":{"type":"charge","layer":"passenger","locationId":"515D68FD-5905-4CD1-8E5B-F1D75626A92D","name":"PP004029 - Boccherinistraat 13, Castricum","address":"13 Boccherinistraat","city":"Castricum","operatorName":"TotalEnergies","maxPowerKw":13,"isMegawatt":false,"status":"AVAILABLE","source":"ndw"}},{"type":"Feature","geometry":{"type":"Point","coordinates":[4.694126,52.56839]},"properties":{"type":"charge","layer":"passenger","locationId":"9383AE32-1EA8-42AB-81A5-E70928E6CE43","name":"TNLP006624 - Enterij 23, Limmen","address":"23 Enterij","city":"Limmen","operatorName":"TotalEnergies","maxPowerKw":13,"isMegawatt":false,"status":"UNAVAILABLE","source":"ndw"}},{"type":"Feature","geometry":{"type":"Point","coordinates":[4.674169,52.548295]},"properties":{"type":"charge","layer":"passenger","locationId":"d10e14da70d0c7e13c0a57558e211771","name":"C.F. Smeetslaan 99","address":"C.F. Smeetslaan 99","city":"Castricum","operatorName":"Vattenfall InCharge","maxPowerKw":11,"isMegawatt":false,"status":"AVAILABLE","source":"ndw","priceKwh":0.2805}},{"type":"Feature","geometry":{"type":"Point","coordinates":[4.6599,52.55076]},"properties":{"type":"charge","layer":"passenger","locationId":"E4E17D4D-3BB8-4D73-8637-E0479650D7EF","name":"PP004131 - Doctor Leenaersstraat 47, Castricum","address":"47 Doctor Leenaersstraat","city":"Castricum","operatorName":"TotalEnergies","maxPowerKw":13,"isMegawatt":false,"status":"AVAILABLE","source":"ndw"}},{"type":"Feature","geometry":{"type":"Point","coordinates":[4.72976,52.555313]},"properties":{"type":"charge","layer":"passenger","locationId":"65B120B3-BD91-4F17-BAA2-55EE66B16B54","name":"TNLP009574 - De Tarp 29, Akersloot","address":"29 De Tarp","city":"Akersloot","operatorName":"TotalEnergies","maxPowerKw":15,"isMegawatt":false,"status":"AVAILABLE","source":"ndw"}},{"type":"Feature","geometry":{"type":"Point","coordinates":[4.668277,52.546432]},"properties":{"type":"charge","layer":"passenger","locationId":"573C8EB6-BD43-4C10-9036-15E400D09573","name":"PP005588 - Van Hoockerkenstraat 12, Castricum","address":"12 Van Hoockerkenstraat","city":"Castricum","operatorName":"TotalEnergies","maxPowerKw":13,"isMegawatt":false,"status":"CHARGING","source":"ndw"}},{"type":"Feature","geometry":{"type":"Point","coordinates":[4.677566,52.55967]},"properties":{"type":"charge","layer":"passenger","locationId":"73F9AC71-0489-4199-A24F-3F0365638C0F","name":"TNLP005661 - Hyacintenveld 20, Castricum","address":"20 Hyacintenveld","city":"Castricum","operatorName":"TotalEnergies","maxPowerKw":13,"isMegawatt":false,"status":"AVAILABLE","source":"ndw"}},{"type":"Feature","geometry":{"type":"Point","coordinates":[4.704206,52.57099]},"properties":{"type":"charge","layer":"passenger","locationId":"992B0618-CE63-44FC-93BE-43C38E3F88C7","name":"TNLP008863 - Meidoornlaan 51, Limmen","address":"51 Meidoornlaan","city":"Limmen","operatorName":"TotalEnergies","maxPowerKw":14,"isMegawatt":false,"status":"AVAILABLE","source":"ndw"}},{"type":"Feature","geometry":{"type":"Point","coordinates":[4.677728,52.54778]},"properties":{"type":"charge","layer":"passenger","locationId":"B3C96EF3-F000-4007-A6F7-3908FDDDEDAF","name":"TNLP034321 - Monetastraat 2, Castricum","address":"2 Monetastraat","city":"Castricum","operatorName":"TotalEnergies","maxPowerKw":13,"isMegawatt":false,"status":"UNAVAILABLE","source":"ndw"}},{"type":"Feature","geometry":{"type":"Point","coordinates":[4.68,52.54376]},"properties":{"type":"charge","layer":"passenger","locationId":"176","name":"Shell Recharge NL Groteweide 44","address":"Groteweide 44","city":"Castricum","operatorName":"Ubitricity","maxPowerKw":11,"isMegawatt":false,"status":"AVAILABLE","source":"ndw","priceKwh":0.392}},{"type":"Feature","geometry":{"type":"Point","coordinates":[4.661385,52.555164]},"properties":{"type":"charge","layer":"passenger","locationId":"B1FA06CE-BB86-4CE0-8A92-E4AD7D3B817F","name":"TNLP008443 - Eerste Groenelaan 25, Castricum","address":"25 Eerste Groenelaan","city":"Castricum","operatorName":"TotalEnergies","maxPowerKw":14,"isMegawatt":false,"status":"AVAILABLE","source":"ndw"}},{"type":"Feature","geometry":{"type":"Point","coordinates":[4.658176,52.54901]},"properties":{"type":"charge","layer":"passenger","locationId":"4F7B4C84-98B3-4633-89AD-C547284C8C0D","name":"TNLP009218 - Mient 41, Castricum","address":"41 Mient","city":"Castricum","operatorName":"TotalEnergies","maxPowerKw":13,"isMegawatt":false,"status":"AVAILABLE","source":"ndw"}},{"type":"Feature","geometry":{"type":"Point","coordinates":[4.697463,52.57385]},"properties":{"type":"charge","layer":"passenger","locationId":"4484D858-24C9-47B1-8659-596F72AAE112","name":"TNLP008240 - Ratelaar 1, Limmen","address":"1 Ratelaar","city":"Limmen","operatorName":"TotalEnergies","maxPowerKw":13,"isMegawatt":false,"status":"AVAILABLE","source":"ndw"}},{"type":"Feature","geometry":{"type":"Point","coordinates":[4.679939,52.55121]},"properties":{"type":"charge","layer":"passenger","locationId":"3EEF0847-1DAA-4BDF-A7ED-80CEE910F0C4","name":"PP005591 - Henri Dunantsingel 82, Castricum","address":"82 Henri Dunantsingel","city":"Castricum","operatorName":"TotalEnergies","maxPowerKw":13,"isMegawatt":false,"status":"AVAILABLE","source":"ndw"}},{"type":"Feature","geometry":{"type":"Point","coordinates":[4.65823,52.5582]},"properties":{"type":"charge","layer":"passenger","locationId":"9206E4D1-3BDE-4A7B-8CEF-DDA70111262E","name":"TNLP005727 - Stetweg 5, Castricum","address":"5 Stetweg","city":"Castricum","operatorName":"TotalEnergies","maxPowerKw":13,"isMegawatt":false,"status":"AVAILABLE","source":"ndw"}},{"type":"Feature","geometry":{"type":"Point","coordinates":[4.692522,52.571808]},"properties":{"type":"charge","layer":"passenger","locationId":"C3CF4BD6-2DD2-404E-82B6-B7941DF476D7","name":"TNLP009432 - De Drie Linden 3, Limmen","address":"3 De Drie Linden","city":"Limmen","operatorName":"TotalEnergies","maxPowerKw":15,"isMegawatt":false,"status":"AVAILABLE","source":"ndw"}},{"type":"Feature","geometry":{"type":"Point","coordinates":[4.698227,52.57035]},"properties":{"type":"charge","layer":"passenger","locationId":"8226DDC0-B734-4BB0-B4F4-07BDDF13E3B8","name":"TNLP008140 - Rooinap 10, Limmen","address":"10 Rooinap","city":"Limmen","operatorName":"TotalEnergies","maxPowerKw":13,"isMegawatt":false,"status":"AVAILABLE","source":"ndw"}},{"type":"Feature","geometry":{"type":"Point","coordinates":[4.687329,52.575794]},"properties":{"type":"charge","layer":"passenger","locationId":"9F4C832F-48D0-4402-BC03-2F1FA3BC83D3","name":"TNLP009892 - Terwiel 1, Limmen","address":"1 Terwiel","city":"Limmen","operatorName":"TotalEnergies","maxPowerKw":13,"isMegawatt":false,"status":"AVAILABLE","source":"ndw"}},{"type":"Feature","geometry":{"type":"Point","coordinates":[4.662318,52.550076]},"properties":{"type":"charge","layer":"passenger","locationId":"09E045C6-529E-436F-8D79-6121B467B53A","name":"TNLP006625 - Burgemeester Lommenstraat 24, Castricum","address":"24 Burgemeester Lommenstraat","city":"Castricum","operatorName":"TotalEnergies","maxPowerKw":13,"isMegawatt":false,"status":"UNAVAILABLE","source":"ndw"}},{"type":"Feature","geometry":{"type":"Point","coordinates":[4.664175,52.549607]},"properties":{"type":"charge","layer":"passenger","locationId":"9e9e612e5df098d646bca02035b80803","name":"Kon. Wilhelminalaan 1","address":"Kon. Wilhelminalaan 1","city":"Castricum","operatorName":"Vattenfall InCharge","maxPowerKw":11,"isMegawatt":false,"status":"AVAILABLE","source":"ndw","priceKwh":0.2805}},{"type":"Feature","geometry":{"type":"Point","coordinates":[4.677439,52.54269]},"properties":{"type":"charge","layer":"passenger","locationId":"f72a2812-0ca3-4508-926d-dc1b0b659d6a","name":"TNLP015235 - Voorweide 29, Castricum","address":"29 Voorweide","city":"Castricum","operatorName":"TotalEnergies","maxPowerKw":13,"isMegawatt":false,"status":"AVAILABLE","source":"ndw"}},{"type":"Feature","geometry":{"type":"Point","coordinates":[4.658226,52.544714]},"properties":{"type":"charge","layer":"passenger","locationId":"90318752","name":"Van Leeuwen Castricum","address":"Westerplein 6","city":"Castricum","operatorName":"Van Leeuwen","maxPowerKw":11,"isMegawatt":false,"status":"CHARGING","source":"ndw"}},{"type":"Feature","geometry":{"type":"Point","coordinates":[4.685619,52.575745]},"properties":{"type":"charge","layer":"passenger","locationId":"1B01A729-648E-4C16-B58B-9417A70DAB20","name":"TNLP008266 - Pageveld 21, Limmen","address":"21 Pageveld","city":"Limmen","operatorName":"TotalEnergies","maxPowerKw":14,"isMegawatt":false,"status":"UNAVAILABLE","source":"ndw"}},{"type":"Feature","geometry":{"type":"Point","coordinates":[4.693737,52.571409]},"properties":{"type":"charge","layer":"passenger","locationId":"91150745","name":"50five-S NL 08103494","address":"Rijksweg 100","city":"Limmen","operatorName":"50five","maxPowerKw":11,"isMegawatt":false,"status":"AVAILABLE","source":"ndw"}},{"type":"Feature","geometry":{"type":"Point","coordinates":[4.677898,52.55023]},"properties":{"type":"charge","layer":"passenger","locationId":"2B01D904-FBE7-4EA6-8817-C39A84F241F8","name":"TNLP008544 - Dag Hammarskjöldlaan 81, Castricum","address":"81 Dag Hammarskjöldlaan","city":"Castricum","operatorName":"TotalEnergies","maxPowerKw":14,"isMegawatt":false,"status":"AVAILABLE","source":"ndw"}},{"type":"Feature","geometry":{"type":"Point","coordinates":[4.65914,52.55519]},"properties":{"type":"charge","layer":"passenger","locationId":"1A4DEB6F-A738-4936-BD95-6255DAED2F18","name":"PP004008 - Schelgeest 53, Castricum","address":"53 Schelgeest","city":"Castricum","operatorName":"TotalEnergies","maxPowerKw":13,"isMegawatt":false,"status":"UNAVAILABLE","source":"ndw"}},{"type":"Feature","geometry":{"type":"Point","coordinates":[4.694904,52.572495]},"properties":{"type":"charge","layer":"passenger","locationId":"7F1F9C50-08C1-4184-8F5D-548CA23C1B1F","name":"TNLP006078 - Middenweg 18, Limmen","address":"18 Middenweg","city":"Limmen","operatorName":"TotalEnergies","maxPowerKw":13,"isMegawatt":false,"status":"UNAVAILABLE","source":"ndw"}},{"type":"Feature","geometry":{"type":"Point","coordinates":[4.650096,52.55918]},"properties":{"type":"charge","layer":"passenger","locationId":"9233AC12-6651-4BAC-89A2-3E94A0870095","name":"TNLP008644 - Duinmeiershof 34, Castricum","address":"34 Duinmeiershof","city":"Castricum","operatorName":"TotalEnergies","maxPowerKw":14,"isMegawatt":false,"status":"AVAILABLE","source":"ndw"}},{"type":"Feature","geometry":{"type":"Point","coordinates":[4.673853,52.55495]},"properties":{"type":"charge","layer":"passenger","locationId":"D6DB086B-8FA3-44DE-83BA-9B35F0D15E70","name":"TNLP006623 - Boccherinistraat 49, Castricum","address":"49 Boccherinistraat","city":"Castricum","operatorName":"TotalEnergies","maxPowerKw":13,"isMegawatt":false,"status":"AVAILABLE","source":"ndw"}},{"type":"Feature","geometry":{"type":"Point","coordinates":[4.68178,52.543865]},"properties":{"type":"charge","layer":"passenger","locationId":"91068593","name":"50five-S NL 07002976","address":"Oosterweide 40","city":"Castricum","operatorName":"50five","maxPowerKw":7,"isMegawatt":false,"status":"AVAILABLE","source":"ndw"}},{"type":"Feature","geometry":{"type":"Point","coordinates":[4.664727,52.540789]},"properties":{"type":"charge","layer":"passenger","locationId":"6295db1976f6af2c003ba248","name":"Autobedrijf Castricum Laadstation","address":"Castricummer Werf 61","city":"Castricum","operatorName":"E-Flux by Road","maxPowerKw":11,"isMegawatt":false,"status":"CHARGING","source":"ndw","priceKwh":0.53}},{"type":"Feature","geometry":{"type":"Point","coordinates":[4.689331,52.57075]},"properties":{"type":"charge","layer":"passenger","locationId":"4D4CC65E-FF41-40E1-8BF5-A11918F5EEC1","name":"TNLP006115 - De Wieken 67, Limmen","address":"67 De Wieken","city":"Limmen","operatorName":"TotalEnergies","maxPowerKw":13,"isMegawatt":false,"status":"AVAILABLE","source":"ndw"}},{"type":"Feature","geometry":{"type":"Point","coordinates":[4.648733,52.558012]},"properties":{"type":"charge","layer":"passenger","locationId":"280342d2cc742f13f8bb1f07265d6a5a","name":"Bosakker 7","address":"Bosakker 7","city":"Castricum","operatorName":"Vattenfall InCharge","maxPowerKw":11,"isMegawatt":false,"status":"AVAILABLE","source":"ndw","priceKwh":0.2805}},{"type":"Feature","geometry":{"type":"MultiPolygon","coordinates":[[[[4.75647660734669,52.59156895165394],[4.751310621449722,52.582277581121595],[4.748900432380498,52.5739852964368],[4.747279845365024,52.57135534994015],[4.744700479177919,52.56794228490235],[4.745082669169562,52.56685206119778],[4.752540171317018,52.56278197695697],[4.756857594255649,52.562071967534784],[4.771966068035791,52.55989891533042],[4.781621828271171,52.557102795133964],[4.778062566596211,52.54417832263839],[4.777732632443559,52.533745370078215],[4.7746949967286465,52.53454965978192],[4.768018186552631,52.53463498851654],[4.762427103682279,52.5375110726551],[4.759475349480288,52.53737928578028],[4.7552747345159965,52.53573600045984],[4.750435668588844,52.53789596954336],[4.735389268074102,52.543822983555614],[4.723723297282848,52.5466696300941],[4.71980354917225,52.54385493266105],[4.718785169506014,52.55162329038539],[4.705896667576165,52.54822376519213],[4.7064301387477006,52.54629529625867],[4.703691858599368,52.54539675422321],[4.694533522839805,52.544188625123354],[4.695595932106443,52.535873978242144],[4.697603545666336,52.52924135651798],[4.697466659206392,52.52916432178211],[4.6957353801591895,52.526728321729486],[4.669570657711139,52.530542455934224],[4.659968334646283,52.53175156288496],[4.656198859578183,52.53152937410867],[4.653027708272815,52.530724705986444],[4.652793170379659,52.53072634169169],[4.598301651897403,52.53114074291653],[4.601182507664422,52.539351351159276],[4.609963819769603,52.57374467642942],[4.6549791965041445,52.58287047394872],[4.65571234490266,52.58551263640779],[4.6598393004487315,52.58614021978531],[4.672580068266239,52.59090468046884],[4.673978401001145,52.58994774483197],[4.670614096347089,52.58872986391568],[4.671640025900468,52.58729857551628],[4.6777371382301,52.58548410097092],[4.677652825539167,52.58433773382878],[4.679272536619481,52.58387377007414],[4.685520888734371,52.58313156426896],[4.686242448613133,52.58295743384236],[4.685424190167208,52.58095751764847],[4.691303670078838,52.580049271860965],[4.691084411319063,52.579578739987824],[4.6965862727082595,52.57897843872997],[4.698315098650082,52.58185552532883],[4.703358862061666,52.58155153788358],[4.703754667312987,52.58033907611072],[4.710256532717696,52.58058810035602],[4.718181223894001,52.58008140658066],[4.718466791701346,52.580062012073505],[4.723337929057903,52.57976619958425],[4.7248821262047445,52.578737676537976],[4.726706596213709,52.57963766752804],[4.73999155100453,52.578928707691304],[4.744454624457851,52.590289016050164],[4.750967225485371,52.58911939698739],[4.752137370577582,52.59189150290857],[4.752479169579292,52.59257784529333],[4.75647660734669,52.59156895165394]]]]},"properties":{"type":"boundary","gemeente":"Castricum","code":"GM0383"}}]}