{"type":"FeatureCollection","metadata":{"gemeente":"Delft","slug":"delft","code":"GM0503","generated_at":"2026-08-08T12:05:52.020Z","total_passenger":43,"total_freight":1,"bounds":[4.3202177544235685,51.966316407299715,4.407910755307138,52.03259901757016],"operators":["50five","ChargePoint","DAEN Mobility","E-Flux by Road","Eneco","Fastned","IONITY","Laadnet","Opcharge","Smappee","Spirii","Van Leeuwen","Vattenfall InCharge"]},"features":[{"type":"Feature","geometry":{"type":"Point","coordinates":[4.341662,52.001562]},"properties":{"type":"charge","layer":"passenger","locationId":"NLENV533","name":"Delft, De Hoop 1","address":"De Hoop 1","city":"Delft","operatorName":"","maxPowerKw":11,"isMegawatt":false,"status":"AVAILABLE","source":"ndw","priceKwh":0.5}},{"type":"Feature","geometry":{"type":"Point","coordinates":[4.381209,51.997474]},"properties":{"type":"charge","layer":"passenger","locationId":"91108944","name":"50five-S NL 08106319","address":"Informaticalaan 5","city":"Delft","operatorName":"50five","maxPowerKw":11,"isMegawatt":false,"status":"AVAILABLE","source":"ndw"}},{"type":"Feature","geometry":{"type":"Point","coordinates":[4.392855,51.983412]},"properties":{"type":"charge","layer":"passenger","locationId":"50008","name":"Fastned Vrijenban","address":"Vrijenban A13","city":"Delft","operatorName":"Fastned","maxPowerKw":300,"isMegawatt":false,"status":"AVAILABLE","source":"ndw","priceKwh":0.6364}},{"type":"Feature","geometry":{"type":"Point","coordinates":[4.367555,51.989044]},"properties":{"type":"charge","layer":"passenger","locationId":"4b63148ac2ba42aeacd63579bae0e78f","name":"BenO Delft","address":"Energieweg 15","city":"Delft","operatorName":"","maxPowerKw":11,"isMegawatt":false,"status":"AVAILABLE","source":"ndw","priceKwh":0.55}},{"type":"Feature","geometry":{"type":"Point","coordinates":[4.340484,51.998459]},"properties":{"type":"charge","layer":"passenger","locationId":"ECD01B4A-AB70-4CAE-A425-F7F71277924C","name":"Eneco eMobility Reinier de Graafweg 3a Delft","address":"Reinier de Graafweg 3a","city":"Delft","operatorName":"Eneco","maxPowerKw":22,"isMegawatt":false,"status":"AVAILABLE","source":"ndw","priceKwh":0.32}},{"type":"Feature","geometry":{"type":"Point","coordinates":[4.346691,51.98959]},"properties":{"type":"charge","layer":"passenger","locationId":"69b13ea9e55008065ebaeb60","name":"Peter Vogel 's station","address":"Eisenhowerlaan  10","city":"delft","operatorName":"E-Flux by Road","maxPowerKw":22,"isMegawatt":false,"status":"AVAILABLE","source":"ndw","priceKwh":0.38}},{"type":"Feature","geometry":{"type":"Point","coordinates":[4.38391,51.990772]},"properties":{"type":"charge","layer":"passenger","locationId":"266E28D0-426A-4DA3-97F4-DDB5B26D5219","name":"Eneco eMobility HollandPTC Delft","address":"Huismansingel 4","city":"Delft","operatorName":"Eneco","maxPowerKw":11,"isMegawatt":false,"status":"AVAILABLE","source":"ndw","priceKwh":0.32}},{"type":"Feature","geometry":{"type":"Point","coordinates":[4.37856,52.027645]},"properties":{"type":"charge","layer":"passenger","locationId":"B542FFA4-7285-4A34-AD6B-8599269F6EE8","name":"Eneco eMobility Werkse, Middelweg 1, Delft","address":"Middelweg 1","city":"Delft","operatorName":"Eneco","maxPowerKw":11,"isMegawatt":false,"status":"AVAILABLE","source":"ndw","priceKwh":0.28}},{"type":"Feature","geometry":{"type":"Point","coordinates":[4.354596,51.987442]},"properties":{"type":"charge","layer":"passenger","locationId":"32413","name":"Circle K Delft inz Kruithuisweg","address":"Kruithuisweg 10","city":"Delft","operatorName":"Spirii","maxPowerKw":175,"isMegawatt":false,"status":"AVAILABLE","source":"ndw","priceKwh":0.65}},{"type":"Feature","geometry":{"type":"Point","coordinates":[4.384523,51.996203]},"properties":{"type":"charge","layer":"passenger","locationId":"91106602","name":"50five-S NL 04002864","address":"Elektronicaweg 16A","city":"Delft","operatorName":"50five","maxPowerKw":11,"isMegawatt":false,"status":"AVAILABLE","source":"ndw"}},{"type":"Feature","geometry":{"type":"Point","coordinates":[4.370279,51.985167]},"properties":{"type":"charge","layer":"passenger","locationId":"NLCPIL7334085","name":"FOURCE BV LKQ.DELFT 2","address":"3 Faradayweg","city":"Delft","operatorName":"ChargePoint","maxPowerKw":22,"isMegawatt":false,"status":"AVAILABLE","source":"ndw","priceKwh":0.5}},{"type":"Feature","geometry":{"type":"Point","coordinates":[4.385655,51.997926]},"properties":{"type":"charge","layer":"passenger","locationId":"90304840","name":"50five Exploitatie Propertyview Delftechpark","address":"Delftechpark 39","city":"Delft","operatorName":"50five","maxPowerKw":11,"isMegawatt":false,"status":"AVAILABLE","source":"ndw"}},{"type":"Feature","geometry":{"type":"Point","coordinates":[4.353572,51.985797]},"properties":{"type":"charge","layer":"passenger","locationId":"7273B4AD-259C-47FE-AED5-8D7FEA03535C","name":"Eneco eMobility Werkse - Delft","address":"Abtswoude 7","city":"Delft","operatorName":"Eneco","maxPowerKw":11,"isMegawatt":false,"status":"AVAILABLE","source":"ndw","priceKwh":0.28}},{"type":"Feature","geometry":{"type":"Point","coordinates":[4.38817,51.985403]},"properties":{"type":"charge","layer":"passenger","locationId":"618647211d51fd47d62bf167","name":"Thijsseweg 11","address":"Thijsseweg 11","city":"Delft","operatorName":"E-Flux by Road","maxPowerKw":11,"isMegawatt":false,"status":"AVAILABLE","source":"ndw","priceKwh":0.24}},{"type":"Feature","geometry":{"type":"Point","coordinates":[4.36051,52.02205]},"properties":{"type":"charge","layer":"passenger","locationId":"FA707AAA-A59E-4447-B07A-AD12C03AED40","name":"Eneco eMobility GGZ Delfland - Delft","address":"Sint Jorisweg 2","city":"Delft","operatorName":"Eneco","maxPowerKw":11,"isMegawatt":false,"status":"AVAILABLE","source":"ndw","priceKwh":0.37}},{"type":"Feature","geometry":{"type":"Point","coordinates":[4.385807,51.993137]},"properties":{"type":"charge","layer":"passenger","locationId":"59626748","name":"Van Leeuwen TDVG","address":"Molengraafsingel 10","city":"Delft","operatorName":"Van Leeuwen","maxPowerKw":11,"isMegawatt":false,"status":"AVAILABLE","source":"ndw"}},{"type":"Feature","geometry":{"type":"Point","coordinates":[4.405391,51.970752]},"properties":{"type":"charge","layer":"passenger","locationId":"90321210","name":"Van Leeuwen Polderlab","address":"Rijkstraatweg 125","city":"Delft","operatorName":"Van Leeuwen","maxPowerKw":11,"isMegawatt":false,"status":"AVAILABLE","source":"ndw"}},{"type":"Feature","geometry":{"type":"Point","coordinates":[4.37679,52.01395]},"properties":{"type":"charge","layer":"passenger","locationId":"A96340E5-9A19-4183-B261-68916C7B5282","name":"Eneco eMobility JOVI - Olof Palmestraat 10 - Delft","address":"Olof Palmestraat 10","city":"Delft","operatorName":"Eneco","maxPowerKw":22,"isMegawatt":false,"status":"AVAILABLE","source":"ndw","priceKwh":0.35}},{"type":"Feature","geometry":{"type":"Point","coordinates":[4.353396,52.00273]},"properties":{"type":"charge","layer":"passenger","locationId":"89488063","name":"Van Leeuwen Westlandseweg 40","address":"Westlandseweg 40","city":"Delft","operatorName":"Van Leeuwen","maxPowerKw":22,"isMegawatt":false,"status":"AVAILABLE","source":"ndw"}},{"type":"Feature","geometry":{"type":"Point","coordinates":[4.389972,51.989982]},"properties":{"type":"charge","layer":"passenger","locationId":"91108497","name":"50five-S NL ICUEVE000222","address":"Molengraaffsingel 33","city":"Delft","operatorName":"50five","maxPowerKw":22,"isMegawatt":false,"status":"UNAVAILABLE","source":"ndw"}},{"type":"Feature","geometry":{"type":"Point","coordinates":[4.360135,52.006774]},"properties":{"type":"charge","layer":"passenger","locationId":"89886881","name":"Van Leeuwen Korte Geer 1","address":"Korte Geer 1","city":"Delft","operatorName":"Van Leeuwen","maxPowerKw":22,"isMegawatt":false,"status":"AVAILABLE","source":"ndw"}},{"type":"Feature","geometry":{"type":"Point","coordinates":[4.324666,52.006943]},"properties":{"type":"charge","layer":"passenger","locationId":"91052610","name":"50five-S NL 07002485","address":"Leehoeve 26","city":"Delft","operatorName":"50five","maxPowerKw":4,"isMegawatt":false,"status":"AVAILABLE","source":"ndw"}},{"type":"Feature","geometry":{"type":"Point","coordinates":[4.360276,51.997231]},"properties":{"type":"charge","layer":"passenger","locationId":"C850E882-ADD1-482F-9999-ACCCD46BB4E7","name":"Eneco eMobility Gemeente Delft","address":"Vulcanusweg 257","city":"Delft","operatorName":"Eneco","maxPowerKw":22,"isMegawatt":false,"status":"AVAILABLE","source":"ndw","priceKwh":0.24}},{"type":"Feature","geometry":{"type":"Point","coordinates":[4.354379,52.005051]},"properties":{"type":"charge","layer":"passenger","locationId":"91107387","name":"50five-S NL 18B13146","address":"Ada van Hollandstraat 1","city":"Delft","operatorName":"50five","maxPowerKw":11,"isMegawatt":false,"status":"AVAILABLE","source":"ndw"}},{"type":"Feature","geometry":{"type":"Point","coordinates":[4.375333,52.010209]},"properties":{"type":"charge","layer":"passenger","locationId":"923536","name":"EVB-P1630607","address":"Poortweg 4","city":"Delft","operatorName":"DAEN Mobility","maxPowerKw":11,"isMegawatt":false,"status":"AVAILABLE","source":"ndw","priceKwh":0.24}},{"type":"Feature","geometry":{"type":"Point","coordinates":[4.380226,51.985633]},"properties":{"type":"charge","layer":"passenger","locationId":"75449307","name":"Van Leeuwen Deltares","address":"Boussinesqweg 1","city":"Delft","operatorName":"Van Leeuwen","maxPowerKw":22,"isMegawatt":false,"status":"AVAILABLE","source":"ndw"}},{"type":"Feature","geometry":{"type":"Point","coordinates":[4.380884,52.01125]},"properties":{"type":"charge","layer":"passenger","locationId":"656eea4402064c001c02a8c8","name":"Westcord Hotel Delft","address":"Olof Palmestraat 2","city":"Delft","operatorName":"E-Flux by Road","maxPowerKw":22,"isMegawatt":false,"status":"AVAILABLE","source":"ndw","priceKwh":0.55}},{"type":"Feature","geometry":{"type":"Point","coordinates":[4.35347,51.9967]},"properties":{"type":"charge","layer":"passenger","locationId":"37C8D229-C88F-4ECB-BDDD-C98F545C9294","name":"Eneco eMobility Ahold Europe Real Estate & Construction - Delft","address":"Martinus Nijhofflaan 7","city":"Delft","operatorName":"Eneco","maxPowerKw":22,"isMegawatt":false,"status":"AVAILABLE","source":"ndw","priceKwh":0.35}},{"type":"Feature","geometry":{"type":"Point","coordinates":[4.377084,51.987514]},"properties":{"type":"charge","layer":"passenger","locationId":"3967094","name":"Laadnet Radex","address":"Rotterdamseweg 183C","city":"Delft","operatorName":"Laadnet","maxPowerKw":22,"isMegawatt":false,"status":"AVAILABLE","source":"ndw"}},{"type":"Feature","geometry":{"type":"Point","coordinates":[4.374536,51.991604]},"properties":{"type":"charge","layer":"passenger","locationId":"1787461","name":"Laadnet Smokey Goodness","address":"Rotterdamseweg 374","city":"Delft","operatorName":"Laadnet","maxPowerKw":11,"isMegawatt":false,"status":"AVAILABLE","source":"ndw"}},{"type":"Feature","geometry":{"type":"Point","coordinates":[4.365418,52.024988]},"properties":{"type":"charge","layer":"passenger","locationId":"05e016edc36a486eb511","name":"Campanile Hotel Delft","address":"Kleveringweg 53","city":"Delft","operatorName":"Opcharge","maxPowerKw":11,"isMegawatt":false,"status":"AVAILABLE","source":"ndw","priceKwh":0.49}},{"type":"Feature","geometry":{"type":"Point","coordinates":[4.355694,51.984266]},"properties":{"type":"charge","layer":"passenger","locationId":"62ac6ae9fa4f5979feaeeb3c","name":"Tussenbrock","address":"Koekamp 177","city":"Delft","operatorName":"E-Flux by Road","maxPowerKw":22,"isMegawatt":false,"status":"AVAILABLE","source":"ndw","priceKwh":0.53}},{"type":"Feature","geometry":{"type":"Point","coordinates":[4.363652,52.024733]},"properties":{"type":"charge","layer":"passenger","locationId":"89469416","name":"50five Exploitatie 89469416","address":"Kleveringweg 20","city":"Delft","operatorName":"50five","maxPowerKw":22,"isMegawatt":false,"status":"AVAILABLE","source":"ndw"}},{"type":"Feature","geometry":{"type":"Point","coordinates":[4.369563,52.00701]},"properties":{"type":"charge","layer":"passenger","locationId":"C521A762-E6D1-46BC-BE56-4FA8B4B26086","name":"Eneco eMobility HaskoningDHV Nederland B.V. - Delft","address":"Mijnbouwstraat 120","city":"Delft","operatorName":"Eneco","maxPowerKw":11,"isMegawatt":false,"status":"AVAILABLE","source":"ndw","priceKwh":0.3}},{"type":"Feature","geometry":{"type":"Point","coordinates":[4.343885,51.991893]},"properties":{"type":"charge","layer":"passenger","locationId":"91245233","name":"Van Leeuwen Villa Buiten Beheer BV","address":"Buitenhofdreef 268","city":"Delft","operatorName":"Van Leeuwen","maxPowerKw":11,"isMegawatt":false,"status":"UNAVAILABLE","source":"ndw"}},{"type":"Feature","geometry":{"type":"Point","coordinates":[4.357194,52.005284]},"properties":{"type":"charge","layer":"passenger","locationId":"89356861","name":"Van Leeuwen 89356861","address":"Van Leeuwenhoekpark","city":"Delft","operatorName":"Van Leeuwen","maxPowerKw":11,"isMegawatt":false,"status":"AVAILABLE","source":"ndw"}},{"type":"Feature","geometry":{"type":"Point","coordinates":[4.362016,51.988554]},"properties":{"type":"charge","layer":"passenger","locationId":"90856491","name":"Van Leeuwen Koninklijk Nederlands Normalisatie Instituut (NEN)","address":"Vlinderweg 6","city":"Delft","operatorName":"Van Leeuwen","maxPowerKw":22,"isMegawatt":false,"status":"AVAILABLE","source":"ndw"}},{"type":"Feature","geometry":{"type":"Point","coordinates":[4.377181,52.010251]},"properties":{"type":"charge","layer":"passenger","locationId":"90290301","name":"Van Leeuwen Allseas Engineering B.V.","address":"Poortweg 12","city":"Delft","operatorName":"Van Leeuwen","maxPowerKw":22,"isMegawatt":false,"status":"AVAILABLE","source":"ndw"}},{"type":"Feature","geometry":{"type":"Point","coordinates":[4.345366,51.986453]},"properties":{"type":"charge","layer":"passenger","locationId":"1682","name":"50five Exploitatie Tauro Delft","address":"Marshalllaan 2","city":"Delft","operatorName":"50five","maxPowerKw":11,"isMegawatt":false,"status":"UNAVAILABLE","source":"ndw"}},{"type":"Feature","geometry":{"type":"Point","coordinates":[4.403816,51.967875]},"properties":{"type":"charge","layer":"passenger","locationId":"6234521863269bcce14c59ec","name":"Manege De Prinsenstad","address":"Rijksstraatweg 145","city":"Delft","operatorName":"E-Flux by Road","maxPowerKw":22,"isMegawatt":false,"status":"AVAILABLE","source":"ndw","priceKwh":0.68}},{"type":"Feature","geometry":{"type":"Point","coordinates":[4.362378,52.026645]},"properties":{"type":"charge","layer":"passenger","locationId":"371be651-864d-4fd2-b20f-4e3ffa39e192","name":"Kleveringweg 2","address":"Kleveringweg 2","city":"Delft","operatorName":"Vattenfall InCharge","maxPowerKw":150,"isMegawatt":false,"status":"AVAILABLE","source":"ndw","priceKwh":0.46}},{"type":"Feature","geometry":{"type":"Point","coordinates":[4.353331,51.999656]},"properties":{"type":"charge","layer":"passenger","locationId":"1018733","name":"Energiehuis 015Duurzaam","address":"Papsouweslaan 224","city":"Delft","operatorName":"Smappee","maxPowerKw":22,"isMegawatt":false,"status":"AVAILABLE","source":"ndw","priceKwh":0.308}},{"type":"Feature","geometry":{"type":"Point","coordinates":[4.385106,51.996292]},"properties":{"type":"charge","layer":"passenger","locationId":"91107450","name":"50five-S NL 09101183","address":"Elektronicaweg 16A","city":"Delft","operatorName":"50five","maxPowerKw":11,"isMegawatt":false,"status":"AVAILABLE","source":"ndw"}},{"type":"Feature","geometry":{"type":"Point","coordinates":[4.380283,52.011573]},"properties":{"type":"charge","layer":"freight","locationId":"1298","name":"IONITY GmbH IONITY Delft","address":"Olof Palmestraat 2","city":"Delft","operatorName":"IONITY","maxPowerKw":400,"isMegawatt":false,"status":"AVAILABLE","source":"ndw","priceKwh":0.6283,"freightKind":"hpc","freightReason":"power"}},{"type":"Feature","geometry":{"type":"MultiPolygon","coordinates":[[[[4.3797352101454186,52.026732865608416],[4.379808575931623,52.02666376209716],[4.3862448078595895,52.02330834911099],[4.387848259507412,52.02137099626975],[4.3907892506646675,52.01682899487864],[4.393319829101208,52.01306966635625],[4.3945158607227714,52.011255740410675],[4.39368744939673,52.01102173165304],[4.393686716331619,52.01093324020499],[4.388345855849841,52.00944720625308],[4.388497717301928,52.00866692194133],[4.389025175617903,52.00783097822318],[4.388180388801812,52.00663819661808],[4.388622948333802,52.005453790955315],[4.38617332222301,52.00489419002462],[4.385915690618993,52.0048353306398],[4.388142414043754,51.99977595926261],[4.388281251390318,51.99945434282566],[4.3891643054430345,51.9973808048738],[4.389577318461612,51.99651986977875],[4.39177010532152,51.99128928844089],[4.393526910836741,51.98717589929079],[4.397030053142832,51.97897406692729],[4.4015375907761625,51.978046476363474],[4.40727328989474,51.968986858146124],[4.407910755307138,51.96819869979017],[4.402933291367906,51.966316407299715],[4.397722956840255,51.974333704548876],[4.396745672950724,51.97418083204202],[4.396173867667967,51.97608021040813],[4.394217190152928,51.97632688096338],[4.393809735633668,51.977503519830364],[4.383622409304474,51.97581590127994],[4.386302788912985,51.97221409677293],[4.375752230630558,51.97014764634031],[4.36917534735723,51.96887050099066],[4.368173737358888,51.9715817856054],[4.3595401124574655,51.97013541818933],[4.35872082568867,51.972260964222656],[4.359880492472041,51.97245729264102],[4.359700941680244,51.97287295679967],[4.358536030756339,51.97270515800783],[4.358368688366023,51.97310739168876],[4.359478902272548,51.973280402239325],[4.359306916298726,51.973693363362344],[4.3582037473423,51.97350384837444],[4.35765639916411,51.97481941437662],[4.358831554801547,51.97502015387154],[4.358571584744188,51.97565791116014],[4.357376289640864,51.97549263264772],[4.356625799536718,51.977296268525386],[4.345068790958476,51.97541935138147],[4.343134258683704,51.975674800539934],[4.338227196876602,51.97417770819421],[4.332723543449973,51.98045664855098],[4.332042062709165,51.98406791106442],[4.328487579091593,51.9857020240002],[4.324111870943417,51.98985862496764],[4.325732299762128,51.99195125639651],[4.333109511595602,51.99317183773607],[4.332813919071069,51.99555337320594],[4.331524988833107,51.99785223212006],[4.33324441621573,51.998116178625445],[4.333348305988675,51.99792129510199],[4.334746292821659,51.99834670683016],[4.3377168664432775,51.99880260581651],[4.335834292343651,52.001055393094695],[4.3411425073066185,52.002710451450554],[4.341097259270231,52.00278283287249],[4.339037636621174,52.00504802397415],[4.3384532396062285,52.00569084264493],[4.336370864868438,52.00475328352637],[4.332655707314968,52.00788296047655],[4.331311807460293,52.007280256277774],[4.328259562781736,52.00592006088598],[4.328069950331629,52.006097110735965],[4.3277403114138835,52.00640490305987],[4.326547902842762,52.006146519584185],[4.326504521863285,52.00624343306161],[4.325759746127107,52.00601723716745],[4.326236850151059,52.00542803685128],[4.326346276429767,52.00529289951186],[4.323244423528893,52.00433570950482],[4.3202177544235685,52.00806556614099],[4.321490072502596,52.00846361520028],[4.320635752786708,52.00932216046296],[4.3243663386705755,52.01043760984313],[4.3243715475402364,52.01053062687119],[4.324374505304105,52.01058342898],[4.325268176594162,52.01077518288313],[4.325470736922871,52.010869370833504],[4.325397131376942,52.011101781651455],[4.325329448127633,52.011315489698916],[4.325995412149416,52.01162119359535],[4.32532188380576,52.01219922420091],[4.32562422232951,52.012322598142],[4.3260593509228755,52.012500215394425],[4.325956264367408,52.012793464372024],[4.330246018521032,52.01466622137696],[4.33428729204129,52.01641822627134],[4.334426352577611,52.0164813726538],[4.343695465358787,52.020616973480266],[4.347670303040843,52.022351645405344],[4.348001873287155,52.022453815296686],[4.34801195256351,52.02245684989573],[4.351418457183246,52.02400334556387],[4.354950325894957,52.02558060122033],[4.355034436923696,52.02553039909008],[4.355426793731289,52.02571339805766],[4.355477303249321,52.02585235795553],[4.357693149975473,52.026821029612584],[4.357790268060775,52.02686341860571],[4.358848645132515,52.027334151117365],[4.35977436238521,52.02654248468685],[4.360260684189651,52.02675783304441],[4.3624259897762405,52.02769055292666],[4.363396008839177,52.0280967349714],[4.3734990787273835,52.03259901757016],[4.3797352101454186,52.026732865608416]]]]},"properties":{"type":"boundary","gemeente":"Delft","code":"GM0503"}}]}