{"type":"FeatureCollection","metadata":{"gemeente":"Dronten","slug":"dronten","code":"GM0303","generated_at":"2026-08-08T12:05:52.020Z","total_passenger":139,"total_freight":0,"bounds":[5.565420530466413,52.37052644210737,5.86351319736006,52.61559391502993],"operators":["50five","E-Flux by Road","Eneco","Laadnet","NXT Charging Solutions","Pluq","SuperTank","Tanx","TotalEnergies","Ubitricity","Vattenfall InCharge","bp pulse"]},"features":[{"type":"Feature","geometry":{"type":"Point","coordinates":[5.71518,52.52609]},"properties":{"type":"charge","layer":"passenger","locationId":"4505C796-067B-445C-9FC9-6A7F0A71C2EC","name":"PP004114 - De Bolder 2, Dronten","address":"2 De Bolder","city":"Dronten","operatorName":"TotalEnergies","maxPowerKw":13,"isMegawatt":false,"status":"AVAILABLE","source":"ndw"}},{"type":"Feature","geometry":{"type":"Point","coordinates":[5.72206,52.51766]},"properties":{"type":"charge","layer":"passenger","locationId":"91F1F13D-5053-446D-8E90-E6BAEBFCC6D3","name":"PP004116 - De Botteloef 23, Dronten","address":"23 De Botteloef","city":"Dronten","operatorName":"TotalEnergies","maxPowerKw":13,"isMegawatt":false,"status":"AVAILABLE","source":"ndw"}},{"type":"Feature","geometry":{"type":"Point","coordinates":[5.70523,52.51531]},"properties":{"type":"charge","layer":"passenger","locationId":"051325556a0551a075c4eb29057517e8","name":"De Barrage 8","address":"De Barrage 8","city":"Dronten","operatorName":"Vattenfall InCharge","maxPowerKw":11,"isMegawatt":false,"status":"AVAILABLE","source":"ndw","priceKwh":0.2805}},{"type":"Feature","geometry":{"type":"Point","coordinates":[5.710014,52.538996]},"properties":{"type":"charge","layer":"passenger","locationId":"2042529","name":"Laadnet Pitstop","address":"De Schipbeek 4","city":"Dronten","operatorName":"Laadnet","maxPowerKw":11,"isMegawatt":false,"status":"UNAVAILABLE","source":"ndw"}},{"type":"Feature","geometry":{"type":"Point","coordinates":[5.702124,52.453594]},"properties":{"type":"charge","layer":"passenger","locationId":"8F2084C5-90C4-4CC3-B5D1-69A225AB98B7","name":"TNLP007775 - Harenberg 22, Biddinghuizen","address":"22 Harenberg","city":"Biddinghuizen","operatorName":"TotalEnergies","maxPowerKw":13,"isMegawatt":false,"status":"UNAVAILABLE","source":"ndw"}},{"type":"Feature","geometry":{"type":"Point","coordinates":[5.692821,52.45591]},"properties":{"type":"charge","layer":"passenger","locationId":"E253E4F5-02A6-4459-8418-9EA282B96A0C","name":"TNLP009247 - Baan 12, Biddinghuizen","address":"12 Baan","city":"Biddinghuizen","operatorName":"TotalEnergies","maxPowerKw":15,"isMegawatt":false,"status":"AVAILABLE","source":"ndw"}},{"type":"Feature","geometry":{"type":"Point","coordinates":[5.72314,52.53567]},"properties":{"type":"charge","layer":"passenger","locationId":"A3615BF3-0D17-4607-AD37-8028216D1AF5","name":"TNLP003595 - De Noord 70, Dronten","address":"70 De Noord","city":"Dronten","operatorName":"TotalEnergies","maxPowerKw":17,"isMegawatt":false,"status":"AVAILABLE","source":"ndw"}},{"type":"Feature","geometry":{"type":"Point","coordinates":[5.722486,52.514427]},"properties":{"type":"charge","layer":"passenger","locationId":"9786488D-D1C6-42F8-B7CC-8B70C8DAAC38","name":"PP005126 - Lancasterdreef 44, Dronten","address":"44 Lancasterdreef","city":"Dronten","operatorName":"TotalEnergies","maxPowerKw":13,"isMegawatt":false,"status":"UNAVAILABLE","source":"ndw"}},{"type":"Feature","geometry":{"type":"Point","coordinates":[5.717661,52.540758]},"properties":{"type":"charge","layer":"passenger","locationId":"6a0ab5af650fae12c76e690f","name":"Moerdijk Vastgoed","address":"Pioniersweg  50","city":"Dronten","operatorName":"E-Flux by Road","maxPowerKw":22,"isMegawatt":false,"status":"AVAILABLE","source":"ndw","priceKwh":0.4}},{"type":"Feature","geometry":{"type":"Point","coordinates":[5.723298,52.535673]},"properties":{"type":"charge","layer":"passenger","locationId":"4f4a3506-a78d-41ce-9120-50dd4a854cdd","name":"bp pulse De Noord","address":"De Noord 70","city":"Dronten","operatorName":"bp pulse","maxPowerKw":150,"isMegawatt":false,"status":"AVAILABLE","source":"ndw","priceKwh":0.7}},{"type":"Feature","geometry":{"type":"Point","coordinates":[5.712702,52.529892]},"properties":{"type":"charge","layer":"passenger","locationId":"8F3C073F-087A-48B7-BA88-141BF5233DAE","name":"TNLP008878 - Peterhof 55, Dronten","address":"55 Peterhof","city":"Dronten","operatorName":"TotalEnergies","maxPowerKw":13,"isMegawatt":false,"status":"CHARGING","source":"ndw"}},{"type":"Feature","geometry":{"type":"Point","coordinates":[5.702216,52.459809]},"properties":{"type":"charge","layer":"passenger","locationId":"4757589","name":"Laadnet Kabbedijk Holding BV","address":"Ploegschaar 4","city":"Biddinghuizen","operatorName":"Laadnet","maxPowerKw":22,"isMegawatt":false,"status":"AVAILABLE","source":"ndw"}},{"type":"Feature","geometry":{"type":"Point","coordinates":[5.720845,52.519913]},"properties":{"type":"charge","layer":"passenger","locationId":"8BF41B72-204E-4AAA-A114-F0219684DE67","name":"PP005587 - Ankerstraat 3, Dronten","address":"3 Ankerstraat","city":"Dronten","operatorName":"TotalEnergies","maxPowerKw":13,"isMegawatt":false,"status":"AVAILABLE","source":"ndw"}},{"type":"Feature","geometry":{"type":"Point","coordinates":[5.627583,52.582582]},"properties":{"type":"charge","layer":"passenger","locationId":"62c57f761b2119ea1e868b7b","name":"Shortgolf station paal 1","address":"Rivierduinweg  9","city":"Swifterbant","operatorName":"E-Flux by Road","maxPowerKw":11,"isMegawatt":false,"status":"AVAILABLE","source":"ndw","priceKwh":0.43}},{"type":"Feature","geometry":{"type":"Point","coordinates":[5.719036,52.51478]},"properties":{"type":"charge","layer":"passenger","locationId":"09D5128F-CDFD-46D0-8145-C0C5BAB4B270","name":"TNLP009637 - Thomsonstraat 50, Dronten","address":"50 Thomsonstraat","city":"Dronten","operatorName":"TotalEnergies","maxPowerKw":15,"isMegawatt":false,"status":"AVAILABLE","source":"ndw"}},{"type":"Feature","geometry":{"type":"Point","coordinates":[5.72036,52.52535]},"properties":{"type":"charge","layer":"passenger","locationId":"e7f39e962fea983fcfe32295da76d179","name":"Het Tussendek 1","address":"Het Tussendek 1","city":"Dronten","operatorName":"Vattenfall InCharge","maxPowerKw":11,"isMegawatt":false,"status":"CHARGING","source":"ndw","priceKwh":0.2805}},{"type":"Feature","geometry":{"type":"Point","coordinates":[5.767491,52.440135]},"properties":{"type":"charge","layer":"passenger","locationId":"2652148","name":"Laadnet Walibi Holland BV - Technische Dienst","address":"Spijkweg 30","city":"Biddinghuizen","operatorName":"Laadnet","maxPowerKw":22,"isMegawatt":false,"status":"AVAILABLE","source":"ndw"}},{"type":"Feature","geometry":{"type":"Point","coordinates":[5.71622,52.5243]},"properties":{"type":"charge","layer":"passenger","locationId":"4F48BF95-150D-41FC-9FE3-4169F230D36B","name":"TNLP003506 - Schans 1, Dronten","address":"1 Schans","city":"Dronten","operatorName":"TotalEnergies","maxPowerKw":17,"isMegawatt":false,"status":"AVAILABLE","source":"ndw"}},{"type":"Feature","geometry":{"type":"Point","coordinates":[5.720378,52.526054]},"properties":{"type":"charge","layer":"passenger","locationId":"DA729E09-79AB-49DD-BF7A-07C64619CD6A","name":"TNLP006510 - Werfstraat 7, Dronten","address":"7 Werfstraat","city":"Dronten","operatorName":"TotalEnergies","maxPowerKw":15,"isMegawatt":false,"status":"AVAILABLE","source":"ndw"}},{"type":"Feature","geometry":{"type":"Point","coordinates":[5.695622,52.535786]},"properties":{"type":"charge","layer":"passenger","locationId":"CA40B225-D4DD-4B31-BA6F-330D6C28755A","name":"TNLP006392 - Beursplein 6, Dronten","address":"6 Beursplein","city":"Dronten","operatorName":"TotalEnergies","maxPowerKw":15,"isMegawatt":false,"status":"AVAILABLE","source":"ndw"}},{"type":"Feature","geometry":{"type":"Point","coordinates":[5.68229,52.53624]},"properties":{"type":"charge","layer":"passenger","locationId":"6EB17AE7-1943-4110-92B0-688D8FDEC24A","name":"PP004158 - Popart 51, Dronten","address":"51 Popart","city":"Dronten","operatorName":"TotalEnergies","maxPowerKw":13,"isMegawatt":false,"status":"CHARGING","source":"ndw"}},{"type":"Feature","geometry":{"type":"Point","coordinates":[5.72065,52.51332]},"properties":{"type":"charge","layer":"passenger","locationId":"b693711a612374499a3ac508d046a513","name":"Wardhof 22","address":"Wardhof 22","city":"Dronten","operatorName":"Vattenfall InCharge","maxPowerKw":11,"isMegawatt":false,"status":"CHARGING","source":"ndw","priceKwh":0.2805}},{"type":"Feature","geometry":{"type":"Point","coordinates":[5.691706,52.456055]},"properties":{"type":"charge","layer":"passenger","locationId":"6203c61b1fd5750602215ecb","name":"MFG2 De Binding3","address":"Akkerhof 3a","city":"Biddinghuizen","operatorName":"E-Flux by Road","maxPowerKw":22,"isMegawatt":false,"status":"AVAILABLE","source":"ndw","priceKwh":0.5}},{"type":"Feature","geometry":{"type":"Point","coordinates":[5.758641,52.438817]},"properties":{"type":"charge","layer":"passenger","locationId":"2652145","name":"Laadnet Walibi Holland BV - Attractiepark","address":"Spijkweg 30","city":"Biddinghuizen","operatorName":"Laadnet","maxPowerKw":22,"isMegawatt":false,"status":"AVAILABLE","source":"ndw"}},{"type":"Feature","geometry":{"type":"Point","coordinates":[5.774256,52.441973]},"properties":{"type":"charge","layer":"passenger","locationId":"2652147","name":"Laadnet Walibi Holland BV - Walibi Village","address":"Cerespark 2","city":"Biddinghuizen","operatorName":"Laadnet","maxPowerKw":22,"isMegawatt":false,"status":"AVAILABLE","source":"ndw"}},{"type":"Feature","geometry":{"type":"Point","coordinates":[5.702809,52.459214]},"properties":{"type":"charge","layer":"passenger","locationId":"3966867","name":"Laadnet Ploegschaar 3","address":"Ploegschaar 3","city":"Biddinghuizen","operatorName":"Laadnet","maxPowerKw":22,"isMegawatt":false,"status":"AVAILABLE","source":"ndw"}},{"type":"Feature","geometry":{"type":"Point","coordinates":[5.633662,52.571434]},"properties":{"type":"charge","layer":"passenger","locationId":"3966866","name":"Laadnet Randweg 11","address":"Randweg 11","city":"Swifterbant","operatorName":"Laadnet","maxPowerKw":22,"isMegawatt":false,"status":"AVAILABLE","source":"ndw"}},{"type":"Feature","geometry":{"type":"Point","coordinates":[5.700821,52.538948]},"properties":{"type":"charge","layer":"passenger","locationId":"F1166572-5396-4163-9626-F4A65B8CA514","name":"Eneco eMobility VSS Techniek Dronten","address":"De Gouwe 38A","city":"Dronten","operatorName":"Eneco","maxPowerKw":11,"isMegawatt":false,"status":"AVAILABLE","source":"ndw","priceKwh":0.28}},{"type":"Feature","geometry":{"type":"Point","coordinates":[5.72427,52.53949]},"properties":{"type":"charge","layer":"passenger","locationId":"4DB6EBF5-0CB9-4319-9443-ABBE0B7BD96E","name":"Eneco eMobility Broekhuis Peugeot Dronten","address":"Pioniersweg 10","city":"Dronten","operatorName":"Eneco","maxPowerKw":22,"isMegawatt":false,"status":"AVAILABLE","source":"ndw","priceKwh":0.45}},{"type":"Feature","geometry":{"type":"Point","coordinates":[5.646792,52.56588]},"properties":{"type":"charge","layer":"passenger","locationId":"AF0B1D7E-678D-48A8-8F48-19ADD321537B","name":"TNLP015348 - De Schuttershof 1, Swifterband","address":"1 De Schuttershof","city":"Swifterband","operatorName":"TotalEnergies","maxPowerKw":17,"isMegawatt":false,"status":"UNAVAILABLE","source":"ndw"}},{"type":"Feature","geometry":{"type":"Point","coordinates":[5.709344,52.461031]},"properties":{"type":"charge","layer":"passenger","locationId":"2407248","name":"Laadnet Thebalux Biddinghuizen","address":"Stoppelploeg 3","city":"Biddinghuizen","operatorName":"Laadnet","maxPowerKw":22,"isMegawatt":false,"status":"AVAILABLE","source":"ndw"}},{"type":"Feature","geometry":{"type":"Point","coordinates":[5.6394737,52.5718091]},"properties":{"type":"charge","layer":"passenger","locationId":"2440","name":"Shell Recharge NL Noordsingel 24","address":"Noordsingel 24","city":"Swifterbant","operatorName":"Ubitricity","maxPowerKw":22,"isMegawatt":false,"status":"AVAILABLE","source":"ndw","priceKwh":0.267}},{"type":"Feature","geometry":{"type":"Point","coordinates":[5.6883995,52.5404999]},"properties":{"type":"charge","layer":"passenger","locationId":"2093","name":"Shell Recharge NL Zeilenmakersgilde 103","address":"Zeilenmakersgilde 103","city":"Dronten","operatorName":"Ubitricity","maxPowerKw":22,"isMegawatt":false,"status":"AVAILABLE","source":"ndw","priceKwh":0.267}},{"type":"Feature","geometry":{"type":"Point","coordinates":[5.691692,52.53143]},"properties":{"type":"charge","layer":"passenger","locationId":"91096386","name":"50five-S NL 07105438","address":"Sint Annagilde 4","city":"Dronten","operatorName":"50five","maxPowerKw":11,"isMegawatt":false,"status":"CHARGING","source":"ndw"}},{"type":"Feature","geometry":{"type":"Point","coordinates":[5.749381,52.430379]},"properties":{"type":"charge","layer":"passenger","locationId":"4923868","name":"Laadnet Oranjeborg Biddinghuizen","address":"Spijkweg 38","city":"Biddinghuizen","operatorName":"Laadnet","maxPowerKw":22,"isMegawatt":false,"status":"AVAILABLE","source":"ndw"}},{"type":"Feature","geometry":{"type":"Point","coordinates":[5.6878,52.456092]},"properties":{"type":"charge","layer":"passenger","locationId":"91056944","name":"50five-S NL 07100850","address":"Waterkant 64","city":"Biddinghuizen","operatorName":"50five","maxPowerKw":12,"isMegawatt":false,"status":"AVAILABLE","source":"ndw"}},{"type":"Feature","geometry":{"type":"Point","coordinates":[5.637328,52.561093]},"properties":{"type":"charge","layer":"passenger","locationId":"91314384","name":"50five-S NL Location","address":"Zwanebloem 84","city":"Swifterbant","operatorName":"50five","maxPowerKw":11,"isMegawatt":false,"status":"AVAILABLE","source":"ndw"}},{"type":"Feature","geometry":{"type":"Point","coordinates":[5.6907196,52.5381282]},"properties":{"type":"charge","layer":"passenger","locationId":"1936","name":"Shell Recharge NL Molenaarsgilde 3","address":"Molenaarsgilde 3","city":"Dronten","operatorName":"Ubitricity","maxPowerKw":22,"isMegawatt":false,"status":"AVAILABLE","source":"ndw","priceKwh":0.267}},{"type":"Feature","geometry":{"type":"Point","coordinates":[5.68093,52.5399]},"properties":{"type":"charge","layer":"passenger","locationId":"EBE57DFC-ADF4-4C10-B5BC-70D1047F04E7","name":"TNLP005904 - Wijnverlater 1, Dronten","address":"1 Wijnverlater","city":"Dronten","operatorName":"TotalEnergies","maxPowerKw":13,"isMegawatt":false,"status":"AVAILABLE","source":"ndw"}},{"type":"Feature","geometry":{"type":"Point","coordinates":[5.70354,52.457837]},"properties":{"type":"charge","layer":"passenger","locationId":"91056194","name":"50five-S NL 07107592","address":"Korenmaaier 14","city":"Biddinghuizen","operatorName":"50five","maxPowerKw":10,"isMegawatt":false,"status":"AVAILABLE","source":"ndw"}},{"type":"Feature","geometry":{"type":"Point","coordinates":[5.707348,52.539041]},"properties":{"type":"charge","layer":"passenger","locationId":"67fe57cc0fc3b418e35d8d07","name":"Safebox mini opslagruimte","address":"De Dieze 6","city":"Dronten","operatorName":"E-Flux by Road","maxPowerKw":22,"isMegawatt":false,"status":"AVAILABLE","source":"ndw","priceKwh":0.42}},{"type":"Feature","geometry":{"type":"Point","coordinates":[5.813198,52.550978]},"properties":{"type":"charge","layer":"passenger","locationId":"91179773","name":"50five-S NL Dronten, Roggebotweg 24","address":"Roggebotweg 24","city":"Dronten","operatorName":"50five","maxPowerKw":11,"isMegawatt":false,"status":"AVAILABLE","source":"ndw"}},{"type":"Feature","geometry":{"type":"Point","coordinates":[5.72537,52.52886]},"properties":{"type":"charge","layer":"passenger","locationId":"09C6BC1D-F248-46DF-91FE-93507D5BAB79","name":"TNLP006110 - De Oeverloper 177, Dronten","address":"177 De Oeverloper","city":"Dronten","operatorName":"TotalEnergies","maxPowerKw":13,"isMegawatt":false,"status":"UNAVAILABLE","source":"ndw"}},{"type":"Feature","geometry":{"type":"Point","coordinates":[5.724556,52.53025]},"properties":{"type":"charge","layer":"passenger","locationId":"FFE046C8-BF39-4FD6-B50A-E7E7E41DF201","name":"TNLP034145 - De Morinel 158, Dronten","address":"158 De Morinel","city":"Dronten","operatorName":"TotalEnergies","maxPowerKw":13,"isMegawatt":false,"status":"UNAVAILABLE","source":"ndw"}},{"type":"Feature","geometry":{"type":"Point","coordinates":[5.810176,52.456079]},"properties":{"type":"charge","layer":"passenger","locationId":"66682a5871964c001cadd5c5","name":"Restaurant Beachclub NU","address":"Bremerbergdijk 10","city":"Biddinghuizen","operatorName":"Pluq","maxPowerKw":10,"isMegawatt":false,"status":"AVAILABLE","source":"ndw","priceKwh":0.35}},{"type":"Feature","geometry":{"type":"Point","coordinates":[5.704093,52.453102]},"properties":{"type":"charge","layer":"passenger","locationId":"8430F6F4-9DE3-4452-A931-70F3F1E59A84","name":"TNLP005897 - Hemsink 22, Biddinghuizen","address":"22 Hemsink","city":"Biddinghuizen","operatorName":"TotalEnergies","maxPowerKw":15,"isMegawatt":false,"status":"AVAILABLE","source":"ndw"}},{"type":"Feature","geometry":{"type":"Point","coordinates":[5.68923,52.45294]},"properties":{"type":"charge","layer":"passenger","locationId":"241D3EB2-137C-43D4-8535-DC6B847E9BA9","name":"TNLP007699 - Cultuursingel 6, Biddinghuizen","address":"6 Cultuursingel","city":"Biddinghuizen","operatorName":"TotalEnergies","maxPowerKw":17,"isMegawatt":false,"status":"AVAILABLE","source":"ndw"}},{"type":"Feature","geometry":{"type":"Point","coordinates":[5.695871,52.528509]},"properties":{"type":"charge","layer":"passenger","locationId":"6a7302c48c8582baaab165c3","name":"Aeres Hogeschool Dronten","address":"De Drieslag  4","city":"Dronten","operatorName":"E-Flux by Road","maxPowerKw":22,"isMegawatt":false,"status":"AVAILABLE","source":"ndw","priceKwh":0.39}},{"type":"Feature","geometry":{"type":"Point","coordinates":[5.723353,52.530388]},"properties":{"type":"charge","layer":"passenger","locationId":"AF2D6D8A-E2ED-4A0F-8626-25268FEA13D4","name":"TNLP006340 - De Grutto 47, Dronten","address":"47 De Grutto","city":"Dronten","operatorName":"TotalEnergies","maxPowerKw":13,"isMegawatt":false,"status":"AVAILABLE","source":"ndw"}},{"type":"Feature","geometry":{"type":"Point","coordinates":[5.690339,52.5400374]},"properties":{"type":"charge","layer":"passenger","locationId":"981","name":"Shell Recharge NL Zeilenmakersgilde 67","address":"Zeilenmakersgilde 67","city":"Dronten","operatorName":"Ubitricity","maxPowerKw":22,"isMegawatt":false,"status":"AVAILABLE","source":"ndw","priceKwh":0.267}},{"type":"Feature","geometry":{"type":"Point","coordinates":[5.636242,52.569244]},"properties":{"type":"charge","layer":"passenger","locationId":"48E613C9-54E4-4DBE-82AA-6BBB6A0494D5","name":"TNLP006390 - Noordhoren 13, Swifterbant","address":"13 Noordhoren","city":"Swifterbant","operatorName":"TotalEnergies","maxPowerKw":13,"isMegawatt":false,"status":"UNAVAILABLE","source":"ndw"}},{"type":"Feature","geometry":{"type":"Point","coordinates":[5.707341,52.512154]},"properties":{"type":"charge","layer":"passenger","locationId":"91012919","name":"50five-S NL 42957.0","address":"De IJslander 46","city":"Dronten","operatorName":"50five","maxPowerKw":11,"isMegawatt":false,"status":"AVAILABLE","source":"ndw"}},{"type":"Feature","geometry":{"type":"Point","coordinates":[5.726849,52.52715]},"properties":{"type":"charge","layer":"passenger","locationId":"3964370","name":"Laadnet Het Noorderlicht","address":"Het Noorderlicht 14","city":"Dronten","operatorName":"Laadnet","maxPowerKw":11,"isMegawatt":false,"status":"AVAILABLE","source":"ndw"}},{"type":"Feature","geometry":{"type":"Point","coordinates":[5.7096102,52.5135885]},"properties":{"type":"charge","layer":"passenger","locationId":"982","name":"Shell Recharge NL De Haflinger 64","address":"De Haflinger 64","city":"Dronten","operatorName":"Ubitricity","maxPowerKw":22,"isMegawatt":false,"status":"AVAILABLE","source":"ndw","priceKwh":0.267}},{"type":"Feature","geometry":{"type":"Point","coordinates":[5.725325,52.5273]},"properties":{"type":"charge","layer":"passenger","locationId":"96208C0F-DF07-43E5-925F-9DF6C6C95B39","name":"TNLP007070 - Het Noorderlicht 4, Dronten","address":"4 Het Noorderlicht","city":"Dronten","operatorName":"TotalEnergies","maxPowerKw":13,"isMegawatt":false,"status":"AVAILABLE","source":"ndw"}},{"type":"Feature","geometry":{"type":"Point","coordinates":[5.719986,52.53001]},"properties":{"type":"charge","layer":"passenger","locationId":"89299053","name":"50five Oost Flevoland Woonservice","address":"De Noord 47","city":"Dronten","operatorName":"50five","maxPowerKw":11,"isMegawatt":false,"status":"AVAILABLE","source":"ndw"}},{"type":"Feature","geometry":{"type":"Point","coordinates":[5.71094,52.54341]},"properties":{"type":"charge","layer":"passenger","locationId":"NLENV4","name":"SuperTank Dronten","address":"Het Gein 2","city":"Dronten","operatorName":"SuperTank","maxPowerKw":150,"isMegawatt":false,"status":"AVAILABLE","source":"ndw","priceKwh":0.74}},{"type":"Feature","geometry":{"type":"Point","coordinates":[5.691706,52.456055]},"properties":{"type":"charge","layer":"passenger","locationId":"6203a227474f77289d2eff19","name":"MFG2 De Binding2","address":"Akkerhof 3a","city":"Biddinghuizen","operatorName":"E-Flux by Road","maxPowerKw":22,"isMegawatt":false,"status":"AVAILABLE","source":"ndw","priceKwh":0.5}},{"type":"Feature","geometry":{"type":"Point","coordinates":[5.739368,52.426732]},"properties":{"type":"charge","layer":"passenger","locationId":"91326345","name":"50five-S NL Biddinghuizen, Strandgaperweg 4","address":"Strandgaperweg 4","city":"Biddinghuizen","operatorName":"50five","maxPowerKw":22,"isMegawatt":false,"status":"AVAILABLE","source":"ndw"}},{"type":"Feature","geometry":{"type":"Point","coordinates":[5.622975,52.588092]},"properties":{"type":"charge","layer":"passenger","locationId":"646f62961a4d06001c555825","name":"Rivierduinweg 5","address":"Rivierduinweg  5","city":"Swifterbant","operatorName":"E-Flux by Road","maxPowerKw":22,"isMegawatt":false,"status":"AVAILABLE","source":"ndw","priceKwh":0.66}},{"type":"Feature","geometry":{"type":"Point","coordinates":[5.6992301,52.5360635]},"properties":{"type":"charge","layer":"passenger","locationId":"2480","name":"Shell Recharge NL Eurosingel 94","address":"Eurosingel 94","city":"Dronten","operatorName":"Ubitricity","maxPowerKw":22,"isMegawatt":false,"status":"AVAILABLE","source":"ndw","priceKwh":0.267}},{"type":"Feature","geometry":{"type":"Point","coordinates":[5.725888,52.530827]},"properties":{"type":"charge","layer":"passenger","locationId":"3934389D-4786-4961-A8FC-CD53C3C14B54","name":"TNLP008070 - De Morinel 132, Dronten","address":"132 De Morinel","city":"Dronten","operatorName":"TotalEnergies","maxPowerKw":15,"isMegawatt":false,"status":"AVAILABLE","source":"ndw"}},{"type":"Feature","geometry":{"type":"Point","coordinates":[5.70218,52.53904]},"properties":{"type":"charge","layer":"passenger","locationId":"55D1424B-C19B-4423-8066-4F4D91A4FD70","name":"Eneco eMobility Solcon Internetdiensten BV - Dronten","address":"Het Zwarte Water 17","city":"Dronten","operatorName":"Eneco","maxPowerKw":22,"isMegawatt":false,"status":"AVAILABLE","source":"ndw","priceKwh":0.32}},{"type":"Feature","geometry":{"type":"Point","coordinates":[5.722477,52.511166]},"properties":{"type":"charge","layer":"passenger","locationId":"3D6D55CD-0E05-4A6E-B37C-349AF52A016D","name":"TNLP007490 - Rozemarijn 113, Dronten","address":"113 Rozemarijn","city":"Dronten","operatorName":"TotalEnergies","maxPowerKw":13,"isMegawatt":false,"status":"UNAVAILABLE","source":"ndw"}},{"type":"Feature","geometry":{"type":"Point","coordinates":[5.6875403,52.5337885]},"properties":{"type":"charge","layer":"passenger","locationId":"2268","name":"Shell Recharge NL Rembrandt van Rijnstraat 36","address":"Rembrandt van Rijnstraat 36","city":"Dronten","operatorName":"Ubitricity","maxPowerKw":22,"isMegawatt":false,"status":"AVAILABLE","source":"ndw","priceKwh":0.267}},{"type":"Feature","geometry":{"type":"Point","coordinates":[5.6437988,52.5644043]},"properties":{"type":"charge","layer":"passenger","locationId":"1938","name":"Shell Recharge NL Margrietenlaan 20","address":"Margrietenlaan 20","city":"Swifterbant","operatorName":"Ubitricity","maxPowerKw":22,"isMegawatt":false,"status":"AVAILABLE","source":"ndw","priceKwh":0.267}},{"type":"Feature","geometry":{"type":"Point","coordinates":[5.716592,52.51988]},"properties":{"type":"charge","layer":"passenger","locationId":"676F3108-D249-4A76-BC9F-AF3499B3BDBC","name":"TNLP007681 - Stuurboord 3, Dronten","address":"3 Stuurboord","city":"Dronten","operatorName":"TotalEnergies","maxPowerKw":13,"isMegawatt":false,"status":"AVAILABLE","source":"ndw"}},{"type":"Feature","geometry":{"type":"Point","coordinates":[5.705694,52.53893]},"properties":{"type":"charge","layer":"passenger","locationId":"3845324","name":"Laadnet Frieteria BV","address":"De Dommel 2","city":"Dronten","operatorName":"Laadnet","maxPowerKw":22,"isMegawatt":false,"status":"AVAILABLE","source":"ndw"}},{"type":"Feature","geometry":{"type":"Point","coordinates":[5.71417,52.5271]},"properties":{"type":"charge","layer":"passenger","locationId":"E9FED7CE-ECEE-4DD1-853A-FE5C27176094","name":"PP004117 - Waterfront 15, Dronten","address":"15 Waterfront","city":"Dronten","operatorName":"TotalEnergies","maxPowerKw":15,"isMegawatt":false,"status":"UNAVAILABLE","source":"ndw"}},{"type":"Feature","geometry":{"type":"Point","coordinates":[5.715615,52.52506]},"properties":{"type":"charge","layer":"passenger","locationId":"c9089287-12f1-4314-96ac-099c01085d8f","name":"EV Hub - Schans 4, Dronten","address":"4 Schans","city":"Dronten","operatorName":"TotalEnergies","maxPowerKw":50,"isMegawatt":false,"status":"AVAILABLE","source":"ndw"}},{"type":"Feature","geometry":{"type":"Point","coordinates":[5.72738,52.51368]},"properties":{"type":"charge","layer":"passenger","locationId":"0694A59D-A5C8-4525-B27D-75A5B0D999C9","name":"PP004110 - Mergelland 33, Dronten","address":"33 Mergelland","city":"Dronten","operatorName":"TotalEnergies","maxPowerKw":13,"isMegawatt":false,"status":"AVAILABLE","source":"ndw"}},{"type":"Feature","geometry":{"type":"Point","coordinates":[5.641676,52.5687]},"properties":{"type":"charge","layer":"passenger","locationId":"85CB5C44-2627-4816-878E-85827F320F11","name":"TNLP007695 - Zuidsingel 20, Swifterbant","address":"20 Zuidsingel","city":"Swifterbant","operatorName":"TotalEnergies","maxPowerKw":15,"isMegawatt":false,"status":"CHARGING","source":"ndw"}},{"type":"Feature","geometry":{"type":"Point","coordinates":[5.709731,52.511015]},"properties":{"type":"charge","layer":"passenger","locationId":"6544d2b1d08e05001cd168e7","name":"Shell Recharge - Van Staveren","address":"De Zuid  41","city":"Dronten","operatorName":"E-Flux by Road","maxPowerKw":150,"isMegawatt":false,"status":"AVAILABLE","source":"ndw","priceKwh":0.68}},{"type":"Feature","geometry":{"type":"Point","coordinates":[5.6849598,52.5359385]},"properties":{"type":"charge","layer":"passenger","locationId":"2038","name":"Shell Recharge NL Zaaier 1","address":"Zaaier 1","city":"Dronten","operatorName":"Ubitricity","maxPowerKw":22,"isMegawatt":false,"status":"AVAILABLE","source":"ndw","priceKwh":0.267}},{"type":"Feature","geometry":{"type":"Point","coordinates":[5.64376,52.389132]},"properties":{"type":"charge","layer":"passenger","locationId":"64770aaebc22e8001c9c8363","name":"WSV De Harder","address":"Harderdijk 5","city":"Biddinghuizen","operatorName":"E-Flux by Road","maxPowerKw":22,"isMegawatt":false,"status":"AVAILABLE","source":"ndw","priceKwh":0.43}},{"type":"Feature","geometry":{"type":"Point","coordinates":[5.7049446,52.4529918]},"properties":{"type":"charge","layer":"passenger","locationId":"1929","name":"Shell Recharge NL Hemsink 35","address":"Hemsink 35","city":"Biddinghuizen","operatorName":"Ubitricity","maxPowerKw":22,"isMegawatt":false,"status":"AVAILABLE","source":"ndw","priceKwh":0.267}},{"type":"Feature","geometry":{"type":"Point","coordinates":[5.696168,52.448384]},"properties":{"type":"charge","layer":"passenger","locationId":"1820729","name":"Laadnet Veron","address":"Zonneweide 18","city":"Biddinghuizen","operatorName":"Laadnet","maxPowerKw":22,"isMegawatt":false,"status":"AVAILABLE","source":"ndw"}},{"type":"Feature","geometry":{"type":"Point","coordinates":[5.722181,52.521812]},"properties":{"type":"charge","layer":"passenger","locationId":"3511DE03-BD9C-442B-AC59-91CA9AB46159","name":"TNLP034120 - Kombuisstraat 18, Dronten","address":"18 Kombuisstraat","city":"Dronten","operatorName":"TotalEnergies","maxPowerKw":13,"isMegawatt":false,"status":"UNAVAILABLE","source":"ndw"}},{"type":"Feature","geometry":{"type":"Point","coordinates":[5.724598,52.523148]},"properties":{"type":"charge","layer":"passenger","locationId":"AD6E6C37-41B1-4E77-A7DE-78D152B8680A","name":"TNLP034615 - Lijzijde 197, Dronten","address":"197 Lijzijde","city":"Dronten","operatorName":"TotalEnergies","maxPowerKw":13,"isMegawatt":false,"status":"UNAVAILABLE","source":"ndw"}},{"type":"Feature","geometry":{"type":"Point","coordinates":[5.687926,52.535302]},"properties":{"type":"charge","layer":"passenger","locationId":"91066464","name":"50five-S NL 17B20848","address":"Pastorale 31","city":"Dronten","operatorName":"50five","maxPowerKw":11,"isMegawatt":false,"status":"AVAILABLE","source":"ndw"}},{"type":"Feature","geometry":{"type":"Point","coordinates":[5.686508,52.540676]},"properties":{"type":"charge","layer":"passenger","locationId":"343003AC-0DE3-429F-A10D-A800AE384C28","name":"TNLP005802 - Troffel 14, Dronten","address":"14 Troffel","city":"Dronten","operatorName":"TotalEnergies","maxPowerKw":13,"isMegawatt":false,"status":"UNAVAILABLE","source":"ndw"}},{"type":"Feature","geometry":{"type":"Point","coordinates":[5.627583,52.582582]},"properties":{"type":"charge","layer":"passenger","locationId":"62c581c966d7ca0185e1929b","name":"Shortgolf station paal 2","address":"Rivierduinweg 9","city":"Swifterbant","operatorName":"E-Flux by Road","maxPowerKw":11,"isMegawatt":false,"status":"AVAILABLE","source":"ndw","priceKwh":0.43}},{"type":"Feature","geometry":{"type":"Point","coordinates":[5.723472,52.51359]},"properties":{"type":"charge","layer":"passenger","locationId":"82F7C379-25BD-462B-962A-17150EDDE391","name":"TNLP034141 - Imbosch 18, Dronten","address":"18 Imbosch","city":"Dronten","operatorName":"TotalEnergies","maxPowerKw":13,"isMegawatt":false,"status":"UNAVAILABLE","source":"ndw"}},{"type":"Feature","geometry":{"type":"Point","coordinates":[5.722904,52.531563]},"properties":{"type":"charge","layer":"passenger","locationId":"D83E05C2-F077-4AE9-8EF6-4BB34FAA8F03","name":"TNLP009270 - De Morinel 2, Dronten","address":"2 De Morinel","city":"Dronten","operatorName":"TotalEnergies","maxPowerKw":13,"isMegawatt":false,"status":"CHARGING","source":"ndw"}},{"type":"Feature","geometry":{"type":"Point","coordinates":[5.723901,52.51035]},"properties":{"type":"charge","layer":"passenger","locationId":"651c255384b996001f45ce9b","name":"Venkel","address":"Venkel 33","city":"Dronten","operatorName":"E-Flux by Road","maxPowerKw":11,"isMegawatt":false,"status":"CHARGING","source":"ndw","priceKwh":0.38}},{"type":"Feature","geometry":{"type":"Point","coordinates":[5.644836,52.563831]},"properties":{"type":"charge","layer":"passenger","locationId":"91093660","name":"50five-S NL 03009610","address":"Duizendschoonhof 8","city":"Swifterbant","operatorName":"50five","maxPowerKw":4,"isMegawatt":false,"status":"AVAILABLE","source":"ndw"}},{"type":"Feature","geometry":{"type":"Point","coordinates":[5.688371,52.536736]},"properties":{"type":"charge","layer":"passenger","locationId":"C8F9ACF3-6790-4620-9DE3-73293B007EC4","name":"PP005385 - Tinnegietersgilde 21, Dronten","address":"21 Tinnegietersgilde","city":"Dronten","operatorName":"TotalEnergies","maxPowerKw":13,"isMegawatt":false,"status":"CHARGING","source":"ndw"}},{"type":"Feature","geometry":{"type":"Point","coordinates":[5.72082,52.52328]},"properties":{"type":"charge","layer":"passenger","locationId":"1481","name":"Shell Recharge NL De Oost 8","address":"De Oost 8","city":"Dronten","operatorName":"Ubitricity","maxPowerKw":22,"isMegawatt":false,"status":"AVAILABLE","source":"ndw","priceKwh":0.392}},{"type":"Feature","geometry":{"type":"Point","coordinates":[5.694363,52.550393]},"properties":{"type":"charge","layer":"passenger","locationId":"609934701ecae6e7be05d009","name":"NXT Charge - Dronten - Koornmarktpoort 1 - DC","address":"Koornmarktpoort 1","city":"Dronten","operatorName":"NXT Charging Solutions","maxPowerKw":320,"isMegawatt":false,"status":"AVAILABLE","source":"ndw","priceKwh":0.63}},{"type":"Feature","geometry":{"type":"Point","coordinates":[5.694522,52.45288]},"properties":{"type":"charge","layer":"passenger","locationId":"15A21125-1EFE-457E-B1F4-D675EE86B9AC","name":"TNLP007275 - Koolzaadhof 144, Biddinghuizen","address":"144 Koolzaadhof","city":"Biddinghuizen","operatorName":"TotalEnergies","maxPowerKw":15,"isMegawatt":false,"status":"UNAVAILABLE","source":"ndw"}},{"type":"Feature","geometry":{"type":"Point","coordinates":[5.642385,52.390365]},"properties":{"type":"charge","layer":"passenger","locationId":"91057071","name":"50five-S NL 07116179","address":"Nodbeek 8","city":"Biddinghuizen","operatorName":"50five","maxPowerKw":7,"isMegawatt":false,"status":"AVAILABLE","source":"ndw"}},{"type":"Feature","geometry":{"type":"Point","coordinates":[5.727322,52.528915]},"properties":{"type":"charge","layer":"passenger","locationId":"EAC526A0-FAE9-4E2E-A38D-4D7F60A239F8","name":"TNLP009858 - De Oeverloper 265, Dronten","address":"265 De Oeverloper","city":"Dronten","operatorName":"TotalEnergies","maxPowerKw":17,"isMegawatt":false,"status":"UNAVAILABLE","source":"ndw"}},{"type":"Feature","geometry":{"type":"Point","coordinates":[5.64343,52.5709]},"properties":{"type":"charge","layer":"passenger","locationId":"76FAC565-412D-4154-BDA5-5D9618AF5B4B","name":"TNLP015350 - Zuidsingel 106, Swifterbant","address":"106 Zuidsingel","city":"Swifterbant","operatorName":"TotalEnergies","maxPowerKw":13,"isMegawatt":false,"status":"UNAVAILABLE","source":"ndw"}},{"type":"Feature","geometry":{"type":"Point","coordinates":[5.703153,52.546637]},"properties":{"type":"charge","layer":"passenger","locationId":"68d64f50317606c1254f917e","name":"VissersPlanvisie Dronten","address":"Koornmarktpoort 23","city":"DRONTEN","operatorName":"Tanx","maxPowerKw":11,"isMegawatt":false,"status":"AVAILABLE","source":"ndw","priceKwh":0.43}},{"type":"Feature","geometry":{"type":"Point","coordinates":[5.709752,52.511]},"properties":{"type":"charge","layer":"passenger","locationId":"6544d4146b8c9c001cffebb8","name":"Shell Recharge - Van Staveren","address":"De Zuid 41","city":"Dronten","operatorName":"E-Flux by Road","maxPowerKw":150,"isMegawatt":false,"status":"AVAILABLE","source":"ndw","priceKwh":0.68}},{"type":"Feature","geometry":{"type":"Point","coordinates":[5.699993,52.5338]},"properties":{"type":"charge","layer":"passenger","locationId":"6EB35F3A-C1B0-44A7-9628-FEE046E81672","name":"TNLP007485 - Escudo 37, Dronten","address":"37 Escudo","city":"Dronten","operatorName":"TotalEnergies","maxPowerKw":13,"isMegawatt":false,"status":"AVAILABLE","source":"ndw"}},{"type":"Feature","geometry":{"type":"Point","coordinates":[5.720681,52.536245]},"properties":{"type":"charge","layer":"passenger","locationId":"3967145","name":"Laadnet Installatieweg 36","address":"Installatieweg 36","city":"Dronten","operatorName":"Laadnet","maxPowerKw":22,"isMegawatt":false,"status":"AVAILABLE","source":"ndw"}},{"type":"Feature","geometry":{"type":"Point","coordinates":[5.648951,52.565872]},"properties":{"type":"charge","layer":"passenger","locationId":"8413DE1B-E77A-44AF-BB07-538F09B53E90","name":"TNLP034557 - De Jachthoorn 32, Sfifterband","address":"32 De Jachthoorn","city":"Sfifterband","operatorName":"TotalEnergies","maxPowerKw":13,"isMegawatt":false,"status":"UNAVAILABLE","source":"ndw"}},{"type":"Feature","geometry":{"type":"Point","coordinates":[5.69406,52.45375]},"properties":{"type":"charge","layer":"passenger","locationId":"048b90ef4621d6c78580e28bd673db08","name":"Dreef 18","address":"Dreef 18","city":"Biddinghuizen","operatorName":"Vattenfall InCharge","maxPowerKw":11,"isMegawatt":false,"status":"AVAILABLE","source":"ndw","priceKwh":0.2805}},{"type":"Feature","geometry":{"type":"Point","coordinates":[5.723927,52.528877]},"properties":{"type":"charge","layer":"passenger","locationId":"9D39E737-DF7B-492A-A509-A22532A1684F","name":"TNLP008832 - De Oeverloper 101, Dronten","address":"101 De Oeverloper","city":"Dronten","operatorName":"TotalEnergies","maxPowerKw":13,"isMegawatt":false,"status":"AVAILABLE","source":"ndw"}},{"type":"Feature","geometry":{"type":"Point","coordinates":[5.691706,52.456055]},"properties":{"type":"charge","layer":"passenger","locationId":"6203a0af55d9668f5a21b1de","name":"MFG2 De Binding1","address":"Akkerhof 3a","city":"Biddinghuizen","operatorName":"E-Flux by Road","maxPowerKw":22,"isMegawatt":false,"status":"AVAILABLE","source":"ndw","priceKwh":0.5}},{"type":"Feature","geometry":{"type":"Point","coordinates":[5.722132,52.52041]},"properties":{"type":"charge","layer":"passenger","locationId":"B23E7228-B83A-4E41-917E-D7D80297EBD8","name":"TNLP009454 - Kampanje 46, Dronten","address":"46 Kampanje","city":"Dronten","operatorName":"TotalEnergies","maxPowerKw":13,"isMegawatt":false,"status":"AVAILABLE","source":"ndw"}},{"type":"Feature","geometry":{"type":"Point","coordinates":[5.648782,52.567398]},"properties":{"type":"charge","layer":"passenger","locationId":"FB034C93-F0CF-4FFD-B64F-FA7C0685A712","name":"TNLP007871 - Het Blazoen 51, Swifterbant","address":"51 Het Blazoen","city":"Swifterbant","operatorName":"TotalEnergies","maxPowerKw":13,"isMegawatt":false,"status":"UNAVAILABLE","source":"ndw"}},{"type":"Feature","geometry":{"type":"Point","coordinates":[5.710068,52.53077]},"properties":{"type":"charge","layer":"passenger","locationId":"66241064-15A9-48E0-938A-D2563274EF70","name":"TNLP034550 - Philipsdaalder 78, Dronten","address":"78 Philipsdaalder","city":"Dronten","operatorName":"TotalEnergies","maxPowerKw":13,"isMegawatt":false,"status":"UNAVAILABLE","source":"ndw"}},{"type":"Feature","geometry":{"type":"Point","coordinates":[5.73059,52.52987]},"properties":{"type":"charge","layer":"passenger","locationId":"566F5262-0377-4D53-A94C-52EB11BC100A","name":"PP004159 - De Morinel 414, Dronten","address":"414 De Morinel","city":"Dronten","operatorName":"TotalEnergies","maxPowerKw":13,"isMegawatt":false,"status":"UNAVAILABLE","source":"ndw"}},{"type":"Feature","geometry":{"type":"Point","coordinates":[5.6443698,52.5592288]},"properties":{"type":"charge","layer":"passenger","locationId":"2476","name":"Shell Recharge NL Bloemenzoom 102","address":"Bloemenzoom 102","city":"Swifterbant","operatorName":"Ubitricity","maxPowerKw":22,"isMegawatt":false,"status":"AVAILABLE","source":"ndw","priceKwh":0.267}},{"type":"Feature","geometry":{"type":"Point","coordinates":[5.7264789,52.5298272]},"properties":{"type":"charge","layer":"passenger","locationId":"2484","name":"Shell Recharge NL De Morinel 242","address":"De Morinel 242","city":"Dronten","operatorName":"Ubitricity","maxPowerKw":22,"isMegawatt":false,"status":"AVAILABLE","source":"ndw","priceKwh":0.267}},{"type":"Feature","geometry":{"type":"Point","coordinates":[5.707273,52.543982]},"properties":{"type":"charge","layer":"passenger","locationId":"4215517","name":"Laadnet Concordia Dronten","address":"De Aar 59","city":"Dronten","operatorName":"Laadnet","maxPowerKw":22,"isMegawatt":false,"status":"AVAILABLE","source":"ndw"}},{"type":"Feature","geometry":{"type":"Point","coordinates":[5.67777,52.40986]},"properties":{"type":"charge","layer":"passenger","locationId":"64","name":"50five Exploitatie 64","address":"Strandgaperweg 30","city":"Biddinghuizen","operatorName":"50five","maxPowerKw":22,"isMegawatt":false,"status":"AVAILABLE","source":"ndw"}},{"type":"Feature","geometry":{"type":"Point","coordinates":[5.636297,52.405895]},"properties":{"type":"charge","layer":"passenger","locationId":"67b5f8dd29faf7f35b088efd","name":"Flevoland 62105 - Werkschuur Harderbos","address":"Mosselweg 34","city":"Biddinghuizen","operatorName":"E-Flux by Road","maxPowerKw":11,"isMegawatt":false,"status":"AVAILABLE","source":"ndw","priceKwh":0.43}},{"type":"Feature","geometry":{"type":"Point","coordinates":[5.7246,52.51657]},"properties":{"type":"charge","layer":"passenger","locationId":"08620640-8C2F-48D1-8A85-7B4E0D2D00D6","name":"PP004333 - Het Toplicht 15, Dronten","address":"15 Het Toplicht","city":"Dronten","operatorName":"TotalEnergies","maxPowerKw":13,"isMegawatt":false,"status":"AVAILABLE","source":"ndw"}},{"type":"Feature","geometry":{"type":"Point","coordinates":[5.693373,52.538445]},"properties":{"type":"charge","layer":"passenger","locationId":"D7176058-FF5C-445A-97AD-E66279CEB8B5","name":"PP005124 - Zeilenmakersgilde 46, Dronten","address":"46 Zeilenmakersgilde","city":"Dronten","operatorName":"TotalEnergies","maxPowerKw":13,"isMegawatt":false,"status":"UNAVAILABLE","source":"ndw"}},{"type":"Feature","geometry":{"type":"Point","coordinates":[5.685508,52.532448]},"properties":{"type":"charge","layer":"passenger","locationId":"551A2CCF-C73D-4356-9462-AB88FE66D1F6","name":"TNLP008925 - Jeroen Boschstraat 17, Dronten","address":"17 Jeroen Boschstraat","city":"Dronten","operatorName":"TotalEnergies","maxPowerKw":13,"isMegawatt":false,"status":"UNAVAILABLE","source":"ndw"}},{"type":"Feature","geometry":{"type":"Point","coordinates":[5.702626,52.540932]},"properties":{"type":"charge","layer":"passenger","locationId":"03B9492F-5730-4F86-BE69-F4EF7847D44A","name":"Eneco eMobility Topa Thermal Packaging B.V. - De Regge 5 - Dronten","address":"De Regge 5","city":"Dronten","operatorName":"Eneco","maxPowerKw":11,"isMegawatt":false,"status":"AVAILABLE","source":"ndw","priceKwh":0.32}},{"type":"Feature","geometry":{"type":"Point","coordinates":[5.72645,52.52415]},"properties":{"type":"charge","layer":"passenger","locationId":"926A4363-442C-4020-B2C6-8860172EC412","name":"TNLP007632 - De Regenboog 421, Dronten","address":"421 De Regenboog","city":"Dronten","operatorName":"TotalEnergies","maxPowerKw":15,"isMegawatt":false,"status":"AVAILABLE","source":"ndw"}},{"type":"Feature","geometry":{"type":"Point","coordinates":[5.709198,52.497538]},"properties":{"type":"charge","layer":"passenger","locationId":"66683b1a1481df001c99645e","name":"Golfclub dronten","address":"De Pan 2","city":"Dronten","operatorName":"Pluq","maxPowerKw":20,"isMegawatt":false,"status":"AVAILABLE","source":"ndw","priceKwh":0.41}},{"type":"Feature","geometry":{"type":"Point","coordinates":[5.704839,52.53219]},"properties":{"type":"charge","layer":"passenger","locationId":"59ED8FDA-BE41-47A8-B627-C18B707CD966","name":"TNLP007796 - Dukaat 15, Dronten","address":"15 Dukaat","city":"Dronten","operatorName":"TotalEnergies","maxPowerKw":13,"isMegawatt":false,"status":"UNAVAILABLE","source":"ndw"}},{"type":"Feature","geometry":{"type":"Point","coordinates":[5.704694,52.515568]},"properties":{"type":"charge","layer":"passenger","locationId":"CED7E093-72FD-49CD-ADE0-6476A1517416","name":"TNLP005980 - De Barrage 8, Dronten","address":"8 De Barrage","city":"Dronten","operatorName":"TotalEnergies","maxPowerKw":13,"isMegawatt":false,"status":"UNAVAILABLE","source":"ndw"}},{"type":"Feature","geometry":{"type":"Point","coordinates":[5.684858,52.45335]},"properties":{"type":"charge","layer":"passenger","locationId":"F67F1ABF-F8A3-42E6-8BCF-5C5026119443","name":"TNLP009256 - Uitloper 20, Biddinghuizen","address":"20 Uitloper","city":"Biddinghuizen","operatorName":"TotalEnergies","maxPowerKw":15,"isMegawatt":false,"status":"UNAVAILABLE","source":"ndw"}},{"type":"Feature","geometry":{"type":"Point","coordinates":[5.726897,52.517254]},"properties":{"type":"charge","layer":"passenger","locationId":"B4AB8440-0830-44C0-97B1-B4C5921D097A","name":"TNLP009229 - De Buiskap 1, Dronten","address":"1 De Buiskap","city":"Dronten","operatorName":"TotalEnergies","maxPowerKw":13,"isMegawatt":false,"status":"AVAILABLE","source":"ndw"}},{"type":"Feature","geometry":{"type":"Point","coordinates":[5.687124,52.5358]},"properties":{"type":"charge","layer":"passenger","locationId":"B1D47D6B-EC43-4D8B-A1D0-96EDB9E66761","name":"TNLP007484 - De Molen 14, Dronten","address":"14 De Molen","city":"Dronten","operatorName":"TotalEnergies","maxPowerKw":13,"isMegawatt":false,"status":"UNAVAILABLE","source":"ndw"}},{"type":"Feature","geometry":{"type":"Point","coordinates":[5.727686,52.52526]},"properties":{"type":"charge","layer":"passenger","locationId":"FF9D4D44-FC73-4C5F-B5EC-50193BA88D6B","name":"TNLP034130 - Het Zenit 2, Dronten","address":"2 Het Zenit","city":"Dronten","operatorName":"TotalEnergies","maxPowerKw":13,"isMegawatt":false,"status":"UNAVAILABLE","source":"ndw"}},{"type":"Feature","geometry":{"type":"Point","coordinates":[5.7053094,52.524746]},"properties":{"type":"charge","layer":"passenger","locationId":"76e08e6c-d2bb-4fe8-9db0-84b81f94e9bd","name":"EV Hub - Educalaan 35, Dronten","address":"35 Educalaan","city":"Dronten","operatorName":"TotalEnergies","maxPowerKw":50,"isMegawatt":false,"status":"AVAILABLE","source":"ndw"}},{"type":"Feature","geometry":{"type":"Point","coordinates":[5.695095,52.537526]},"properties":{"type":"charge","layer":"passenger","locationId":"c97d6f969d0252f8b9a7b2d321b1669a","name":"Beursstraat 14","address":"Beursstraat 14","city":"Dronten","operatorName":"Vattenfall InCharge","maxPowerKw":11,"isMegawatt":false,"status":"AVAILABLE","source":"ndw","priceKwh":0.2805}},{"type":"Feature","geometry":{"type":"Point","coordinates":[5.71503,52.51335]},"properties":{"type":"charge","layer":"passenger","locationId":"e8cd5b87be6bcf04ff82498720a88e2c","name":"De Longeerlijn 52","address":"De Longeerlijn 52","city":"Dronten","operatorName":"Vattenfall InCharge","maxPowerKw":11,"isMegawatt":false,"status":"AVAILABLE","source":"ndw","priceKwh":0.2805}},{"type":"Feature","geometry":{"type":"Point","coordinates":[5.683315,52.540951]},"properties":{"type":"charge","layer":"passenger","locationId":"91053456","name":"50five-S NL 03006086","address":"baksteen 67","city":"Dronten","operatorName":"50five","maxPowerKw":4,"isMegawatt":false,"status":"AVAILABLE","source":"ndw"}},{"type":"Feature","geometry":{"type":"Point","coordinates":[5.7166,52.52736]},"properties":{"type":"charge","layer":"passenger","locationId":"c6cd110fdafdb0a1ce665f51d85e06c6","name":"De Dukdalf 85","address":"De Dukdalf 85","city":"Dronten","operatorName":"Vattenfall InCharge","maxPowerKw":11,"isMegawatt":false,"status":"AVAILABLE","source":"ndw","priceKwh":0.2805}},{"type":"Feature","geometry":{"type":"Point","coordinates":[5.695082,52.53303]},"properties":{"type":"charge","layer":"passenger","locationId":"002BD91B-DFBE-4B63-95DC-8F20D8DE84EB","name":"TNLP009258 - Mark 6, Dronten","address":"6 Mark","city":"Dronten","operatorName":"TotalEnergies","maxPowerKw":13,"isMegawatt":false,"status":"AVAILABLE","source":"ndw"}},{"type":"Feature","geometry":{"type":"Point","coordinates":[5.706509,52.52479]},"properties":{"type":"charge","layer":"passenger","locationId":"4B518378-C101-4690-88A3-BFFF424A5276","name":"PP005380 - Educalaan 26, Dronten","address":"26 Educalaan","city":"Dronten","operatorName":"TotalEnergies","maxPowerKw":15,"isMegawatt":false,"status":"UNAVAILABLE","source":"ndw"}},{"type":"Feature","geometry":{"type":"Point","coordinates":[5.681902,52.535324]},"properties":{"type":"charge","layer":"passenger","locationId":"E72802AD-8F50-4BAC-B609-913888544F81","name":"TNLP009219 - Cobra 30, Dronten","address":"30 Cobra","city":"Dronten","operatorName":"TotalEnergies","maxPowerKw":13,"isMegawatt":false,"status":"AVAILABLE","source":"ndw"}},{"type":"Feature","geometry":{"type":"Point","coordinates":[5.725574,52.51827]},"properties":{"type":"charge","layer":"passenger","locationId":"28E72886-E0F3-4C74-88D3-705A47D77C75","name":"TNLP007066 - De Killick 32, Dronten","address":"32 De Killick","city":"Dronten","operatorName":"TotalEnergies","maxPowerKw":13,"isMegawatt":false,"status":"AVAILABLE","source":"ndw"}},{"type":"Feature","geometry":{"type":"Point","coordinates":[5.690176,52.53263]},"properties":{"type":"charge","layer":"passenger","locationId":"5BA8F024-DFA1-4447-9E2D-E23692B6D11B","name":"TNLP008255 - Weversgilde 18, Dronten","address":"18 Weversgilde","city":"Dronten","operatorName":"TotalEnergies","maxPowerKw":13,"isMegawatt":false,"status":"AVAILABLE","source":"ndw"}},{"type":"Feature","geometry":{"type":"Point","coordinates":[5.645195,52.55891]},"properties":{"type":"charge","layer":"passenger","locationId":"1dbfc6928f7f958d7cb4d979a2ce8829","name":"Bloemenzoom 156","address":"Bloemenzoom 156","city":"Swifterbant","operatorName":"Vattenfall InCharge","maxPowerKw":11,"isMegawatt":false,"status":"AVAILABLE","source":"ndw","priceKwh":0.2805}},{"type":"Feature","geometry":{"type":"Point","coordinates":[5.698233,52.53481]},"properties":{"type":"charge","layer":"passenger","locationId":"30C5506F-B7C0-4582-9EE0-73AAF26AE6A8","name":"TNLP005805 - Mark 76, Dronten","address":"76 Mark","city":"Dronten","operatorName":"TotalEnergies","maxPowerKw":15,"isMegawatt":false,"status":"AVAILABLE","source":"ndw"}},{"type":"Feature","geometry":{"type":"Point","coordinates":[5.69643,52.454166]},"properties":{"type":"charge","layer":"passenger","locationId":"84E6C8E5-E181-4DAA-A46E-C99651543BB8","name":"TNLP006257 - De Zaaiviool 2, Biddinghuizen","address":"2 De Zaaiviool","city":"Biddinghuizen","operatorName":"TotalEnergies","maxPowerKw":13,"isMegawatt":false,"status":"UNAVAILABLE","source":"ndw"}},{"type":"Feature","geometry":{"type":"Point","coordinates":[5.684894,52.53538]},"properties":{"type":"charge","layer":"passenger","locationId":"870D23AE-EBE8-4FEE-94FD-A7D6B33D8DE0","name":"TNLP008808 - De Ontmoeting 2, Dronten","address":"2 De Ontmoeting","city":"Dronten","operatorName":"TotalEnergies","maxPowerKw":13,"isMegawatt":false,"status":"UNAVAILABLE","source":"ndw"}},{"type":"Feature","geometry":{"type":"Point","coordinates":[5.708686,52.538599]},"properties":{"type":"charge","layer":"passenger","locationId":"62eb6de3c3d5f885a328ae8d","name":"ZonderGas laadstation 22kW","address":"De Amer 8","city":"Dronten","operatorName":"E-Flux by Road","maxPowerKw":22,"isMegawatt":false,"status":"AVAILABLE","source":"ndw","priceKwh":0.48}},{"type":"Feature","geometry":{"type":"Point","coordinates":[5.68381,52.532463]},"properties":{"type":"charge","layer":"passenger","locationId":"62CA6016-8851-4A8F-9531-4F44FC2F4998","name":"PP005158 - Vermiljoen 2W, Dronten","address":"2W Vermiljoen","city":"Dronten","operatorName":"TotalEnergies","maxPowerKw":13,"isMegawatt":false,"status":"AVAILABLE","source":"ndw"}},{"type":"Feature","geometry":{"type":"Point","coordinates":[5.718707,52.502659]},"properties":{"type":"charge","layer":"passenger","locationId":"91054029","name":"50five-S NL 07005531","address":"Herfst 96","city":"Dronten","operatorName":"50five","maxPowerKw":10,"isMegawatt":false,"status":"AVAILABLE","source":"ndw"}},{"type":"Feature","geometry":{"type":"MultiPolygon","coordinates":[[[[5.759878788168456,52.579613232097806],[5.760894875246359,52.581553850725946],[5.7639607690373404,52.58120631499483],[5.761432030329888,52.58108242325963],[5.761031936471882,52.57933341773217],[5.767412773865037,52.57929700319025],[5.783385432099926,52.5798192410575],[5.8039968775045185,52.57968166356063],[5.809015330026964,52.578936646846984],[5.812824604048416,52.57746338340576],[5.851729369782628,52.55121853142321],[5.853837642600454,52.54721038119689],[5.854957255933449,52.54508150931231],[5.855423833412881,52.54561935047214],[5.855751376309465,52.54615335170417],[5.856039909518055,52.546152504033],[5.855814262224054,52.54524609726705],[5.856271779008552,52.54513670062481],[5.856509809023955,52.54585014090859],[5.857015226928977,52.545870197644845],[5.857602269065899,52.54565040343671],[5.857722815446794,52.54518145140982],[5.857871083144972,52.54460458608449],[5.856951893566681,52.544027237446656],[5.8567581955128345,52.54436537043153],[5.856560308961497,52.544710807477145],[5.856156450123066,52.54478850320359],[5.855542941265237,52.5445872080407],[5.855688451040447,52.54410607412756],[5.856600991251774,52.54381151937594],[5.856083812703926,52.54351214063054],[5.8556372067817835,52.54382595897373],[5.855285089978662,52.54380068703165],[5.854981572091728,52.54304106399374],[5.856819827037893,52.520374787713564],[5.857526369223494,52.520202450285936],[5.857526638115002,52.51919267015847],[5.856914823921483,52.51920280605828],[5.856996411320158,52.518196216575845],[5.855467436500962,52.51684602422795],[5.852772485904277,52.50888667810549],[5.852981425837773,52.505980122852755],[5.847549306171771,52.49345184458593],[5.816112750678877,52.45885134190388],[5.816386126856767,52.45770900740094],[5.817418851804205,52.457302164609274],[5.817378415296422,52.457255541320166],[5.816291093667449,52.457606885013796],[5.815162959002523,52.45636097323032],[5.8144515487217525,52.456732447145114],[5.812332852089079,52.456624310903614],[5.803779326853753,52.445857390149634],[5.802718225443507,52.44620309468572],[5.799844671511646,52.44145569948294],[5.797274222628752,52.43962065360867],[5.797059667780321,52.438832367953516],[5.781334298491706,52.43088817331536],[5.7779115617214325,52.428335728226145],[5.7757818482005785,52.427907916883555],[5.7572560332072,52.418983393860664],[5.74701216352233,52.414582721471135],[5.745212527694846,52.41466059154231],[5.74460114444607,52.414050883080094],[5.744847843602678,52.41515620128677],[5.742339773755727,52.41530488736014],[5.742017476302958,52.41454462845704],[5.74381608653131,52.413747343030806],[5.74178250703938,52.41359596037844],[5.739776792588744,52.415308752010056],[5.726507797556167,52.41697229137881],[5.720113712092446,52.416135557530396],[5.661470667525403,52.397937700989914],[5.645254245545604,52.39073090111418],[5.644484062533361,52.389924008920595],[5.645163967988532,52.38923806918835],[5.643838154891346,52.389247288526235],[5.644759675574026,52.38854029099335],[5.63930589813318,52.387316974065],[5.637355333868399,52.38574334375176],[5.636710369286178,52.38618729840471],[5.635422674984866,52.38501021310797],[5.636217831046338,52.38415298057268],[5.63570104220604,52.383951053567486],[5.634544291607256,52.38478257512113],[5.632644234001627,52.384049053017954],[5.634394000820918,52.3825690985896],[5.6323050286740495,52.38391809661692],[5.625201870708161,52.38031584748052],[5.623336280240465,52.376613111845785],[5.620799572990988,52.375921562943724],[5.6161335686005724,52.37172191518379],[5.616777007604296,52.370778852382436],[5.615190513894131,52.37084104575058],[5.614735233060101,52.37056565569961],[5.614670403614233,52.37052644210737],[5.6135576784349945,52.37104269552418],[5.611852737413005,52.374687993862025],[5.6171887364192346,52.38478312931283],[5.622984181273812,52.408802017720255],[5.618401987298352,52.408568675906864],[5.5890709813511625,52.41118713392012],[5.58799919382565,52.41476678843649],[5.566637745566396,52.43586360155011],[5.573804075141165,52.43879468095164],[5.581973114961878,52.44559301653502],[5.586389490878872,52.44771113629032],[5.572780586220132,52.46244893959268],[5.565420530466413,52.47028126648099],[5.605870974146171,52.48452034342819],[5.591361371967045,52.49996426124466],[5.588147320369822,52.51339326786139],[5.58805637346431,52.51377314572076],[5.588057086744915,52.51377321011947],[5.59128127537661,52.51412299478069],[5.588313552201601,52.54918559153186],[5.587411138814164,52.56346021487157],[5.572889365628628,52.59615774911775],[5.628316298098938,52.605359238887026],[5.6415482251753994,52.61054846526152],[5.649321522552438,52.61466218033856],[5.650038280067937,52.61559391502993],[5.651210509978936,52.614766508587195],[5.6419766648968,52.60984602399295],[5.639968868841922,52.60786705519659],[5.650807483141884,52.59931843805991],[5.6547664565166995,52.59733686374732],[5.725554755979537,52.586435949788566],[5.730240583101332,52.58573080258649],[5.755709957145931,52.5818944011377],[5.756764960986326,52.58128406235935],[5.756828195434136,52.58064171284209],[5.75693309609783,52.57957608977981],[5.759878788168456,52.579613232097806]]],[[[5.858731279820051,52.51980992354878],[5.859584732036243,52.51985776560141],[5.8628590977988715,52.520906310775416],[5.86351319736006,52.520354590161205],[5.85877157473576,52.51906164045819],[5.858731279820051,52.51980992354878]]],[[[5.859212117150788,52.52040741941912],[5.858632152485074,52.524569871932684],[5.858632253744478,52.52456997128986],[5.8586423934894185,52.52457720085007],[5.860546211251856,52.52593957803722],[5.861542426933976,52.5256271967702],[5.862626951489361,52.52334528425034],[5.862052965472889,52.52185974607319],[5.860376710598802,52.521362704642435],[5.860028026823835,52.52030267366174],[5.859212117150788,52.52040741941912]]],[[[5.739593271638191,52.59102928790487],[5.7354165190267015,52.593959149904485],[5.734127825116584,52.59674875466982],[5.734842151467696,52.60228571730501],[5.741857410792924,52.60475154840785],[5.750572366298577,52.60388355568337],[5.754923589397956,52.60201836505605],[5.757928278113461,52.59075422915725],[5.756615086518448,52.58834042476321],[5.739593271638191,52.59102928790487]]]]},"properties":{"type":"boundary","gemeente":"Dronten","code":"GM0303"}}]}