{"type":"FeatureCollection","metadata":{"gemeente":"Edam-Volendam","slug":"edam-volendam","code":"GM0385","generated_at":"2026-08-08T12:05:52.020Z","total_passenger":164,"total_freight":0,"bounds":[4.949370332036638,52.48492552745935,5.085691442249681,52.6124538914127],"operators":["50five","Allego","DAEN Mobility","E-Flux by Road","Eneco","Laadnet","Opcharge","TotalEnergies","Ubitricity","Vattenfall InCharge"]},"features":[{"type":"Feature","geometry":{"type":"Point","coordinates":[5.07216,52.49539]},"properties":{"type":"charge","layer":"passenger","locationId":"1637","name":"Shell Recharge NL Spoorbuurt 12","address":"Spoorbuurt 12","city":"Edam-Volendam","operatorName":"Ubitricity","maxPowerKw":11,"isMegawatt":false,"status":"CHARGING","source":"ndw","priceKwh":0.392}},{"type":"Feature","geometry":{"type":"Point","coordinates":[5.042653,52.512016]},"properties":{"type":"charge","layer":"passenger","locationId":"1B91B575-5367-4D61-9AD1-9FC614CE707B","name":"TNLP008605 - Ambachtstraat 29, Edam","address":"29 Ambachtstraat","city":"Edam","operatorName":"TotalEnergies","maxPowerKw":14,"isMegawatt":false,"status":"AVAILABLE","source":"ndw"}},{"type":"Feature","geometry":{"type":"Point","coordinates":[5.04476,52.51009]},"properties":{"type":"charge","layer":"passenger","locationId":"354","name":"Shell Recharge NL Egbert Snijderplein 1","address":"Egbert Snijderplein 1","city":"Edam","operatorName":"Ubitricity","maxPowerKw":11,"isMegawatt":false,"status":"CHARGING","source":"ndw","priceKwh":0.392}},{"type":"Feature","geometry":{"type":"Point","coordinates":[5.04744,52.5133]},"properties":{"type":"charge","layer":"passenger","locationId":"0237F266-0817-47FB-9466-4CE7F5C949D4","name":"TNLP005728 - Jan Nieuwenhuizenplein 5, Edam","address":"5 Jan Nieuwenhuizenplein","city":"Edam","operatorName":"TotalEnergies","maxPowerKw":17,"isMegawatt":false,"status":"UNAVAILABLE","source":"ndw"}},{"type":"Feature","geometry":{"type":"Point","coordinates":[5.055647,52.50209]},"properties":{"type":"charge","layer":"passenger","locationId":"33B9ADCD-A96A-41A3-BEF9-112CD4654FE0","name":"TNLP015198 - De Dijkkavel 30, Volendam","address":"30 De Dijkkavel","city":"Volendam","operatorName":"TotalEnergies","maxPowerKw":17,"isMegawatt":false,"status":"UNAVAILABLE","source":"ndw"}},{"type":"Feature","geometry":{"type":"Point","coordinates":[5.051926,52.510876]},"properties":{"type":"charge","layer":"passenger","locationId":"765F4F6B-9D15-4F54-9B4E-A2E95F99DA00","name":"TNLP008313 - Burgemeester Versteeghsingel 25, Edam","address":"25 Burgemeester Versteeghsingel","city":"Edam","operatorName":"TotalEnergies","maxPowerKw":14,"isMegawatt":false,"status":"AVAILABLE","source":"ndw"}},{"type":"Feature","geometry":{"type":"Point","coordinates":[5.079271,52.498666]},"properties":{"type":"charge","layer":"passenger","locationId":"NLLOC007665","name":"NL, Noordeinde 76, 1131 GD, Volendam","address":"Noordeinde 76","city":"Volendam","operatorName":"Allego","maxPowerKw":11,"isMegawatt":false,"status":"CHARGING","source":"ndw","priceKwh":0.511}},{"type":"Feature","geometry":{"type":"Point","coordinates":[5.0667397,52.5099595]},"properties":{"type":"charge","layer":"passenger","locationId":"1686","name":"Shell Recharge NL Tjaskermolen 20","address":"Tjaskermolen 20","city":"Edam","operatorName":"Ubitricity","maxPowerKw":22,"isMegawatt":false,"status":"AVAILABLE","source":"ndw","priceKwh":0.267}},{"type":"Feature","geometry":{"type":"Point","coordinates":[5.076967,52.499808]},"properties":{"type":"charge","layer":"passenger","locationId":"fcdbaaf1bcfc48b59ab758883f99b223","name":"Volendam Contaxus ","address":"Julianaweg 192 F","city":"Volendam","operatorName":"Opcharge","maxPowerKw":11,"isMegawatt":false,"status":"AVAILABLE","source":"ndw","priceKwh":0.45}},{"type":"Feature","geometry":{"type":"Point","coordinates":[5.05385,52.49879]},"properties":{"type":"charge","layer":"passenger","locationId":"1482","name":"Shell Recharge NL De Poel 2","address":"De Poel 2","city":"Edam-Volendam","operatorName":"Ubitricity","maxPowerKw":11,"isMegawatt":false,"status":"AVAILABLE","source":"ndw","priceKwh":0.392}},{"type":"Feature","geometry":{"type":"Point","coordinates":[5.050579,52.501297]},"properties":{"type":"charge","layer":"passenger","locationId":"2090BE8E-BF24-4565-BCE1-BC18D8D37045","name":"TNLP006989 - Jan Platstraat 99, Volendam","address":"99 Jan Platstraat","city":"Volendam","operatorName":"TotalEnergies","maxPowerKw":15,"isMegawatt":false,"status":"CHARGING","source":"ndw"}},{"type":"Feature","geometry":{"type":"Point","coordinates":[5.070218,52.49132]},"properties":{"type":"charge","layer":"passenger","locationId":"9F390B7C-D903-4AC3-9449-A1435F3144A0","name":"TNLP009264 - Slobbeland 4, Volendam","address":"4 Slobbeland","city":"Volendam","operatorName":"TotalEnergies","maxPowerKw":15,"isMegawatt":false,"status":"AVAILABLE","source":"ndw"}},{"type":"Feature","geometry":{"type":"Point","coordinates":[4.9925886,52.5669702]},"properties":{"type":"charge","layer":"passenger","locationId":"2367","name":"Shell Recharge NL Komeet 8","address":"Komeet 8","city":"Oosthuizen","operatorName":"Ubitricity","maxPowerKw":22,"isMegawatt":false,"status":"AVAILABLE","source":"ndw","priceKwh":0.267}},{"type":"Feature","geometry":{"type":"Point","coordinates":[5.0720595,52.5063888]},"properties":{"type":"charge","layer":"passenger","locationId":"2435","name":"Shell Recharge NL Wester Ven 54","address":"Wester Ven 54","city":"Volendam","operatorName":"Ubitricity","maxPowerKw":22,"isMegawatt":false,"status":"AVAILABLE","source":"ndw","priceKwh":0.267}},{"type":"Feature","geometry":{"type":"Point","coordinates":[5.0670755,52.4971003]},"properties":{"type":"charge","layer":"passenger","locationId":"2082","name":"Shell Recharge NL Saturnusstraat 18B","address":"Saturnusstraat 18B","city":"Volendam","operatorName":"Ubitricity","maxPowerKw":22,"isMegawatt":false,"status":"AVAILABLE","source":"ndw","priceKwh":0.267}},{"type":"Feature","geometry":{"type":"Point","coordinates":[5.051052,52.51501]},"properties":{"type":"charge","layer":"passenger","locationId":"35FE329A-E673-4307-BFAF-2182ED91449D","name":"TNLP008095 - Noorderstraat 93, Edam","address":"93 Noorderstraat","city":"Edam","operatorName":"TotalEnergies","maxPowerKw":17,"isMegawatt":false,"status":"UNAVAILABLE","source":"ndw"}},{"type":"Feature","geometry":{"type":"Point","coordinates":[5.05414,52.501366]},"properties":{"type":"charge","layer":"passenger","locationId":"728ED91D-6828-40B0-844E-453A7A39FF17","name":"TNLP034275 - Dick Tolstraat 120, Volendam","address":"120 Dick Tolstraat","city":"Volendam","operatorName":"TotalEnergies","maxPowerKw":13,"isMegawatt":false,"status":"UNAVAILABLE","source":"ndw"}},{"type":"Feature","geometry":{"type":"Point","coordinates":[5.06202,52.49798]},"properties":{"type":"charge","layer":"passenger","locationId":"036423B8-20CB-4A57-9F81-79D69BB6C228","name":"TNLP008356 - Maanstraat 64, Volendam","address":"64 Maanstraat","city":"Volendam","operatorName":"TotalEnergies","maxPowerKw":14,"isMegawatt":false,"status":"AVAILABLE","source":"ndw"}},{"type":"Feature","geometry":{"type":"Point","coordinates":[5.068047,52.490379]},"properties":{"type":"charge","layer":"passenger","locationId":"64c2304e6eb9f4001ce315da","name":"Landal Volendam station L2","address":"Slobbeland 5","city":"Volendam","operatorName":"E-Flux by Road","maxPowerKw":11,"isMegawatt":false,"status":"AVAILABLE","source":"ndw","priceKwh":0.48}},{"type":"Feature","geometry":{"type":"Point","coordinates":[5.05493,52.49636]},"properties":{"type":"charge","layer":"passenger","locationId":"e215da904093da869cad3f41e000fa70","name":"Leendert Spaanderlaan 1","address":"Leendert Spaanderlaan 1","city":"Volendam","operatorName":"Vattenfall InCharge","maxPowerKw":11,"isMegawatt":false,"status":"AVAILABLE","source":"ndw","priceKwh":0.2805}},{"type":"Feature","geometry":{"type":"Point","coordinates":[4.998918,52.569871]},"properties":{"type":"charge","layer":"passenger","locationId":"NLLOC003396","name":"NLD, De Krommert 83, 1474 PR Oosthuizen","address":"De Krommert 83","city":"Oosthuizen","operatorName":"Allego","maxPowerKw":11,"isMegawatt":false,"status":"AVAILABLE","source":"ndw","priceKwh":0.511}},{"type":"Feature","geometry":{"type":"Point","coordinates":[4.979166,52.528016]},"properties":{"type":"charge","layer":"passenger","locationId":"91051650","name":"50five-S NL 07101886","address":"Kwadijk 7a","city":"Kwadijk","operatorName":"50five","maxPowerKw":11,"isMegawatt":false,"status":"CHARGING","source":"ndw"}},{"type":"Feature","geometry":{"type":"Point","coordinates":[5.067533,52.490468]},"properties":{"type":"charge","layer":"passenger","locationId":"650a8af8ea6bb9001def04ac","name":"Laadpaal timmerfabriek Nr. 5","address":"Slobbeland  30","city":"Volendam","operatorName":"E-Flux by Road","maxPowerKw":22,"isMegawatt":false,"status":"CHARGING","source":"ndw","priceKwh":0.53}},{"type":"Feature","geometry":{"type":"Point","coordinates":[5.052646,52.50896]},"properties":{"type":"charge","layer":"passenger","locationId":"F10FD94B-04A9-495B-9E77-10956E21ACDE","name":"TNLP008609 - Sternmeerhof 1, Edam","address":"1 Sternmeerhof","city":"Edam","operatorName":"TotalEnergies","maxPowerKw":14,"isMegawatt":false,"status":"CHARGING","source":"ndw"}},{"type":"Feature","geometry":{"type":"Point","coordinates":[5.049728,52.511047]},"properties":{"type":"charge","layer":"passenger","locationId":"CE4BC7B9-8658-4373-8095-EC2D1175FFD6","name":"TNLP034636 - Baanstraat 7, Edam","address":"7 Baanstraat","city":"Edam","operatorName":"TotalEnergies","maxPowerKw":13,"isMegawatt":false,"status":"UNAVAILABLE","source":"ndw"}},{"type":"Feature","geometry":{"type":"Point","coordinates":[5.068345,52.51154]},"properties":{"type":"charge","layer":"passenger","locationId":"DD413670-B373-4BFD-8C56-C4322287CA78","name":"TNLP008075 - Nieuwedieplaan 1, Volendam","address":"1 Nieuwedieplaan","city":"Volendam","operatorName":"TotalEnergies","maxPowerKw":15,"isMegawatt":false,"status":"CHARGING","source":"ndw"}},{"type":"Feature","geometry":{"type":"Point","coordinates":[4.9955818,52.5702872]},"properties":{"type":"charge","layer":"passenger","locationId":"1886","name":"Shell Recharge NL Oeverzegge 7","address":"Oeverzegge 7","city":"Oosthuizen","operatorName":"Ubitricity","maxPowerKw":22,"isMegawatt":false,"status":"AVAILABLE","source":"ndw","priceKwh":0.267}},{"type":"Feature","geometry":{"type":"Point","coordinates":[5.0725088,52.5107092]},"properties":{"type":"charge","layer":"passenger","locationId":"966","name":"Shell Recharge NL Breewijd 2","address":"Breewijd 2","city":"Volendam","operatorName":"Ubitricity","maxPowerKw":22,"isMegawatt":false,"status":"AVAILABLE","source":"ndw","priceKwh":0.267}},{"type":"Feature","geometry":{"type":"Point","coordinates":[5.06106,52.49873]},"properties":{"type":"charge","layer":"passenger","locationId":"6a548de1b9e033bb564114ab","name":"Easee Load Mercuriuslaan","address":"Mercuriuslaan  36","city":"Volendam","operatorName":"E-Flux by Road","maxPowerKw":11,"isMegawatt":false,"status":"AVAILABLE","source":"ndw","priceKwh":0.29}},{"type":"Feature","geometry":{"type":"Point","coordinates":[5.069485,52.489743]},"properties":{"type":"charge","layer":"passenger","locationId":"648308d3827e81001c0574e7","name":"Landal Volendam station R2","address":"Slobbeland 5","city":"Volendam","operatorName":"E-Flux by Road","maxPowerKw":22,"isMegawatt":false,"status":"AVAILABLE","source":"ndw","priceKwh":0.48}},{"type":"Feature","geometry":{"type":"Point","coordinates":[5.051903,52.510753]},"properties":{"type":"charge","layer":"passenger","locationId":"91065475","name":"50five-S NL 07004850","address":"Burgemeester Versteeghsingel 25A","city":"Edam","operatorName":"50five","maxPowerKw":11,"isMegawatt":false,"status":"CHARGING","source":"ndw"}},{"type":"Feature","geometry":{"type":"Point","coordinates":[4.99956,52.571484]},"properties":{"type":"charge","layer":"passenger","locationId":"56CD3C17-56A3-4779-9BF5-44464FB70F2D","name":"TNLP006463 - De Wijzend 136, Oosthuizen","address":"136 De Wijzend","city":"Oosthuizen","operatorName":"TotalEnergies","maxPowerKw":17,"isMegawatt":false,"status":"UNAVAILABLE","source":"ndw"}},{"type":"Feature","geometry":{"type":"Point","coordinates":[5.077821,52.501216]},"properties":{"type":"charge","layer":"passenger","locationId":"61865b371d51fd7a052cbb7d","name":"TBE-ZA","address":"Julianaweg, 141b","city":"Volendam","operatorName":"E-Flux by Road","maxPowerKw":11,"isMegawatt":false,"status":"AVAILABLE","source":"ndw","priceKwh":0.3641}},{"type":"Feature","geometry":{"type":"Point","coordinates":[5.069568,52.504097]},"properties":{"type":"charge","layer":"passenger","locationId":"6a22bc068df8d250b8de71f4","name":"Easee Load Harderwijkplantsoen","address":"Harderwijkplantsoen  24","city":"Volendam","operatorName":"E-Flux by Road","maxPowerKw":11,"isMegawatt":false,"status":"UNAVAILABLE","source":"ndw","priceKwh":0.47}},{"type":"Feature","geometry":{"type":"Point","coordinates":[5.06132,52.49506]},"properties":{"type":"charge","layer":"passenger","locationId":"CAA64AD8-6DE0-4D1E-A3A7-2E7B3998108C","name":"TNLP007975 - Zonnesingel 1, Volendam","address":"1 Zonnesingel","city":"Volendam","operatorName":"TotalEnergies","maxPowerKw":15,"isMegawatt":false,"status":"AVAILABLE","source":"ndw"}},{"type":"Feature","geometry":{"type":"Point","coordinates":[5.05668,52.507282]},"properties":{"type":"charge","layer":"passenger","locationId":"697AC2EC-0868-48A1-A85C-DF314669446C","name":"TNLP034214 - Buikslotermeerstraat 36, Edam","address":"36 Buikslotermeerstraat","city":"Edam","operatorName":"TotalEnergies","maxPowerKw":13,"isMegawatt":false,"status":"UNAVAILABLE","source":"ndw"}},{"type":"Feature","geometry":{"type":"Point","coordinates":[5.059752,52.504731]},"properties":{"type":"charge","layer":"passenger","locationId":"NLLOC002039","name":"NLD, Volendam, Gouden Slot 1","address":"Gouden Slot 1","city":"Volendam","operatorName":"Allego","maxPowerKw":11,"isMegawatt":false,"status":"AVAILABLE","source":"ndw","priceKwh":0.511}},{"type":"Feature","geometry":{"type":"Point","coordinates":[5.066531,52.50488]},"properties":{"type":"charge","layer":"passenger","locationId":"5EB635E2-DD8F-44ED-946E-DA00B75FB397","name":"TNLP034294 - Joost van den Vondelstraat 10, Volendam","address":"10 Joost van den Vondelstraat","city":"Volendam","operatorName":"TotalEnergies","maxPowerKw":13,"isMegawatt":false,"status":"UNAVAILABLE","source":"ndw"}},{"type":"Feature","geometry":{"type":"Point","coordinates":[5.051083,52.50034]},"properties":{"type":"charge","layer":"passenger","locationId":"F5D93193-004F-42CA-BA42-BC6B7AD6D631","name":"TNLP034651 - Jaap Zwarthoedstraat 6, Volendam","address":"6 Jaap Zwarthoedstraat","city":"Volendam","operatorName":"TotalEnergies","maxPowerKw":13,"isMegawatt":false,"status":"UNAVAILABLE","source":"ndw"}},{"type":"Feature","geometry":{"type":"Point","coordinates":[5.0678904,52.5108483]},"properties":{"type":"charge","layer":"passenger","locationId":"1143","name":"Shell Recharge NL Jan Steenstraat 11","address":"Jan Steenstraat 11","city":"Volendam","operatorName":"Ubitricity","maxPowerKw":22,"isMegawatt":false,"status":"AVAILABLE","source":"ndw","priceKwh":0.267}},{"type":"Feature","geometry":{"type":"Point","coordinates":[5.074668,52.510266]},"properties":{"type":"charge","layer":"passenger","locationId":"922627","name":"DAE-NL-2000088","address":"Wieringenlaan 24","city":"Vollendam","operatorName":"DAEN Mobility","maxPowerKw":11,"isMegawatt":false,"status":"AVAILABLE","source":"ndw","priceKwh":0.28}},{"type":"Feature","geometry":{"type":"Point","coordinates":[5.061342,52.51317]},"properties":{"type":"charge","layer":"passenger","locationId":"4230210","name":"Laadnet Zoutziedershof","address":"Zoutziedershof 27","city":"Edam","operatorName":"Laadnet","maxPowerKw":11,"isMegawatt":false,"status":"CHARGING","source":"ndw"}},{"type":"Feature","geometry":{"type":"Point","coordinates":[5.078825,52.505074]},"properties":{"type":"charge","layer":"passenger","locationId":"91149147","name":"50five-S NL 09100558","address":"Morseweg 73","city":"Volendam","operatorName":"50five","maxPowerKw":22,"isMegawatt":false,"status":"AVAILABLE","source":"ndw"}},{"type":"Feature","geometry":{"type":"Point","coordinates":[5.061788,52.496836]},"properties":{"type":"charge","layer":"passenger","locationId":"5926a4f1eed70a33593325ec1fcf2e1a","name":"Junoplantsoen 1","address":"Junoplantsoen 1","city":"Volendam","operatorName":"Vattenfall InCharge","maxPowerKw":11,"isMegawatt":false,"status":"AVAILABLE","source":"ndw","priceKwh":0.2805}},{"type":"Feature","geometry":{"type":"Point","coordinates":[5.017794,52.568317]},"properties":{"type":"charge","layer":"passenger","locationId":"FFE2F32B-EF25-4E42-AA76-3A18E6F48148","name":"TNLP009067 - Dirk Haan Erf 1, Warder","address":"1 Dirk Haan Erf","city":"Warder","operatorName":"TotalEnergies","maxPowerKw":15,"isMegawatt":false,"status":"AVAILABLE","source":"ndw"}},{"type":"Feature","geometry":{"type":"Point","coordinates":[5.045928,52.498824]},"properties":{"type":"charge","layer":"passenger","locationId":"NLLOC002950","name":"NLD, Gemeente Edam-Volendam, Boeijer 26 1132GR Volendam","address":"Boeijer 26","city":"Volendam","operatorName":"Allego","maxPowerKw":11,"isMegawatt":false,"status":"AVAILABLE","source":"ndw","priceKwh":0.511}},{"type":"Feature","geometry":{"type":"Point","coordinates":[5.07202,52.506246]},"properties":{"type":"charge","layer":"passenger","locationId":"fc2c41e3-a79e-4f83-b3e4-e80449ae7814","name":"Wester Ven","address":"Wester Ven 1","city":"Volendam","operatorName":"Vattenfall InCharge","maxPowerKw":11,"isMegawatt":false,"status":"AVAILABLE","source":"ndw","priceKwh":0.4316}},{"type":"Feature","geometry":{"type":"Point","coordinates":[5.062248,52.503439]},"properties":{"type":"charge","layer":"passenger","locationId":"6a54a8953a7a326b6c894458","name":"Boezelgracht 17","address":"Boezelgracht 17","city":"Volendam","operatorName":"E-Flux by Road","maxPowerKw":11,"isMegawatt":false,"status":"AVAILABLE","source":"ndw","priceKwh":1.28}},{"type":"Feature","geometry":{"type":"Point","coordinates":[5.001225,52.57668]},"properties":{"type":"charge","layer":"passenger","locationId":"E98EF90F-C4E9-446C-9092-293DC614FB41","name":"TNLP015029 - Westerkoogstraat 1, Oosthuizen","address":"1 Westerkoogstraat","city":"Oosthuizen","operatorName":"TotalEnergies","maxPowerKw":17,"isMegawatt":false,"status":"UNAVAILABLE","source":"ndw"}},{"type":"Feature","geometry":{"type":"Point","coordinates":[5.05113,52.495641]},"properties":{"type":"charge","layer":"passenger","locationId":"NLLOC002298","name":"NLD, Leendert Spaanderlaan 45, Volendam","address":"Leendert Spaanderlaan 45","city":"Volendam","operatorName":"Allego","maxPowerKw":11,"isMegawatt":false,"status":"AVAILABLE","source":"ndw","priceKwh":0.511}},{"type":"Feature","geometry":{"type":"Point","coordinates":[4.993973,52.57207]},"properties":{"type":"charge","layer":"passenger","locationId":"98E8F9CE-3274-41F5-8C11-BE2764E5BD6A","name":"TNLP009751 - Bredehoff 1, Oosthuizen","address":"1 Bredehoff","city":"Oosthuizen","operatorName":"TotalEnergies","maxPowerKw":17,"isMegawatt":false,"status":"UNAVAILABLE","source":"ndw"}},{"type":"Feature","geometry":{"type":"Point","coordinates":[5.0480357,52.4945378]},"properties":{"type":"charge","layer":"passenger","locationId":"1112","name":"Shell Recharge NL Werengouw 27","address":"Werengouw 27","city":"Volendam","operatorName":"Ubitricity","maxPowerKw":22,"isMegawatt":false,"status":"AVAILABLE","source":"ndw","priceKwh":0.267}},{"type":"Feature","geometry":{"type":"Point","coordinates":[5.049922,52.50514]},"properties":{"type":"charge","layer":"passenger","locationId":"B0F0CE0A-75B7-4FB4-B6CC-681BEDD630FA","name":"TNLP009282 - Cornelis Doetsstraat 23, Edam","address":"23 Cornelis Doetsstraat","city":"Edam","operatorName":"TotalEnergies","maxPowerKw":15,"isMegawatt":false,"status":"AVAILABLE","source":"ndw"}},{"type":"Feature","geometry":{"type":"Point","coordinates":[5.069485,52.489743]},"properties":{"type":"charge","layer":"passenger","locationId":"64830919827e81001c058679","name":"Landal Volendam station L1","address":"Slobbeland 5","city":"Volendam","operatorName":"E-Flux by Road","maxPowerKw":22,"isMegawatt":false,"status":"AVAILABLE","source":"ndw","priceKwh":0.48}},{"type":"Feature","geometry":{"type":"Point","coordinates":[5.078807,52.51203]},"properties":{"type":"charge","layer":"passenger","locationId":"28C1FE1F-0141-42F3-9756-FA204400FC87","name":"TNLP008395 - Wieringenlaan 108, Volendam","address":"108 Wieringenlaan","city":"Volendam","operatorName":"TotalEnergies","maxPowerKw":14,"isMegawatt":false,"status":"AVAILABLE","source":"ndw"}},{"type":"Feature","geometry":{"type":"Point","coordinates":[5.068098,52.501354]},"properties":{"type":"charge","layer":"passenger","locationId":"6a564d16e7b811de3ff702ba","name":"Easee Load Langedijkstraat","address":"Volendam 14","city":"Volendam","operatorName":"E-Flux by Road","maxPowerKw":11,"isMegawatt":false,"status":"AVAILABLE","source":"ndw","priceKwh":0.43}},{"type":"Feature","geometry":{"type":"Point","coordinates":[5.070732,52.49926]},"properties":{"type":"charge","layer":"passenger","locationId":"AEB8ADCA-16D4-4B2C-AA7F-4E83D1324CAF","name":"TNLP015325 - Burgemeester van Baarstraat 51, Volendam","address":"51 Burgemeester van Baarstraat","city":"Volendam","operatorName":"TotalEnergies","maxPowerKw":17,"isMegawatt":false,"status":"UNAVAILABLE","source":"ndw"}},{"type":"Feature","geometry":{"type":"Point","coordinates":[5.06263,52.505705]},"properties":{"type":"charge","layer":"passenger","locationId":"69b963dfef7c1548fd2c6d67","name":"D28 Charger","address":"Dukaton 28","city":"Volendam","operatorName":"E-Flux by Road","maxPowerKw":11,"isMegawatt":false,"status":"AVAILABLE","source":"ndw","priceKwh":0.45}},{"type":"Feature","geometry":{"type":"Point","coordinates":[5.067651,52.490498]},"properties":{"type":"charge","layer":"passenger","locationId":"650a8b6af9a154001cd3ffe5","name":"Laadpaal timmerfabriek Nr. 3","address":"Slobbeland  30","city":"Volendam","operatorName":"E-Flux by Road","maxPowerKw":22,"isMegawatt":false,"status":"AVAILABLE","source":"ndw","priceKwh":0.53}},{"type":"Feature","geometry":{"type":"Point","coordinates":[5.044806,52.495932]},"properties":{"type":"charge","layer":"passenger","locationId":"NLLOC005776","name":"NLD Botter 33 1132 EZ Volendam","address":"Botter 33","city":"Volendam","operatorName":"Allego","maxPowerKw":11,"isMegawatt":false,"status":"AVAILABLE","source":"ndw","priceKwh":0.511}},{"type":"Feature","geometry":{"type":"Point","coordinates":[4.99627,52.58108]},"properties":{"type":"charge","layer":"passenger","locationId":"EFE220A6-295C-4A43-A5C6-2BAED4D52C72","name":"TNLP003572 - Ambachtsweg 5, Oosthuizen","address":"5 Ambachtsweg","city":"Oosthuizen","operatorName":"TotalEnergies","maxPowerKw":17,"isMegawatt":false,"status":"AVAILABLE","source":"ndw"}},{"type":"Feature","geometry":{"type":"Point","coordinates":[5.0005783,52.5705366]},"properties":{"type":"charge","layer":"passenger","locationId":"2083","name":"Shell Recharge NL De Wijzend 183","address":"De Wijzend 183","city":"Oosthuizen","operatorName":"Ubitricity","maxPowerKw":22,"isMegawatt":false,"status":"AVAILABLE","source":"ndw","priceKwh":0.267}},{"type":"Feature","geometry":{"type":"Point","coordinates":[5.066698,52.500767]},"properties":{"type":"charge","layer":"passenger","locationId":"074B3A19-CDDC-4A63-95AE-CB1EA59F76E6","name":"TNLP009433 - Torenvalkstraat 9, Volendam","address":"9 Torenvalkstraat","city":"Volendam","operatorName":"TotalEnergies","maxPowerKw":17,"isMegawatt":false,"status":"UNAVAILABLE","source":"ndw"}},{"type":"Feature","geometry":{"type":"Point","coordinates":[5.062749,52.49699]},"properties":{"type":"charge","layer":"passenger","locationId":"1B1AADD3-39B5-4005-927B-3E7C43FEDCD9","name":"TNLP008132 - Vestaplantsoen 22, Volendam","address":"22 Vestaplantsoen","city":"Volendam","operatorName":"TotalEnergies","maxPowerKw":15,"isMegawatt":false,"status":"UNAVAILABLE","source":"ndw"}},{"type":"Feature","geometry":{"type":"Point","coordinates":[5.057703,52.498567]},"properties":{"type":"charge","layer":"passenger","locationId":"NLLOC005775","name":"NLD Jan Sluiterstraat 56 1132XZ Volendam","address":"Jan Sluiterstraat 56","city":"Volendam","operatorName":"Allego","maxPowerKw":11,"isMegawatt":false,"status":"AVAILABLE","source":"ndw","priceKwh":0.511}},{"type":"Feature","geometry":{"type":"Point","coordinates":[5.0654822,52.4979131]},"properties":{"type":"charge","layer":"passenger","locationId":"1147","name":"Shell Recharge NL Weegschaalstraat 23","address":"Weegschaalstraat 23","city":"Volendam","operatorName":"Ubitricity","maxPowerKw":22,"isMegawatt":false,"status":"AVAILABLE","source":"ndw","priceKwh":0.267}},{"type":"Feature","geometry":{"type":"Point","coordinates":[5.059985,52.50911]},"properties":{"type":"charge","layer":"passenger","locationId":"E92C03C3-2A78-4DF7-A3AA-95B4FC7F8D90","name":"TNLP034023 - Stellingmolen 4, Edam","address":"4 Stellingmolen","city":"Edam","operatorName":"TotalEnergies","maxPowerKw":13,"isMegawatt":false,"status":"UNAVAILABLE","source":"ndw"}},{"type":"Feature","geometry":{"type":"Point","coordinates":[5.075128,52.504665]},"properties":{"type":"charge","layer":"passenger","locationId":"1FD13C31-B906-46BE-950E-2B2AD1D0A4F1","name":"TNLP009425 - Dijkvennenplein 20, Volendam","address":"20 Dijkvennenplein","city":"Volendam","operatorName":"TotalEnergies","maxPowerKw":15,"isMegawatt":false,"status":"UNAVAILABLE","source":"ndw"}},{"type":"Feature","geometry":{"type":"Point","coordinates":[5.075447,52.496754]},"properties":{"type":"charge","layer":"passenger","locationId":"e59b07f651b20bd15fc52e5d9edec9ba","name":"Roerstraat 9","address":"Roerstraat 9","city":"Volendam","operatorName":"Vattenfall InCharge","maxPowerKw":11,"isMegawatt":false,"status":"CHARGING","source":"ndw","priceKwh":0.2805}},{"type":"Feature","geometry":{"type":"Point","coordinates":[5.042559,52.51333]},"properties":{"type":"charge","layer":"passenger","locationId":"91A70921-C827-4A09-876F-6626B6F07B6F","name":"TNLP008067 - Ambachtstraat 2, Edam","address":"2 Ambachtstraat","city":"Edam","operatorName":"TotalEnergies","maxPowerKw":15,"isMegawatt":false,"status":"AVAILABLE","source":"ndw"}},{"type":"Feature","geometry":{"type":"Point","coordinates":[5.053603,52.496227]},"properties":{"type":"charge","layer":"passenger","locationId":"006EEB9F-BFBA-4A89-B6AC-97C45BCE75A0","name":"TNLP007805 - Kraggenburg 1, Volendam","address":"1 Kraggenburg","city":"Volendam","operatorName":"TotalEnergies","maxPowerKw":15,"isMegawatt":false,"status":"AVAILABLE","source":"ndw"}},{"type":"Feature","geometry":{"type":"Point","coordinates":[5.075247,52.510125]},"properties":{"type":"charge","layer":"passenger","locationId":"04ac8117-8656-4225-a931-725a5d47e9c4","name":"Wieringenlaan","address":"Wieringenlaan 52","city":"Volendam","operatorName":"Vattenfall InCharge","maxPowerKw":11,"isMegawatt":false,"status":"AVAILABLE","source":"ndw","priceKwh":0.4316}},{"type":"Feature","geometry":{"type":"Point","coordinates":[5.055009,52.50975]},"properties":{"type":"charge","layer":"passenger","locationId":"58E7D57F-FBF6-40BB-802A-A67BE3B3AA87","name":"TNLP034060 - Jacob Matijsen Osterlinghstraat 12A, Edam","address":"12A Jacob Matijsen Osterlinghstraat","city":"Edam","operatorName":"TotalEnergies","maxPowerKw":13,"isMegawatt":false,"status":"UNAVAILABLE","source":"ndw"}},{"type":"Feature","geometry":{"type":"Point","coordinates":[5.079819,52.509565]},"properties":{"type":"charge","layer":"passenger","locationId":"1082081f4ffec0221f121f5d716f9881","name":"De Hors 14","address":"De Hors 14","city":"Volendam","operatorName":"Vattenfall InCharge","maxPowerKw":11,"isMegawatt":false,"status":"AVAILABLE","source":"ndw","priceKwh":0.2805}},{"type":"Feature","geometry":{"type":"Point","coordinates":[4.98158,52.527489]},"properties":{"type":"charge","layer":"passenger","locationId":"NLLOC003395","name":"NLD, Hollandiaplantsoen 10, 1471 CT Kwadijk","address":"Hollandiaplantsoen 10","city":"Kwadijk","operatorName":"Allego","maxPowerKw":11,"isMegawatt":false,"status":"AVAILABLE","source":"ndw","priceKwh":0.511}},{"type":"Feature","geometry":{"type":"Point","coordinates":[5.05913,52.50033]},"properties":{"type":"charge","layer":"passenger","locationId":"5974A334-EB25-4FD3-BBB4-974182E1F158","name":"TNLP007829 - Hermanus van der Haarstraat 14, Volendam","address":"14 Hermanus van der Haarstraat","city":"Volendam","operatorName":"TotalEnergies","maxPowerKw":15,"isMegawatt":false,"status":"CHARGING","source":"ndw"}},{"type":"Feature","geometry":{"type":"Point","coordinates":[5.046547,52.49323]},"properties":{"type":"charge","layer":"passenger","locationId":"926509DD-C5BF-4951-B124-25E04821F78C","name":"TNLP007787 - De Hemmes 17, Volendam","address":"17 De Hemmes","city":"Volendam","operatorName":"TotalEnergies","maxPowerKw":17,"isMegawatt":false,"status":"UNAVAILABLE","source":"ndw"}},{"type":"Feature","geometry":{"type":"Point","coordinates":[5.054041,52.500539]},"properties":{"type":"charge","layer":"passenger","locationId":"5425114a-e78d-4cef-91ff-b22d2188a019","name":"W. v.d. Knoopdreef","address":"W. v.d. Knoopdreef 1","city":"Volendam","operatorName":"Vattenfall InCharge","maxPowerKw":11,"isMegawatt":false,"status":"UNAVAILABLE","source":"ndw","priceKwh":0.4316}},{"type":"Feature","geometry":{"type":"Point","coordinates":[5.029837,52.56451]},"properties":{"type":"charge","layer":"passenger","locationId":"28120A95-EB01-4EAE-8F1F-E1B6F321F65E","name":"TNLP008572 - Warder 115, Warder","address":"115 Warder","city":"Warder","operatorName":"TotalEnergies","maxPowerKw":14,"isMegawatt":false,"status":"AVAILABLE","source":"ndw"}},{"type":"Feature","geometry":{"type":"Point","coordinates":[5.076313,52.50327]},"properties":{"type":"charge","layer":"passenger","locationId":"AE5DFF40-EB1A-445C-8BFB-F95612A2C302","name":"TNLP009120 - Gravelandstraat 8, Volendam","address":"8 Gravelandstraat","city":"Volendam","operatorName":"TotalEnergies","maxPowerKw":15,"isMegawatt":false,"status":"AVAILABLE","source":"ndw"}},{"type":"Feature","geometry":{"type":"Point","coordinates":[5.073144,52.512268]},"properties":{"type":"charge","layer":"passenger","locationId":"4D4FBBE7-B816-4A9B-B90B-8E23E0429F33","name":"TNLP009738 - Bruine Bank 2, Volendam","address":"2 Bruine Bank","city":"Volendam","operatorName":"TotalEnergies","maxPowerKw":17,"isMegawatt":false,"status":"UNAVAILABLE","source":"ndw"}},{"type":"Feature","geometry":{"type":"Point","coordinates":[5.039427,52.518221]},"properties":{"type":"charge","layer":"passenger","locationId":"65e5d8019509c5001c0445a0","name":"Hansen & Bok","address":"Beitelstraat  49","city":"Edam","operatorName":"E-Flux by Road","maxPowerKw":22,"isMegawatt":false,"status":"AVAILABLE","source":"ndw","priceKwh":0.43}},{"type":"Feature","geometry":{"type":"Point","coordinates":[4.996181,52.563084]},"properties":{"type":"charge","layer":"passenger","locationId":"34AEA16B-CB84-43B0-98DE-4EEE2BFBA014","name":"TNLP034236 - Plevierstraat 28, Oosthuizen","address":"28 Plevierstraat","city":"Oosthuizen","operatorName":"TotalEnergies","maxPowerKw":13,"isMegawatt":false,"status":"UNAVAILABLE","source":"ndw"}},{"type":"Feature","geometry":{"type":"Point","coordinates":[5.073325,52.51296]},"properties":{"type":"charge","layer":"passenger","locationId":"NLLOC007757","name":"NL, Doggersbank 6, 1132LM, Volendam","address":"Doggersbank 6","city":"Volendam","operatorName":"Allego","maxPowerKw":11,"isMegawatt":false,"status":"AVAILABLE","source":"ndw","priceKwh":0.511}},{"type":"Feature","geometry":{"type":"Point","coordinates":[5.07799,52.50716]},"properties":{"type":"charge","layer":"passenger","locationId":"BFCDC32F-6DB5-4BB3-B5D9-430166A734D7","name":"TNLP034350 - Omdraai 3, Volendam","address":"3 Omdraai","city":"Volendam","operatorName":"TotalEnergies","maxPowerKw":13,"isMegawatt":false,"status":"UNAVAILABLE","source":"ndw"}},{"type":"Feature","geometry":{"type":"Point","coordinates":[5.047311,52.514838]},"properties":{"type":"charge","layer":"passenger","locationId":"NLLOC003695","name":"NLD, Gemeente Edam-Volendam Matthijs Tinxgracht 14 1135WX Edam","address":"Matthijs Tinxgracht 14","city":"Edam","operatorName":"Allego","maxPowerKw":11,"isMegawatt":false,"status":"AVAILABLE","source":"ndw","priceKwh":0.511}},{"type":"Feature","geometry":{"type":"Point","coordinates":[5.065466,52.492228]},"properties":{"type":"charge","layer":"passenger","locationId":"NLLOC001599","name":"NLD, Volendam, Margrietstraat 18","address":"Margrietstraat 18","city":"Volendam","operatorName":"Allego","maxPowerKw":22,"isMegawatt":false,"status":"CHARGING","source":"ndw","priceKwh":0.511}},{"type":"Feature","geometry":{"type":"Point","coordinates":[5.047769,52.49897]},"properties":{"type":"charge","layer":"passenger","locationId":"NLLOC009008","name":"NL, Tjalk 2, 1132 GX Volendam","address":"Tjalk 2","city":"Volendam","operatorName":"Allego","maxPowerKw":11,"isMegawatt":false,"status":"AVAILABLE","source":"ndw","priceKwh":0.511}},{"type":"Feature","geometry":{"type":"Point","coordinates":[5.052933,52.511898]},"properties":{"type":"charge","layer":"passenger","locationId":"40EFC644-4B05-4EB0-BDE7-087C933F97C5","name":"TNLP015286 - Baandervesting 116, Edam","address":"116 Baandervesting","city":"Edam","operatorName":"TotalEnergies","maxPowerKw":17,"isMegawatt":false,"status":"UNAVAILABLE","source":"ndw"}},{"type":"Feature","geometry":{"type":"Point","coordinates":[5.068613,52.494038]},"properties":{"type":"charge","layer":"passenger","locationId":"21A9C70C-0890-44DD-9B99-25718D09613E","name":"TNLP034322 - Sportlaan 21, Volendam","address":"21 Sportlaan","city":"Volendam","operatorName":"TotalEnergies","maxPowerKw":13,"isMegawatt":false,"status":"UNAVAILABLE","source":"ndw"}},{"type":"Feature","geometry":{"type":"Point","coordinates":[5.04883,52.500028]},"properties":{"type":"charge","layer":"passenger","locationId":"NLLOC024662","name":"NL, Jan Platstraat 14, 1132 HG Volendam","address":"Jan Platstraat 14","city":"Volendam","operatorName":"Allego","maxPowerKw":11,"isMegawatt":false,"status":"AVAILABLE","source":"ndw","priceKwh":0.511}},{"type":"Feature","geometry":{"type":"Point","coordinates":[4.990885,52.564083]},"properties":{"type":"charge","layer":"passenger","locationId":"2DEB2883-642B-4477-B817-47820002131A","name":"TNLP007784 - Zwaluwstraat 9, Oosthuizen","address":"9 Zwaluwstraat","city":"Oosthuizen","operatorName":"TotalEnergies","maxPowerKw":15,"isMegawatt":false,"status":"AVAILABLE","source":"ndw"}},{"type":"Feature","geometry":{"type":"Point","coordinates":[5.05359,52.507801]},"properties":{"type":"charge","layer":"passenger","locationId":"809EE8DE-7F18-4FCE-BEEF-C8A4FDD08E59","name":"Eneco eMobility Albert Heijn - Langemeerstraat 2 B","address":"Langemeerstraat 2 B","city":"Edam","operatorName":"Eneco","maxPowerKw":50,"isMegawatt":false,"status":"AVAILABLE","source":"ndw","priceKwh":0.62}},{"type":"Feature","geometry":{"type":"Point","coordinates":[5.064607,52.491455]},"properties":{"type":"charge","layer":"passenger","locationId":"5fb01c74-78c8-4b2f-9028-7d1352f9e91c","name":"EV Hub - Pieterman 11, Volendam","address":"11 Pieterman","city":"Volendam","operatorName":"TotalEnergies","maxPowerKw":50,"isMegawatt":false,"status":"AVAILABLE","source":"ndw"}},{"type":"Feature","geometry":{"type":"Point","coordinates":[5.063928,52.495853]},"properties":{"type":"charge","layer":"passenger","locationId":"42DCA00F-4E26-4828-925C-DAAAC8528CD8","name":"TNLP034187 - Pegasusstraat 53, Volendam","address":"53 Pegasusstraat","city":"Volendam","operatorName":"TotalEnergies","maxPowerKw":13,"isMegawatt":false,"status":"UNAVAILABLE","source":"ndw"}},{"type":"Feature","geometry":{"type":"Point","coordinates":[5.057594,52.492964]},"properties":{"type":"charge","layer":"passenger","locationId":"NLLOC002954","name":"NLD, Gemeente Edam-Volendam, Heideweg 4 1132DB Volendam","address":"Heideweg 4","city":"Volendam","operatorName":"Allego","maxPowerKw":11,"isMegawatt":false,"status":"AVAILABLE","source":"ndw","priceKwh":0.511}},{"type":"Feature","geometry":{"type":"Point","coordinates":[5.079276,52.510954]},"properties":{"type":"charge","layer":"passenger","locationId":"85f536509acd263b8bc671eea9b44845","name":"Helgoland 10","address":"Helgoland 10","city":"Volendam","operatorName":"Vattenfall InCharge","maxPowerKw":11,"isMegawatt":false,"status":"AVAILABLE","source":"ndw","priceKwh":0.2805}},{"type":"Feature","geometry":{"type":"Point","coordinates":[5.070897,52.514107]},"properties":{"type":"charge","layer":"passenger","locationId":"0ED3E4A8-9BAE-4789-96DD-D53ADFCE8135","name":"TNLP007187 - Nieuwedieplaan 20, Volendam","address":"20 Nieuwedieplaan","city":"Volendam","operatorName":"TotalEnergies","maxPowerKw":17,"isMegawatt":false,"status":"UNAVAILABLE","source":"ndw"}},{"type":"Feature","geometry":{"type":"Point","coordinates":[5.072052,52.503902]},"properties":{"type":"charge","layer":"passenger","locationId":"3266FF5B-67EB-48CD-8C3F-C60A124FDDAA","name":"TNLP006999 - Schoklandstraat 15, Volendam","address":"15 Schoklandstraat","city":"Volendam","operatorName":"TotalEnergies","maxPowerKw":15,"isMegawatt":false,"status":"CHARGING","source":"ndw"}},{"type":"Feature","geometry":{"type":"Point","coordinates":[5.053296,52.514743]},"properties":{"type":"charge","layer":"passenger","locationId":"NLLOC002580","name":"NLD, Cor Jongerthof 30, 1135 TC, Edam","address":"Cor Jongerthof 30","city":"Edam","operatorName":"Allego","maxPowerKw":11,"isMegawatt":false,"status":"AVAILABLE","source":"ndw","priceKwh":0.511}},{"type":"Feature","geometry":{"type":"Point","coordinates":[4.992292,52.564209]},"properties":{"type":"charge","layer":"passenger","locationId":"NLLOC012725","name":"NL, Het Lien 5, 1474 BD Oosthuizen","address":"Het Lien 5","city":"Oosthuizen","operatorName":"Allego","maxPowerKw":11,"isMegawatt":false,"status":"AVAILABLE","source":"ndw","priceKwh":0.511}},{"type":"Feature","geometry":{"type":"Point","coordinates":[5.065033,52.513683]},"properties":{"type":"charge","layer":"passenger","locationId":"NLLOC024047","name":"NL, Lissabon 2, 1135 LW Edam","address":"Lissabon 2","city":"Edam","operatorName":"Allego","maxPowerKw":11,"isMegawatt":false,"status":"AVAILABLE","source":"ndw","priceKwh":0.511}},{"type":"Feature","geometry":{"type":"Point","coordinates":[5.066874,52.490426]},"properties":{"type":"charge","layer":"passenger","locationId":"650a8866e5e5f7001c00b1e8","name":"Laadpaal smederij Nr. 6","address":"Slobbeland 14","city":"Volendam","operatorName":"E-Flux by Road","maxPowerKw":22,"isMegawatt":false,"status":"AVAILABLE","source":"ndw","priceKwh":0.52}},{"type":"Feature","geometry":{"type":"Point","coordinates":[5.064258,52.505715]},"properties":{"type":"charge","layer":"passenger","locationId":"NLLOC007682","name":"NL, Zilvergesp 1, 1132 RV, Volendam","address":"Zilvergesp 1","city":"Volendam","operatorName":"Allego","maxPowerKw":11,"isMegawatt":false,"status":"AVAILABLE","source":"ndw","priceKwh":0.511}},{"type":"Feature","geometry":{"type":"Point","coordinates":[5.061225,52.50699]},"properties":{"type":"charge","layer":"passenger","locationId":"NLLOC003145","name":"NLD, Florijn 41, 1132 PV Volendam","address":"Florijn 41","city":"Volendam","operatorName":"Allego","maxPowerKw":11,"isMegawatt":false,"status":"AVAILABLE","source":"ndw","priceKwh":0.511}},{"type":"Feature","geometry":{"type":"Point","coordinates":[5.062015,52.499141]},"properties":{"type":"charge","layer":"passenger","locationId":"NLLOC002582","name":"NLD, Icarusplantsoen 1, 1131 WP, Volendam","address":"Icarusplantsoen 1","city":"Volendam","operatorName":"Allego","maxPowerKw":11,"isMegawatt":false,"status":"AVAILABLE","source":"ndw","priceKwh":0.511}},{"type":"Feature","geometry":{"type":"Point","coordinates":[5.042499,52.51257]},"properties":{"type":"charge","layer":"passenger","locationId":"b56b1479-d42e-411c-a249-b9ec8d631912","name":"EV Hub - Ambachtstraat 4, Edam","address":"4 Ambachtstraat","city":"Edam","operatorName":"TotalEnergies","maxPowerKw":50,"isMegawatt":false,"status":"AVAILABLE","source":"ndw"}},{"type":"Feature","geometry":{"type":"Point","coordinates":[5.07576,52.5117]},"properties":{"type":"charge","layer":"passenger","locationId":"c998a4e6-e8e9-4a35-a8a4-21b5638ed5e9","name":"TNLP009819 - Texelstroom 12, Volendam","address":"12 Texelstroom","city":"Volendam","operatorName":"TotalEnergies","maxPowerKw":17,"isMegawatt":false,"status":"AVAILABLE","source":"ndw"}},{"type":"Feature","geometry":{"type":"Point","coordinates":[5.061625,52.509581]},"properties":{"type":"charge","layer":"passenger","locationId":"NLLOC001606","name":"NLD, Edam-Volendam, Weidemolen 1","address":"Weidemolen 1","city":"Edam-Volendam","operatorName":"Allego","maxPowerKw":22,"isMegawatt":false,"status":"AVAILABLE","source":"ndw","priceKwh":0.511}},{"type":"Feature","geometry":{"type":"Point","coordinates":[5.06411,52.49155]},"properties":{"type":"charge","layer":"passenger","locationId":"F31F3BC8-77A4-4250-963C-6AA57457F9AC","name":"TNLP003628 - Pieterman 2, Volendam","address":"2 Pieterman","city":"Volendam","operatorName":"TotalEnergies","maxPowerKw":17,"isMegawatt":false,"status":"AVAILABLE","source":"ndw"}},{"type":"Feature","geometry":{"type":"Point","coordinates":[5.062749,52.504288]},"properties":{"type":"charge","layer":"passenger","locationId":"712DF547-05FC-4233-96A0-64BC26771D4B","name":"TNLP006584 - Boezelgracht 50, Volendam","address":"50 Boezelgracht","city":"Volendam","operatorName":"TotalEnergies","maxPowerKw":15,"isMegawatt":false,"status":"AVAILABLE","source":"ndw"}},{"type":"Feature","geometry":{"type":"Point","coordinates":[5.051422,52.49442]},"properties":{"type":"charge","layer":"passenger","locationId":"8F9C7B3C-C558-42DD-BED5-C079EE7521A4","name":"TNLP008887 - Donata Steurhof 190, Volendam","address":"190 Donata Steurhof","city":"Volendam","operatorName":"TotalEnergies","maxPowerKw":14,"isMegawatt":false,"status":"AVAILABLE","source":"ndw"}},{"type":"Feature","geometry":{"type":"Point","coordinates":[5.062412,52.50543]},"properties":{"type":"charge","layer":"passenger","locationId":"B73BC34C-50EC-45A1-8FA4-570C7BD9460D","name":"TNLP008233 - Dukaton 47, Volendam","address":"47 Dukaton","city":"Volendam","operatorName":"TotalEnergies","maxPowerKw":17,"isMegawatt":false,"status":"UNAVAILABLE","source":"ndw"}},{"type":"Feature","geometry":{"type":"Point","coordinates":[5.07639,52.511177]},"properties":{"type":"charge","layer":"passenger","locationId":"FC10FDA0-2B80-46AD-A45C-52898AA6493B","name":"TNLP007390 - Texelstroom 13, Volendam","address":"13 Texelstroom","city":"Volendam","operatorName":"TotalEnergies","maxPowerKw":17,"isMegawatt":false,"status":"UNAVAILABLE","source":"ndw"}},{"type":"Feature","geometry":{"type":"Point","coordinates":[4.996355,52.573459]},"properties":{"type":"charge","layer":"passenger","locationId":"NLLOC004870","name":"NLD, Raadhuisstraat 25 1474HH Oosthuizen","address":"Raadhuisstraat 25","city":"Oosthuizen","operatorName":"Allego","maxPowerKw":11,"isMegawatt":false,"status":"AVAILABLE","source":"ndw","priceKwh":0.511}},{"type":"Feature","geometry":{"type":"Point","coordinates":[5.06083,52.513046]},"properties":{"type":"charge","layer":"passenger","locationId":"158096F9-6484-42CD-9B57-40CE1C43D9EE","name":"TNLP008406 - Zoutziedershof 31, Edam","address":"31 Zoutziedershof","city":"Edam","operatorName":"TotalEnergies","maxPowerKw":14,"isMegawatt":false,"status":"CHARGING","source":"ndw"}},{"type":"Feature","geometry":{"type":"Point","coordinates":[5.044213,52.51077]},"properties":{"type":"charge","layer":"passenger","locationId":"NLLOC017735","name":"NL, Schepenmakersdijk 20, 1135AG, Edam","address":"Schepenmakersdijk 20","city":"Edam","operatorName":"Allego","maxPowerKw":11,"isMegawatt":false,"status":"CHARGING","source":"ndw","priceKwh":0.511}},{"type":"Feature","geometry":{"type":"Point","coordinates":[4.999358,52.57528]},"properties":{"type":"charge","layer":"passenger","locationId":"8B7AB065-0DA5-4E50-8793-31799F988BCD","name":"TNLP008918 - Oosteinde 10, Oosthuizen","address":"10 Oosteinde","city":"Oosthuizen","operatorName":"TotalEnergies","maxPowerKw":14,"isMegawatt":false,"status":"AVAILABLE","source":"ndw"}},{"type":"Feature","geometry":{"type":"Point","coordinates":[5.06951,52.49139]},"properties":{"type":"charge","layer":"passenger","locationId":"1632","name":"Shell Recharge NL Slobbeland 4","address":"Slobbeland 4","city":"Edam-Volendam","operatorName":"Ubitricity","maxPowerKw":11,"isMegawatt":false,"status":"CHARGING","source":"ndw","priceKwh":0.392}},{"type":"Feature","geometry":{"type":"Point","coordinates":[5.071532,52.497066]},"properties":{"type":"charge","layer":"passenger","locationId":"9C8A1E7B-CEFE-46D5-95CF-5EA176BB60B4","name":"TNLP008267 - Meergracht 31, Volendam","address":"31 Meergracht","city":"Volendam","operatorName":"TotalEnergies","maxPowerKw":14,"isMegawatt":false,"status":"AVAILABLE","source":"ndw"}},{"type":"Feature","geometry":{"type":"Point","coordinates":[5.067566,52.490498]},"properties":{"type":"charge","layer":"passenger","locationId":"650a8a65676ea7001c973699","name":"Laadpaal timmerfabriek Nr. 4","address":"Slobbeland  30","city":"Volendam","operatorName":"E-Flux by Road","maxPowerKw":22,"isMegawatt":false,"status":"AVAILABLE","source":"ndw","priceKwh":0.53}},{"type":"Feature","geometry":{"type":"Point","coordinates":[5.069485,52.489743]},"properties":{"type":"charge","layer":"passenger","locationId":"648303307e8666001c892eda","name":"Landal Volendam station R1","address":"Slobbeland 5","city":"Volendam","operatorName":"E-Flux by Road","maxPowerKw":22,"isMegawatt":false,"status":"AVAILABLE","source":"ndw","priceKwh":0.48}},{"type":"Feature","geometry":{"type":"Point","coordinates":[5.06632,52.503054]},"properties":{"type":"charge","layer":"passenger","locationId":"NLLOC003636","name":"NLD Gemeente Edam-Volendam Reigerstraat 52 1131MA Volendam","address":"Reigerstraat 52","city":"Volendam","operatorName":"Allego","maxPowerKw":11,"isMegawatt":false,"status":"AVAILABLE","source":"ndw","priceKwh":0.511}},{"type":"Feature","geometry":{"type":"Point","coordinates":[5.053424,52.508035]},"properties":{"type":"charge","layer":"passenger","locationId":"NLLOC002306","name":"Langemeerstraat 1, 1135 JD Edam","address":"Langemeerstraat 1","city":"Edam","operatorName":"Allego","maxPowerKw":11,"isMegawatt":false,"status":"AVAILABLE","source":"ndw","priceKwh":0.511}},{"type":"Feature","geometry":{"type":"Point","coordinates":[5.075327,52.49798]},"properties":{"type":"charge","layer":"passenger","locationId":"3F4949C3-3178-41F7-9278-E8CE82E02E7B","name":"TNLP007565 - Vissersstraat 74, Volendam","address":"74 Vissersstraat","city":"Volendam","operatorName":"TotalEnergies","maxPowerKw":17,"isMegawatt":false,"status":"UNAVAILABLE","source":"ndw"}},{"type":"Feature","geometry":{"type":"Point","coordinates":[5.075514,52.49664]},"properties":{"type":"charge","layer":"passenger","locationId":"5F52E110-4DB2-4D11-AE35-39447EB9B8D7","name":"TNLP007570 - Roerstraat 6, Volendam","address":"6 Roerstraat","city":"Volendam","operatorName":"TotalEnergies","maxPowerKw":15,"isMegawatt":false,"status":"AVAILABLE","source":"ndw"}},{"type":"Feature","geometry":{"type":"Point","coordinates":[5.07315,52.494366]},"properties":{"type":"charge","layer":"passenger","locationId":"3938D84D-C28C-4626-9E59-76F2577A28FE","name":"TNLP008603 - Spoorbuurt 12a, Volendam","address":"12a Spoorbuurt","city":"Volendam","operatorName":"TotalEnergies","maxPowerKw":14,"isMegawatt":false,"status":"UNAVAILABLE","source":"ndw"}},{"type":"Feature","geometry":{"type":"Point","coordinates":[5.068889,52.507033]},"properties":{"type":"charge","layer":"passenger","locationId":"NLLOC019879","name":"NL, G A Brederodestraat 6, 1132 SP Volendam","address":"G A Brederodestraat 6","city":"Volendam","operatorName":"Allego","maxPowerKw":11,"isMegawatt":false,"status":"AVAILABLE","source":"ndw","priceKwh":0.511}},{"type":"Feature","geometry":{"type":"Point","coordinates":[4.979238,52.58919]},"properties":{"type":"charge","layer":"passenger","locationId":"NLLOC008752","name":"NL, Beets 47a, 1475 JD, Beets","address":"Beets 47a","city":"Beets","operatorName":"Allego","maxPowerKw":11,"isMegawatt":false,"status":"AVAILABLE","source":"ndw","priceKwh":0.511}},{"type":"Feature","geometry":{"type":"Point","coordinates":[5.067941,52.490576]},"properties":{"type":"charge","layer":"passenger","locationId":"650af2537c0f1b0020a57cdd","name":"Laadpaal timmerfabriek Nr. 2","address":"Slobbeland 30","city":"Volendam","operatorName":"E-Flux by Road","maxPowerKw":22,"isMegawatt":false,"status":"AVAILABLE","source":"ndw","priceKwh":0.53}},{"type":"Feature","geometry":{"type":"Point","coordinates":[5.071639,52.492847]},"properties":{"type":"charge","layer":"passenger","locationId":"79D5D213-445A-4080-B6BC-2CE6E96D8231","name":"TNLP034086 - Burgemeester Kolfschotenplein 2, Volendam","address":"2 Burgemeester Kolfschotenplein","city":"Volendam","operatorName":"TotalEnergies","maxPowerKw":13,"isMegawatt":false,"status":"UNAVAILABLE","source":"ndw"}},{"type":"Feature","geometry":{"type":"Point","coordinates":[5.016617,52.531174]},"properties":{"type":"charge","layer":"passenger","locationId":"DE59462F-8F52-4F84-BE25-C72D925A652A","name":"TNLP007309 - Zijvend 27, Middelie","address":"27 Zijvend","city":"Middelie","operatorName":"TotalEnergies","maxPowerKw":15,"isMegawatt":false,"status":"CHARGING","source":"ndw"}},{"type":"Feature","geometry":{"type":"Point","coordinates":[5.053695,52.513187]},"properties":{"type":"charge","layer":"passenger","locationId":"7e907db5-c898-407c-8e8a-56d13e271a8e","name":"Voorhaven","address":"Voorhaven 100","city":"Edam","operatorName":"Vattenfall InCharge","maxPowerKw":11,"isMegawatt":false,"status":"UNAVAILABLE","source":"ndw","priceKwh":0.4316}},{"type":"Feature","geometry":{"type":"Point","coordinates":[5.068049,52.494877]},"properties":{"type":"charge","layer":"passenger","locationId":"6542E93C-ECA8-447D-BDE0-FA8F772E3A11","name":"TNLP009244 - Schoolstraat 1, Volendam","address":"1 Schoolstraat","city":"Volendam","operatorName":"TotalEnergies","maxPowerKw":15,"isMegawatt":false,"status":"AVAILABLE","source":"ndw"}},{"type":"Feature","geometry":{"type":"Point","coordinates":[4.989066,52.5651]},"properties":{"type":"charge","layer":"passenger","locationId":"EDA470C5-AD05-42C0-9348-BAA3F5898287","name":"TNLP009445 - Zwaluwstraat 28, Oosthuizen","address":"28 Zwaluwstraat","city":"Oosthuizen","operatorName":"TotalEnergies","maxPowerKw":15,"isMegawatt":false,"status":"UNAVAILABLE","source":"ndw"}},{"type":"Feature","geometry":{"type":"Point","coordinates":[5.046321,52.49437]},"properties":{"type":"charge","layer":"passenger","locationId":"09497CB2-6FF6-421C-8ADD-A1C8C2D08076","name":"TNLP034335 - Begerslant 57, Volendam","address":"57 Begerslant","city":"Volendam","operatorName":"TotalEnergies","maxPowerKw":13,"isMegawatt":false,"status":"UNAVAILABLE","source":"ndw"}},{"type":"Feature","geometry":{"type":"Point","coordinates":[5.04777,52.50466]},"properties":{"type":"charge","layer":"passenger","locationId":"a1e65f287bbf7610543957174ad7c0cc","name":"Claes Teenxstraat 22","address":"Claes Teenxstraat 22","city":"Edam","operatorName":"Vattenfall InCharge","maxPowerKw":11,"isMegawatt":false,"status":"AVAILABLE","source":"ndw","priceKwh":0.2805}},{"type":"Feature","geometry":{"type":"Point","coordinates":[5.049267,52.508876]},"properties":{"type":"charge","layer":"passenger","locationId":"dac77314-0966-4688-b7d1-413c57fc6f54","name":"PP005567","address":"Dijkgraaf Poschlaan 8","city":"Edam","operatorName":"TotalEnergies","maxPowerKw":7,"isMegawatt":false,"status":"UNAVAILABLE","source":"ndw"}},{"type":"Feature","geometry":{"type":"Point","coordinates":[5.069643,52.504979]},"properties":{"type":"charge","layer":"passenger","locationId":"7ff4856232b36d9c4e73a24d34175a65","name":"Urkerstraat 16","address":"Urkerstraat 16","city":"Volendam","operatorName":"Vattenfall InCharge","maxPowerKw":11,"isMegawatt":false,"status":"CHARGING","source":"ndw","priceKwh":0.2805}},{"type":"Feature","geometry":{"type":"Point","coordinates":[5.058914,52.495483]},"properties":{"type":"charge","layer":"passenger","locationId":"NLLOC005777","name":"NLD Wijnand Nieuwenkampstraat 10 1132 XG Volendam","address":"Wijnand Nieuwenkampstraat 10","city":"Volendam","operatorName":"Allego","maxPowerKw":11,"isMegawatt":false,"status":"AVAILABLE","source":"ndw","priceKwh":0.511}},{"type":"Feature","geometry":{"type":"Point","coordinates":[5.07328,52.499078]},"properties":{"type":"charge","layer":"passenger","locationId":"NLLOC001695","name":"NLD, Volendam , Daliastraat 2","address":"Daliastraat 2","city":"Volendam","operatorName":"Allego","maxPowerKw":11,"isMegawatt":false,"status":"AVAILABLE","source":"ndw","priceKwh":0.511}},{"type":"Feature","geometry":{"type":"Point","coordinates":[5.058201,52.501382]},"properties":{"type":"charge","layer":"passenger","locationId":"NLLOC021534","name":"NL, Adrianus Bleijsstraat 9, 1132VA, Volendam","address":"Adrianus Bleijsstraat 9","city":"Volendam","operatorName":"Allego","maxPowerKw":11,"isMegawatt":false,"status":"AVAILABLE","source":"ndw","priceKwh":0.511}},{"type":"Feature","geometry":{"type":"Point","coordinates":[5.042469,52.512165]},"properties":{"type":"charge","layer":"passenger","locationId":"D771572E-2E24-4AD3-B922-037624DD9B9F","name":"TNLP006558 - Ambachtstraat 17, Edam","address":"17 Ambachtstraat","city":"Edam","operatorName":"TotalEnergies","maxPowerKw":17,"isMegawatt":false,"status":"UNAVAILABLE","source":"ndw"}},{"type":"Feature","geometry":{"type":"Point","coordinates":[5.067433,52.509968]},"properties":{"type":"charge","layer":"passenger","locationId":"NLLOC011314","name":"NL, Hendrick Averkamplaan 1, 1132 SX, Volendam","address":"Hendrick Averkamplaan 1","city":"Volendam","operatorName":"Allego","maxPowerKw":11,"isMegawatt":false,"status":"AVAILABLE","source":"ndw","priceKwh":0.511}},{"type":"Feature","geometry":{"type":"Point","coordinates":[5.069471,52.503821]},"properties":{"type":"charge","layer":"passenger","locationId":"NLLOC007684","name":"NL, Harderwijkplantsoen 1, 1131 KN, Volendam","address":"Harderwijkplantsoen 1","city":"Volendam","operatorName":"Allego","maxPowerKw":11,"isMegawatt":false,"status":"AVAILABLE","source":"ndw","priceKwh":0.511}},{"type":"Feature","geometry":{"type":"Point","coordinates":[5.079224,52.502248]},"properties":{"type":"charge","layer":"passenger","locationId":"3ceef892-8e3b-46a6-9ce2-1eea618bc7ca","name":"Bellstraat 2","address":"Bellstraat 2","city":"Volendam","operatorName":"Vattenfall InCharge","maxPowerKw":4,"isMegawatt":false,"status":"UNAVAILABLE","source":"ndw","priceKwh":0.4316}},{"type":"Feature","geometry":{"type":"Point","coordinates":[5.070123,52.492675]},"properties":{"type":"charge","layer":"passenger","locationId":"NLLOC020919","name":"NL, Burgemeester Kolfschotenstraat 6, 1131BL, Volendam","address":"Burgemeester Kolfschotenstraat 6","city":"Volendam","operatorName":"Allego","maxPowerKw":11,"isMegawatt":false,"status":"AVAILABLE","source":"ndw","priceKwh":0.511}},{"type":"Feature","geometry":{"type":"Point","coordinates":[5.065187,52.496639]},"properties":{"type":"charge","layer":"passenger","locationId":"NLLOC015124","name":"NL, Weegschaalstraat, 37, 1131MT, Volendam","address":"Weegschaalstraat 37","city":"Volendam","operatorName":"Allego","maxPowerKw":11,"isMegawatt":false,"status":"AVAILABLE","source":"ndw","priceKwh":0.511}},{"type":"Feature","geometry":{"type":"Point","coordinates":[5.067719,52.507838]},"properties":{"type":"charge","layer":"passenger","locationId":"b55493dc-e531-4c1f-9379-d222e6bda416","name":"Desiderus Erasmusstraat","address":"Desiderus Erasmusstraat 1","city":"Volendam","operatorName":"Vattenfall InCharge","maxPowerKw":11,"isMegawatt":false,"status":"UNAVAILABLE","source":"ndw","priceKwh":0.4316}},{"type":"Feature","geometry":{"type":"Point","coordinates":[5.070207,52.512899]},"properties":{"type":"charge","layer":"passenger","locationId":"dd3178a0dd8f9ef58308dcc052093ee1","name":"Nieuwedieplaan 6","address":"Nieuwedieplaan 6","city":"Volendam","operatorName":"Vattenfall InCharge","maxPowerKw":11,"isMegawatt":false,"status":"AVAILABLE","source":"ndw","priceKwh":0.2805}},{"type":"Feature","geometry":{"type":"Point","coordinates":[4.99438,52.56864]},"properties":{"type":"charge","layer":"passenger","locationId":"cd51bb68eeb0a2544d711b7312ea2cca","name":"Seevancksweg 49","address":"Seevancksweg 49","city":"Oosthuizen","operatorName":"Vattenfall InCharge","maxPowerKw":11,"isMegawatt":false,"status":"AVAILABLE","source":"ndw","priceKwh":0.2805}},{"type":"Feature","geometry":{"type":"Point","coordinates":[5.057157,52.508678]},"properties":{"type":"charge","layer":"passenger","locationId":"NLLOC024035","name":"NL, Weerenstraat 2, 1135 JZ Edam","address":"Weerenstraat 2","city":"Edam","operatorName":"Allego","maxPowerKw":11,"isMegawatt":false,"status":"AVAILABLE","source":"ndw","priceKwh":0.511}},{"type":"Feature","geometry":{"type":"Point","coordinates":[5.057162,52.513744]},"properties":{"type":"charge","layer":"passenger","locationId":"837BE3E2-C5D7-4D2A-AA61-90EEEDD3973C","name":"TNLP008329 - Voorhaven 28, Edam","address":"28 Voorhaven","city":"Edam","operatorName":"TotalEnergies","maxPowerKw":13,"isMegawatt":false,"status":"UNAVAILABLE","source":"ndw"}},{"type":"Feature","geometry":{"type":"Point","coordinates":[5.046057,52.506524]},"properties":{"type":"charge","layer":"passenger","locationId":"91054217","name":"50five-S NL 07101766","address":"Pieter Taemszstraat 16","city":"Edam","operatorName":"50five","maxPowerKw":17,"isMegawatt":false,"status":"CHARGING","source":"ndw"}},{"type":"Feature","geometry":{"type":"Point","coordinates":[5.073421,52.506054]},"properties":{"type":"charge","layer":"passenger","locationId":"4F5DB364-0AA4-4FC2-8678-2AB00E1CD4E6","name":"TNLP008130 - Ooster Ven 12, Volendam","address":"12 Ooster Ven","city":"Volendam","operatorName":"TotalEnergies","maxPowerKw":17,"isMegawatt":false,"status":"UNAVAILABLE","source":"ndw"}},{"type":"Feature","geometry":{"type":"Point","coordinates":[5.046647,52.497368]},"properties":{"type":"charge","layer":"passenger","locationId":"9E1B7067-DF7F-4025-8586-EE1285181B11","name":"TNLP008278 - Logger 47, Volendam","address":"47 Logger","city":"Volendam","operatorName":"TotalEnergies","maxPowerKw":14,"isMegawatt":false,"status":"UNAVAILABLE","source":"ndw"}},{"type":"Feature","geometry":{"type":"Point","coordinates":[5.067634,52.49606]},"properties":{"type":"charge","layer":"passenger","locationId":"033785BF-088C-4723-B35A-B8CBE0BD32D8","name":"TNLP008213 - Wilgenlaan 4, Volendam","address":"4 Wilgenlaan","city":"Volendam","operatorName":"TotalEnergies","maxPowerKw":15,"isMegawatt":false,"status":"AVAILABLE","source":"ndw"}},{"type":"Feature","geometry":{"type":"Point","coordinates":[5.057096,52.499294]},"properties":{"type":"charge","layer":"passenger","locationId":"09BEEF6B-F77F-4F54-AEAB-6151F8853043","name":"TNLP009979 - Paulus Rinkstraat 23, Volendam","address":"23 Paulus Rinkstraat","city":"Volendam","operatorName":"TotalEnergies","maxPowerKw":17,"isMegawatt":false,"status":"UNAVAILABLE","source":"ndw"}},{"type":"Feature","geometry":{"type":"Point","coordinates":[5.053449,52.514378]},"properties":{"type":"charge","layer":"passenger","locationId":"375F8E93-3137-46A5-9B2C-E0CC00F143F0","name":"TNLP008823 - Cor Jongerthof 1, Edam","address":"1 Cor Jongerthof","city":"Edam","operatorName":"TotalEnergies","maxPowerKw":13,"isMegawatt":false,"status":"UNAVAILABLE","source":"ndw"}},{"type":"Feature","geometry":{"type":"Point","coordinates":[5.06896,52.501146]},"properties":{"type":"charge","layer":"passenger","locationId":"NLLOC003165","name":"NLD, Mgr. Corners Veermanlaan 69, 1131 KG Volendam","address":"Mgr. Corners Veermanlaan 69","city":"Volendam","operatorName":"Allego","maxPowerKw":11,"isMegawatt":false,"status":"AVAILABLE","source":"ndw","priceKwh":0.511}},{"type":"Feature","geometry":{"type":"Point","coordinates":[5.078491,52.509085]},"properties":{"type":"charge","layer":"passenger","locationId":"NLLOC002261","name":"NLD, Volendam, Pinkewad 4","address":"Pinkewad 4","city":"Volendam","operatorName":"Allego","maxPowerKw":11,"isMegawatt":false,"status":"AVAILABLE","source":"ndw","priceKwh":0.511}},{"type":"Feature","geometry":{"type":"Point","coordinates":[5.068714,52.493822]},"properties":{"type":"charge","layer":"passenger","locationId":"052c246c-383d-45ff-9a83-e2654d530694","name":"Julianaweg","address":"Julianaweg 45","city":"Volendam","operatorName":"Vattenfall InCharge","maxPowerKw":11,"isMegawatt":false,"status":"UNAVAILABLE","source":"ndw","priceKwh":0.4316}},{"type":"Feature","geometry":{"type":"Point","coordinates":[5.077825,52.497484]},"properties":{"type":"charge","layer":"passenger","locationId":"5f789d6a-06e2-474a-8ea3-2511f32ea610","name":"Sint Anthoniusstraat","address":"Sint Anthoniusstraat 3","city":"Volendam","operatorName":"Vattenfall InCharge","maxPowerKw":11,"isMegawatt":false,"status":"UNAVAILABLE","source":"ndw","priceKwh":0.4316}},{"type":"Feature","geometry":{"type":"Point","coordinates":[5.063971,52.51042]},"properties":{"type":"charge","layer":"passenger","locationId":"NLLOC019291","name":"NL, Standerdmolen 48, 1135 LT Edam","address":"Standerdmolen 48","city":"Edam","operatorName":"Allego","maxPowerKw":11,"isMegawatt":false,"status":"AVAILABLE","source":"ndw","priceKwh":0.511}},{"type":"Feature","geometry":{"type":"MultiPolygon","coordinates":[[[[5.023331035010279,52.59141640365774],[5.028565107376736,52.585231739076306],[5.027901700985883,52.5833970942633],[5.029288263540634,52.582117102454696],[5.029351189047709,52.58065765197745],[5.032577439825292,52.57358385070317],[5.031000348400409,52.57037196448441],[5.031212033227164,52.56745272639101],[5.034674664210702,52.56492180871685],[5.042668960478939,52.56096048533357],[5.042938576274697,52.55861593231369],[5.054750900123944,52.54467186196932],[5.054036343642176,52.54190749335826],[5.054587829513404,52.53878965836421],[5.057574251283856,52.53724265755249],[5.0630093787663615,52.52978001003283],[5.064772356475638,52.52897521958615],[5.065774178281115,52.526200338382324],[5.0664391528916894,52.52277601516935],[5.06977308726244,52.52105893332808],[5.071685479993997,52.51889981256591],[5.073819277044759,52.51936693239903],[5.075004608187818,52.519061650280356],[5.074563124676422,52.5171527864546],[5.074978522458817,52.51503701110892],[5.080542255304205,52.513130296740904],[5.082008667446043,52.51038128104462],[5.083763270680861,52.506618481846694],[5.085691442249681,52.50375752055354],[5.08096165189823,52.499772774081165],[5.07793399209873,52.495498606435625],[5.078499956371828,52.49459374698118],[5.077858867799526,52.4937430828593],[5.076736596038482,52.4928366623272],[5.076966246623208,52.49257878945703],[5.076882233256754,52.4925543623966],[5.076526412881614,52.49282519939386],[5.077725493242657,52.49384624807052],[5.076866894662557,52.494341304526166],[5.075604286940439,52.49352416879198],[5.075514337411362,52.49297413992404],[5.07353183352708,52.49255247228368],[5.073859320981886,52.492035357221724],[5.0762861613277295,52.49263683616278],[5.07638409575387,52.49253353937524],[5.075581674848258,52.49225174402478],[5.073802738740931,52.49186415300668],[5.073569811841415,52.49211063488732],[5.071812584632717,52.49190359988806],[5.07156179607651,52.490908609874126],[5.069945120231297,52.48967625166736],[5.068670919466028,52.48955109597498],[5.067390198662909,52.48966948728209],[5.0658553338513,52.49001231172655],[5.06522099097392,52.49071326983719],[5.064151573080016,52.49061490342321],[5.063083211298812,52.488706881868836],[5.062807708499239,52.488223388533626],[5.061559194745926,52.48827408718284],[5.060668138664454,52.48748370050497],[5.060001525865631,52.486870675153625],[5.059480368984287,52.48561446491617],[5.058644555259117,52.48552478207047],[5.0590938793393,52.49095561234314],[5.038779142584567,52.48834375971496],[5.034077774000789,52.48833006882399],[5.03391252525437,52.48857234282857],[5.031051703477848,52.488476892417054],[5.030620763148963,52.48706075914633],[5.025519511722344,52.48513618572494],[5.024610244802011,52.48492552745935],[4.9979635643813305,52.494732952119016],[5.009803757163131,52.50681005641276],[5.024699032014142,52.52240292159563],[5.019702597557717,52.52371469205413],[5.014258466356043,52.52623900873333],[5.008765523758262,52.52768784795929],[5.001093871751262,52.52691522456659],[4.997398287351987,52.52271320269167],[4.992018073429626,52.519832236575226],[4.991640251706733,52.519984701103844],[4.986557200948196,52.52185095114958],[4.973199284831568,52.52541290281127],[4.9672532965950635,52.52736772671981],[4.956997768071922,52.52911083187577],[4.9594636972177915,52.533314368681786],[4.96195094939775,52.536348621214024],[4.968805317599115,52.54083562019443],[4.9733878490104315,52.543368943516484],[4.975654490747551,52.545396308725294],[4.9765044444912485,52.54685046347414],[4.9753466316747295,52.549075112520136],[4.977636953206825,52.553447067232646],[4.976503671305289,52.56115283662037],[4.980423209033797,52.56435854768695],[4.986082414212054,52.56730482029934],[4.9958696505780615,52.57384709564106],[4.997166599669364,52.57512193091523],[4.996508183765599,52.57764405354765],[4.991892965706754,52.582234802927616],[4.982222329906594,52.58549831771876],[4.980095852196593,52.586962265998146],[4.977470422725317,52.58663267084603],[4.9743479628894685,52.58559336758885],[4.9686643669005095,52.58447568107499],[4.964728081789045,52.58278576123569],[4.9627429979322395,52.581471422998106],[4.958571241113788,52.58030702790749],[4.955208675449314,52.57996407701714],[4.953920581759515,52.58113441557554],[4.954483796638182,52.58420494382266],[4.954024701710416,52.5866590138563],[4.949737155668709,52.592569269138075],[4.949370332036638,52.594789276316604],[4.949848294658327,52.59528579057151],[5.0048795967520245,52.59757343926962],[5.007947773118963,52.60779942464493],[5.006688538623084,52.610519490915216],[5.018652143697195,52.6120639546922],[5.01885147406253,52.61243782493204],[5.01965775969163,52.6124538914127],[5.0193947250408835,52.610307526245265],[5.02003117624534,52.60930314027905],[5.01967738565437,52.60835610111381],[5.01949423458759,52.6064192882419],[5.022262566538044,52.60451515096691],[5.020819927555038,52.6031551381188],[5.021165870155504,52.602300262967056],[5.023095480927672,52.601565959837195],[5.02436422697402,52.599648541683905],[5.020486561316055,52.59600232829636],[5.023331035010279,52.59141640365774]]]]},"properties":{"type":"boundary","gemeente":"Edam-Volendam","code":"GM0385"}}]}