{"type":"FeatureCollection","metadata":{"gemeente":"Gorinchem","slug":"gorinchem","code":"GM0512","generated_at":"2026-08-08T12:05:52.020Z","total_passenger":113,"total_freight":1,"bounds":[4.921822164431389,51.818856910771245,5.031414099927922,51.86362932062211],"operators":["50five","Allego","ChargePoint","E-Flux by Road","Eneco","Heijmans","IONITY","Laadnet","Laadpaal24","Smappee","Tesla","Vattenfall InCharge"]},"features":[{"type":"Feature","geometry":{"type":"Point","coordinates":[4.973521,51.828409]},"properties":{"type":"charge","layer":"passenger","locationId":"NLLOC012036","name":"NL, Retvetsteeg 36, 4201 EP, Gorinchem","address":"Retvetsteeg 36","city":"Gorinchem","operatorName":"Allego","maxPowerKw":11,"isMegawatt":false,"status":"AVAILABLE","source":"ndw","priceKwh":0.511}},{"type":"Feature","geometry":{"type":"Point","coordinates":[5.007097,51.827126]},"properties":{"type":"charge","layer":"passenger","locationId":"NLLOC007086","name":"NL, Irenelaan 39, 4213 CP, Dalem","address":"Irenelaan 39","city":"Dalem","operatorName":"Allego","maxPowerKw":11,"isMegawatt":false,"status":"AVAILABLE","source":"ndw","priceKwh":0.511}},{"type":"Feature","geometry":{"type":"Point","coordinates":[4.978048,51.8282]},"properties":{"type":"charge","layer":"passenger","locationId":"NLLOC000696","name":"NLD, Gorinchem, Kalkhaven 68","address":"Kalkhaven 68","city":"Gorinchem","operatorName":"Allego","maxPowerKw":22,"isMegawatt":false,"status":"AVAILABLE","source":"ndw","priceKwh":0.511}},{"type":"Feature","geometry":{"type":"Point","coordinates":[4.953427,51.843942]},"properties":{"type":"charge","layer":"passenger","locationId":"NLLOC013422","name":"NL, Dokter van Stratenweg 137, 4205 LH Gorinchem","address":"Dokter van Stratenweg 137","city":"Gorinchem","operatorName":"Allego","maxPowerKw":11,"isMegawatt":false,"status":"AVAILABLE","source":"ndw","priceKwh":0.511}},{"type":"Feature","geometry":{"type":"Point","coordinates":[5.016123,51.840385]},"properties":{"type":"charge","layer":"passenger","locationId":"89049947","name":"Laadpaal24 Merford Holding BV","address":"Franklinweg 8","city":"Gorinchem","operatorName":"Laadpaal24","maxPowerKw":22,"isMegawatt":false,"status":"AVAILABLE","source":"ndw"}},{"type":"Feature","geometry":{"type":"Point","coordinates":[4.95645,51.840285]},"properties":{"type":"charge","layer":"passenger","locationId":"960117","name":"PARKEERGARAGE_BZ","address":"Banneweg 57","city":"Gorinchem","operatorName":"Smappee","maxPowerKw":22,"isMegawatt":false,"status":"AVAILABLE","source":"ndw","priceKwh":0.462}},{"type":"Feature","geometry":{"type":"Point","coordinates":[4.98763,51.848483]},"properties":{"type":"charge","layer":"passenger","locationId":"67a36bbf43f18867727e2ea2","name":"NOG Laadpaal 02","address":"Papland 4","city":"Gorinchem","operatorName":"E-Flux by Road","maxPowerKw":11,"isMegawatt":false,"status":"UNAVAILABLE","source":"ndw","priceKwh":0.48}},{"type":"Feature","geometry":{"type":"Point","coordinates":[4.984364,51.84913]},"properties":{"type":"charge","layer":"passenger","locationId":"91231567","name":"50five-S NL 18B02933","address":"Papland 16","city":"Gorinchem","operatorName":"50five","maxPowerKw":11,"isMegawatt":false,"status":"AVAILABLE","source":"ndw"}},{"type":"Feature","geometry":{"type":"Point","coordinates":[5.001558,51.832893]},"properties":{"type":"charge","layer":"passenger","locationId":"NLLOC024680","name":"NL, Annie M.G. Schmidtlaan 48, 4207 VD Gorinchem","address":"Annie M.G. Schmidtlaan 48","city":"Gorinchem","operatorName":"Allego","maxPowerKw":11,"isMegawatt":false,"status":"AVAILABLE","source":"ndw","priceKwh":0.511}},{"type":"Feature","geometry":{"type":"Point","coordinates":[5.001714,51.839059]},"properties":{"type":"charge","layer":"passenger","locationId":"NLLOC025273","name":"NL, Multatulistraat 63, 4207 SC Gorinchem","address":"Multatulistraat 63","city":"Gorinchem","operatorName":"Allego","maxPowerKw":22,"isMegawatt":false,"status":"AVAILABLE","source":"ndw","priceKwh":0.511}},{"type":"Feature","geometry":{"type":"Point","coordinates":[5.005981,51.833644]},"properties":{"type":"charge","layer":"passenger","locationId":"NLENV589","name":"Gorinchem, Kruithoorn 144 (Dalemse Veste)","address":"Kruithoorn 144","city":"Gorinchem","operatorName":"","maxPowerKw":11,"isMegawatt":false,"status":"AVAILABLE","source":"ndw","priceKwh":0.5}},{"type":"Feature","geometry":{"type":"Point","coordinates":[5.008097,51.841241]},"properties":{"type":"charge","layer":"passenger","locationId":"NLLOC027669","name":"Allego - Van der Valk Gorinchem A15","address":"Franklinweg 7","city":"Gorinchem","operatorName":"Allego","maxPowerKw":300,"isMegawatt":false,"status":"AVAILABLE","source":"ndw","priceKwh":0.511}},{"type":"Feature","geometry":{"type":"Point","coordinates":[4.956161,51.838332]},"properties":{"type":"charge","layer":"passenger","locationId":"923591","name":"BEATRIX_LAADPLEIN","address":"Banneweg 57","city":"Gorinchem","operatorName":"Smappee","maxPowerKw":22,"isMegawatt":false,"status":"AVAILABLE","source":"ndw","priceKwh":0.462}},{"type":"Feature","geometry":{"type":"Point","coordinates":[4.940401,51.835738]},"properties":{"type":"charge","layer":"passenger","locationId":"6866a2b30c7994678dcbcc15","name":"Laadpaal 9","address":"Avelingen West 9","city":"Gorinchem","operatorName":"E-Flux by Road","maxPowerKw":22,"isMegawatt":false,"status":"AVAILABLE","source":"ndw","priceKwh":0.46}},{"type":"Feature","geometry":{"type":"Point","coordinates":[4.978232,51.831804]},"properties":{"type":"charge","layer":"passenger","locationId":"NLLOC021294","name":"NL, Poortstraat 4, 4201 XE Gorinchem","address":"Poortstraat 4","city":"Gorinchem","operatorName":"Allego","maxPowerKw":11,"isMegawatt":false,"status":"AVAILABLE","source":"ndw","priceKwh":0.511}},{"type":"Feature","geometry":{"type":"Point","coordinates":[4.940401,51.835738]},"properties":{"type":"charge","layer":"passenger","locationId":"6866a3a547b4e907a205e4f6","name":"Laadpaal 12","address":"Avelingen West 9","city":"Gorinchem","operatorName":"E-Flux by Road","maxPowerKw":22,"isMegawatt":false,"status":"AVAILABLE","source":"ndw","priceKwh":0.46}},{"type":"Feature","geometry":{"type":"Point","coordinates":[4.940401,51.835738]},"properties":{"type":"charge","layer":"passenger","locationId":"6866a0bcd038c99868b004d6","name":"Laadpaal 3","address":"Avelingen West 9","city":"Gorinchem","operatorName":"E-Flux by Road","maxPowerKw":22,"isMegawatt":false,"status":"AVAILABLE","source":"ndw","priceKwh":0.46}},{"type":"Feature","geometry":{"type":"Point","coordinates":[5.00534,51.84134]},"properties":{"type":"charge","layer":"passenger","locationId":"d14d9f5a-4901-4b24-835b-2572552137d6","name":"Franklinweg","address":"Franklinweg 3","city":"Gorinchem","operatorName":"Vattenfall InCharge","maxPowerKw":50,"isMegawatt":false,"status":"AVAILABLE","source":"ndw","priceKwh":0.46}},{"type":"Feature","geometry":{"type":"Point","coordinates":[4.984642,51.837641]},"properties":{"type":"charge","layer":"passenger","locationId":"6a3a15205176029f2d12f8c4","name":"Spijksedijk 28A, Gorinchem","address":"Spijksedijk 28A","city":"Gorinchem","operatorName":"Heijmans","maxPowerKw":11,"isMegawatt":false,"status":"AVAILABLE","source":"ndw","priceKwh":0.43}},{"type":"Feature","geometry":{"type":"Point","coordinates":[5.00606,51.8409]},"properties":{"type":"charge","layer":"passenger","locationId":"1023CF78-B278-4B2D-BB26-3CFA31BFFF7D","name":"Eneco eMobility Van der Valk Gorinchem","address":"Franklinweg 7","city":"Gorinchem","operatorName":"Eneco","maxPowerKw":22,"isMegawatt":false,"status":"AVAILABLE","source":"ndw","priceKwh":0.49}},{"type":"Feature","geometry":{"type":"Point","coordinates":[5.003,51.836695]},"properties":{"type":"charge","layer":"passenger","locationId":"NLLOC025773","name":"NL, Muzenlaan 36, 4207TC, Gorinchem","address":"Muzenlaan 36","city":"Gorinchem","operatorName":"Allego","maxPowerKw":11,"isMegawatt":false,"status":"UNAVAILABLE","source":"ndw","priceKwh":0.511}},{"type":"Feature","geometry":{"type":"Point","coordinates":[4.962161,51.843839]},"properties":{"type":"charge","layer":"passenger","locationId":"91056965","name":"50five-S NL 07104305","address":"Klaproos 34","city":"Gorinchem","operatorName":"50five","maxPowerKw":11,"isMegawatt":false,"status":"CHARGING","source":"ndw"}},{"type":"Feature","geometry":{"type":"Point","coordinates":[4.949742,51.841762]},"properties":{"type":"charge","layer":"passenger","locationId":"91518348","name":"50five Gorinchem-west Beheer B.V.","address":"Schimmelpennincklaan 33","city":"Gorinchem","operatorName":"50five","maxPowerKw":22,"isMegawatt":false,"status":"AVAILABLE","source":"ndw"}},{"type":"Feature","geometry":{"type":"Point","coordinates":[5.019408,51.839326]},"properties":{"type":"charge","layer":"passenger","locationId":"NLCPIL7321465","name":"FOURCE BV GORINCHEM 3","address":"3 Buys Ballotstraat","city":"Gorinchem","operatorName":"ChargePoint","maxPowerKw":22,"isMegawatt":false,"status":"AVAILABLE","source":"ndw","priceKwh":0.5}},{"type":"Feature","geometry":{"type":"Point","coordinates":[4.988732,51.848996]},"properties":{"type":"charge","layer":"passenger","locationId":"91232498","name":"50five-S NL 18B10797","address":"Vaart 5","city":"Gorinchem","operatorName":"50five","maxPowerKw":14,"isMegawatt":false,"status":"AVAILABLE","source":"ndw"}},{"type":"Feature","geometry":{"type":"Point","coordinates":[5.014724,51.830623]},"properties":{"type":"charge","layer":"passenger","locationId":"NLLOC011184","name":"NL, Hinderdam 40, 4208 BN, Gorinchem","address":"Hinderdam 40","city":"Gorinchem","operatorName":"Allego","maxPowerKw":11,"isMegawatt":false,"status":"AVAILABLE","source":"ndw","priceKwh":0.511}},{"type":"Feature","geometry":{"type":"Point","coordinates":[4.97432,51.827849]},"properties":{"type":"charge","layer":"passenger","locationId":"NLLOC024883","name":"NL, Molenstraat 38, 4201 CZ Gorinchem","address":"Molenstraat 38","city":"Gorinchem","operatorName":"Allego","maxPowerKw":11,"isMegawatt":false,"status":"AVAILABLE","source":"ndw","priceKwh":0.511}},{"type":"Feature","geometry":{"type":"Point","coordinates":[5.01949,51.839543]},"properties":{"type":"charge","layer":"passenger","locationId":"NLCPIL7321445","name":"FOURCE BV GORINCHEM 1","address":"3 Buys Ballotstraat","city":"Gorinchem","operatorName":"ChargePoint","maxPowerKw":22,"isMegawatt":false,"status":"CHARGING","source":"ndw","priceKwh":0.5}},{"type":"Feature","geometry":{"type":"Point","coordinates":[5.006179,51.838097]},"properties":{"type":"charge","layer":"passenger","locationId":"3966788","name":"Laadnet Teleorman Vastgoed","address":"Griendweg 2","city":"Gorinchem","operatorName":"Laadnet","maxPowerKw":22,"isMegawatt":false,"status":"AVAILABLE","source":"ndw"}},{"type":"Feature","geometry":{"type":"Point","coordinates":[5.000768,51.843256]},"properties":{"type":"charge","layer":"passenger","locationId":"68ed0709c7200cd0429844f7","name":"Groeneveld-BEKA","address":"Stephensonweg 12","city":"Gorinchem","operatorName":"E-Flux by Road","maxPowerKw":22,"isMegawatt":false,"status":"AVAILABLE","source":"ndw","priceKwh":0.1673}},{"type":"Feature","geometry":{"type":"Point","coordinates":[4.982488,51.839426]},"properties":{"type":"charge","layer":"passenger","locationId":"6a195216733b5cb58c3a385c","name":"Raoul Konijnenberg 's station","address":"Hendrik Hamelstraat 1","city":"Gorinchem","operatorName":"E-Flux by Road","maxPowerKw":22,"isMegawatt":false,"status":"AVAILABLE","source":"ndw","priceKwh":0.55}},{"type":"Feature","geometry":{"type":"Point","coordinates":[5.007436,51.836164]},"properties":{"type":"charge","layer":"passenger","locationId":"NLLOC006225","name":"NL, Moerschans 23, 4208 DG, Gorinchem","address":"Moerschans 23","city":"Gorinchem","operatorName":"Allego","maxPowerKw":11,"isMegawatt":false,"status":"AVAILABLE","source":"ndw","priceKwh":0.511}},{"type":"Feature","geometry":{"type":"Point","coordinates":[4.971754,51.835415]},"properties":{"type":"charge","layer":"passenger","locationId":"68f0f07f1a61628bc5d9788d","name":"Meet and C","address":"Stationsweg 29","city":"Gorinchem","operatorName":"E-Flux by Road","maxPowerKw":11,"isMegawatt":false,"status":"AVAILABLE","source":"ndw","priceKwh":0.63}},{"type":"Feature","geometry":{"type":"Point","coordinates":[4.970083,51.829891]},"properties":{"type":"charge","layer":"passenger","locationId":"NLLOC001212","name":"NLD, Gorinchem, Pompstraat 27","address":"Pompstraat 27","city":"Gorinchem","operatorName":"Allego","maxPowerKw":22,"isMegawatt":false,"status":"AVAILABLE","source":"ndw","priceKwh":0.511}},{"type":"Feature","geometry":{"type":"Point","coordinates":[4.940401,51.835738]},"properties":{"type":"charge","layer":"passenger","locationId":"6866a11150125c3cb2f3a907","name":"Laadpaal 4","address":"Avelingen West 9","city":"Gorinchem","operatorName":"E-Flux by Road","maxPowerKw":22,"isMegawatt":false,"status":"AVAILABLE","source":"ndw","priceKwh":0.46}},{"type":"Feature","geometry":{"type":"Point","coordinates":[4.987658,51.835751]},"properties":{"type":"charge","layer":"passenger","locationId":"6a451f01fb3979863d81357c","name":"Jansen Lingsesdijk","address":"Lingsesdijk 30","city":"Gorinchem","operatorName":"E-Flux by Road","maxPowerKw":22,"isMegawatt":false,"status":"AVAILABLE","source":"ndw","priceKwh":0.53}},{"type":"Feature","geometry":{"type":"Point","coordinates":[4.940401,51.835738]},"properties":{"type":"charge","layer":"passenger","locationId":"6866a207431413fd9bc8c815","name":"Laadpaal 7","address":"Avelingen West 9","city":"Gorinchem","operatorName":"E-Flux by Road","maxPowerKw":22,"isMegawatt":false,"status":"AVAILABLE","source":"ndw","priceKwh":0.46}},{"type":"Feature","geometry":{"type":"Point","coordinates":[4.985959,51.847454]},"properties":{"type":"charge","layer":"passenger","locationId":"8A48630A-0498-4BA4-A4DD-21F210924B5C","name":"Eneco eMobility Asset Management Builders","address":"Papland 9 B","city":"Gorinchem","operatorName":"Eneco","maxPowerKw":11,"isMegawatt":false,"status":"AVAILABLE","source":"ndw","priceKwh":0.45}},{"type":"Feature","geometry":{"type":"Point","coordinates":[4.960106,51.83701]},"properties":{"type":"charge","layer":"passenger","locationId":"NLLOC000093","name":"NLD, Gorinchem, Schepenenstraat 44","address":"Schepenenstraat 44","city":"Gorinchem","operatorName":"Allego","maxPowerKw":11,"isMegawatt":false,"status":"AVAILABLE","source":"ndw","priceKwh":0.511}},{"type":"Feature","geometry":{"type":"Point","coordinates":[4.967548,51.844431]},"properties":{"type":"charge","layer":"passenger","locationId":"NLLOC017041","name":"NL, Keizer Maximilliaanstraat 14, 4205 SZ Gorinchem","address":"Keizer Maximilliaanstraat 14","city":"Gorinchem","operatorName":"Allego","maxPowerKw":11,"isMegawatt":false,"status":"AVAILABLE","source":"ndw","priceKwh":0.511}},{"type":"Feature","geometry":{"type":"Point","coordinates":[4.996134,51.836963]},"properties":{"type":"charge","layer":"passenger","locationId":"fb2764eb-b459-4b1c-90b1-29a65b4ce629","name":"Doctor J.M. Den Uylstraat","address":"Doctor J.M. Den Uylstraat 16","city":"Gorinchem","operatorName":"Vattenfall InCharge","maxPowerKw":7,"isMegawatt":false,"status":"AVAILABLE","source":"ndw","priceKwh":0.28}},{"type":"Feature","geometry":{"type":"Point","coordinates":[5.002257,51.835813]},"properties":{"type":"charge","layer":"passenger","locationId":"66db03024444fa001cc9d127","name":"FrissIT","address":"Muzenlaan 7","city":"Gorinchem","operatorName":"E-Flux by Road","maxPowerKw":22,"isMegawatt":false,"status":"AVAILABLE","source":"ndw","priceKwh":0.18}},{"type":"Feature","geometry":{"type":"Point","coordinates":[5.0119,51.831148]},"properties":{"type":"charge","layer":"passenger","locationId":"NLLOC004086","name":"NLD, Blauwkapel 1 4208BS Gorinchem","address":"Blauwkapel 1","city":"Gorinchem","operatorName":"Allego","maxPowerKw":11,"isMegawatt":false,"status":"AVAILABLE","source":"ndw","priceKwh":0.511}},{"type":"Feature","geometry":{"type":"Point","coordinates":[4.981244,51.848623]},"properties":{"type":"charge","layer":"passenger","locationId":"4122614","name":"Laadnet Reinigingsdienst Waardlanden","address":"Boezem 3","city":"Gorinchem","operatorName":"Laadnet","maxPowerKw":22,"isMegawatt":false,"status":"CHARGING","source":"ndw"}},{"type":"Feature","geometry":{"type":"Point","coordinates":[4.973066,51.849679]},"properties":{"type":"charge","layer":"passenger","locationId":"3809750","name":"Laadnet Willem van Oranje Onderwijsgroep","address":"Grote Haarsekade 123","city":"Gorinchem","operatorName":"Laadnet","maxPowerKw":22,"isMegawatt":false,"status":"AVAILABLE","source":"ndw"}},{"type":"Feature","geometry":{"type":"Point","coordinates":[4.978558,51.829066]},"properties":{"type":"charge","layer":"passenger","locationId":"NLLOC007400","name":"NL, Kalkhaven 15, 4201 BA, Gorinchem","address":"Kalkhaven 15","city":"Gorinchem","operatorName":"Allego","maxPowerKw":11,"isMegawatt":false,"status":"AVAILABLE","source":"ndw","priceKwh":0.511}},{"type":"Feature","geometry":{"type":"Point","coordinates":[4.993302,51.83949]},"properties":{"type":"charge","layer":"passenger","locationId":"NLLOC004531","name":"NLD, Jacques Perkstraat 201 4207RB Gorinchem","address":"Jacques Perkstraat 201","city":"Gorinchem","operatorName":"Allego","maxPowerKw":11,"isMegawatt":false,"status":"AVAILABLE","source":"ndw","priceKwh":0.511}},{"type":"Feature","geometry":{"type":"Point","coordinates":[4.993921,51.841016]},"properties":{"type":"charge","layer":"passenger","locationId":"6870bcda04ffcae0315b99a7","name":"ITG 1-2","address":"Galvaniweg 9","city":"Gorinchem","operatorName":"E-Flux by Road","maxPowerKw":22,"isMegawatt":false,"status":"AVAILABLE","source":"ndw","priceKwh":0.53}},{"type":"Feature","geometry":{"type":"Point","coordinates":[4.980319,51.835655]},"properties":{"type":"charge","layer":"passenger","locationId":"91179557","name":"50five-S NL Gorinchem, Spijksedijk 16","address":"Spijksedijk 16","city":"Gorinchem","operatorName":"50five","maxPowerKw":11,"isMegawatt":false,"status":"AVAILABLE","source":"ndw"}},{"type":"Feature","geometry":{"type":"Point","coordinates":[4.987379,51.84744]},"properties":{"type":"charge","layer":"passenger","locationId":"91230088","name":"50five-S NL 18B11877","address":"Papland 1","city":"Gorinchem","operatorName":"50five","maxPowerKw":11,"isMegawatt":false,"status":"AVAILABLE","source":"ndw"}},{"type":"Feature","geometry":{"type":"Point","coordinates":[5.009038,51.841318]},"properties":{"type":"charge","layer":"passenger","locationId":"7e5c7726-97b4-4584-b993-fba4a27258c8","name":"Gorinchem, Netherlands","address":"7, Franklinweg","city":"Gorinchem","operatorName":"Tesla","maxPowerKw":250,"isMegawatt":false,"status":"AVAILABLE","source":"ndw","priceKwh":0.5}},{"type":"Feature","geometry":{"type":"Point","coordinates":[4.940401,51.835738]},"properties":{"type":"charge","layer":"passenger","locationId":"6866a360c01159715298b103","name":"Laadpaal 11","address":"Avelingen West 9","city":"Gorinchem","operatorName":"E-Flux by Road","maxPowerKw":22,"isMegawatt":false,"status":"AVAILABLE","source":"ndw","priceKwh":0.46}},{"type":"Feature","geometry":{"type":"Point","coordinates":[5.010023,51.830922]},"properties":{"type":"charge","layer":"passenger","locationId":"NLLOC008430","name":"NLD, Steurgat 73 4208BM Gorinchem","address":"Steurgat 73","city":"Gorinchem","operatorName":"Allego","maxPowerKw":11,"isMegawatt":false,"status":"AVAILABLE","source":"ndw","priceKwh":0.511}},{"type":"Feature","geometry":{"type":"Point","coordinates":[4.962559,51.840137]},"properties":{"type":"charge","layer":"passenger","locationId":"NLLOC010952","name":"NL, Busschieterstraat 1, 4205 PM Gorinchem","address":"Busschieterstraat 1","city":"Gorinchem","operatorName":"Allego","maxPowerKw":11,"isMegawatt":false,"status":"AVAILABLE","source":"ndw","priceKwh":0.511}},{"type":"Feature","geometry":{"type":"Point","coordinates":[5.01009,51.829538]},"properties":{"type":"charge","layer":"passenger","locationId":"6a47a24a8d57fbf4209f4732","name":"Openbaar Laden bij Van Ekeren Kuiper en Boveko","address":"Beatrixlaan 2A","city":"Dalem","operatorName":"E-Flux by Road","maxPowerKw":11,"isMegawatt":false,"status":"AVAILABLE","source":"ndw","priceKwh":0.52}},{"type":"Feature","geometry":{"type":"Point","coordinates":[4.940401,51.835738]},"properties":{"type":"charge","layer":"passenger","locationId":"68669fde1f7ecbf9f8052d4a","name":"Laadpaal 1","address":"Avelingen West 9","city":"Gorinchem","operatorName":"E-Flux by Road","maxPowerKw":22,"isMegawatt":false,"status":"AVAILABLE","source":"ndw","priceKwh":0.46}},{"type":"Feature","geometry":{"type":"Point","coordinates":[4.982867,51.844443]},"properties":{"type":"charge","layer":"passenger","locationId":"91179704","name":"50five-S NL Gorinchem, Aert Van Der Neerstraat 14","address":"Aert van der Neerstraat 14","city":"Gorinchem","operatorName":"50five","maxPowerKw":11,"isMegawatt":false,"status":"UNAVAILABLE","source":"ndw"}},{"type":"Feature","geometry":{"type":"Point","coordinates":[4.965002,51.832324]},"properties":{"type":"charge","layer":"passenger","locationId":"NLLOC003428","name":"NLD, Stadhuisplein 1, 4205 AZ Gorinchem","address":"Stadhuisplein 1","city":"Gorinchem","operatorName":"Allego","maxPowerKw":11,"isMegawatt":false,"status":"UNAVAILABLE","source":"ndw","priceKwh":0.511}},{"type":"Feature","geometry":{"type":"Point","coordinates":[4.940401,51.835738]},"properties":{"type":"charge","layer":"passenger","locationId":"6866a31e362395175a97c82d","name":"Laadpaal 10","address":"Avelingen West 9","city":"Gorinchem","operatorName":"E-Flux by Road","maxPowerKw":22,"isMegawatt":false,"status":"AVAILABLE","source":"ndw","priceKwh":0.46}},{"type":"Feature","geometry":{"type":"Point","coordinates":[4.960871,51.843999]},"properties":{"type":"charge","layer":"passenger","locationId":"NLLOC013077","name":"NL, Klaproos 93, 4205MA Gorinchem","address":"Klaproos 93","city":"Gorinchem","operatorName":"Allego","maxPowerKw":11,"isMegawatt":false,"status":"AVAILABLE","source":"ndw","priceKwh":0.511}},{"type":"Feature","geometry":{"type":"Point","coordinates":[4.996481,51.838793]},"properties":{"type":"charge","layer":"passenger","locationId":"620fb36f96c284553446a5fe","name":"de Wit's station","address":"Hendrik Tollensplantsoen 24","city":"Gorinchem","operatorName":"E-Flux by Road","maxPowerKw":11,"isMegawatt":false,"status":"CHARGING","source":"ndw","priceKwh":0.38}},{"type":"Feature","geometry":{"type":"Point","coordinates":[4.971205,51.847803]},"properties":{"type":"charge","layer":"passenger","locationId":"NLLOC001201","name":"NLD, Gorinchem, Hoefslag 6","address":"Hoefslag 6","city":"Gorinchem","operatorName":"Allego","maxPowerKw":11,"isMegawatt":false,"status":"AVAILABLE","source":"ndw","priceKwh":0.511}},{"type":"Feature","geometry":{"type":"Point","coordinates":[4.965036,51.832353]},"properties":{"type":"charge","layer":"passenger","locationId":"NLLOC002266","name":"NLD, Gorinchem, Stadhuisplein 1","address":"Stadhuisplein 1","city":"Gorinchem","operatorName":"Allego","maxPowerKw":11,"isMegawatt":false,"status":"UNAVAILABLE","source":"ndw","priceKwh":0.511}},{"type":"Feature","geometry":{"type":"Point","coordinates":[4.963885,51.844393]},"properties":{"type":"charge","layer":"passenger","locationId":"NLLOC007856","name":"NL, Wilgenroosje 18, 4205md, Gorinchem","address":"Wilgenroosje 18","city":"Gorinchem","operatorName":"Allego","maxPowerKw":11,"isMegawatt":false,"status":"AVAILABLE","source":"ndw","priceKwh":0.511}},{"type":"Feature","geometry":{"type":"Point","coordinates":[4.971939,51.831955]},"properties":{"type":"charge","layer":"passenger","locationId":"NLLOC017248","name":"NL, Heerenlaantje 109, 4201HV, Gorinchem","address":"Heerenlaantje 109","city":"Gorinchem","operatorName":"Allego","maxPowerKw":11,"isMegawatt":false,"status":"CHARGING","source":"ndw","priceKwh":0.511}},{"type":"Feature","geometry":{"type":"Point","coordinates":[4.98763,51.848483]},"properties":{"type":"charge","layer":"passenger","locationId":"67a36aedf99ac2cc7ec0af0d","name":"NOG Laadpaal 01","address":"Papland  4","city":"Gorinchem","operatorName":"E-Flux by Road","maxPowerKw":22,"isMegawatt":false,"status":"AVAILABLE","source":"ndw","priceKwh":0.48}},{"type":"Feature","geometry":{"type":"Point","coordinates":[5.007668,51.83548]},"properties":{"type":"charge","layer":"passenger","locationId":"91232238","name":"50five-S NL 17B02470","address":"De Linie 2","city":"Gorinchem","operatorName":"50five","maxPowerKw":11,"isMegawatt":false,"status":"AVAILABLE","source":"ndw"}},{"type":"Feature","geometry":{"type":"Point","coordinates":[4.955634,51.843325]},"properties":{"type":"charge","layer":"passenger","locationId":"NLLOC000589","name":"NLD, Gorinchem, Dokter Schöyerstraat 213","address":"Dokter Schöyerstraat 213","city":"Gorinchem","operatorName":"Allego","maxPowerKw":22,"isMegawatt":false,"status":"AVAILABLE","source":"ndw","priceKwh":0.511}},{"type":"Feature","geometry":{"type":"Point","coordinates":[4.940401,51.835738]},"properties":{"type":"charge","layer":"passenger","locationId":"6866a251362395175a976804","name":"Laadpaal 8","address":"Avelingen West 9","city":"Gorinchem","operatorName":"E-Flux by Road","maxPowerKw":22,"isMegawatt":false,"status":"AVAILABLE","source":"ndw","priceKwh":0.46}},{"type":"Feature","geometry":{"type":"Point","coordinates":[4.997007,51.838115]},"properties":{"type":"charge","layer":"passenger","locationId":"NLLOC004776","name":"NLD Jan Slauerhoffstraat 26 4207 RT Gorinchem","address":"Jan Slauerhoffstraat 26","city":"Gorinchem","operatorName":"Allego","maxPowerKw":11,"isMegawatt":false,"status":"AVAILABLE","source":"ndw","priceKwh":0.511}},{"type":"Feature","geometry":{"type":"Point","coordinates":[4.983085,51.835144]},"properties":{"type":"charge","layer":"passenger","locationId":"NLLOC001202","name":"NLD, Gorinchem, Halve Maan 6","address":"Halve Maan 6","city":"Gorinchem","operatorName":"Allego","maxPowerKw":11,"isMegawatt":false,"status":"AVAILABLE","source":"ndw","priceKwh":0.511}},{"type":"Feature","geometry":{"type":"Point","coordinates":[4.977182,51.832456]},"properties":{"type":"charge","layer":"passenger","locationId":"91063611","name":"50five-S NL 17B05463","address":"Korenbrugstraat 13","city":"Gorinchem","operatorName":"50five","maxPowerKw":11,"isMegawatt":false,"status":"AVAILABLE","source":"ndw"}},{"type":"Feature","geometry":{"type":"Point","coordinates":[4.956789,51.832166]},"properties":{"type":"charge","layer":"passenger","locationId":"91149407","name":"50five-S NL 18B13009","address":"Schelluinsestraat 34","city":"Gorinchem","operatorName":"50five","maxPowerKw":22,"isMegawatt":false,"status":"AVAILABLE","source":"ndw"}},{"type":"Feature","geometry":{"type":"Point","coordinates":[4.960327,51.8343]},"properties":{"type":"charge","layer":"passenger","locationId":"NLLOC007531","name":"NL, Voermanstraat 246, 4204 RN, Gorinchem","address":"Voermanstraat 246","city":"Gorinchem","operatorName":"Allego","maxPowerKw":11,"isMegawatt":false,"status":"AVAILABLE","source":"ndw","priceKwh":0.511}},{"type":"Feature","geometry":{"type":"Point","coordinates":[4.956444,51.842422]},"properties":{"type":"charge","layer":"passenger","locationId":"NLLOC011718","name":"NL, Dokter Hiemstralaan 99, 4205 KL, Gorinchem","address":"Dokter Hiemstralaan 99","city":"Gorinchem","operatorName":"Allego","maxPowerKw":11,"isMegawatt":false,"status":"AVAILABLE","source":"ndw","priceKwh":0.511}},{"type":"Feature","geometry":{"type":"Point","coordinates":[5.011124,51.827199]},"properties":{"type":"charge","layer":"passenger","locationId":"NLLOC013915","name":"NL, Jupiterstraat 2, 2957 HB Nieuw-Lekkerland","address":"Jupiterstraat 2","city":"Nieuw-Lekkerland","operatorName":"Allego","maxPowerKw":11,"isMegawatt":false,"status":"AVAILABLE","source":"ndw","priceKwh":0.511}},{"type":"Feature","geometry":{"type":"Point","coordinates":[4.982306,51.845215]},"properties":{"type":"charge","layer":"passenger","locationId":"NLLOC019698","name":"NL, Buitenbaan 23, 4206VR, Gorinchem","address":"Buitenbaan 23","city":"Gorinchem","operatorName":"Allego","maxPowerKw":11,"isMegawatt":false,"status":"AVAILABLE","source":"ndw","priceKwh":0.511}},{"type":"Feature","geometry":{"type":"Point","coordinates":[5.015503,51.837795]},"properties":{"type":"charge","layer":"passenger","locationId":"NLLOC020520","name":"NL, Adjudant 27, 4207 HZ Gorinchem","address":"Adjudant 27","city":"Gorinchem","operatorName":"Allego","maxPowerKw":11,"isMegawatt":false,"status":"AVAILABLE","source":"ndw","priceKwh":0.511}},{"type":"Feature","geometry":{"type":"Point","coordinates":[4.979812,51.83468]},"properties":{"type":"charge","layer":"passenger","locationId":"91179558","name":"50five-S NL Gorinchem, Spijksedijk 8","address":"Spijksedijk 8","city":"Gorinchem","operatorName":"50five","maxPowerKw":11,"isMegawatt":false,"status":"AVAILABLE","source":"ndw"}},{"type":"Feature","geometry":{"type":"Point","coordinates":[5.006779,51.836333]},"properties":{"type":"charge","layer":"passenger","locationId":"NLLOC024868","name":"NL, De Linie 31, 4208DE, Gorinchem","address":"De Linie 31","city":"Gorinchem","operatorName":"Allego","maxPowerKw":11,"isMegawatt":false,"status":"AVAILABLE","source":"ndw","priceKwh":0.511}},{"type":"Feature","geometry":{"type":"Point","coordinates":[5.010331,51.825583]},"properties":{"type":"charge","layer":"passenger","locationId":"NLLOC003563","name":"NLD, De Bongerd 1 4213 CW Dalem","address":"De Bongerd 1","city":"Dalem","operatorName":"Allego","maxPowerKw":11,"isMegawatt":false,"status":"AVAILABLE","source":"ndw","priceKwh":0.511}},{"type":"Feature","geometry":{"type":"Point","coordinates":[4.975904,51.834471]},"properties":{"type":"charge","layer":"passenger","locationId":"NLLOC006878","name":"NL, Paardenwater 19, 4201 KM, Gorinchem","address":"Paardenwater 19","city":"Gorinchem","operatorName":"Allego","maxPowerKw":11,"isMegawatt":false,"status":"CHARGING","source":"ndw","priceKwh":0.511}},{"type":"Feature","geometry":{"type":"Point","coordinates":[4.982687,51.843347]},"properties":{"type":"charge","layer":"passenger","locationId":"NLLOC002649","name":"NLD, Gemeente Gorinchem Binnenbaan 52 4206 WJ Gorinchem","address":"Binnenbaan 52","city":"Gorinchem","operatorName":"Allego","maxPowerKw":11,"isMegawatt":false,"status":"AVAILABLE","source":"ndw","priceKwh":0.511}},{"type":"Feature","geometry":{"type":"Point","coordinates":[4.991633,51.83478]},"properties":{"type":"charge","layer":"passenger","locationId":"NLLOC010942","name":"NL, Mozartstraat, 1, 4207DS, Gorinchem","address":"Mozartstraat 1","city":"Gorinchem","operatorName":"Allego","maxPowerKw":11,"isMegawatt":false,"status":"AVAILABLE","source":"ndw","priceKwh":0.511}},{"type":"Feature","geometry":{"type":"Point","coordinates":[4.971647,51.838052]},"properties":{"type":"charge","layer":"passenger","locationId":"NLLOC000091","name":"NLD, Gorinchem, Korte Slagenstraat 11","address":"Korte Slagenstraat 11","city":"Gorinchem","operatorName":"Allego","maxPowerKw":11,"isMegawatt":false,"status":"AVAILABLE","source":"ndw","priceKwh":0.511}},{"type":"Feature","geometry":{"type":"Point","coordinates":[4.961246,51.828507]},"properties":{"type":"charge","layer":"passenger","locationId":"91231209","name":"50five-S NL 03008687","address":"Krinkelwinkel 6","city":"Gorinchem","operatorName":"50five","maxPowerKw":14,"isMegawatt":false,"status":"AVAILABLE","source":"ndw"}},{"type":"Feature","geometry":{"type":"Point","coordinates":[4.940401,51.835738]},"properties":{"type":"charge","layer":"passenger","locationId":"6866a0551016c4a375501196","name":"Laadpaal 2","address":"Avelingen West 9","city":"Gorinchem","operatorName":"E-Flux by Road","maxPowerKw":22,"isMegawatt":false,"status":"AVAILABLE","source":"ndw","priceKwh":0.46}},{"type":"Feature","geometry":{"type":"Point","coordinates":[4.974257,51.842305]},"properties":{"type":"charge","layer":"passenger","locationId":"NLLOC011780","name":"NL, Jagerslaan 28, 4205 XC, Gorinchem","address":"Jagerslaan 28","city":"Gorinchem","operatorName":"Allego","maxPowerKw":11,"isMegawatt":false,"status":"AVAILABLE","source":"ndw","priceKwh":0.511}},{"type":"Feature","geometry":{"type":"Point","coordinates":[4.949557,51.838011]},"properties":{"type":"charge","layer":"passenger","locationId":"NLLOC007054","name":"NL, Barbierstraat 130, 4204 TG, Gorinchem","address":"Barbierstraat 130","city":"Gorinchem","operatorName":"Allego","maxPowerKw":11,"isMegawatt":false,"status":"AVAILABLE","source":"ndw","priceKwh":0.511}},{"type":"Feature","geometry":{"type":"Point","coordinates":[4.986612,51.833426]},"properties":{"type":"charge","layer":"passenger","locationId":"NLLOC025286","name":"NL, Schans 6, 4207 EP Gorinchem","address":"Schans 6","city":"Gorinchem","operatorName":"Allego","maxPowerKw":11,"isMegawatt":false,"status":"AVAILABLE","source":"ndw","priceKwh":0.511}},{"type":"Feature","geometry":{"type":"Point","coordinates":[4.95202,51.8362]},"properties":{"type":"charge","layer":"passenger","locationId":"NLLOC004793","name":"NLD, Gruttershof 18 4204SG Gorinchem","address":"Gruttershof 18","city":"Gorinchem","operatorName":"Allego","maxPowerKw":11,"isMegawatt":false,"status":"AVAILABLE","source":"ndw","priceKwh":0.511}},{"type":"Feature","geometry":{"type":"Point","coordinates":[4.940401,51.835738]},"properties":{"type":"charge","layer":"passenger","locationId":"6866a15a66541e057defb422","name":"Laadpaal 5","address":"Avelingen West 9","city":"Gorinchem","operatorName":"E-Flux by Road","maxPowerKw":22,"isMegawatt":false,"status":"AVAILABLE","source":"ndw","priceKwh":0.46}},{"type":"Feature","geometry":{"type":"Point","coordinates":[4.973549,51.832982]},"properties":{"type":"charge","layer":"passenger","locationId":"NLLOC000068","name":"NLD, Gorinchem, Kweeklust 1","address":"Kweeklust 1","city":"Gorinchem","operatorName":"Allego","maxPowerKw":22,"isMegawatt":false,"status":"CHARGING","source":"ndw","priceKwh":0.511}},{"type":"Feature","geometry":{"type":"Point","coordinates":[4.990077,51.835111]},"properties":{"type":"charge","layer":"passenger","locationId":"91056613","name":"50five-S NL 07105932","address":"Lingsesdijk 15A","city":"Gorinchem","operatorName":"50five","maxPowerKw":11,"isMegawatt":false,"status":"AVAILABLE","source":"ndw"}},{"type":"Feature","geometry":{"type":"Point","coordinates":[4.940398,51.835747]},"properties":{"type":"charge","layer":"passenger","locationId":"6866a1b5f7ccfc3e96403ef9","name":"Laadpaal 6","address":"Avelingen West 9","city":"Gorinchem","operatorName":"E-Flux by Road","maxPowerKw":22,"isMegawatt":false,"status":"AVAILABLE","source":"ndw","priceKwh":0.46}},{"type":"Feature","geometry":{"type":"Point","coordinates":[4.980986,51.841179]},"properties":{"type":"charge","layer":"passenger","locationId":"NLLOC006869","name":"NL, Jacob van der Ulftstraat 7, 4206 ZP, Gorinchem","address":"Jacob van der Ulftstraat 7","city":"Gorinchem","operatorName":"Allego","maxPowerKw":11,"isMegawatt":false,"status":"AVAILABLE","source":"ndw","priceKwh":0.511}},{"type":"Feature","geometry":{"type":"Point","coordinates":[4.979694,51.832274]},"properties":{"type":"charge","layer":"passenger","locationId":"NLLOC000310","name":"NLD, Gorinchem, Vissersdijk 81","address":"Vissersdijk 81-C","city":"Gorinchem","operatorName":"Allego","maxPowerKw":11,"isMegawatt":false,"status":"AVAILABLE","source":"ndw","priceKwh":0.511}},{"type":"Feature","geometry":{"type":"Point","coordinates":[5.000227,51.832115]},"properties":{"type":"charge","layer":"passenger","locationId":"NLLOC001056","name":"NLD, Gorinchem, Schaap Veronica 20","address":"Schaap Veronica 20","city":"Gorinchem","operatorName":"Allego","maxPowerKw":11,"isMegawatt":false,"status":"AVAILABLE","source":"ndw","priceKwh":0.511}},{"type":"Feature","geometry":{"type":"Point","coordinates":[4.951768,51.84214]},"properties":{"type":"charge","layer":"passenger","locationId":"NLLOC002290","name":"NLD, Gorinchem, van Hogendorpweg 6","address":"Van Hogendorpweg 6","city":"Gorinchem","operatorName":"Allego","maxPowerKw":11,"isMegawatt":false,"status":"AVAILABLE","source":"ndw","priceKwh":0.511}},{"type":"Feature","geometry":{"type":"Point","coordinates":[5.005933,51.83221]},"properties":{"type":"charge","layer":"passenger","locationId":"NLLOC015493","name":"NL, Ruigenhoek 32, 4208BJ, Gorinchem","address":"Ruigenhoek 32","city":"Gorinchem","operatorName":"Allego","maxPowerKw":11,"isMegawatt":false,"status":"AVAILABLE","source":"ndw","priceKwh":0.511}},{"type":"Feature","geometry":{"type":"Point","coordinates":[4.979802,51.838733]},"properties":{"type":"charge","layer":"passenger","locationId":"NLLOC003248","name":"NLD, Elsje van Houweningenstraat 35, 4206 ZH Gorinchem","address":"Elsje van Houweningenstraat 35","city":"Gorinchem","operatorName":"Allego","maxPowerKw":11,"isMegawatt":false,"status":"AVAILABLE","source":"ndw","priceKwh":0.511}},{"type":"Feature","geometry":{"type":"Point","coordinates":[4.98728,51.830266]},"properties":{"type":"charge","layer":"passenger","locationId":"NLLOC001792","name":"NLD, Gorinchem, Wijdschildplein 4","address":"Wijdschildplein 4","city":"Gorinchem","operatorName":"Allego","maxPowerKw":11,"isMegawatt":false,"status":"AVAILABLE","source":"ndw","priceKwh":0.511}},{"type":"Feature","geometry":{"type":"Point","coordinates":[4.994095,51.832807]},"properties":{"type":"charge","layer":"passenger","locationId":"NLLOC016753","name":"NL, Cornelie van Oosterzeestraat 3, 4207JH, Gorinchem","address":"Cornelie van Oosterzeestraat 3","city":"Gorinchem","operatorName":"Allego","maxPowerKw":11,"isMegawatt":false,"status":"AVAILABLE","source":"ndw","priceKwh":0.511}},{"type":"Feature","geometry":{"type":"Point","coordinates":[4.991053,51.838827]},"properties":{"type":"charge","layer":"passenger","locationId":"NLLOC000233","name":"NLD, Gorinchem, Herman de Manstraat 28","address":"Herman de Manstraat 28","city":"Gorinchem","operatorName":"Allego","maxPowerKw":22,"isMegawatt":false,"status":"AVAILABLE","source":"ndw","priceKwh":0.511}},{"type":"Feature","geometry":{"type":"Point","coordinates":[4.967905,51.837969]},"properties":{"type":"charge","layer":"passenger","locationId":"NLLOC008467","name":"NL, Koningin Emmastraat 13, 4205 BK Gorinchem","address":"Koningin Emmastraat 13","city":"Gorinchem","operatorName":"Allego","maxPowerKw":11,"isMegawatt":false,"status":"AVAILABLE","source":"ndw","priceKwh":0.511}},{"type":"Feature","geometry":{"type":"Point","coordinates":[4.983517,51.841179]},"properties":{"type":"charge","layer":"passenger","locationId":"NLLOC019118","name":"NL, Arkelse Onderweg 61, 4206 AG Gorinchem","address":"Arkelse Onderweg 61","city":"Gorinchem","operatorName":"Allego","maxPowerKw":11,"isMegawatt":false,"status":"AVAILABLE","source":"ndw","priceKwh":0.511}},{"type":"Feature","geometry":{"type":"Point","coordinates":[4.959468,51.840796]},"properties":{"type":"charge","layer":"passenger","locationId":"NLLOC022431","name":"NL, Dokter Bauerstraat 40, 4205 KB Gorinchem","address":"Dokter Bauerstraat 40","city":"Gorinchem","operatorName":"Allego","maxPowerKw":11,"isMegawatt":false,"status":"AVAILABLE","source":"ndw","priceKwh":0.511}},{"type":"Feature","geometry":{"type":"Point","coordinates":[4.967169,51.843112]},"properties":{"type":"charge","layer":"passenger","locationId":"NLLOC007085","name":"NL, Karel de Stoutestraat 1, 4205 HL Gorinchem","address":"Karel de Stoutestraat 1","city":"Gorinchem","operatorName":"Allego","maxPowerKw":11,"isMegawatt":false,"status":"AVAILABLE","source":"ndw","priceKwh":0.511}},{"type":"Feature","geometry":{"type":"Point","coordinates":[4.997828,51.843604]},"properties":{"type":"charge","layer":"passenger","locationId":"91179559","name":"50five-S NL Gorinchem, Edisonweg 25","address":"Edisonweg 25","city":"Gorinchem","operatorName":"50five","maxPowerKw":11,"isMegawatt":false,"status":"AVAILABLE","source":"ndw"}},{"type":"Feature","geometry":{"type":"Point","coordinates":[4.964157,51.841533]},"properties":{"type":"charge","layer":"passenger","locationId":"91058450","name":"50five-S NL 17B27145","address":"Kwakernaat 9","city":"Gorinchem","operatorName":"50five","maxPowerKw":4,"isMegawatt":false,"status":"AVAILABLE","source":"ndw"}},{"type":"Feature","geometry":{"type":"Point","coordinates":[4.9762,51.831872]},"properties":{"type":"charge","layer":"passenger","locationId":"91043974","name":"50five-S NL 17B27898","address":"Kortendijk 69","city":"Gorinchem","operatorName":"50five","maxPowerKw":10,"isMegawatt":false,"status":"AVAILABLE","source":"ndw"}},{"type":"Feature","geometry":{"type":"Point","coordinates":[4.991356,51.833246]},"properties":{"type":"charge","layer":"passenger","locationId":"NLLOC001200","name":"NLD, Gorinchem, Verdistraat 18","address":"Verdistraat 18","city":"Gorinchem","operatorName":"Allego","maxPowerKw":11,"isMegawatt":false,"status":"AVAILABLE","source":"ndw","priceKwh":0.511}},{"type":"Feature","geometry":{"type":"Point","coordinates":[4.993429,51.83664]},"properties":{"type":"charge","layer":"passenger","locationId":"NLLOC001038","name":"NLD, Gorinchem, Doctor Herman Bernard Wiardi Beckmanplein 115","address":"Doctor Herman Bernard Wiardi Beckmanplein 115","city":"Gorinchem","operatorName":"Allego","maxPowerKw":11,"isMegawatt":false,"status":"AVAILABLE","source":"ndw","priceKwh":0.511}},{"type":"Feature","geometry":{"type":"Point","coordinates":[4.950333,51.831966]},"properties":{"type":"charge","layer":"freight","locationId":"895","name":"IONITY GmbH IONITY Gorinchem","address":"Avelingen-Oost 2A","city":"Gorinchem","operatorName":"IONITY","maxPowerKw":350,"isMegawatt":false,"status":"AVAILABLE","source":"ndw","priceKwh":0.6283,"freightKind":"hpc","freightReason":"power"}},{"type":"Feature","geometry":{"type":"MultiPolygon","coordinates":[[[[4.938894688138285,51.863518343136796],[4.956971990855163,51.859573126232],[4.959308982029021,51.86288493712157],[4.964975977625061,51.86159159412773],[4.983317935509908,51.85710831546366],[4.981259858397086,51.851870340571644],[4.996341140787267,51.84922873334371],[4.998683835000022,51.8522773106811],[5.000001059826934,51.8475759676169],[4.998894262831168,51.845246427097244],[4.999519578421056,51.84513752308938],[4.999295508017455,51.844600004197886],[4.999933275109034,51.84439156373037],[5.0028942779064405,51.843661957918876],[5.003447044271338,51.844769058882356],[5.009322160241337,51.84271628176213],[5.021269470879895,51.84192587494444],[5.031414099927922,51.84108497151599],[5.0282865711700095,51.826160520446585],[5.027700144919693,51.82355001342692],[5.026350739777103,51.818856910771245],[5.012995075833074,51.82072591750574],[5.000362936658818,51.8209335382102],[4.999281662628338,51.8208679311388],[4.9877559846751005,51.82105951126231],[4.976098834290462,51.82263318276571],[4.969632254550107,51.82365450280675],[4.960514960906387,51.82504222741106],[4.942436784284997,51.82724328707538],[4.936063346754613,51.828314603407435],[4.926985826481712,51.82830606193055],[4.925194184101021,51.83707979177148],[4.92511959623807,51.83753079823061],[4.925071996310836,51.8378777628433],[4.9250149558654535,51.83830340012064],[4.9248631682809,51.83971846171963],[4.921822164431389,51.84078893092881],[4.925440641272152,51.84023949980415],[4.930885322060181,51.84026595095053],[4.936617112151509,51.842933832791445],[4.936939260285814,51.84437846522302],[4.9427137784922515,51.84478416710371],[4.940345706122689,51.85842844779831],[4.93839814075617,51.86362932062211],[4.938894688138285,51.863518343136796]]]]},"properties":{"type":"boundary","gemeente":"Gorinchem","code":"GM0512"}}]}