{"type":"FeatureCollection","metadata":{"gemeente":"Gouda","slug":"gouda","code":"GM0513","generated_at":"2026-08-08T12:05:52.020Z","total_passenger":45,"total_freight":1,"bounds":[4.659453881134015,51.99625842027634,4.757327396434524,52.04012021077849],"operators":["50five","Alva Charging Services","DAEN Mobility","E-Flux by Road","Eneco","Fastned","Laadnet","Opcharge","Q-Park Netherlands","Shell Recharge","Tango electric","Tesla","Van Leeuwen","Vattenfall InCharge"]},"features":[{"type":"Feature","geometry":{"type":"Point","coordinates":[4.682984,52.018815]},"properties":{"type":"charge","layer":"passenger","locationId":"490b59df-2dd6-4568-8555-1b33dd7e8d17","name":"Nieuwe Gouwe O.Z","address":"Nieuwe Gouwe O.Z 19","city":"Gouda","operatorName":"Vattenfall InCharge","maxPowerKw":50,"isMegawatt":false,"status":"AVAILABLE","source":"ndw","priceKwh":0.46}},{"type":"Feature","geometry":{"type":"Point","coordinates":[4.705321,52.039646]},"properties":{"type":"charge","layer":"passenger","locationId":"621","name":"Shell Recharge NL0258 - Shell De Andel","address":"Rijksweg A12 E30/E25","city":"Gouda","operatorName":"Shell Recharge","maxPowerKw":300,"isMegawatt":false,"status":"AVAILABLE","source":"ndw","priceKwh":0.7025}},{"type":"Feature","geometry":{"type":"Point","coordinates":[4.683443,52.018654]},"properties":{"type":"charge","layer":"passenger","locationId":"1629ae60-412d-40b5-a9db-44fe00a6717c","name":"Tango Gouda 1-2","address":"Nieuwe Gouwe Oostzijde 13A","city":"Gouda","operatorName":"Tango electric","maxPowerKw":300,"isMegawatt":false,"status":"AVAILABLE","source":"ndw","priceKwh":0.6}},{"type":"Feature","geometry":{"type":"Point","coordinates":[4.698701,52.025723]},"properties":{"type":"charge","layer":"passenger","locationId":"91045629","name":"50five-S NL 17B32840","address":"Ericalaan 7","city":"Gouda","operatorName":"50five","maxPowerKw":10,"isMegawatt":false,"status":"CHARGING","source":"ndw"}},{"type":"Feature","geometry":{"type":"Point","coordinates":[4.711118,52.003833]},"properties":{"type":"charge","layer":"passenger","locationId":"4242715","name":"Laadnet Gebroeders Bakker Groente en Fruit","address":"Gouderaksedijk 66A","city":"Gouda","operatorName":"Laadnet","maxPowerKw":22,"isMegawatt":false,"status":"AVAILABLE","source":"ndw"}},{"type":"Feature","geometry":{"type":"Point","coordinates":[4.684286,52.01649]},"properties":{"type":"charge","layer":"passenger","locationId":"89467623","name":"Van Leeuwen Binnen","address":"Zuidelijk Halfrond 11","city":"Gouda","operatorName":"Van Leeuwen","maxPowerKw":22,"isMegawatt":false,"status":"AVAILABLE","source":"ndw"}},{"type":"Feature","geometry":{"type":"Point","coordinates":[4.703319,52.009997]},"properties":{"type":"charge","layer":"passenger","locationId":"7EC97E1F-4862-4517-956F-E293F54F3073","name":"Q-Park Gouda Bolwerk","address":"Sint Mariewal 3","city":"Gouda","operatorName":"Q-Park Netherlands","maxPowerKw":11,"isMegawatt":false,"status":"AVAILABLE","source":"ndw"}},{"type":"Feature","geometry":{"type":"Point","coordinates":[4.742995,52.013378]},"properties":{"type":"charge","layer":"passenger","locationId":"6a1ff13693438dfa5ebd36db","name":"Fempowerment Gouda","address":"Ouverturelaan 2","city":"Gouda","operatorName":"E-Flux by Road","maxPowerKw":14,"isMegawatt":false,"status":"AVAILABLE","source":"ndw","priceKwh":0.73}},{"type":"Feature","geometry":{"type":"Point","coordinates":[4.705131,52.036138]},"properties":{"type":"charge","layer":"passenger","locationId":"922666","name":"DAE-NL-2000164","address":"Catarina hoeve3","city":"Gouda","operatorName":"DAEN Mobility","maxPowerKw":11,"isMegawatt":false,"status":"AVAILABLE","source":"ndw","priceKwh":0.28}},{"type":"Feature","geometry":{"type":"Point","coordinates":[4.676966,52.025269]},"properties":{"type":"charge","layer":"passenger","locationId":"65f44cc582b401001c299237","name":"Mul BV","address":"Elburgplein 1","city":"Gouda","operatorName":"E-Flux by Road","maxPowerKw":11,"isMegawatt":false,"status":"AVAILABLE","source":"ndw","priceKwh":0.38}},{"type":"Feature","geometry":{"type":"Point","coordinates":[4.689648,52.021531]},"properties":{"type":"charge","layer":"passenger","locationId":"4227626","name":"Laadnet Salure","address":"Gentseweg 17","city":"Gouda","operatorName":"Laadnet","maxPowerKw":22,"isMegawatt":false,"status":"AVAILABLE","source":"ndw"}},{"type":"Feature","geometry":{"type":"Point","coordinates":[4.715523,52.028172]},"properties":{"type":"charge","layer":"passenger","locationId":"8504EEDF-0AFC-4B03-AB3A-E5499D728F17","name":"Eneco eMobility Lansigt Accountants en Belastingadviseurs - Gouda","address":"Burgemeester van Reenensingel 39","city":"Gouda","operatorName":"Eneco","maxPowerKw":22,"isMegawatt":false,"status":"AVAILABLE","source":"ndw","priceKwh":0.28}},{"type":"Feature","geometry":{"type":"Point","coordinates":[4.705264,52.016965]},"properties":{"type":"charge","layer":"passenger","locationId":"641d83d15c5d690012df841e","name":"Stationsplein 9","address":"Stationsplein  9","city":"gouda","operatorName":"E-Flux by Road","maxPowerKw":22,"isMegawatt":false,"status":"AVAILABLE","source":"ndw","priceKwh":0.53}},{"type":"Feature","geometry":{"type":"Point","coordinates":[4.691634,52.00433]},"properties":{"type":"charge","layer":"passenger","locationId":"90295174","name":"Van Leeuwen 24 Service Vastgoed","address":"Marconistraat 2","city":"Gouda","operatorName":"Van Leeuwen","maxPowerKw":22,"isMegawatt":false,"status":"AVAILABLE","source":"ndw"}},{"type":"Feature","geometry":{"type":"Point","coordinates":[4.692726,52.016491]},"properties":{"type":"charge","layer":"passenger","locationId":"6835c9068c76251c0ab39351","name":"Hoogvliet, Nieuwe Gouwe OZ 2 Gouda","address":"Nieuwe Gouwe OZ 2","city":"Gouda","operatorName":"E-Flux by Road","maxPowerKw":22,"isMegawatt":false,"status":"AVAILABLE","source":"ndw","priceKwh":0.38}},{"type":"Feature","geometry":{"type":"Point","coordinates":[4.688855,52.016852]},"properties":{"type":"charge","layer":"passenger","locationId":"6671752ce670d5001cfcdca4","name":"Van Beek Elektro Gouda","address":"Keerkring 8-108","city":"Gouda","operatorName":"E-Flux by Road","maxPowerKw":11,"isMegawatt":false,"status":"AVAILABLE","source":"ndw","priceKwh":0.43}},{"type":"Feature","geometry":{"type":"Point","coordinates":[4.68438,52.021586]},"properties":{"type":"charge","layer":"passenger","locationId":"B7E77BA3-7CBA-405E-B1BD-D57F961D52B8","name":"Eneco eMobility Burg. van Reenensingel 117 Gouda","address":"Burg. van Reenensingel 117","city":"Gouda","operatorName":"Eneco","maxPowerKw":22,"isMegawatt":false,"status":"UNAVAILABLE","source":"ndw","priceKwh":0.32}},{"type":"Feature","geometry":{"type":"Point","coordinates":[4.741146,52.007686]},"properties":{"type":"charge","layer":"passenger","locationId":"4114","name":"50five Goudswaard / Goudse Betonmortel Centrale","address":"Walmolenerf","city":"Gouda","operatorName":"50five","maxPowerKw":7,"isMegawatt":false,"status":"AVAILABLE","source":"ndw"}},{"type":"Feature","geometry":{"type":"Point","coordinates":[4.684727,52.022549]},"properties":{"type":"charge","layer":"passenger","locationId":"7a67f7aa-27c9-41fc-81ae-915583949093","name":"Gouda, Netherlands","address":"1, Harderwijkweg","city":"Gouda","operatorName":"Tesla","maxPowerKw":150,"isMegawatt":false,"status":"AVAILABLE","source":"ndw","priceKwh":0.53}},{"type":"Feature","geometry":{"type":"Point","coordinates":[4.711289,52.01438]},"properties":{"type":"charge","layer":"passenger","locationId":"983A036D-0039-4ADA-AD87-A4CC54008E8A","name":"Q-Park Gouda Nieuwe Markt","address":"Lem Dulstraat 3","city":"Gouda","operatorName":"Q-Park Netherlands","maxPowerKw":11,"isMegawatt":false,"status":"CHARGING","source":"ndw"}},{"type":"Feature","geometry":{"type":"Point","coordinates":[4.6895,52.00477]},"properties":{"type":"charge","layer":"passenger","locationId":"3EFFE035-44FD-40BF-98A2-1114594A4593","name":"Eneco eMobility Marconistraat 62 Gouda","address":"Marconistraat 62","city":"Gouda","operatorName":"Eneco","maxPowerKw":22,"isMegawatt":false,"status":"AVAILABLE","source":"ndw","priceKwh":0.35}},{"type":"Feature","geometry":{"type":"Point","coordinates":[4.697519,52.019336]},"properties":{"type":"charge","layer":"passenger","locationId":"4772830","name":"Laadnet J Bos en Zn project Locatie Anna van Hensbeeksingel","address":"Anna van Hensbeeksingel 122","city":"Gouda","operatorName":"Laadnet","maxPowerKw":22,"isMegawatt":false,"status":"AVAILABLE","source":"ndw"}},{"type":"Feature","geometry":{"type":"Point","coordinates":[4.711606,52.004041]},"properties":{"type":"charge","layer":"passenger","locationId":"90908958","name":"Van Leeuwen Domera","address":"gouderaksedijk 58","city":"Gouda","operatorName":"Van Leeuwen","maxPowerKw":11,"isMegawatt":false,"status":"AVAILABLE","source":"ndw"}},{"type":"Feature","geometry":{"type":"Point","coordinates":[4.716204,52.036381]},"properties":{"type":"charge","layer":"passenger","locationId":"923219","name":"DAE_NL_2001069","address":"Pluutwerf 15","city":"Gouda","operatorName":"DAEN Mobility","maxPowerKw":11,"isMegawatt":false,"status":"AVAILABLE","source":"ndw","priceKwh":0.28}},{"type":"Feature","geometry":{"type":"Point","coordinates":[4.720833,52.004283]},"properties":{"type":"charge","layer":"passenger","locationId":"91149362","name":"50five-S NL 07107811","address":"Goudseweg 16","city":"Gouda","operatorName":"50five","maxPowerKw":11,"isMegawatt":false,"status":"AVAILABLE","source":"ndw"}},{"type":"Feature","geometry":{"type":"Point","coordinates":[4.69788,52.01343]},"properties":{"type":"charge","layer":"passenger","locationId":"86C6957A-5A9A-4CE3-96BF-02C1CA24950D","name":"Eneco eMobility Holland Scherm B.V.","address":"Nijverheidsstraat 4","city":"Gouda","operatorName":"Eneco","maxPowerKw":150,"isMegawatt":false,"status":"AVAILABLE","source":"ndw","priceKwh":0.3}},{"type":"Feature","geometry":{"type":"Point","coordinates":[4.704832,52.010108]},"properties":{"type":"charge","layer":"passenger","locationId":"91168324","name":"50five-S NL Wim Zwama","address":"Raam 12","city":"Gouda","operatorName":"50five","maxPowerKw":22,"isMegawatt":false,"status":"AVAILABLE","source":"ndw"}},{"type":"Feature","geometry":{"type":"Point","coordinates":[4.703983,52.02064]},"properties":{"type":"charge","layer":"passenger","locationId":"6a019c57cf536db2b9472080","name":"Bluelandweg (openbaar)","address":"Buchnerweg 5","city":"Gouda","operatorName":"E-Flux by Road","maxPowerKw":22,"isMegawatt":false,"status":"AVAILABLE","source":"ndw","priceKwh":0.53}},{"type":"Feature","geometry":{"type":"Point","coordinates":[4.730659,52.007958]},"properties":{"type":"charge","layer":"passenger","locationId":"91064147","name":"50five-S NL 17B30329","address":"Zuider IJsseldijk 10b","city":"Gouda","operatorName":"50five","maxPowerKw":11,"isMegawatt":false,"status":"AVAILABLE","source":"ndw"}},{"type":"Feature","geometry":{"type":"Point","coordinates":[4.69028,52.02155]},"properties":{"type":"charge","layer":"passenger","locationId":"40EDB4C3-5F94-430F-88B8-6A786CA5C5BE","name":"Eneco eMobility White House Development B.V. - Gouda","address":"Burgemeester van Reenensingel 101","city":"Gouda","operatorName":"Eneco","maxPowerKw":22,"isMegawatt":false,"status":"AVAILABLE","source":"ndw","priceKwh":0.32}},{"type":"Feature","geometry":{"type":"Point","coordinates":[4.689723,52.003628]},"properties":{"type":"charge","layer":"passenger","locationId":"627cde055889300af53c494c","name":"Veratio's station","address":"Macronistraat 101","city":"Gouda","operatorName":"E-Flux by Road","maxPowerKw":22,"isMegawatt":false,"status":"AVAILABLE","source":"ndw","priceKwh":0.38}},{"type":"Feature","geometry":{"type":"Point","coordinates":[4.71275,52.02535]},"properties":{"type":"charge","layer":"passenger","locationId":"2940F320-51F4-4770-B90F-6819B4F104E0","name":"Eneco eMobility Groen van Prinsterersingel 47 Gouda","address":"Groen van Prinsterersingel 47","city":"Gouda","operatorName":"Eneco","maxPowerKw":22,"isMegawatt":false,"status":"AVAILABLE","source":"ndw","priceKwh":0.32}},{"type":"Feature","geometry":{"type":"Point","coordinates":[4.686814,52.016947]},"properties":{"type":"charge","layer":"passenger","locationId":"66eadb109e4c9b001c611c9e","name":"E. Prosman 's station","address":"meridiaan 40","city":"Gouda","operatorName":"E-Flux by Road","maxPowerKw":11,"isMegawatt":false,"status":"AVAILABLE","source":"ndw","priceKwh":0.48}},{"type":"Feature","geometry":{"type":"Point","coordinates":[4.7162,52.00872]},"properties":{"type":"charge","layer":"passenger","locationId":"66DBE4A9-BBC7-4EC4-9F10-39A7E526155A","name":"Eneco eMobility Fluwelensingel 87 Gouda","address":"Fluwelensingel 87","city":"Gouda","operatorName":"Eneco","maxPowerKw":22,"isMegawatt":false,"status":"AVAILABLE","source":"ndw","priceKwh":0.32}},{"type":"Feature","geometry":{"type":"Point","coordinates":[4.70835,52.018231]},"properties":{"type":"charge","layer":"passenger","locationId":"4251381","name":"Laadnet Burgemeester Jamessingel 1","address":"Burgemeester Jamessingel 1","city":"Gouda","operatorName":"Laadnet","maxPowerKw":22,"isMegawatt":false,"status":"AVAILABLE","source":"ndw"}},{"type":"Feature","geometry":{"type":"Point","coordinates":[4.680834,52.025495]},"properties":{"type":"charge","layer":"passenger","locationId":"3968794","name":"Laadnet DKA INVESTMENTS ICV","address":"Stavorenweg 8","city":"Gouda","operatorName":"Laadnet","maxPowerKw":22,"isMegawatt":false,"status":"AVAILABLE","source":"ndw"}},{"type":"Feature","geometry":{"type":"Point","coordinates":[4.695804,52.029087]},"properties":{"type":"charge","layer":"passenger","locationId":"91052602","name":"50five-S NL 07119022","address":"Kamillegaarde 2","city":"Gouda","operatorName":"50five","maxPowerKw":11,"isMegawatt":false,"status":"AVAILABLE","source":"ndw"}},{"type":"Feature","geometry":{"type":"Point","coordinates":[4.721058,52.005383]},"properties":{"type":"charge","layer":"passenger","locationId":"90295055","name":"Van Leeuwen Oudebrugweg 6","address":"Oudebrugweg 6","city":"Gouda","operatorName":"Van Leeuwen","maxPowerKw":11,"isMegawatt":false,"status":"AVAILABLE","source":"ndw"}},{"type":"Feature","geometry":{"type":"Point","coordinates":[4.679445,52.027608]},"properties":{"type":"charge","layer":"passenger","locationId":"b8773bb74611430d8070","name":"Campanile Hotel Gouda","address":"Kampenringweg 39-41","city":"Gouda","operatorName":"Opcharge","maxPowerKw":11,"isMegawatt":false,"status":"AVAILABLE","source":"ndw","priceKwh":0.49}},{"type":"Feature","geometry":{"type":"Point","coordinates":[4.68485,52.017134]},"properties":{"type":"charge","layer":"passenger","locationId":"91229480","name":"50five-S NL 08102233","address":"Noordelijk Halfrond 10","city":"Gouda","operatorName":"50five","maxPowerKw":22,"isMegawatt":false,"status":"AVAILABLE","source":"ndw"}},{"type":"Feature","geometry":{"type":"Point","coordinates":[4.691478,52.003056]},"properties":{"type":"charge","layer":"passenger","locationId":"60b0de467e53d149599f78cc","name":"Bouwmaat Gouda","address":"Marconistraat 27","city":"Gouda","operatorName":"E-Flux by Road","maxPowerKw":22,"isMegawatt":false,"status":"AVAILABLE","source":"ndw","priceKwh":0.58}},{"type":"Feature","geometry":{"type":"Point","coordinates":[4.70648,52.03999]},"properties":{"type":"charge","layer":"passenger","locationId":"31350","name":"Fastned De Andel","address":"De Andel A12","city":"Reeuwijk","operatorName":"Fastned","maxPowerKw":150,"isMegawatt":false,"status":"AVAILABLE","source":"ndw","priceKwh":0.6364}},{"type":"Feature","geometry":{"type":"Point","coordinates":[4.714468,52.008318]},"properties":{"type":"charge","layer":"passenger","locationId":"91092718","name":"50five-S NL 03011430","address":"Hoefsteeg 12a","city":"Gouda","operatorName":"50five","maxPowerKw":11,"isMegawatt":false,"status":"AVAILABLE","source":"ndw"}},{"type":"Feature","geometry":{"type":"Point","coordinates":[4.680525,52.026819]},"properties":{"type":"charge","layer":"passenger","locationId":"3881","name":"Van Leeuwen Vosko","address":"Kampenringweg 47","city":"Gouda","operatorName":"Van Leeuwen","maxPowerKw":22,"isMegawatt":false,"status":"AVAILABLE","source":"ndw"}},{"type":"Feature","geometry":{"type":"Point","coordinates":[4.692438,52.011522]},"properties":{"type":"charge","layer":"passenger","locationId":"6321942ee01d6d2a56f5b26e","name":"OrangeGas Gouda","address":"Industriestraat 1","city":"Gouda","operatorName":"Alva Charging Services","maxPowerKw":50,"isMegawatt":false,"status":"AVAILABLE","source":"ndw","priceKwh":0.668}},{"type":"Feature","geometry":{"type":"Point","coordinates":[4.683894,52.023538]},"properties":{"type":"charge","layer":"freight","locationId":"5372","name":"Shell Recharge NL0575 - Shell Goudsepoort","address":"Goudesepoort OZ 2","city":"Gouda","operatorName":"Shell Recharge","maxPowerKw":400,"isMegawatt":false,"status":"AVAILABLE","source":"ndw","priceKwh":0.7025,"freightKind":"hpc","freightReason":"power"}},{"type":"Feature","geometry":{"type":"MultiPolygon","coordinates":[[[[4.719933736761537,52.02846939180217],[4.7198520958017625,52.02648475315873],[4.721180301958419,52.0264731708491],[4.721210905780703,52.026108154648725],[4.721511489117194,52.02603285973751],[4.722213203815717,52.02628980280358],[4.722302150175776,52.026016808143666],[4.725267839400206,52.02576850280206],[4.726342618276171,52.025926504436036],[4.72741975458245,52.02598863210868],[4.727607347611854,52.02531510443658],[4.729963759131127,52.02562869903783],[4.7301548188790825,52.0248839716555],[4.734400032089602,52.02502065646349],[4.73461860490111,52.02427942704861],[4.736296407623993,52.024218334209166],[4.736782676679049,52.02274871985461],[4.7436975575703135,52.02260855964062],[4.746016780701568,52.01697684597028],[4.749148649666596,52.016176899850635],[4.749629654542505,52.015283189080876],[4.750049028145752,52.01450396985684],[4.750352400977463,52.01394026631079],[4.750991459097498,52.01389922803527],[4.752763189774819,52.010536957848885],[4.756961100310982,52.00294871047109],[4.757247584741764,52.0029265139998],[4.757327396434524,52.00143880594852],[4.752262087719218,52.002348554648215],[4.745970166287482,52.002795978485075],[4.74391778294525,52.003448442872795],[4.742056376152136,52.00458679235198],[4.739321535340775,52.00625249825335],[4.737733325505001,52.00684184031064],[4.737291745738711,52.00593552443977],[4.730773946665746,52.00735136280575],[4.728327530638071,52.00734412955961],[4.722792359589384,52.00548247528158],[4.724200717071416,52.003385136089655],[4.725279439408431,52.00257558317501],[4.727569580313897,52.001583264834174],[4.726736258187962,52.00127641613931],[4.72670210389743,52.00126383753283],[4.718860972052383,51.99836993768103],[4.714411191229787,52.00040322229561],[4.712909230275557,51.999141725229876],[4.707216650436906,52.00176267515173],[4.701070985304946,51.99756100383057],[4.696829180412323,51.99694430647914],[4.690641115015737,51.996672346043106],[4.688683952636637,51.99625842027634],[4.684020681880235,51.99795806390894],[4.681761145990068,51.99710760231005],[4.681162157918537,51.996877060244124],[4.680228849943621,51.99654195638819],[4.674727142487972,51.99987195376818],[4.670716298484648,52.0023265173977],[4.669523514195975,52.00246529845416],[4.662809574273732,52.00324622553581],[4.659453881134015,52.00528810125545],[4.665658333044202,52.00918814515806],[4.667031397029467,52.010005925308704],[4.670096211353591,52.010550313682124],[4.670728276484175,52.011126855320875],[4.666605898923398,52.012971078636006],[4.675574254205245,52.01767537033066],[4.681822536479056,52.01930797981383],[4.679671096600108,52.02115774112952],[4.673647298022306,52.02259979348312],[4.670380020875488,52.022835661418604],[4.667769688732999,52.02451916394179],[4.667278385433537,52.02507879419132],[4.679081079406954,52.028191493037575],[4.680540828660156,52.02798175701593],[4.68584721965396,52.030264356152315],[4.691896128007949,52.032985259159204],[4.694970043678527,52.03441965705453],[4.699701344286049,52.03691479021142],[4.701737387292849,52.03785651616576],[4.706038988986196,52.04012021077849],[4.709229328024716,52.039550065175945],[4.712392954617089,52.03896359097085],[4.716260561950166,52.03822320966847],[4.717581212996317,52.03530726060131],[4.719871059810841,52.03520134424374],[4.7199032186994705,52.03027358792327],[4.719933736761537,52.02846939180217]]]]},"properties":{"type":"boundary","gemeente":"Gouda","code":"GM0513"}}]}