{"type":"FeatureCollection","metadata":{"gemeente":"Heemskerk","slug":"heemskerk","code":"GM0396","generated_at":"2026-08-08T12:05:52.020Z","total_passenger":157,"total_freight":0,"bounds":[4.586562586159282,52.4863326080833,4.720366589426021,52.53175156288496],"operators":["50five","Allego","DAEN Mobility","E-Flux by Road","Eneco","Fastned","Laadnet","NXT50Five","TotalEnergies","Ubitricity","Vattenfall InCharge"]},"features":[{"type":"Feature","geometry":{"type":"Point","coordinates":[4.6749186,52.5134475]},"properties":{"type":"charge","layer":"passenger","locationId":"2045","name":"Shell Recharge NL Schumannstraat 21","address":"Schumannstraat 21","city":"Heemskerk","operatorName":"Ubitricity","maxPowerKw":22,"isMegawatt":false,"status":"AVAILABLE","source":"ndw","priceKwh":0.267}},{"type":"Feature","geometry":{"type":"Point","coordinates":[4.6867505,52.5200976]},"properties":{"type":"charge","layer":"passenger","locationId":"1894","name":"Shell Recharge NL Breedweerlaan 119","address":"Breedweerlaan 119","city":"Heemskerk","operatorName":"Ubitricity","maxPowerKw":22,"isMegawatt":false,"status":"AVAILABLE","source":"ndw","priceKwh":0.267}},{"type":"Feature","geometry":{"type":"Point","coordinates":[4.682099,52.522415]},"properties":{"type":"charge","layer":"passenger","locationId":"C1BBF1D3-E185-41EC-8171-8C53E75FFD06","name":"TNLP009112 - Mary Zeldenruststraat 19, Heemskerk","address":"19 Mary Zeldenruststraat","city":"Heemskerk","operatorName":"TotalEnergies","maxPowerKw":15,"isMegawatt":false,"status":"CHARGING","source":"ndw"}},{"type":"Feature","geometry":{"type":"Point","coordinates":[4.677328,52.50832]},"properties":{"type":"charge","layer":"passenger","locationId":"F9DD594E-7E65-4067-9A2E-F99E107A2E17","name":"TNLP005865 - Vrijburglaan 2a, Heemskerk","address":"2a Vrijburglaan","city":"Heemskerk","operatorName":"TotalEnergies","maxPowerKw":13,"isMegawatt":false,"status":"AVAILABLE","source":"ndw"}},{"type":"Feature","geometry":{"type":"Point","coordinates":[4.682918,52.495466]},"properties":{"type":"charge","layer":"passenger","locationId":"40fa4cae9993d66667e51e9777343bf5","name":"Lessestraat 166","address":"Lessestraat 166","city":"Heemskerk","operatorName":"Vattenfall InCharge","maxPowerKw":11,"isMegawatt":false,"status":"CHARGING","source":"ndw","priceKwh":0.2805}},{"type":"Feature","geometry":{"type":"Point","coordinates":[4.691014,52.49688]},"properties":{"type":"charge","layer":"passenger","locationId":"92830CA5-5104-44EC-84CE-9A0803C0A7B9","name":"TNLP006011 - Grote Weide 19, Heemskerk","address":"19 Grote Weide","city":"Heemskerk","operatorName":"TotalEnergies","maxPowerKw":13,"isMegawatt":false,"status":"AVAILABLE","source":"ndw"}},{"type":"Feature","geometry":{"type":"Point","coordinates":[4.701852,52.503971]},"properties":{"type":"charge","layer":"passenger","locationId":"3966767","name":"Laadnet Cocensus","address":"De Trompet 2700","city":"Heemskerk","operatorName":"Laadnet","maxPowerKw":22,"isMegawatt":false,"status":"AVAILABLE","source":"ndw"}},{"type":"Feature","geometry":{"type":"Point","coordinates":[4.659212,52.499461]},"properties":{"type":"charge","layer":"passenger","locationId":"c97ce37194adda865519582baee3521d","name":"Maerten van Heemskerckstraat 150","address":"Maerten van Heemskerckstraat 150","city":"Heemskerk","operatorName":"Vattenfall InCharge","maxPowerKw":11,"isMegawatt":false,"status":"AVAILABLE","source":"ndw","priceKwh":0.2805}},{"type":"Feature","geometry":{"type":"Point","coordinates":[4.67181,52.51174]},"properties":{"type":"charge","layer":"passenger","locationId":"0EBDD986-42C0-4BC2-9A2E-197A996AF673","name":"Eneco eMobility Kerklaan 11 Heemskerk","address":"Kerklaan 11","city":"Heemskerk","operatorName":"Eneco","maxPowerKw":22,"isMegawatt":false,"status":"AVAILABLE","source":"ndw","priceKwh":0.32}},{"type":"Feature","geometry":{"type":"Point","coordinates":[4.6550529,52.5093495]},"properties":{"type":"charge","layer":"passenger","locationId":"1804","name":"Shell Recharge NL Vogelkers 39","address":"Vogelkers 39","city":"Heemskerk","operatorName":"Ubitricity","maxPowerKw":22,"isMegawatt":false,"status":"AVAILABLE","source":"ndw","priceKwh":0.267}},{"type":"Feature","geometry":{"type":"Point","coordinates":[4.677493,52.512687]},"properties":{"type":"charge","layer":"passenger","locationId":"69c13f552817d81dfa5228d2","name":"NXT 50five - Heemskerk - Haydnplein 8 - DC","address":"Haydnplein 8","city":"Heemskerk","operatorName":"NXT50Five","maxPowerKw":300,"isMegawatt":false,"status":"AVAILABLE","source":"ndw","priceKwh":0.63}},{"type":"Feature","geometry":{"type":"Point","coordinates":[4.673685,52.504173]},"properties":{"type":"charge","layer":"passenger","locationId":"f165913c-5f9f-45bf-bb78-5ba3e940b08c","name":"TNLP006013 - Merel 15, Heemskerk","address":"15 Merel","city":"Heemskerk","operatorName":"TotalEnergies","maxPowerKw":13,"isMegawatt":false,"status":"AVAILABLE","source":"ndw"}},{"type":"Feature","geometry":{"type":"Point","coordinates":[4.6638,52.50896]},"properties":{"type":"charge","layer":"passenger","locationId":"1664","name":"Shell Recharge NL Zeelaan 20","address":"Zeelaan 20","city":"Heemskerk","operatorName":"Ubitricity","maxPowerKw":11,"isMegawatt":false,"status":"AVAILABLE","source":"ndw","priceKwh":0.392}},{"type":"Feature","geometry":{"type":"Point","coordinates":[4.68733,52.51186]},"properties":{"type":"charge","layer":"passenger","locationId":"392c17c18ef02bfbd834aea87c00f7fc","name":"Abbenven 25","address":"Abbenven 25","city":"Heemskerk","operatorName":"Vattenfall InCharge","maxPowerKw":11,"isMegawatt":false,"status":"AVAILABLE","source":"ndw","priceKwh":0.2805}},{"type":"Feature","geometry":{"type":"Point","coordinates":[4.68394,52.50882]},"properties":{"type":"charge","layer":"passenger","locationId":"595","name":"Shell Recharge NL Jan van Kuikweg 106","address":"Jan van Kuikweg 106","city":"Heemskerk","operatorName":"Ubitricity","maxPowerKw":11,"isMegawatt":false,"status":"AVAILABLE","source":"ndw","priceKwh":0.392}},{"type":"Feature","geometry":{"type":"Point","coordinates":[4.6824436,52.5114388]},"properties":{"type":"charge","layer":"passenger","locationId":"2417","name":"Shell Recharge NL Anna Blamanhof 51","address":"Anna Blamanhof 51","city":"Heemskerk","operatorName":"Ubitricity","maxPowerKw":22,"isMegawatt":false,"status":"AVAILABLE","source":"ndw","priceKwh":0.267}},{"type":"Feature","geometry":{"type":"Point","coordinates":[4.693333,52.496555]},"properties":{"type":"charge","layer":"passenger","locationId":"878BE1B6-2B8D-40B2-BAB8-372937923350","name":"PP005245 - Razende Bol 1, Heemskerk","address":"1 Razende Bol","city":"Heemskerk","operatorName":"TotalEnergies","maxPowerKw":13,"isMegawatt":false,"status":"AVAILABLE","source":"ndw"}},{"type":"Feature","geometry":{"type":"Point","coordinates":[4.67226,52.51493]},"properties":{"type":"charge","layer":"passenger","locationId":"323","name":"Shell Recharge NL Offenbachstraat 1","address":"Offenbachstraat 1","city":"Heemskerk","operatorName":"Ubitricity","maxPowerKw":11,"isMegawatt":false,"status":"AVAILABLE","source":"ndw","priceKwh":0.392}},{"type":"Feature","geometry":{"type":"Point","coordinates":[4.682073,52.519535]},"properties":{"type":"charge","layer":"passenger","locationId":"738C0303-683E-4D85-BEF1-F74E5D7F383E","name":"TNLP008526 - Prof ten Doesschatestraat 311, Heemskerk","address":"311 Prof ten Doesschatestraat","city":"Heemskerk","operatorName":"TotalEnergies","maxPowerKw":14,"isMegawatt":false,"status":"AVAILABLE","source":"ndw"}},{"type":"Feature","geometry":{"type":"Point","coordinates":[4.6795762,52.499288]},"properties":{"type":"charge","layer":"passenger","locationId":"1776","name":"Shell Recharge NL Luxemburglaan 645","address":"Luxemburglaan 645","city":"Heemskerk","operatorName":"Ubitricity","maxPowerKw":22,"isMegawatt":false,"status":"CHARGING","source":"ndw","priceKwh":0.267}},{"type":"Feature","geometry":{"type":"Point","coordinates":[4.671718,52.512356]},"properties":{"type":"charge","layer":"passenger","locationId":"631C9A48-4A2F-44A8-9EB4-77817CE689A8","name":"TNLP007465 - Zamenhof 65, Heemskerk","address":"65 Zamenhof","city":"Heemskerk","operatorName":"TotalEnergies","maxPowerKw":15,"isMegawatt":false,"status":"AVAILABLE","source":"ndw"}},{"type":"Feature","geometry":{"type":"Point","coordinates":[4.66397,52.50702]},"properties":{"type":"charge","layer":"passenger","locationId":"621","name":"Shell Recharge NL Jan Ligthartstraat 285","address":"Jan Ligthartstraat 285","city":"Heemskerk","operatorName":"Ubitricity","maxPowerKw":11,"isMegawatt":false,"status":"AVAILABLE","source":"ndw","priceKwh":0.392}},{"type":"Feature","geometry":{"type":"Point","coordinates":[4.699864,52.504684]},"properties":{"type":"charge","layer":"passenger","locationId":"69f31ac81920a85f5005c29c","name":"EPG","address":"De Trompet 2108","city":"Heemskerk","operatorName":"E-Flux by Road","maxPowerKw":11,"isMegawatt":false,"status":"AVAILABLE","source":"ndw","priceKwh":0.41}},{"type":"Feature","geometry":{"type":"Point","coordinates":[4.66122,52.50081]},"properties":{"type":"charge","layer":"passenger","locationId":"53","name":"Shell Recharge NL Weg acker 91","address":"Weg acker 91","city":"Heemskerk","operatorName":"Ubitricity","maxPowerKw":11,"isMegawatt":false,"status":"AVAILABLE","source":"ndw","priceKwh":0.392}},{"type":"Feature","geometry":{"type":"Point","coordinates":[4.666111,52.506632]},"properties":{"type":"charge","layer":"passenger","locationId":"3d9c30b6dcd2487af44c71adb24eabea","name":"Hobbemastraat 13","address":"Hobbemastraat 13","city":"Heemskerk","operatorName":"Vattenfall InCharge","maxPowerKw":11,"isMegawatt":false,"status":"CHARGING","source":"ndw","priceKwh":0.2805}},{"type":"Feature","geometry":{"type":"Point","coordinates":[4.698793,52.498623]},"properties":{"type":"charge","layer":"passenger","locationId":"31264","name":"Fastned Akermaat","address":"Akermaat A9","city":"Heemskerk","operatorName":"Fastned","maxPowerKw":150,"isMegawatt":false,"status":"AVAILABLE","source":"ndw","priceKwh":0.6364}},{"type":"Feature","geometry":{"type":"Point","coordinates":[4.689318,52.495495]},"properties":{"type":"charge","layer":"passenger","locationId":"B24FF1E2-A07F-4F9D-8587-96035D1B3F0D","name":"TNLP034647 - Avenweide 72, Heemskerk","address":"72 Avenweide","city":"Heemskerk","operatorName":"TotalEnergies","maxPowerKw":13,"isMegawatt":false,"status":"UNAVAILABLE","source":"ndw"}},{"type":"Feature","geometry":{"type":"Point","coordinates":[4.657378,52.515717]},"properties":{"type":"charge","layer":"passenger","locationId":"F1F0615A-2AB2-46C1-914B-D59A6DB95A8E","name":"PP005140 - Kruipwilg 8, Heemskerk","address":"8 Kruipwilg","city":"Heemskerk","operatorName":"TotalEnergies","maxPowerKw":15,"isMegawatt":false,"status":"CHARGING","source":"ndw"}},{"type":"Feature","geometry":{"type":"Point","coordinates":[4.68065,52.50034]},"properties":{"type":"charge","layer":"passenger","locationId":"1564","name":"Shell Recharge NL Luxemburglaan 196","address":"Luxemburglaan 196","city":"Heemskerk","operatorName":"Ubitricity","maxPowerKw":11,"isMegawatt":false,"status":"AVAILABLE","source":"ndw","priceKwh":0.392}},{"type":"Feature","geometry":{"type":"Point","coordinates":[4.68421,52.5216]},"properties":{"type":"charge","layer":"passenger","locationId":"190","name":"Shell Recharge NL Breedweerlaan 213","address":"Breedweerlaan 213","city":"Heemskerk","operatorName":"Ubitricity","maxPowerKw":11,"isMegawatt":false,"status":"AVAILABLE","source":"ndw","priceKwh":0.392}},{"type":"Feature","geometry":{"type":"Point","coordinates":[4.68999,52.51098]},"properties":{"type":"charge","layer":"passenger","locationId":"B3C96A6A-FFC8-4758-84F2-D122261A492D","name":"PP002581 - Deukelven 71, Heemskerk","address":"71 Deukelven","city":"Heemskerk","operatorName":"TotalEnergies","maxPowerKw":13,"isMegawatt":false,"status":"AVAILABLE","source":"ndw"}},{"type":"Feature","geometry":{"type":"Point","coordinates":[4.651416,52.500865]},"properties":{"type":"charge","layer":"passenger","locationId":"ECF905E1-4CE1-4027-B22B-A6B1873CAD6A","name":"Eneco eMobility Ambachtsring 20 Heemskerk","address":"Ambachtsring 20","city":"Heemskerk","operatorName":"Eneco","maxPowerKw":11,"isMegawatt":false,"status":"AVAILABLE","source":"ndw","priceKwh":0.32}},{"type":"Feature","geometry":{"type":"Point","coordinates":[4.6861842,52.4954522]},"properties":{"type":"charge","layer":"passenger","locationId":"1725","name":"Shell Recharge NL Euratomplein 39","address":"Euratomplein 39","city":"Heemskerk","operatorName":"Ubitricity","maxPowerKw":22,"isMegawatt":false,"status":"AVAILABLE","source":"ndw","priceKwh":0.267}},{"type":"Feature","geometry":{"type":"Point","coordinates":[4.68058,52.51308]},"properties":{"type":"charge","layer":"passenger","locationId":"341","name":"Shell Recharge NL Luceberthof 2","address":"Luceberthof 2","city":"Heemskerk","operatorName":"Ubitricity","maxPowerKw":11,"isMegawatt":false,"status":"AVAILABLE","source":"ndw","priceKwh":0.392}},{"type":"Feature","geometry":{"type":"Point","coordinates":[4.694966,52.500664]},"properties":{"type":"charge","layer":"passenger","locationId":"91086638","name":"50five-S NL 07003829","address":"Griend 37","city":"Heemskerk","operatorName":"50five","maxPowerKw":4,"isMegawatt":false,"status":"AVAILABLE","source":"ndw"}},{"type":"Feature","geometry":{"type":"Point","coordinates":[4.683842,52.51388]},"properties":{"type":"charge","layer":"passenger","locationId":"ED2FE90C-95BD-4C1A-9F20-FC3678436D98","name":"TNLP008089 - De Velst 2, Heemskerk","address":"2 De Velst","city":"Heemskerk","operatorName":"TotalEnergies","maxPowerKw":15,"isMegawatt":false,"status":"AVAILABLE","source":"ndw"}},{"type":"Feature","geometry":{"type":"Point","coordinates":[4.670309,52.512096]},"properties":{"type":"charge","layer":"passenger","locationId":"DF7DF555-1716-4E67-8964-AB3F5E26E8AF","name":"TNLP034052 - Raadhuisstraat 15, Heemskerk","address":"15 Raadhuisstraat","city":"Heemskerk","operatorName":"TotalEnergies","maxPowerKw":13,"isMegawatt":false,"status":"UNAVAILABLE","source":"ndw"}},{"type":"Feature","geometry":{"type":"Point","coordinates":[4.655953,52.505245]},"properties":{"type":"charge","layer":"passenger","locationId":"B36D2175-8D6D-4110-84B5-9DF36457F8F1","name":"Eneco eMobility Albert Heijn - Rijksstraatweg 38","address":"Rijksstraatweg 38","city":"Heemskerk","operatorName":"Eneco","maxPowerKw":50,"isMegawatt":false,"status":"AVAILABLE","source":"ndw","priceKwh":0.62}},{"type":"Feature","geometry":{"type":"Point","coordinates":[4.656748,52.51182]},"properties":{"type":"charge","layer":"passenger","locationId":"7A763B20-7ECF-4DB9-A375-5F198C2C3BD2","name":"TNLP034206 - Commandeurslaan 49, Heemskerk","address":"49 Commandeurslaan","city":"Heemskerk","operatorName":"TotalEnergies","maxPowerKw":13,"isMegawatt":false,"status":"UNAVAILABLE","source":"ndw"}},{"type":"Feature","geometry":{"type":"Point","coordinates":[4.690993,52.4944604]},"properties":{"type":"charge","layer":"passenger","locationId":"2551","name":"Shell Recharge NL Singelweide 87","address":"Singelweide 87","city":"Heemskerk","operatorName":"Ubitricity","maxPowerKw":22,"isMegawatt":false,"status":"AVAILABLE","source":"ndw","priceKwh":0.267}},{"type":"Feature","geometry":{"type":"Point","coordinates":[4.67877,52.51684]},"properties":{"type":"charge","layer":"passenger","locationId":"717","name":"Shell Recharge NL Rossinistraat 482","address":"Rossinistraat 482","city":"Heemskerk","operatorName":"Ubitricity","maxPowerKw":11,"isMegawatt":false,"status":"AVAILABLE","source":"ndw","priceKwh":0.392}},{"type":"Feature","geometry":{"type":"Point","coordinates":[4.67203,52.49834]},"properties":{"type":"charge","layer":"passenger","locationId":"597","name":"Shell Recharge NL Eenigenburg 23","address":"Eenigenburg 23","city":"Heemskerk","operatorName":"Ubitricity","maxPowerKw":11,"isMegawatt":false,"status":"AVAILABLE","source":"ndw","priceKwh":0.392}},{"type":"Feature","geometry":{"type":"Point","coordinates":[4.668933,52.515152]},"properties":{"type":"charge","layer":"passenger","locationId":"810326E8-C841-4147-8A87-4499879107B1","name":"TNLP034227 - Diepenbrockstraat 128, Heemskerk","address":"128 Diepenbrockstraat","city":"Heemskerk","operatorName":"TotalEnergies","maxPowerKw":13,"isMegawatt":false,"status":"UNAVAILABLE","source":"ndw"}},{"type":"Feature","geometry":{"type":"Point","coordinates":[4.70066,52.50382]},"properties":{"type":"charge","layer":"passenger","locationId":"86076355-E6CA-411E-950E-4F8F57B6D2D9","name":"PP005080 - De Trompet 2650, Heemskerk","address":"2650 De Trompet","city":"Heemskerk","operatorName":"TotalEnergies","maxPowerKw":15,"isMegawatt":false,"status":"UNAVAILABLE","source":"ndw"}},{"type":"Feature","geometry":{"type":"Point","coordinates":[4.6540744,52.4984699]},"properties":{"type":"charge","layer":"passenger","locationId":"2044","name":"Shell Recharge NL Krayenhofflaan 35","address":"Krayenhofflaan 35","city":"Heemskerk","operatorName":"Ubitricity","maxPowerKw":22,"isMegawatt":false,"status":"AVAILABLE","source":"ndw","priceKwh":0.267}},{"type":"Feature","geometry":{"type":"Point","coordinates":[4.681109,52.518386]},"properties":{"type":"charge","layer":"passenger","locationId":"923124","name":"DAE_NL_2000528","address":"Jean Monnetstraat 296","city":"Heemskerk","operatorName":"DAEN Mobility","maxPowerKw":11,"isMegawatt":false,"status":"AVAILABLE","source":"ndw","priceKwh":0.28}},{"type":"Feature","geometry":{"type":"Point","coordinates":[4.673637,52.49915]},"properties":{"type":"charge","layer":"passenger","locationId":"9C96698E-20C1-42DB-BB05-D93E05461EEC","name":"TNLP007161 - Duitslandlaan 68, Heemskerk","address":"68 Duitslandlaan","city":"Heemskerk","operatorName":"TotalEnergies","maxPowerKw":13,"isMegawatt":false,"status":"AVAILABLE","source":"ndw"}},{"type":"Feature","geometry":{"type":"Point","coordinates":[4.65608,52.50403]},"properties":{"type":"charge","layer":"passenger","locationId":"FD6E570F-0724-4099-BA77-4A398A8B4ED0","name":"Eneco eMobility Broekhuis Seat Skoda Volkswagen Heemskerk","address":"Rijksstraatweg 36","city":"Heemskerk","operatorName":"Eneco","maxPowerKw":22,"isMegawatt":false,"status":"AVAILABLE","source":"ndw","priceKwh":0.45}},{"type":"Feature","geometry":{"type":"Point","coordinates":[4.667004,52.510582]},"properties":{"type":"charge","layer":"passenger","locationId":"DD95CDF1-4760-4D0F-9F8C-7B690F9B5754","name":"TNLP034000 - Carel van Manderstraat 100, Heemskerk","address":"100 Carel van Manderstraat","city":"Heemskerk","operatorName":"TotalEnergies","maxPowerKw":13,"isMegawatt":false,"status":"UNAVAILABLE","source":"ndw"}},{"type":"Feature","geometry":{"type":"Point","coordinates":[4.670225,52.503902]},"properties":{"type":"charge","layer":"passenger","locationId":"46C7EB5A-172D-41B4-B2B3-C03484ABF008","name":"TNLP007688 - Johan Brouwerstraat 8, Heemskerk","address":"8 Johan Brouwerstraat","city":"Heemskerk","operatorName":"TotalEnergies","maxPowerKw":15,"isMegawatt":false,"status":"AVAILABLE","source":"ndw"}},{"type":"Feature","geometry":{"type":"Point","coordinates":[4.69819,52.50633]},"properties":{"type":"charge","layer":"passenger","locationId":"0e3341344de1eb88c8e6f5f76f684379","name":"De Trompet 1300","address":"De Trompet 1300","city":"Heemskerk","operatorName":"Vattenfall InCharge","maxPowerKw":11,"isMegawatt":false,"status":"AVAILABLE","source":"ndw","priceKwh":0.2805}},{"type":"Feature","geometry":{"type":"Point","coordinates":[4.661876,52.509488]},"properties":{"type":"charge","layer":"passenger","locationId":"bda6a69f64e43ffa5086a411bbca4369","name":"Jan Ligthartstraat 551","address":"Jan Ligthartstraat 551","city":"Heemskerk","operatorName":"Vattenfall InCharge","maxPowerKw":11,"isMegawatt":false,"status":"AVAILABLE","source":"ndw","priceKwh":0.2805}},{"type":"Feature","geometry":{"type":"Point","coordinates":[4.674089,52.50627]},"properties":{"type":"charge","layer":"passenger","locationId":"88D3A347-C3D6-406B-A80C-BD3E98F2C98E","name":"TNLP034034 - de Rooystraat 19, Heemskerk","address":"19 de Rooystraat","city":"Heemskerk","operatorName":"TotalEnergies","maxPowerKw":13,"isMegawatt":false,"status":"UNAVAILABLE","source":"ndw"}},{"type":"Feature","geometry":{"type":"Point","coordinates":[4.659525,52.514867]},"properties":{"type":"charge","layer":"passenger","locationId":"69f1b5d0e09e8f0b92732704","name":"NXT 50five - Heemskerk - Kerkweg 221 - DC","address":"Kerkweg 221","city":"Heemskerk","operatorName":"NXT50Five","maxPowerKw":50,"isMegawatt":false,"status":"AVAILABLE","source":"ndw","priceKwh":0.63}},{"type":"Feature","geometry":{"type":"Point","coordinates":[4.619472,52.50125]},"properties":{"type":"charge","layer":"passenger","locationId":"NLLOC007180","name":"NL, Waterweg 1, 3241 EJ, Middelharnis","address":"Waterweg 1","city":"Middelharnis","operatorName":"Allego","maxPowerKw":11,"isMegawatt":false,"status":"AVAILABLE","source":"ndw","priceKwh":0.511}},{"type":"Feature","geometry":{"type":"Point","coordinates":[4.688395,52.518513]},"properties":{"type":"charge","layer":"passenger","locationId":"72F5D6F7-E0ED-470E-B3E5-4D998BFB7402","name":"TNLP006371 - Breedweerlaan 61, Heemskerk","address":"61 Breedweerlaan","city":"Heemskerk","operatorName":"TotalEnergies","maxPowerKw":13,"isMegawatt":false,"status":"AVAILABLE","source":"ndw"}},{"type":"Feature","geometry":{"type":"Point","coordinates":[4.68431,52.49394]},"properties":{"type":"charge","layer":"passenger","locationId":"C368DADE-E9DE-4B84-9F6B-5C0046B34380","name":"PP002585 - Euratomplein 7, Heemskerk","address":"7 Euratomplein","city":"Heemskerk","operatorName":"TotalEnergies","maxPowerKw":13,"isMegawatt":false,"status":"AVAILABLE","source":"ndw"}},{"type":"Feature","geometry":{"type":"Point","coordinates":[4.65554,52.49936]},"properties":{"type":"charge","layer":"passenger","locationId":"58","name":"Shell Recharge NL Krayenhofflaan 11","address":"Krayenhofflaan 11","city":"Heemskerk","operatorName":"Ubitricity","maxPowerKw":11,"isMegawatt":false,"status":"AVAILABLE","source":"ndw","priceKwh":0.392}},{"type":"Feature","geometry":{"type":"Point","coordinates":[4.693072,52.49407]},"properties":{"type":"charge","layer":"passenger","locationId":"743A7586-A673-43C4-B296-49E8B8754D48","name":"TNLP007160 - Weverskwartier 2, Heemskerk","address":"2 Weverskwartier","city":"Heemskerk","operatorName":"TotalEnergies","maxPowerKw":13,"isMegawatt":false,"status":"AVAILABLE","source":"ndw"}},{"type":"Feature","geometry":{"type":"Point","coordinates":[4.656983,52.507786]},"properties":{"type":"charge","layer":"passenger","locationId":"93f4d11d-65bd-4af6-bf9b-ca8de0c5ca03","name":"TNLP007469 - Egelantier 17, Heemskerk","address":"17 Egelantier","city":"Heemskerk","operatorName":"TotalEnergies","maxPowerKw":15,"isMegawatt":false,"status":"AVAILABLE","source":"ndw"}},{"type":"Feature","geometry":{"type":"Point","coordinates":[4.679984,52.514584]},"properties":{"type":"charge","layer":"passenger","locationId":"6CA7DF79-ACC2-49DC-B708-AF685CC6F186","name":"TNLP007197 - Rossinistraat 402, Heemskerk","address":"402 Rossinistraat","city":"Heemskerk","operatorName":"TotalEnergies","maxPowerKw":13,"isMegawatt":false,"status":"AVAILABLE","source":"ndw"}},{"type":"Feature","geometry":{"type":"Point","coordinates":[4.665506,52.50781]},"properties":{"type":"charge","layer":"passenger","locationId":"662bbf9d7c8cee001c7d1650","name":"Jan Steenstraat 14 station","address":"Jan Steenstraat 14","city":"HEEMSKERK","operatorName":"E-Flux by Road","maxPowerKw":11,"isMegawatt":false,"status":"AVAILABLE","source":"ndw","priceKwh":0.33}},{"type":"Feature","geometry":{"type":"Point","coordinates":[4.679005,52.50593]},"properties":{"type":"charge","layer":"passenger","locationId":"789F42EC-E2A6-4221-A670-37B4C33B106F","name":"TNLP034686 - Jan van Polanenstraat 72, Heemskerk","address":"72 Jan van Polanenstraat","city":"Heemskerk","operatorName":"TotalEnergies","maxPowerKw":13,"isMegawatt":false,"status":"UNAVAILABLE","source":"ndw"}},{"type":"Feature","geometry":{"type":"Point","coordinates":[4.693007,52.492836]},"properties":{"type":"charge","layer":"passenger","locationId":"f6735b74-b0af-494f-9c7c-c547222dc034","name":"TNLP008622 - Weergang 3, Heemskerk","address":"3 Weergang","city":"Heemskerk","operatorName":"TotalEnergies","maxPowerKw":13,"isMegawatt":false,"status":"UNAVAILABLE","source":"ndw"}},{"type":"Feature","geometry":{"type":"Point","coordinates":[4.675466,52.502243]},"properties":{"type":"charge","layer":"passenger","locationId":"03049BBA-3A89-4274-86A6-4051E706CC88","name":"TNLP009406 - Zuilenburg 27, Heemskerk","address":"27 Zuilenburg","city":"Heemskerk","operatorName":"TotalEnergies","maxPowerKw":13,"isMegawatt":false,"status":"AVAILABLE","source":"ndw"}},{"type":"Feature","geometry":{"type":"Point","coordinates":[4.6875787,52.5176691]},"properties":{"type":"charge","layer":"passenger","locationId":"866","name":"Shell Recharge NL Aletta Jacobsstraat 35","address":"Aletta Jacobsstraat 35","city":"Heemskerk","operatorName":"Ubitricity","maxPowerKw":22,"isMegawatt":false,"status":"CHARGING","source":"ndw","priceKwh":0.267}},{"type":"Feature","geometry":{"type":"Point","coordinates":[4.65825,52.514659]},"properties":{"type":"charge","layer":"passenger","locationId":"607ee4f2b80a35bb11b868bb","name":"Paal 1","address":"Kerkweg 221","city":"Heemskerk","operatorName":"E-Flux by Road","maxPowerKw":22,"isMegawatt":false,"status":"AVAILABLE","source":"ndw","priceKwh":0.43}},{"type":"Feature","geometry":{"type":"Point","coordinates":[4.67026,52.50516]},"properties":{"type":"charge","layer":"passenger","locationId":"95f52c77-24f7-4a33-92ed-bd4df2e40f17","name":"PP001058 - Titus Brandsmastraat 2, Heemskerk","address":"2 Titus Brandsmastraat","city":"Heemskerk","operatorName":"TotalEnergies","maxPowerKw":11,"isMegawatt":false,"status":"AVAILABLE","source":"ndw"}},{"type":"Feature","geometry":{"type":"Point","coordinates":[4.687505,52.512768]},"properties":{"type":"charge","layer":"passenger","locationId":"196BC837-4311-4E8B-805E-D9723A7C86DC","name":"TNLP007044 - Abbenven 60, Heemskerk","address":"60 Abbenven","city":"Heemskerk","operatorName":"TotalEnergies","maxPowerKw":15,"isMegawatt":false,"status":"UNAVAILABLE","source":"ndw"}},{"type":"Feature","geometry":{"type":"Point","coordinates":[4.671443,52.514336]},"properties":{"type":"charge","layer":"passenger","locationId":"89A97DA3-7072-45E5-B3E6-D7FD7439F092","name":"TNLP007192 - Bachplein 1, Heemskerk","address":"1 Bachplein","city":"Heemskerk","operatorName":"TotalEnergies","maxPowerKw":15,"isMegawatt":false,"status":"AVAILABLE","source":"ndw"}},{"type":"Feature","geometry":{"type":"Point","coordinates":[4.667178,52.510334]},"properties":{"type":"charge","layer":"passenger","locationId":"77276A6C-5FC7-4FEE-8C46-3A7D1E377FDA","name":"TNLP007038 - Carel van Manderstraat 100, Heemskerk","address":"100 Carel van Manderstraat","city":"Heemskerk","operatorName":"TotalEnergies","maxPowerKw":13,"isMegawatt":false,"status":"AVAILABLE","source":"ndw"}},{"type":"Feature","geometry":{"type":"Point","coordinates":[4.659661,52.500451]},"properties":{"type":"charge","layer":"passenger","locationId":"5a9fb985980a4d1fb4a3ce449d974282","name":"Botter acker 1","address":"Botter acker 1","city":"Heemskerk","operatorName":"Vattenfall InCharge","maxPowerKw":11,"isMegawatt":false,"status":"AVAILABLE","source":"ndw","priceKwh":0.2805}},{"type":"Feature","geometry":{"type":"Point","coordinates":[4.676139,52.501167]},"properties":{"type":"charge","layer":"passenger","locationId":"8E46EC41-29FE-4E3D-A0A7-FB65C8F9B4AB","name":"TNLP007099 - Sandenburg 35, Heemskerk","address":"35 Sandenburg","city":"Heemskerk","operatorName":"TotalEnergies","maxPowerKw":13,"isMegawatt":false,"status":"AVAILABLE","source":"ndw"}},{"type":"Feature","geometry":{"type":"Point","coordinates":[4.678204,52.495583]},"properties":{"type":"charge","layer":"passenger","locationId":"D8B53117-9403-43BC-A15A-037A8F7E9BCD","name":"TNLP015400 - Beneluxlaan 235, Heemskerk","address":"235 Beneluxlaan","city":"Heemskerk","operatorName":"TotalEnergies","maxPowerKw":17,"isMegawatt":false,"status":"UNAVAILABLE","source":"ndw"}},{"type":"Feature","geometry":{"type":"Point","coordinates":[4.673067,52.502649]},"properties":{"type":"charge","layer":"passenger","locationId":"92332161-e288-44bc-beb2-e2f657167a39","name":"Merel","address":"Merel 95","city":"Heemskerk","operatorName":"Vattenfall InCharge","maxPowerKw":11,"isMegawatt":false,"status":"AVAILABLE","source":"ndw","priceKwh":0.4316}},{"type":"Feature","geometry":{"type":"Point","coordinates":[4.68444,52.51818]},"properties":{"type":"charge","layer":"passenger","locationId":"625","name":"Shell Recharge NL prof. ten Doesschatestraat 147","address":"prof. ten Doesschatestraat 147","city":"Heemskerk","operatorName":"Ubitricity","maxPowerKw":11,"isMegawatt":false,"status":"AVAILABLE","source":"ndw","priceKwh":0.392}},{"type":"Feature","geometry":{"type":"Point","coordinates":[4.678918,52.49674]},"properties":{"type":"charge","layer":"passenger","locationId":"DF85DE4A-488A-4067-8484-609983905AD8","name":"TNLP007050 - Slowakijestraat 4, Heemskerk","address":"4 Slowakijestraat","city":"Heemskerk","operatorName":"TotalEnergies","maxPowerKw":13,"isMegawatt":false,"status":"CHARGING","source":"ndw"}},{"type":"Feature","geometry":{"type":"Point","coordinates":[4.678279,52.496458]},"properties":{"type":"charge","layer":"passenger","locationId":"ae73ab20e1786a2962a5f8bf4d9c02c8","name":"Beneluxlaan 256","address":"Beneluxlaan 256","city":"Heemskerk","operatorName":"Vattenfall InCharge","maxPowerKw":11,"isMegawatt":false,"status":"AVAILABLE","source":"ndw","priceKwh":0.2805}},{"type":"Feature","geometry":{"type":"Point","coordinates":[4.676526,52.510254]},"properties":{"type":"charge","layer":"passenger","locationId":"6943733C-0CA9-4019-A1FB-5FF67E971935","name":"TNLP007391 - van Lennepstraat 102, Heemskerk","address":"102 van Lennepstraat","city":"Heemskerk","operatorName":"TotalEnergies","maxPowerKw":13,"isMegawatt":false,"status":"UNAVAILABLE","source":"ndw"}},{"type":"Feature","geometry":{"type":"Point","coordinates":[4.685264,52.5052]},"properties":{"type":"charge","layer":"passenger","locationId":"5107DE76-6092-4E76-8651-DD74A27A5C36","name":"PP005393 - Tolweg 9, Heemskerk","address":"9 Tolweg","city":"Heemskerk","operatorName":"TotalEnergies","maxPowerKw":13,"isMegawatt":false,"status":"AVAILABLE","source":"ndw"}},{"type":"Feature","geometry":{"type":"Point","coordinates":[4.675249,52.495617]},"properties":{"type":"charge","layer":"passenger","locationId":"885E839D-A61A-44E7-985C-1EBC120E77CA","name":"TNLP006189 - Elbestraat 1, Heemskerk","address":"1 Elbestraat","city":"Heemskerk","operatorName":"TotalEnergies","maxPowerKw":13,"isMegawatt":false,"status":"AVAILABLE","source":"ndw"}},{"type":"Feature","geometry":{"type":"Point","coordinates":[4.68308,52.49947]},"properties":{"type":"charge","layer":"passenger","locationId":"D88A22F6-BCC5-46D3-B1DF-BE02CD8CDE19","name":"TNLP005873 - Twentestraat 1, Heemskerk","address":"1 Twentestraat","city":"Heemskerk","operatorName":"TotalEnergies","maxPowerKw":13,"isMegawatt":false,"status":"UNAVAILABLE","source":"ndw"}},{"type":"Feature","geometry":{"type":"Point","coordinates":[4.689694,52.495152]},"properties":{"type":"charge","layer":"passenger","locationId":"91069618","name":"50five-S NL 07101870","address":"Avenweide 62","city":"Heemskerk","operatorName":"50five","maxPowerKw":11,"isMegawatt":false,"status":"AVAILABLE","source":"ndw"}},{"type":"Feature","geometry":{"type":"Point","coordinates":[4.676578,52.51581]},"properties":{"type":"charge","layer":"passenger","locationId":"08ad182d91b98e403f6998f1e41f430d","name":"Mendelssohnstraat 31","address":"Mendelssohnstraat 31","city":"Heemskerk","operatorName":"Vattenfall InCharge","maxPowerKw":11,"isMegawatt":false,"status":"AVAILABLE","source":"ndw","priceKwh":0.2805}},{"type":"Feature","geometry":{"type":"Point","coordinates":[4.683147,52.5158206]},"properties":{"type":"charge","layer":"passenger","locationId":"1111","name":"Shell Recharge NL Jean Monnetstraat 40","address":"Jean Monnetstraat 40","city":"Heemskerk","operatorName":"Ubitricity","maxPowerKw":22,"isMegawatt":false,"status":"AVAILABLE","source":"ndw","priceKwh":0.267}},{"type":"Feature","geometry":{"type":"Point","coordinates":[4.67849,52.49867]},"properties":{"type":"charge","layer":"passenger","locationId":"49","name":"Shell Recharge NL Luxemburglaan 509","address":"Luxemburglaan 509","city":"Heemskerk","operatorName":"Ubitricity","maxPowerKw":11,"isMegawatt":false,"status":"CHARGING","source":"ndw","priceKwh":0.392}},{"type":"Feature","geometry":{"type":"Point","coordinates":[4.667711,52.515853]},"properties":{"type":"charge","layer":"passenger","locationId":"156D4640-AAF7-4F05-8516-AC59437DEE20","name":"Eneco eMobility Hotel Heemskerk","address":"Marquettelaan 34","city":"Heemskerk","operatorName":"Eneco","maxPowerKw":32,"isMegawatt":false,"status":"AVAILABLE","source":"ndw","priceKwh":0.51}},{"type":"Feature","geometry":{"type":"Point","coordinates":[4.66987,52.51584]},"properties":{"type":"charge","layer":"passenger","locationId":"2a4ddeb16f8d8a06c2ddaef8fb35ff26","name":"Mozartstraat 34","address":"Mozartstraat 34","city":"Heemskerk","operatorName":"Vattenfall InCharge","maxPowerKw":11,"isMegawatt":false,"status":"AVAILABLE","source":"ndw","priceKwh":0.2805}},{"type":"Feature","geometry":{"type":"Point","coordinates":[4.700035,52.50465]},"properties":{"type":"charge","layer":"passenger","locationId":"2B3CC5C6-30F4-4E9B-A6E9-3672B7EA63B2","name":"Eneco eMobility De Trompet 2100 Heemskerk","address":"De Trompet 2100","city":"Heemskerk","operatorName":"Eneco","maxPowerKw":22,"isMegawatt":false,"status":"AVAILABLE","source":"ndw","priceKwh":0.32}},{"type":"Feature","geometry":{"type":"Point","coordinates":[4.669544,52.51305]},"properties":{"type":"charge","layer":"passenger","locationId":"96a48ad0-ae69-4783-bc52-1f709a872751","name":"TNLP008302 - Raadhuisstraat 172, Heemskerk","address":"172 Raadhuisstraat","city":"Heemskerk","operatorName":"TotalEnergies","maxPowerKw":14,"isMegawatt":false,"status":"UNAVAILABLE","source":"ndw"}},{"type":"Feature","geometry":{"type":"Point","coordinates":[4.672918,52.5097976]},"properties":{"type":"charge","layer":"passenger","locationId":"1904","name":"Shell Recharge NL Gerrit van Assendelftstraat 22A","address":"Gerrit van Assendelftstraat 22A","city":"Heemskerk","operatorName":"Ubitricity","maxPowerKw":22,"isMegawatt":false,"status":"AVAILABLE","source":"ndw","priceKwh":0.267}},{"type":"Feature","geometry":{"type":"Point","coordinates":[4.695269,52.499618]},"properties":{"type":"charge","layer":"passenger","locationId":"66cc96e20dd14f001b73f824","name":"Griend","address":"Griend 3","city":"Heemskerk","operatorName":"E-Flux by Road","maxPowerKw":11,"isMegawatt":false,"status":"CHARGING","source":"ndw","priceKwh":0.43}},{"type":"Feature","geometry":{"type":"Point","coordinates":[4.66493,52.50565]},"properties":{"type":"charge","layer":"passenger","locationId":"27","name":"Shell Recharge NL Jan Ligthartstraat 101","address":"Jan Ligthartstraat 101","city":"Heemskerk","operatorName":"Ubitricity","maxPowerKw":11,"isMegawatt":false,"status":"AVAILABLE","source":"ndw","priceKwh":0.392}},{"type":"Feature","geometry":{"type":"Point","coordinates":[4.654803,52.50442]},"properties":{"type":"charge","layer":"passenger","locationId":"DD74295A-ABD1-4EE0-8F33-C406B11C078D","name":"PP002583 - De Smidse 3, Heemskerk","address":"3 De Smidse","city":"Heemskerk","operatorName":"TotalEnergies","maxPowerKw":13,"isMegawatt":false,"status":"AVAILABLE","source":"ndw"}},{"type":"Feature","geometry":{"type":"Point","coordinates":[4.680385,52.50193]},"properties":{"type":"charge","layer":"passenger","locationId":"1248EF9A-94CB-42EB-9832-66B89D442DFD","name":"Eneco eMobility Stichting De Hartekamp Groep - Heemskerk","address":"De Cirkel 1","city":"Heemskerk","operatorName":"Eneco","maxPowerKw":22,"isMegawatt":false,"status":"UNAVAILABLE","source":"ndw","priceKwh":0.4}},{"type":"Feature","geometry":{"type":"Point","coordinates":[4.6735878,52.5113448]},"properties":{"type":"charge","layer":"passenger","locationId":"1156","name":"Shell Recharge NL Sint Agnesplantsoen 1","address":"Sint Agnesplantsoen 1","city":"Heemskerk","operatorName":"Ubitricity","maxPowerKw":22,"isMegawatt":false,"status":"AVAILABLE","source":"ndw","priceKwh":0.267}},{"type":"Feature","geometry":{"type":"Point","coordinates":[4.6652539,52.5041565]},"properties":{"type":"charge","layer":"passenger","locationId":"905","name":"Shell Recharge NL Maerten van Heemskerckstraat 92","address":"Maerten van Heemskerckstraat 92","city":"Heemskerk","operatorName":"Ubitricity","maxPowerKw":22,"isMegawatt":false,"status":"CHARGING","source":"ndw","priceKwh":0.267}},{"type":"Feature","geometry":{"type":"Point","coordinates":[4.68769,52.51575]},"properties":{"type":"charge","layer":"passenger","locationId":"331","name":"Shell Recharge NL Maerelaan 260","address":"Maerelaan 260","city":"Heemskerk","operatorName":"Ubitricity","maxPowerKw":11,"isMegawatt":false,"status":"AVAILABLE","source":"ndw","priceKwh":0.392}},{"type":"Feature","geometry":{"type":"Point","coordinates":[4.65821,52.51465]},"properties":{"type":"charge","layer":"passenger","locationId":"63231a85b981e3c3a3b69bf3","name":"Paal 2","address":"Kerkweg 221","city":"Heemskerk","operatorName":"E-Flux by Road","maxPowerKw":22,"isMegawatt":false,"status":"AVAILABLE","source":"ndw","priceKwh":0.43}},{"type":"Feature","geometry":{"type":"Point","coordinates":[4.67896,52.50631]},"properties":{"type":"charge","layer":"passenger","locationId":"129","name":"Shell Recharge NL Jan van Polanenstraat 2","address":"Jan van Polanenstraat 2","city":"Heemskerk","operatorName":"Ubitricity","maxPowerKw":11,"isMegawatt":false,"status":"AVAILABLE","source":"ndw","priceKwh":0.392}},{"type":"Feature","geometry":{"type":"Point","coordinates":[4.659867,52.509034]},"properties":{"type":"charge","layer":"passenger","locationId":"7e77157dc82e64eb06d050b6824d6ee0","name":"Zandzegge 34","address":"Zandzegge 34","city":"Heemskerk","operatorName":"Vattenfall InCharge","maxPowerKw":11,"isMegawatt":false,"status":"AVAILABLE","source":"ndw","priceKwh":0.2805}},{"type":"Feature","geometry":{"type":"Point","coordinates":[4.68643,52.49296]},"properties":{"type":"charge","layer":"passenger","locationId":"594","name":"Shell Recharge NL Spinsteen 76","address":"Spinsteen 76","city":"Heemskerk","operatorName":"Ubitricity","maxPowerKw":11,"isMegawatt":false,"status":"AVAILABLE","source":"ndw","priceKwh":0.392}},{"type":"Feature","geometry":{"type":"Point","coordinates":[4.680441,52.499977]},"properties":{"type":"charge","layer":"passenger","locationId":"E3922537-4E14-42FF-994F-64699D65AD90","name":"TNLP007945 - Luxemburglaan 921, Heemskerk","address":"921 Luxemburglaan","city":"Heemskerk","operatorName":"TotalEnergies","maxPowerKw":13,"isMegawatt":false,"status":"AVAILABLE","source":"ndw"}},{"type":"Feature","geometry":{"type":"Point","coordinates":[4.686901,52.496532]},"properties":{"type":"charge","layer":"passenger","locationId":"1f4abed39fc5dd8acffeb646e3fdffe0","name":"Ardennenlaan 30","address":"Ardennenlaan 30","city":"Heemskerk","operatorName":"Vattenfall InCharge","maxPowerKw":11,"isMegawatt":false,"status":"AVAILABLE","source":"ndw","priceKwh":0.2805}},{"type":"Feature","geometry":{"type":"Point","coordinates":[4.691783,52.491467]},"properties":{"type":"charge","layer":"passenger","locationId":"2c47acdc-e2d4-4034-ae05-75b7f28b5823","name":"TNLP007590 - Laan van Broekpolder 316, Heemskerk","address":"316 Laan van Broekpolder","city":"Heemskerk","operatorName":"TotalEnergies","maxPowerKw":13,"isMegawatt":false,"status":"AVAILABLE","source":"ndw"}},{"type":"Feature","geometry":{"type":"Point","coordinates":[4.685226,52.493534]},"properties":{"type":"charge","layer":"passenger","locationId":"03187E35-C41E-47CB-A9E3-31556AE2CC64","name":"TNLP007594 - Vuursteen 54, Heemskerk","address":"54 Vuursteen","city":"Heemskerk","operatorName":"TotalEnergies","maxPowerKw":15,"isMegawatt":false,"status":"AVAILABLE","source":"ndw"}},{"type":"Feature","geometry":{"type":"Point","coordinates":[4.678061,52.513573]},"properties":{"type":"charge","layer":"passenger","locationId":"D0F3B08A-9C2B-4AC2-B561-96B78C997750","name":"TNLP034271 - Rossinigalerij 36, Heemskerk","address":"36 Rossinigalerij","city":"Heemskerk","operatorName":"TotalEnergies","maxPowerKw":13,"isMegawatt":false,"status":"UNAVAILABLE","source":"ndw"}},{"type":"Feature","geometry":{"type":"Point","coordinates":[4.679108,52.519436]},"properties":{"type":"charge","layer":"passenger","locationId":"65349EB5-436B-4C69-9F11-40D2B9DE803F","name":"TNLP015113 - Mozartstraat 108, Heemskerk","address":"108 Mozartstraat","city":"Heemskerk","operatorName":"TotalEnergies","maxPowerKw":13,"isMegawatt":false,"status":"CHARGING","source":"ndw"}},{"type":"Feature","geometry":{"type":"Point","coordinates":[4.674147,52.516903]},"properties":{"type":"charge","layer":"passenger","locationId":"7F29BE10-D7B9-4475-A83A-E4A30EA5699A","name":"PP005108 - Bizetstraat 34, Heemskerk","address":"34 Bizetstraat","city":"Heemskerk","operatorName":"TotalEnergies","maxPowerKw":13,"isMegawatt":false,"status":"CHARGING","source":"ndw"}},{"type":"Feature","geometry":{"type":"Point","coordinates":[4.655153,52.514275]},"properties":{"type":"charge","layer":"passenger","locationId":"8876E0AC-3D50-4672-A0C9-D80AFF6142B1","name":"TNLP034084 - Kruipwilg 51, Heemskerk","address":"51 Kruipwilg","city":"Heemskerk","operatorName":"TotalEnergies","maxPowerKw":13,"isMegawatt":false,"status":"UNAVAILABLE","source":"ndw"}},{"type":"Feature","geometry":{"type":"Point","coordinates":[4.66918,52.51109]},"properties":{"type":"charge","layer":"passenger","locationId":"648914AA-5AA5-4484-A7F2-116C554BB3E3","name":"PP002582 - Van Coevenhovenstraat 33, Heemskerk","address":"33 Van Coevenhovenstraat","city":"Heemskerk","operatorName":"TotalEnergies","maxPowerKw":13,"isMegawatt":false,"status":"AVAILABLE","source":"ndw"}},{"type":"Feature","geometry":{"type":"Point","coordinates":[4.689355,52.519794]},"properties":{"type":"charge","layer":"passenger","locationId":"9A255216-9A07-4C2F-BD97-03DC3F9A323B","name":"TNLP034612 - Rosa Manussingel 80, Heemskerk","address":"80 Rosa Manussingel","city":"Heemskerk","operatorName":"TotalEnergies","maxPowerKw":13,"isMegawatt":false,"status":"UNAVAILABLE","source":"ndw"}},{"type":"Feature","geometry":{"type":"Point","coordinates":[4.68752,52.493124]},"properties":{"type":"charge","layer":"passenger","locationId":"744a309142d680aba0f2bc7d877af161","name":"Laan van Archeologie 191","address":"Laan van Archeologie 191","city":"Heemskerk","operatorName":"Vattenfall InCharge","maxPowerKw":11,"isMegawatt":false,"status":"AVAILABLE","source":"ndw","priceKwh":0.2805}},{"type":"Feature","geometry":{"type":"Point","coordinates":[4.679896,52.517593]},"properties":{"type":"charge","layer":"passenger","locationId":"E67EA49B-B1B5-469B-8A6F-583F7A6A5D63","name":"TNLP006265 - Jean Monnetstraat 242, Heemskerk","address":"242 Jean Monnetstraat","city":"Heemskerk","operatorName":"TotalEnergies","maxPowerKw":15,"isMegawatt":false,"status":"AVAILABLE","source":"ndw"}},{"type":"Feature","geometry":{"type":"Point","coordinates":[4.673,52.503704]},"properties":{"type":"charge","layer":"passenger","locationId":"698a14c9bd1ea355a9ae84f9","name":"Merel 66","address":"Merel  66","city":"Heemskerk","operatorName":"E-Flux by Road","maxPowerKw":11,"isMegawatt":false,"status":"AVAILABLE","source":"ndw","priceKwh":0.43}},{"type":"Feature","geometry":{"type":"Point","coordinates":[4.661939,52.50635]},"properties":{"type":"charge","layer":"passenger","locationId":"C6916955-7895-42B0-83C7-9227F6A81A89","name":"TNLP008454 - Suykers acker 81, Heemskerk","address":"81 Suykers acker","city":"Heemskerk","operatorName":"TotalEnergies","maxPowerKw":13,"isMegawatt":false,"status":"AVAILABLE","source":"ndw"}},{"type":"Feature","geometry":{"type":"Point","coordinates":[4.673796,52.51292]},"properties":{"type":"charge","layer":"passenger","locationId":"E37BA471-2B08-4378-A098-249C46F9D88C","name":"TNLP005807 - Anthonie Verherentstraat 70, Heemskerk","address":"70 Anthonie Verherentstraat","city":"Heemskerk","operatorName":"TotalEnergies","maxPowerKw":13,"isMegawatt":false,"status":"AVAILABLE","source":"ndw"}},{"type":"Feature","geometry":{"type":"Point","coordinates":[4.6707,52.50869]},"properties":{"type":"charge","layer":"passenger","locationId":"ba8448e1-2891-4324-b8c3-d9dd7883e489","name":"TNLP009133 - Maerten van Heemskerckstraat 25, Heemskerk","address":"25 Maerten van Heemskerckstraat","city":"Heemskerk","operatorName":"TotalEnergies","maxPowerKw":17,"isMegawatt":false,"status":"AVAILABLE","source":"ndw"}},{"type":"Feature","geometry":{"type":"Point","coordinates":[4.667984,52.50691]},"properties":{"type":"charge","layer":"passenger","locationId":"8E3A8245-3A2F-45C1-9DE7-E3DE45DB2C20","name":"TNLP007994 - Pieter Breughelstraat 5D, Heemskerk","address":"5D Pieter Breughelstraat","city":"Heemskerk","operatorName":"TotalEnergies","maxPowerKw":13,"isMegawatt":false,"status":"UNAVAILABLE","source":"ndw"}},{"type":"Feature","geometry":{"type":"Point","coordinates":[4.681579,52.495899]},"properties":{"type":"charge","layer":"passenger","locationId":"2eae40fb-2c28-4e47-a3f3-1ef1da16c86a","name":"Lessestraat","address":"Lessestraat 128","city":"Heemskerk","operatorName":"Vattenfall InCharge","maxPowerKw":11,"isMegawatt":false,"status":"AVAILABLE","source":"ndw","priceKwh":0.4316}},{"type":"Feature","geometry":{"type":"Point","coordinates":[4.67699,52.4949]},"properties":{"type":"charge","layer":"passenger","locationId":"343","name":"Shell Recharge NL Europaplein 2","address":"Europaplein 2","city":"Heemskerk","operatorName":"Ubitricity","maxPowerKw":11,"isMegawatt":false,"status":"AVAILABLE","source":"ndw","priceKwh":0.392}},{"type":"Feature","geometry":{"type":"Point","coordinates":[4.685532,52.51912]},"properties":{"type":"charge","layer":"passenger","locationId":"F86DACD1-4996-417B-A2A1-5704D05A53E4","name":"PP005272 - Aletta Jacobsstraat 89, Heemskerk","address":"89 Aletta Jacobsstraat","city":"Heemskerk","operatorName":"TotalEnergies","maxPowerKw":13,"isMegawatt":false,"status":"UNAVAILABLE","source":"ndw"}},{"type":"Feature","geometry":{"type":"Point","coordinates":[4.681203,52.511032]},"properties":{"type":"charge","layer":"passenger","locationId":"FFB9A0B5-CC74-41D0-B173-A1712A8B4BF7","name":"TNLP005712 - Ruusbroecstraat 22, Heemskerk","address":"22 Ruusbroecstraat","city":"Heemskerk","operatorName":"TotalEnergies","maxPowerKw":15,"isMegawatt":false,"status":"AVAILABLE","source":"ndw"}},{"type":"Feature","geometry":{"type":"Point","coordinates":[4.6667866,52.5112418]},"properties":{"type":"charge","layer":"passenger","locationId":"1959","name":"Shell Recharge NL Kerkweg 125","address":"Kerkweg 125","city":"Heemskerk","operatorName":"Ubitricity","maxPowerKw":22,"isMegawatt":false,"status":"AVAILABLE","source":"ndw","priceKwh":0.267}},{"type":"Feature","geometry":{"type":"Point","coordinates":[4.703043,52.500685]},"properties":{"type":"charge","layer":"passenger","locationId":"50470","name":"Fastned Twaalfmaat","address":"Twaalfmaat A9","city":"Heemskerk","operatorName":"Fastned","maxPowerKw":150,"isMegawatt":false,"status":"UNAVAILABLE","source":"ndw","priceKwh":0.6364}},{"type":"Feature","geometry":{"type":"Point","coordinates":[4.698505,52.506523]},"properties":{"type":"charge","layer":"passenger","locationId":"74D1F02A-224F-4CEB-B0B6-A4CEBE5EB780","name":"TNLP015396 - De Trompet 1300, Heemskerk","address":"1300 De Trompet","city":"Heemskerk","operatorName":"TotalEnergies","maxPowerKw":17,"isMegawatt":false,"status":"UNAVAILABLE","source":"ndw"}},{"type":"Feature","geometry":{"type":"Point","coordinates":[4.673101,52.500256]},"properties":{"type":"charge","layer":"passenger","locationId":"7B50095D-41A7-435B-965F-57D476302565","name":"TNLP006105 - Duitslandlaan 51, Heemskerk","address":"51 Duitslandlaan","city":"Heemskerk","operatorName":"TotalEnergies","maxPowerKw":13,"isMegawatt":false,"status":"CHARGING","source":"ndw"}},{"type":"Feature","geometry":{"type":"Point","coordinates":[4.681856,52.505985]},"properties":{"type":"charge","layer":"passenger","locationId":"F9C90B59-FF17-4B5F-9657-63A359EA727E","name":"TNLP007929 - Reeuwijkpark 2, Heemskerk","address":"2 Reeuwijkpark","city":"Heemskerk","operatorName":"TotalEnergies","maxPowerKw":13,"isMegawatt":false,"status":"AVAILABLE","source":"ndw"}},{"type":"Feature","geometry":{"type":"Point","coordinates":[4.682117,52.518726]},"properties":{"type":"charge","layer":"passenger","locationId":"82E88CD6-48BE-4DAA-8A45-C2DE1DEBFFC7","name":"TNLP007588 - Prof ten Doesschatestraat 199, Heemskerk","address":"199 Prof ten Doesschatestraat","city":"Heemskerk","operatorName":"TotalEnergies","maxPowerKw":13,"isMegawatt":false,"status":"AVAILABLE","source":"ndw"}},{"type":"Feature","geometry":{"type":"Point","coordinates":[4.670101,52.5127]},"properties":{"type":"charge","layer":"passenger","locationId":"4518355F-BE8E-4891-B4C7-1B9B2E0E3485","name":"TNLP005965 - Raadhuisstraat 106, Heemskerk","address":"106 Raadhuisstraat","city":"Heemskerk","operatorName":"TotalEnergies","maxPowerKw":13,"isMegawatt":false,"status":"AVAILABLE","source":"ndw"}},{"type":"Feature","geometry":{"type":"Point","coordinates":[4.657883,52.511414]},"properties":{"type":"charge","layer":"passenger","locationId":"F186DA9B-A8EB-463D-968A-108BDBF21D49","name":"TNLP009861 - Commandeurslaan 12, Heemskerk","address":"12 Commandeurslaan","city":"Heemskerk","operatorName":"TotalEnergies","maxPowerKw":13,"isMegawatt":false,"status":"AVAILABLE","source":"ndw"}},{"type":"Feature","geometry":{"type":"Point","coordinates":[4.65539,52.51135]},"properties":{"type":"charge","layer":"passenger","locationId":"b449bed2-552a-4f8f-a8a6-6683914bce9d","name":"PP002024 - Commandeurslaan 81, Heemskerk","address":"81 Commandeurslaan","city":"Heemskerk","operatorName":"TotalEnergies","maxPowerKw":11,"isMegawatt":false,"status":"AVAILABLE","source":"ndw"}},{"type":"Feature","geometry":{"type":"Point","coordinates":[4.689871,52.49513]},"properties":{"type":"charge","layer":"passenger","locationId":"0F4DB2D3-B8CA-4F00-9E6F-92C04AD3D22F","name":"TNLP006003 - Avenweide 62, Heemskerk","address":"62 Avenweide","city":"Heemskerk","operatorName":"TotalEnergies","maxPowerKw":13,"isMegawatt":false,"status":"AVAILABLE","source":"ndw"}},{"type":"Feature","geometry":{"type":"Point","coordinates":[4.66064,52.51062]},"properties":{"type":"charge","layer":"passenger","locationId":"74","name":"Shell Recharge NL Jan Ligthartstraat 721","address":"Jan Ligthartstraat 721","city":"Heemskerk","operatorName":"Ubitricity","maxPowerKw":11,"isMegawatt":false,"status":"AVAILABLE","source":"ndw","priceKwh":0.392}},{"type":"Feature","geometry":{"type":"Point","coordinates":[4.658981,52.507572]},"properties":{"type":"charge","layer":"passenger","locationId":"557B7C85-3BC7-4A57-97B2-1235A529ED21","name":"TNLP009937 - Duinrooshof 7, Heemskerk","address":"7 Duinrooshof","city":"Heemskerk","operatorName":"TotalEnergies","maxPowerKw":13,"isMegawatt":false,"status":"UNAVAILABLE","source":"ndw"}},{"type":"Feature","geometry":{"type":"Point","coordinates":[4.676421,52.516353]},"properties":{"type":"charge","layer":"passenger","locationId":"d946d6c656180a052321e9bd3688dd81","name":"Puccinistraat 77","address":"Puccinistraat 77","city":"Heemskerk","operatorName":"Vattenfall InCharge","maxPowerKw":11,"isMegawatt":false,"status":"AVAILABLE","source":"ndw","priceKwh":0.2805}},{"type":"Feature","geometry":{"type":"Point","coordinates":[4.680141,52.498913]},"properties":{"type":"charge","layer":"passenger","locationId":"58276FBF-6E2E-41C0-9AD9-5F02308B4E3F","name":"TNLP034261 - Denemarkenstraat 18, Heemskerk","address":"18 Denemarkenstraat","city":"Heemskerk","operatorName":"TotalEnergies","maxPowerKw":13,"isMegawatt":false,"status":"UNAVAILABLE","source":"ndw"}},{"type":"Feature","geometry":{"type":"Point","coordinates":[4.676422,52.496964]},"properties":{"type":"charge","layer":"passenger","locationId":"3E037ACE-3C9D-45CA-96A3-38379A47A756","name":"TNLP034181 - Lippestraat 12, Heemskerk","address":"12 Lippestraat","city":"Heemskerk","operatorName":"TotalEnergies","maxPowerKw":13,"isMegawatt":false,"status":"UNAVAILABLE","source":"ndw"}},{"type":"Feature","geometry":{"type":"Point","coordinates":[4.697556,52.5011]},"properties":{"type":"charge","layer":"passenger","locationId":"F6762803-56C8-42DA-B4F3-19E4367D9E7C","name":"TNLP009698 - Terschelling 18, Heemskerk","address":"18 Terschelling","city":"Heemskerk","operatorName":"TotalEnergies","maxPowerKw":13,"isMegawatt":false,"status":"AVAILABLE","source":"ndw"}},{"type":"Feature","geometry":{"type":"Point","coordinates":[4.658157,52.508604]},"properties":{"type":"charge","layer":"passenger","locationId":"2209b964-d4a1-49d7-901e-acba2df00850","name":"Ratelaar","address":"Ratelaar 75","city":"Heemskerk","operatorName":"Vattenfall InCharge","maxPowerKw":11,"isMegawatt":false,"status":"AVAILABLE","source":"ndw","priceKwh":0.4316}},{"type":"Feature","geometry":{"type":"Point","coordinates":[4.69316,52.49517]},"properties":{"type":"charge","layer":"passenger","locationId":"80DFCFC1-08F6-4B5A-80C2-E101504CA505","name":"PP005090 - Singelweide 44, Heemskerk","address":"44 Singelweide","city":"Heemskerk","operatorName":"TotalEnergies","maxPowerKw":13,"isMegawatt":false,"status":"AVAILABLE","source":"ndw"}},{"type":"Feature","geometry":{"type":"Point","coordinates":[4.674988,52.50984]},"properties":{"type":"charge","layer":"passenger","locationId":"F43E9E83-6688-4B45-9EB3-DF4B05682EC5","name":"TNLP009134 - Cornelis Groenlandstraat 18, Heemskerk","address":"18 Cornelis Groenlandstraat","city":"Heemskerk","operatorName":"TotalEnergies","maxPowerKw":13,"isMegawatt":false,"status":"AVAILABLE","source":"ndw"}},{"type":"Feature","geometry":{"type":"Point","coordinates":[4.661428,52.502834]},"properties":{"type":"charge","layer":"passenger","locationId":"87354c64a47daa94463bd64d28f686bb","name":"Hillen acker 36","address":"Hillen acker 36","city":"Heemskerk","operatorName":"Vattenfall InCharge","maxPowerKw":11,"isMegawatt":false,"status":"AVAILABLE","source":"ndw","priceKwh":0.2805}},{"type":"Feature","geometry":{"type":"Point","coordinates":[4.692598,52.494042]},"properties":{"type":"charge","layer":"passenger","locationId":"97da5005adbc0af73293973dc679cea6","name":"Schutterskwartier 1","address":"Schutterskwartier 1","city":"Heemskerk","operatorName":"Vattenfall InCharge","maxPowerKw":11,"isMegawatt":false,"status":"AVAILABLE","source":"ndw","priceKwh":0.2805}},{"type":"Feature","geometry":{"type":"Point","coordinates":[4.677384,52.514904]},"properties":{"type":"charge","layer":"passenger","locationId":"B82494B6-831A-4A1B-A27D-ABBB0867CC81","name":"TNLP007944 - Mascagnistraat 17, Heemskerk","address":"17 Mascagnistraat","city":"Heemskerk","operatorName":"TotalEnergies","maxPowerKw":13,"isMegawatt":false,"status":"AVAILABLE","source":"ndw"}},{"type":"Feature","geometry":{"type":"Point","coordinates":[4.677366,52.512863]},"properties":{"type":"charge","layer":"passenger","locationId":"E96B6AFE-DBE5-4DD2-8649-24FC582A238F","name":"TNLP007755 - Haydnplein 10, Heemskerk","address":"10 Haydnplein","city":"Heemskerk","operatorName":"TotalEnergies","maxPowerKw":13,"isMegawatt":false,"status":"AVAILABLE","source":"ndw"}},{"type":"Feature","geometry":{"type":"Point","coordinates":[4.672188,52.504765]},"properties":{"type":"charge","layer":"passenger","locationId":"782D755A-9E33-4645-A373-B21641DA7418","name":"TNLP009354 - Westerweelstraat 11, Heemskerk","address":"11 Westerweelstraat","city":"Heemskerk","operatorName":"TotalEnergies","maxPowerKw":13,"isMegawatt":false,"status":"AVAILABLE","source":"ndw"}},{"type":"Feature","geometry":{"type":"Point","coordinates":[4.680961,52.514052]},"properties":{"type":"charge","layer":"passenger","locationId":"91121618","name":"50five-S NL 17B12842","address":"Korte Promenade 8","city":"Heemskerk","operatorName":"50five","maxPowerKw":17,"isMegawatt":false,"status":"CHARGING","source":"ndw"}},{"type":"Feature","geometry":{"type":"Point","coordinates":[4.679387,52.5091]},"properties":{"type":"charge","layer":"passenger","locationId":"8DC36691-89D1-42BD-AB83-A97DB5B95AC8","name":"TNLP008011 - Vrijburglaan 8, Heemskerk","address":"8 Vrijburglaan","city":"Heemskerk","operatorName":"TotalEnergies","maxPowerKw":15,"isMegawatt":false,"status":"AVAILABLE","source":"ndw"}},{"type":"Feature","geometry":{"type":"Point","coordinates":[4.6695,52.507034]},"properties":{"type":"charge","layer":"passenger","locationId":"3113B47D-6859-4BF0-AFC9-341B39989E3B","name":"TNLP007393 - Maerten van Heemskerckstraat 56, Heemskerk","address":"56 Maerten van Heemskerckstraat","city":"Heemskerk","operatorName":"TotalEnergies","maxPowerKw":15,"isMegawatt":false,"status":"AVAILABLE","source":"ndw"}},{"type":"Feature","geometry":{"type":"Point","coordinates":[4.68812,52.4978]},"properties":{"type":"charge","layer":"passenger","locationId":"EC9E76A5-4155-4ED9-B29F-386E54A765B7","name":"PP005087 - Ardennenlaan 82, Heemskerk","address":"82 Ardennenlaan","city":"Heemskerk","operatorName":"TotalEnergies","maxPowerKw":13,"isMegawatt":false,"status":"CHARGING","source":"ndw"}},{"type":"Feature","geometry":{"type":"Point","coordinates":[4.679945,52.52194]},"properties":{"type":"charge","layer":"passenger","locationId":"91094508","name":"50five-S NL 17B12263","address":"Rendorppark 49","city":"Heemskerk","operatorName":"50five","maxPowerKw":11,"isMegawatt":false,"status":"AVAILABLE","source":"ndw"}},{"type":"Feature","geometry":{"type":"Point","coordinates":[4.694262,52.49876]},"properties":{"type":"charge","layer":"passenger","locationId":"91042925","name":"50five-S NL 17B15513","address":"Vlieland 4","city":"Heemskerk","operatorName":"50five","maxPowerKw":11,"isMegawatt":false,"status":"AVAILABLE","source":"ndw"}},{"type":"Feature","geometry":{"type":"Point","coordinates":[4.67485,52.500237]},"properties":{"type":"charge","layer":"passenger","locationId":"898b2a18379d0cd2673cef52c8ff55d1","name":"Sandenburg 94","address":"Sandenburg 94","city":"Heemskerk","operatorName":"Vattenfall InCharge","maxPowerKw":11,"isMegawatt":false,"status":"AVAILABLE","source":"ndw","priceKwh":0.2805}},{"type":"Feature","geometry":{"type":"Point","coordinates":[4.67493,52.51562]},"properties":{"type":"charge","layer":"passenger","locationId":"4cc6828cd4fa6959e821ca55f7a6eb91","name":"Beethovenstraat 66","address":"Beethovenstraat 66","city":"Heemskerk","operatorName":"Vattenfall InCharge","maxPowerKw":11,"isMegawatt":false,"status":"AVAILABLE","source":"ndw","priceKwh":0.2805}},{"type":"Feature","geometry":{"type":"Point","coordinates":[4.672668,52.515794]},"properties":{"type":"charge","layer":"passenger","locationId":"379cdef9a7ae475b8e7358a104c20f06","name":"Chopinstraat 29","address":"Chopinstraat 29","city":"Heemskerk","operatorName":"Vattenfall InCharge","maxPowerKw":11,"isMegawatt":false,"status":"AVAILABLE","source":"ndw","priceKwh":0.2805}},{"type":"Feature","geometry":{"type":"Point","coordinates":[4.66097,52.513857]},"properties":{"type":"charge","layer":"passenger","locationId":"c92ec468f3c569bba97a512605bf4ee5","name":"Kerkweg 191A","address":"Kerkweg 191A","city":"Heemskerk","operatorName":"Vattenfall InCharge","maxPowerKw":11,"isMegawatt":false,"status":"AVAILABLE","source":"ndw","priceKwh":0.2805}},{"type":"Feature","geometry":{"type":"MultiPolygon","coordinates":[[[[4.659968334646283,52.53175156288496],[4.669570657711139,52.530542455934224],[4.6957353801591895,52.526728321729486],[4.692829601988745,52.522281950484356],[4.690585093317987,52.51908273876096],[4.691394531352855,52.51688759403772],[4.69067376758487,52.51561857263044],[4.692599171052514,52.511002682797624],[4.695114113359934,52.50999860351697],[4.694611199912751,52.50762419616478],[4.697084699072143,52.507548100404165],[4.701235137468799,52.50886298076558],[4.703854363861091,52.50832909982565],[4.706526129794016,52.51039739832048],[4.709151135128404,52.5098566507343],[4.707936984694092,52.50614137990729],[4.705857612698191,52.50625132345872],[4.703442168666996,52.50310461633562],[4.705423226501022,52.50010772143018],[4.711703352887157,52.496817083002135],[4.720366589426021,52.49495413793688],[4.714644929958434,52.49319524436125],[4.708444560427533,52.48862585455195],[4.707968416577645,52.4863326080833],[4.703093485768627,52.487559551234895],[4.703720891458864,52.48853281123367],[4.699665524245394,52.489799387713674],[4.697601575369733,52.48751238399282],[4.695508383610184,52.48738560699353],[4.694550247291426,52.48829989978143],[4.694600903708954,52.48958680700533],[4.69492969891398,52.49068037893773],[4.694741085018794,52.49133928102794],[4.690991273618182,52.49131732193451],[4.690382467770161,52.49083051545306],[4.68708611020032,52.49239180932171],[4.685971972650712,52.49173724080129],[4.683838673840042,52.492720482896566],[4.683720747498192,52.49274638045425],[4.682034594406481,52.492822949690535],[4.680509740053919,52.49353921986449],[4.679923198819459,52.4931689273951],[4.678609138030714,52.49371942200432],[4.677992909914741,52.493364724962994],[4.676988380755352,52.494430077051774],[4.674407167032898,52.49515518958724],[4.675069030390876,52.49558770761692],[4.6735008347253135,52.496533474628876],[4.672854628971763,52.49696647606138],[4.6698864591502645,52.49839908467197],[4.668328558448835,52.49991676179055],[4.666301298315177,52.50074423364274],[4.666913570299449,52.50105333748962],[4.666053515207957,52.5017441313725],[4.65747557687084,52.498675411138485],[4.657397631391029,52.49866402855385],[4.65537873186347,52.49792531006059],[4.652560630009113,52.498187528939276],[4.6512424308106715,52.49884539473026],[4.65002058558664,52.49842381493259],[4.649451495207622,52.499048667674806],[4.649430080587952,52.49912159432593],[4.646311696815906,52.49908345091479],[4.645105128641938,52.499569168279784],[4.635019622273163,52.4990614413448],[4.634999034934456,52.49952913758984],[4.63389299437479,52.498902587571465],[4.631365558893689,52.4986921564526],[4.630955356820357,52.498658003711235],[4.621400440012889,52.49786211921499],[4.613036767631955,52.496331052314844],[4.6115093373799185,52.49664184180558],[4.607470171718825,52.49457451807093],[4.606295171357328,52.49480882006776],[4.606296877926412,52.494785838034275],[4.604313175691751,52.49438882270292],[4.598635130063457,52.495944512946195],[4.599929989793624,52.497260935418254],[4.597983339941927,52.4968453184897],[4.595545150107487,52.49819874851636],[4.591694485111929,52.49827896029941],[4.591665335857331,52.49784023581694],[4.586562586159282,52.49916128049285],[4.593023521037748,52.51348774219468],[4.598301651897403,52.53114074291653],[4.652793170379659,52.53072634169169],[4.653027708272815,52.530724705986444],[4.656198859578183,52.53152937410867],[4.659968334646283,52.53175156288496]]]]},"properties":{"type":"boundary","gemeente":"Heemskerk","code":"GM0396"}}]}