{"type":"FeatureCollection","metadata":{"gemeente":"Heiloo","slug":"heiloo","code":"GM0399","generated_at":"2026-08-08T12:05:52.020Z","total_passenger":116,"total_freight":0,"bounds":[4.670614096347089,52.578737676537976,4.752137370577582,52.62498589013946],"operators":["50five","E-Flux by Road","Laadpaal24","NXT Charging Solutions","TotalEnergies","Ubitricity","Van Leeuwen","Vattenfall InCharge"]},"features":[{"type":"Feature","geometry":{"type":"Point","coordinates":[4.712248,52.60408]},"properties":{"type":"charge","layer":"passenger","locationId":"2C0DE978-A2A2-4934-8568-CC5D74350E96","name":"TNLP005764 - Van Aostastraat 16, Heiloo","address":"16 Van Aostastraat","city":"Heiloo","operatorName":"TotalEnergies","maxPowerKw":13,"isMegawatt":false,"status":"AVAILABLE","source":"ndw"}},{"type":"Feature","geometry":{"type":"Point","coordinates":[4.715203,52.593266]},"properties":{"type":"charge","layer":"passenger","locationId":"7D549184-D1FB-419C-BC92-B48EC7491850","name":"TNLP007451 - De Waard 86, Heiloo","address":"86 De Waard","city":"Heiloo","operatorName":"TotalEnergies","maxPowerKw":15,"isMegawatt":false,"status":"AVAILABLE","source":"ndw"}},{"type":"Feature","geometry":{"type":"Point","coordinates":[4.711844,52.587913]},"properties":{"type":"charge","layer":"passenger","locationId":"c9960368e6eac38d84797e9ce8e5d8a9","name":"Vijverlaan 40","address":"Vijverlaan 40","city":"Heiloo","operatorName":"Vattenfall InCharge","maxPowerKw":11,"isMegawatt":false,"status":"CHARGING","source":"ndw","priceKwh":0.2805}},{"type":"Feature","geometry":{"type":"Point","coordinates":[4.690578,52.599951]},"properties":{"type":"charge","layer":"passenger","locationId":"1646","name":"Shell Recharge NL Termijen 15","address":"Termijen 15","city":"Heiloo","operatorName":"Ubitricity","maxPowerKw":22,"isMegawatt":false,"status":"AVAILABLE","source":"ndw","priceKwh":0.392}},{"type":"Feature","geometry":{"type":"Point","coordinates":[4.6904735,52.6064663]},"properties":{"type":"charge","layer":"passenger","locationId":"920","name":"Shell Recharge NL Gaanderij 29","address":"Gaanderij 29","city":"Heiloo","operatorName":"Ubitricity","maxPowerKw":22,"isMegawatt":false,"status":"CHARGING","source":"ndw","priceKwh":0.267}},{"type":"Feature","geometry":{"type":"Point","coordinates":[4.702326,52.60479]},"properties":{"type":"charge","layer":"passenger","locationId":"20910787-4936-4D98-AC2F-857946A45CFC","name":"TNLP006099 - Van Vladerackenlaan 1a, Heiloo","address":"1a Van Vladerackenlaan","city":"Heiloo","operatorName":"TotalEnergies","maxPowerKw":13,"isMegawatt":false,"status":"UNAVAILABLE","source":"ndw"}},{"type":"Feature","geometry":{"type":"Point","coordinates":[4.691874,52.6033]},"properties":{"type":"charge","layer":"passenger","locationId":"7BB9CB9D-75C6-42AC-8D5D-4F9633BF8FA7","name":"TNLP007228 - De Kandelaar 31, Heiloo","address":"31 De Kandelaar","city":"Heiloo","operatorName":"TotalEnergies","maxPowerKw":13,"isMegawatt":false,"status":"AVAILABLE","source":"ndw"}},{"type":"Feature","geometry":{"type":"Point","coordinates":[4.703134,52.58909]},"properties":{"type":"charge","layer":"passenger","locationId":"B4A3301D-7B07-47E0-A13D-DAE7A075AF37","name":"TNLP005720 - Kennemerstraatweg 630, Heiloo","address":"630 Kennemerstraatweg","city":"Heiloo","operatorName":"TotalEnergies","maxPowerKw":15,"isMegawatt":false,"status":"CHARGING","source":"ndw"}},{"type":"Feature","geometry":{"type":"Point","coordinates":[4.687246,52.603478]},"properties":{"type":"charge","layer":"passenger","locationId":"190e7fdbd4f6eaf6f50eeb16b85a92d4","name":"Het Hoekstuk 16","address":"Het Hoekstuk 16","city":"Heiloo","operatorName":"Vattenfall InCharge","maxPowerKw":11,"isMegawatt":false,"status":"AVAILABLE","source":"ndw","priceKwh":0.2805}},{"type":"Feature","geometry":{"type":"Point","coordinates":[4.70188,52.59425]},"properties":{"type":"charge","layer":"passenger","locationId":"7A367319-FF94-41DD-9764-D8BD8B602AB9","name":"PP004037 - Zevenhuizerlaan 37, Heiloo","address":"37 Zevenhuizerlaan","city":"Heiloo","operatorName":"TotalEnergies","maxPowerKw":13,"isMegawatt":false,"status":"AVAILABLE","source":"ndw"}},{"type":"Feature","geometry":{"type":"Point","coordinates":[4.705343,52.60893]},"properties":{"type":"charge","layer":"passenger","locationId":"98177A66-1B5F-48B5-95FF-5D0F9027B2DE","name":"TNLP008548 - Wethouder Tomsonbos 99, Heiloo","address":"99 Wethouder Tomsonbos","city":"Heiloo","operatorName":"TotalEnergies","maxPowerKw":14,"isMegawatt":false,"status":"AVAILABLE","source":"ndw"}},{"type":"Feature","geometry":{"type":"Point","coordinates":[4.702429,52.606926]},"properties":{"type":"charge","layer":"passenger","locationId":"7B9B6F90-34CE-4726-BF0F-DDCFAB1B27E9","name":"TNLP009482 - Bayershoffweg 42, Heiloo","address":"42 Bayershoffweg","city":"Heiloo","operatorName":"TotalEnergies","maxPowerKw":13,"isMegawatt":false,"status":"AVAILABLE","source":"ndw"}},{"type":"Feature","geometry":{"type":"Point","coordinates":[4.721393,52.60097]},"properties":{"type":"charge","layer":"passenger","locationId":"C0511AB6-9E8F-4F98-8375-AB87A467786B","name":"TNLP007985 - Pijlemeeth 16, Heiloo","address":"16 Pijlemeeth","city":"Heiloo","operatorName":"TotalEnergies","maxPowerKw":15,"isMegawatt":false,"status":"AVAILABLE","source":"ndw"}},{"type":"Feature","geometry":{"type":"Point","coordinates":[4.7034721,52.5964836]},"properties":{"type":"charge","layer":"passenger","locationId":"2248","name":"Shell Recharge NL Brasemcroftlaan t.h.v. Breedelaan 95","address":"Brasemcroftlaan t.h.v. Breedelaan 95","city":"Heiloo","operatorName":"Ubitricity","maxPowerKw":22,"isMegawatt":false,"status":"AVAILABLE","source":"ndw","priceKwh":0.267}},{"type":"Feature","geometry":{"type":"Point","coordinates":[4.712862,52.591824]},"properties":{"type":"charge","layer":"passenger","locationId":"97A7A7C8-EFAA-4AA3-8840-F125C24A84AA","name":"TNLP009453 - Rosendaal 87, Heiloo","address":"87 Rosendaal","city":"Heiloo","operatorName":"TotalEnergies","maxPowerKw":13,"isMegawatt":false,"status":"AVAILABLE","source":"ndw"}},{"type":"Feature","geometry":{"type":"Point","coordinates":[4.701324,52.587969]},"properties":{"type":"charge","layer":"passenger","locationId":"64affb346d4df9001c3977fa","name":"NXT Charge - Heiloo - Vennewatersweg 2a - DC","address":"Vennewatersweg 2a","city":"Heiloo","operatorName":"NXT Charging Solutions","maxPowerKw":320,"isMegawatt":false,"status":"CHARGING","source":"ndw","priceKwh":0.63}},{"type":"Feature","geometry":{"type":"Point","coordinates":[4.7015968,52.6063434]},"properties":{"type":"charge","layer":"passenger","locationId":"2246","name":"Shell Recharge NL Arklaan 7","address":"Arklaan 7","city":"Heiloo","operatorName":"Ubitricity","maxPowerKw":22,"isMegawatt":false,"status":"UNAVAILABLE","source":"ndw","priceKwh":0.267}},{"type":"Feature","geometry":{"type":"Point","coordinates":[4.690821,52.607513]},"properties":{"type":"charge","layer":"passenger","locationId":"0BDA31C9-18E6-4FFE-8567-A722D0D08642","name":"PP005451 - Gaanderij 13, Heiloo","address":"13 Gaanderij","city":"Heiloo","operatorName":"TotalEnergies","maxPowerKw":13,"isMegawatt":false,"status":"AVAILABLE","source":"ndw"}},{"type":"Feature","geometry":{"type":"Point","coordinates":[4.714628,52.6064785]},"properties":{"type":"charge","layer":"passenger","locationId":"814","name":"Shell Recharge NL Kerkelaan 8","address":"Kerkelaan 8","city":"Heiloo","operatorName":"Ubitricity","maxPowerKw":22,"isMegawatt":false,"status":"AVAILABLE","source":"ndw","priceKwh":0.267}},{"type":"Feature","geometry":{"type":"Point","coordinates":[4.717385,52.603183]},"properties":{"type":"charge","layer":"passenger","locationId":"20525ed6612e0d00b9c40c36bd50c20e","name":"De Loet 3","address":"De Loet 3","city":"Heiloo","operatorName":"Vattenfall InCharge","maxPowerKw":11,"isMegawatt":false,"status":"AVAILABLE","source":"ndw","priceKwh":0.2805}},{"type":"Feature","geometry":{"type":"Point","coordinates":[4.695811,52.591038]},"properties":{"type":"charge","layer":"passenger","locationId":"9c0fdcebb08c4687ead6867ee438a3c2","name":"Duindoorn 9","address":"Duindoorn 9","city":"Heiloo","operatorName":"Vattenfall InCharge","maxPowerKw":11,"isMegawatt":false,"status":"AVAILABLE","source":"ndw","priceKwh":0.2805}},{"type":"Feature","geometry":{"type":"Point","coordinates":[4.69925,52.609511]},"properties":{"type":"charge","layer":"passenger","locationId":"cdfc46f107ce3ab220f71c70e48ec230","name":"De Houtwal 34","address":"De Houtwal 34","city":"Heiloo","operatorName":"Vattenfall InCharge","maxPowerKw":11,"isMegawatt":false,"status":"AVAILABLE","source":"ndw","priceKwh":0.2805}},{"type":"Feature","geometry":{"type":"Point","coordinates":[4.7123034,52.6038116]},"properties":{"type":"charge","layer":"passenger","locationId":"2774","name":"Shell Recharge NL Van Aostastraat 4","address":"Van Aostastraat 4","city":"Heiloo","operatorName":"Ubitricity","maxPowerKw":22,"isMegawatt":false,"status":"AVAILABLE","source":"ndw","priceKwh":0.267}},{"type":"Feature","geometry":{"type":"Point","coordinates":[4.69373,52.59063]},"properties":{"type":"charge","layer":"passenger","locationId":"eea7892216efb238c4682aa8cf144321","name":"Zilverschoon 6","address":"Zilverschoon 6","city":"Heiloo","operatorName":"Vattenfall InCharge","maxPowerKw":11,"isMegawatt":false,"status":"AVAILABLE","source":"ndw","priceKwh":0.2805}},{"type":"Feature","geometry":{"type":"Point","coordinates":[4.711093,52.59352]},"properties":{"type":"charge","layer":"passenger","locationId":"aec0f2f4-c461-48ce-a7e3-4a461029c8be","name":"TNLP007606 - Ypesteinerlaan 20, Heiloo","address":"20 Ypesteinerlaan","city":"Heiloo","operatorName":"TotalEnergies","maxPowerKw":15,"isMegawatt":false,"status":"AVAILABLE","source":"ndw"}},{"type":"Feature","geometry":{"type":"Point","coordinates":[4.70548,52.6045]},"properties":{"type":"charge","layer":"passenger","locationId":"B9340276-F995-4149-B6F7-5CEF4D872E47","name":"PP004063 - Bergeonstraat 36, Heiloo","address":"36 Bergeonstraat","city":"Heiloo","operatorName":"TotalEnergies","maxPowerKw":13,"isMegawatt":false,"status":"AVAILABLE","source":"ndw"}},{"type":"Feature","geometry":{"type":"Point","coordinates":[4.719027,52.603899]},"properties":{"type":"charge","layer":"passenger","locationId":"1610","name":"Shell Recharge NL Poortweijdt 1","address":"Poortweijdt 1","city":"Heiloo","operatorName":"Ubitricity","maxPowerKw":11,"isMegawatt":false,"status":"AVAILABLE","source":"ndw","priceKwh":0.392}},{"type":"Feature","geometry":{"type":"Point","coordinates":[4.692024,52.603947]},"properties":{"type":"charge","layer":"passenger","locationId":"DFED9C8E-2A52-46D3-92E3-399039B2F2C9","name":"TNLP008543 - De Vlei 12, Heiloo","address":"12 De Vlei","city":"Heiloo","operatorName":"TotalEnergies","maxPowerKw":13,"isMegawatt":false,"status":"AVAILABLE","source":"ndw"}},{"type":"Feature","geometry":{"type":"Point","coordinates":[4.691824,52.617409]},"properties":{"type":"charge","layer":"passenger","locationId":"69246fa8d40787f86b7e3151","name":"Electronic Solution BV (Buiten)","address":"Het Maalwater 16","city":"Heiloo","operatorName":"E-Flux by Road","maxPowerKw":11,"isMegawatt":false,"status":"AVAILABLE","source":"ndw","priceKwh":0.38}},{"type":"Feature","geometry":{"type":"Point","coordinates":[4.696619,52.592407]},"properties":{"type":"charge","layer":"passenger","locationId":"DE175109-B7B9-4799-9652-D225C069C771","name":"TNLP007928 - Elzenwal 32, Heiloo","address":"32 Elzenwal","city":"Heiloo","operatorName":"TotalEnergies","maxPowerKw":15,"isMegawatt":false,"status":"AVAILABLE","source":"ndw"}},{"type":"Feature","geometry":{"type":"Point","coordinates":[4.6961924,52.5916281]},"properties":{"type":"charge","layer":"passenger","locationId":"1419","name":"Shell Recharge NL Zomerlinde 15","address":"Zomerlinde 15","city":"Heiloo","operatorName":"Ubitricity","maxPowerKw":22,"isMegawatt":false,"status":"AVAILABLE","source":"ndw","priceKwh":0.267}},{"type":"Feature","geometry":{"type":"Point","coordinates":[4.701247,52.5907]},"properties":{"type":"charge","layer":"passenger","locationId":"31817149-0752-4353-98BF-1FC92D4B856D","name":"TNLP006024 - Zomereik 1, Heiloo","address":"1 Zomereik","city":"Heiloo","operatorName":"TotalEnergies","maxPowerKw":13,"isMegawatt":false,"status":"AVAILABLE","source":"ndw"}},{"type":"Feature","geometry":{"type":"Point","coordinates":[4.710722,52.59241]},"properties":{"type":"charge","layer":"passenger","locationId":"2D7FC9AA-1C9A-4066-BB8B-4B3E527F59BB","name":"TNLP009343 - De Sonneveld 7, Heiloo","address":"7 De Sonneveld","city":"Heiloo","operatorName":"TotalEnergies","maxPowerKw":15,"isMegawatt":false,"status":"AVAILABLE","source":"ndw"}},{"type":"Feature","geometry":{"type":"Point","coordinates":[4.70039,52.589912]},"properties":{"type":"charge","layer":"passenger","locationId":"0D211457-3BF2-4517-BBBD-3A3DA9D328D5","name":"TNLP008614 - Haagbeuk 48, Heiloo","address":"48 Haagbeuk","city":"Heiloo","operatorName":"TotalEnergies","maxPowerKw":13,"isMegawatt":false,"status":"AVAILABLE","source":"ndw"}},{"type":"Feature","geometry":{"type":"Point","coordinates":[4.692343,52.580574]},"properties":{"type":"charge","layer":"passenger","locationId":"15A5A5FB-7273-4D77-ABBC-664AC419BEF6","name":"TNLP034247 - Tuinderstraat 25, Heiloo","address":"25 Tuinderstraat","city":"Heiloo","operatorName":"TotalEnergies","maxPowerKw":13,"isMegawatt":false,"status":"AVAILABLE","source":"ndw"}},{"type":"Feature","geometry":{"type":"Point","coordinates":[4.713,52.60442]},"properties":{"type":"charge","layer":"passenger","locationId":"2814B90A-5A43-4F74-8FE1-AE99297CFA19","name":"PP001743 - Raadhuisplein 1, Heiloo","address":"1 Raadhuisplein","city":"Heiloo","operatorName":"TotalEnergies","maxPowerKw":11,"isMegawatt":false,"status":"AVAILABLE","source":"ndw"}},{"type":"Feature","geometry":{"type":"Point","coordinates":[4.704854,52.611186]},"properties":{"type":"charge","layer":"passenger","locationId":"623c763e0cb7e9202c906712","name":"MKEP's station","address":"Belieslaan 32","city":"Heiloo","operatorName":"E-Flux by Road","maxPowerKw":14,"isMegawatt":false,"status":"CHARGING","source":"ndw","priceKwh":0.58}},{"type":"Feature","geometry":{"type":"Point","coordinates":[4.69692,52.59395]},"properties":{"type":"charge","layer":"passenger","locationId":"590","name":"Shell Recharge NL Hazelaar 1","address":"Hazelaar 1","city":"Heiloo","operatorName":"Ubitricity","maxPowerKw":11,"isMegawatt":false,"status":"AVAILABLE","source":"ndw","priceKwh":0.392}},{"type":"Feature","geometry":{"type":"Point","coordinates":[4.71101,52.599296]},"properties":{"type":"charge","layer":"passenger","locationId":"ed823c1a22af7062fc5cd5d3dfe7ac81","name":"Melkrijdersweg 2","address":"Melkrijdersweg 2","city":"Heiloo","operatorName":"Vattenfall InCharge","maxPowerKw":11,"isMegawatt":false,"status":"AVAILABLE","source":"ndw","priceKwh":0.2805}},{"type":"Feature","geometry":{"type":"Point","coordinates":[4.707531,52.59083]},"properties":{"type":"charge","layer":"passenger","locationId":"075CC84B-26D0-4BEE-9A83-F5821258060E","name":"PP005028 - Ambachtsweg 91, Heiloo","address":"91 Ambachtsweg","city":"Heiloo","operatorName":"TotalEnergies","maxPowerKw":13,"isMegawatt":false,"status":"UNAVAILABLE","source":"ndw"}},{"type":"Feature","geometry":{"type":"Point","coordinates":[4.720419,52.593132]},"properties":{"type":"charge","layer":"passenger","locationId":"FDBBCCD3-96A9-4C28-B6AB-60F34B9F0C8A","name":"TNLP003565 - De Oude Werf 10, Heiloo","address":"10 De Oude Werf","city":"Heiloo","operatorName":"TotalEnergies","maxPowerKw":17,"isMegawatt":false,"status":"CHARGING","source":"ndw"}},{"type":"Feature","geometry":{"type":"Point","coordinates":[4.71323,52.589054]},"properties":{"type":"charge","layer":"passenger","locationId":"F840A259-FDCD-4AFC-B43B-50824FC7AD14","name":"PP005634 - Laan Eindeloos 9, Heiloo","address":"9 Laan Eindeloos","city":"Heiloo","operatorName":"TotalEnergies","maxPowerKw":13,"isMegawatt":false,"status":"CHARGING","source":"ndw"}},{"type":"Feature","geometry":{"type":"Point","coordinates":[4.71288,52.601837]},"properties":{"type":"charge","layer":"passenger","locationId":"31417092-4DEC-4FA2-BCE5-24FBB88E5568","name":"TNLP009434 - Maas Geesteranusweg 2, Heiloo","address":"2 Maas Geesteranusweg","city":"Heiloo","operatorName":"TotalEnergies","maxPowerKw":13,"isMegawatt":false,"status":"CHARGING","source":"ndw"}},{"type":"Feature","geometry":{"type":"Point","coordinates":[4.697456,52.590801]},"properties":{"type":"charge","layer":"passenger","locationId":"699860e24a091f7c9f02ba66","name":"De Goeij Charging Lounge","address":"liguster 48","city":"heiloo","operatorName":"E-Flux by Road","maxPowerKw":11,"isMegawatt":false,"status":"AVAILABLE","source":"ndw","priceKwh":0.38}},{"type":"Feature","geometry":{"type":"Point","coordinates":[4.704539,52.594945]},"properties":{"type":"charge","layer":"passenger","locationId":"5c3e794b6cb2b35eb5e59480123e8d87","name":"Werkendelslaan 96","address":"Werkendelslaan 96","city":"Heiloo","operatorName":"Vattenfall InCharge","maxPowerKw":22,"isMegawatt":false,"status":"AVAILABLE","source":"ndw"}},{"type":"Feature","geometry":{"type":"Point","coordinates":[4.685514,52.59739]},"properties":{"type":"charge","layer":"passenger","locationId":"977A8BE9-FE72-4FBC-B6BB-1185311946BA","name":"TNLP006075 - Vredenoord 30, Heiloo","address":"30 Vredenoord","city":"Heiloo","operatorName":"TotalEnergies","maxPowerKw":13,"isMegawatt":false,"status":"AVAILABLE","source":"ndw"}},{"type":"Feature","geometry":{"type":"Point","coordinates":[4.68774,52.6044]},"properties":{"type":"charge","layer":"passenger","locationId":"1516","name":"Shell Recharge NL Het Hoekstuk 25","address":"Het Hoekstuk 25","city":"Heiloo","operatorName":"Ubitricity","maxPowerKw":11,"isMegawatt":false,"status":"AVAILABLE","source":"ndw","priceKwh":0.392}},{"type":"Feature","geometry":{"type":"Point","coordinates":[4.71773,52.592473]},"properties":{"type":"charge","layer":"passenger","locationId":"88569323","name":"Laadpaal24 Falco Networks B.V.","address":"De Hoefsmid 11","city":"Heiloo","operatorName":"Laadpaal24","maxPowerKw":22,"isMegawatt":false,"status":"AVAILABLE","source":"ndw"}},{"type":"Feature","geometry":{"type":"Point","coordinates":[4.715686,52.59192]},"properties":{"type":"charge","layer":"passenger","locationId":"3273F4BA-37C8-48AC-9046-FA4E89A534D9","name":"PP005639 - Rosendaal 20, Heiloo","address":"20 Rosendaal","city":"Heiloo","operatorName":"TotalEnergies","maxPowerKw":13,"isMegawatt":false,"status":"CHARGING","source":"ndw"}},{"type":"Feature","geometry":{"type":"Point","coordinates":[4.696087,52.604293]},"properties":{"type":"charge","layer":"passenger","locationId":"be3e4d9ac4387f3dd3b60f7055a1e3a7","name":"De Rookamer 37","address":"De Rookamer 37","city":"Heiloo","operatorName":"Vattenfall InCharge","maxPowerKw":11,"isMegawatt":false,"status":"AVAILABLE","source":"ndw","priceKwh":0.2805}},{"type":"Feature","geometry":{"type":"Point","coordinates":[4.698191,52.589275]},"properties":{"type":"charge","layer":"passenger","locationId":"62268C2C-2286-4E9E-A9D4-5CF5FF326FCF","name":"TNLP009620 - Jeneverbes 11, Heiloo","address":"11 Jeneverbes","city":"Heiloo","operatorName":"TotalEnergies","maxPowerKw":13,"isMegawatt":false,"status":"UNAVAILABLE","source":"ndw"}},{"type":"Feature","geometry":{"type":"Point","coordinates":[4.691019,52.59778]},"properties":{"type":"charge","layer":"passenger","locationId":"F3701900-F4E3-4E21-96BC-A97201BBDCEE","name":"TNLP008359 - Vrieswijk 1, Heiloo","address":"1 Vrieswijk","city":"Heiloo","operatorName":"TotalEnergies","maxPowerKw":14,"isMegawatt":false,"status":"UNAVAILABLE","source":"ndw"}},{"type":"Feature","geometry":{"type":"Point","coordinates":[4.7012982,52.59093]},"properties":{"type":"charge","layer":"passenger","locationId":"1958","name":"Shell Recharge NL Zomereik 1","address":"Zomereik 1","city":"Heiloo","operatorName":"Ubitricity","maxPowerKw":22,"isMegawatt":false,"status":"AVAILABLE","source":"ndw","priceKwh":0.267}},{"type":"Feature","geometry":{"type":"Point","coordinates":[4.709311,52.596227]},"properties":{"type":"charge","layer":"passenger","locationId":"4755","name":"Van Leeuwen Laadpaal Openbaar GGZ Heiloo Parkeerterrein","address":"De Olvendijk","city":"Heiloo","operatorName":"Van Leeuwen","maxPowerKw":11,"isMegawatt":false,"status":"UNAVAILABLE","source":"ndw"}},{"type":"Feature","geometry":{"type":"Point","coordinates":[4.7214635,52.6033916]},"properties":{"type":"charge","layer":"passenger","locationId":"1875","name":"Shell Recharge NL Sluijsweijdt 4","address":"Sluijsweijdt 4","city":"Heiloo","operatorName":"Ubitricity","maxPowerKw":22,"isMegawatt":false,"status":"AVAILABLE","source":"ndw","priceKwh":0.267}},{"type":"Feature","geometry":{"type":"Point","coordinates":[4.728139,52.616714]},"properties":{"type":"charge","layer":"passenger","locationId":"200EB410-E16F-47C0-B4E6-69E3F1A9D39E","name":"TNLP005659 - Kennemerstraatweg 196, Heiloo","address":"196 Kennemerstraatweg","city":"Heiloo","operatorName":"TotalEnergies","maxPowerKw":13,"isMegawatt":false,"status":"AVAILABLE","source":"ndw"}},{"type":"Feature","geometry":{"type":"Point","coordinates":[4.728456,52.618842]},"properties":{"type":"charge","layer":"passenger","locationId":"91147730","name":"50five-S NL 07118201","address":"De Blinkenlaan 9","city":"Heiloo","operatorName":"50five","maxPowerKw":11,"isMegawatt":false,"status":"AVAILABLE","source":"ndw"}},{"type":"Feature","geometry":{"type":"Point","coordinates":[4.700443,52.588818]},"properties":{"type":"charge","layer":"passenger","locationId":"8a4b3d23-43b0-44d4-b5bf-cc24dfe91f16","name":"TNLP008500 - Wegedoorn 1, Heiloo","address":"1 Wegedoorn","city":"Heiloo","operatorName":"TotalEnergies","maxPowerKw":14,"isMegawatt":false,"status":"UNAVAILABLE","source":"ndw"}},{"type":"Feature","geometry":{"type":"Point","coordinates":[4.68644,52.60502]},"properties":{"type":"charge","layer":"passenger","locationId":"68","name":"Shell Recharge NL Harrelaers 65","address":"Harrelaers 65","city":"Heiloo","operatorName":"Ubitricity","maxPowerKw":11,"isMegawatt":false,"status":"AVAILABLE","source":"ndw","priceKwh":0.392}},{"type":"Feature","geometry":{"type":"Point","coordinates":[4.700079,52.593935]},"properties":{"type":"charge","layer":"passenger","locationId":"6a60720d3290cfd97eccc3b0","name":"E-Flux S&W MH","address":"Spanjaardslaan  6","city":"Heiloo","operatorName":"E-Flux by Road","maxPowerKw":11,"isMegawatt":false,"status":"AVAILABLE","source":"ndw","priceKwh":0.51}},{"type":"Feature","geometry":{"type":"Point","coordinates":[4.711755,52.589462]},"properties":{"type":"charge","layer":"passenger","locationId":"AEE21AFC-D4F1-45C9-A9D3-E6ED04FABE42","name":"TNLP009297 - Vijverlaan 33, Heiloo","address":"33 Vijverlaan","city":"Heiloo","operatorName":"TotalEnergies","maxPowerKw":13,"isMegawatt":false,"status":"AVAILABLE","source":"ndw"}},{"type":"Feature","geometry":{"type":"Point","coordinates":[4.69305,52.59901]},"properties":{"type":"charge","layer":"passenger","locationId":"682","name":"Shell Recharge NL Goodeslaan 51","address":"Goodeslaan 51","city":"Heiloo","operatorName":"Ubitricity","maxPowerKw":11,"isMegawatt":false,"status":"AVAILABLE","source":"ndw","priceKwh":0.392}},{"type":"Feature","geometry":{"type":"Point","coordinates":[4.710323,52.589932]},"properties":{"type":"charge","layer":"passenger","locationId":"74370a52bc876a9bdd2aa14b935b47d8","name":"Ypesteinerlaan 63","address":"Ypesteinerlaan 63","city":"Heiloo","operatorName":"Vattenfall InCharge","maxPowerKw":11,"isMegawatt":false,"status":"AVAILABLE","source":"ndw","priceKwh":0.2805}},{"type":"Feature","geometry":{"type":"Point","coordinates":[4.7093,52.60115]},"properties":{"type":"charge","layer":"passenger","locationId":"561","name":"Shell Recharge NL Wilgenlaan 2","address":"Wilgenlaan 2","city":"Heiloo","operatorName":"Ubitricity","maxPowerKw":11,"isMegawatt":false,"status":"AVAILABLE","source":"ndw","priceKwh":0.392}},{"type":"Feature","geometry":{"type":"Point","coordinates":[4.694524,52.596523]},"properties":{"type":"charge","layer":"passenger","locationId":"79B50C21-C9AB-4C11-B12A-A0447F316FFB","name":"TNLP009233 - De Hofstee 7, Heiloo","address":"7 De Hofstee","city":"Heiloo","operatorName":"TotalEnergies","maxPowerKw":15,"isMegawatt":false,"status":"AVAILABLE","source":"ndw"}},{"type":"Feature","geometry":{"type":"Point","coordinates":[4.710424,52.59541]},"properties":{"type":"charge","layer":"passenger","locationId":"63537351","name":"Van Leeuwen 63537351","address":"De Overtoom 1","city":"Heiloo","operatorName":"Van Leeuwen","maxPowerKw":22,"isMegawatt":false,"status":"AVAILABLE","source":"ndw"}},{"type":"Feature","geometry":{"type":"Point","coordinates":[4.745214,52.591296]},"properties":{"type":"charge","layer":"passenger","locationId":"91108932","name":"50five-S NL 04000798","address":"J. Duikerweg 14","city":"Heerhugowaard","operatorName":"50five","maxPowerKw":7,"isMegawatt":false,"status":"AVAILABLE","source":"ndw"}},{"type":"Feature","geometry":{"type":"Point","coordinates":[4.71066,52.605335]},"properties":{"type":"charge","layer":"passenger","locationId":"1C8C0C97-AF1C-4EF9-BFC4-052A6C8B89C8","name":"TNLP007466 - 't Loo 51, Heiloo","address":"51 't Loo","city":"Heiloo","operatorName":"TotalEnergies","maxPowerKw":13,"isMegawatt":false,"status":"AVAILABLE","source":"ndw"}},{"type":"Feature","geometry":{"type":"Point","coordinates":[4.70458,52.60732]},"properties":{"type":"charge","layer":"passenger","locationId":"c0ad625df5d0f6ea1691ad296221b441","name":"De Driestal 10","address":"De Driestal 10","city":"Heiloo","operatorName":"Vattenfall InCharge","maxPowerKw":11,"isMegawatt":false,"status":"UNAVAILABLE","source":"ndw","priceKwh":0.2805}},{"type":"Feature","geometry":{"type":"Point","coordinates":[4.683445,52.60257]},"properties":{"type":"charge","layer":"passenger","locationId":"C00E7802-04EE-48F5-82F2-2A40E837510F","name":"TNLP009342 - Boswinde 15, Heiloo","address":"15 Boswinde","city":"Heiloo","operatorName":"TotalEnergies","maxPowerKw":15,"isMegawatt":false,"status":"AVAILABLE","source":"ndw"}},{"type":"Feature","geometry":{"type":"Point","coordinates":[4.710665,52.60864]},"properties":{"type":"charge","layer":"passenger","locationId":"CA835EFE-31EA-4C05-81DE-0DA35F69AC53","name":"TNLP034019 - Kerkelaan 57, Heiloo","address":"57 Kerkelaan","city":"Heiloo","operatorName":"TotalEnergies","maxPowerKw":13,"isMegawatt":false,"status":"AVAILABLE","source":"ndw"}},{"type":"Feature","geometry":{"type":"Point","coordinates":[4.703883,52.593841]},"properties":{"type":"charge","layer":"passenger","locationId":"1665","name":"Shell Recharge NL Zevenhuizerlaan 7","address":"Zevenhuizerlaan 7","city":"Heiloo","operatorName":"Ubitricity","maxPowerKw":22,"isMegawatt":false,"status":"AVAILABLE","source":"ndw","priceKwh":0.392}},{"type":"Feature","geometry":{"type":"Point","coordinates":[4.70473,52.61041]},"properties":{"type":"charge","layer":"passenger","locationId":"ccfe36db-db32-43b7-adab-e5fa25f4d59a","name":"PP001652 - Jan Boltenhof 37, Heiloo","address":"37 Jan Boltenhof","city":"Heiloo","operatorName":"TotalEnergies","maxPowerKw":11,"isMegawatt":false,"status":"AVAILABLE","source":"ndw"}},{"type":"Feature","geometry":{"type":"Point","coordinates":[4.6991433,52.5984769]},"properties":{"type":"charge","layer":"passenger","locationId":"2251","name":"Shell Recharge NL Hoog en Laag 161","address":"Hoog en Laag 161","city":"Heiloo","operatorName":"Ubitricity","maxPowerKw":22,"isMegawatt":false,"status":"AVAILABLE","source":"ndw","priceKwh":0.267}},{"type":"Feature","geometry":{"type":"Point","coordinates":[4.68811,52.59962]},"properties":{"type":"charge","layer":"passenger","locationId":"336E3E06-D022-436D-AC13-EF1B3E4D1E4E","name":"PP004064 - Termijen 84, Heiloo","address":"84 Termijen","city":"Heiloo","operatorName":"TotalEnergies","maxPowerKw":15,"isMegawatt":false,"status":"AVAILABLE","source":"ndw"}},{"type":"Feature","geometry":{"type":"Point","coordinates":[4.700565,52.600082]},"properties":{"type":"charge","layer":"passenger","locationId":"AB19DFF3-E648-4FD0-BDDC-82EE1CA612E7","name":"TNLP009094 - Stationsweg 92, Heiloo","address":"92 Stationsweg","city":"Heiloo","operatorName":"TotalEnergies","maxPowerKw":15,"isMegawatt":false,"status":"UNAVAILABLE","source":"ndw"}},{"type":"Feature","geometry":{"type":"Point","coordinates":[4.69117,52.60202]},"properties":{"type":"charge","layer":"passenger","locationId":"7219c656-b020-4ff5-a977-86c2e835f80d","name":"TNLP008472 - Mariënstein 145, Heiloo","address":"145 Mariënstein","city":"Heiloo","operatorName":"TotalEnergies","maxPowerKw":13,"isMegawatt":false,"status":"AVAILABLE","source":"ndw"}},{"type":"Feature","geometry":{"type":"Point","coordinates":[4.68656,52.60164]},"properties":{"type":"charge","layer":"passenger","locationId":"270","name":"Shell Recharge NL Baetenburg 70","address":"Baetenburg 70","city":"Heiloo","operatorName":"Ubitricity","maxPowerKw":11,"isMegawatt":false,"status":"AVAILABLE","source":"ndw","priceKwh":0.392}},{"type":"Feature","geometry":{"type":"Point","coordinates":[4.716276,52.595862]},"properties":{"type":"charge","layer":"passenger","locationId":"89883922","name":"Van Leeuwen De Hooge venne 2","address":"De Hooge venne 2","city":"Heiloo","operatorName":"Van Leeuwen","maxPowerKw":22,"isMegawatt":false,"status":"AVAILABLE","source":"ndw"}},{"type":"Feature","geometry":{"type":"Point","coordinates":[4.722938,52.603443]},"properties":{"type":"charge","layer":"passenger","locationId":"397D3425-0B18-45D0-9BCF-707531C7381E","name":"PP005594 - De Laghe Weijdt 46, Heiloo","address":"46 De Laghe Weijdt","city":"Heiloo","operatorName":"TotalEnergies","maxPowerKw":13,"isMegawatt":false,"status":"CHARGING","source":"ndw"}},{"type":"Feature","geometry":{"type":"Point","coordinates":[4.700514,52.600024]},"properties":{"type":"charge","layer":"passenger","locationId":"fd56f54cca406c153d804d62279ea994","name":"Stationsweg 92","address":"Stationsweg 92","city":"Heiloo","operatorName":"Vattenfall InCharge","maxPowerKw":11,"isMegawatt":false,"status":"AVAILABLE","source":"ndw","priceKwh":0.2805}},{"type":"Feature","geometry":{"type":"Point","coordinates":[4.698757,52.599075]},"properties":{"type":"charge","layer":"passenger","locationId":"246499B9-76ED-4104-9A2E-BB863DA98809","name":"TNLP006614 - Hoog en Laag 83, Heiloo","address":"83 Hoog en Laag","city":"Heiloo","operatorName":"TotalEnergies","maxPowerKw":13,"isMegawatt":false,"status":"AVAILABLE","source":"ndw"}},{"type":"Feature","geometry":{"type":"Point","coordinates":[4.703456,52.59281]},"properties":{"type":"charge","layer":"passenger","locationId":"E57E84E4-2346-444B-B054-08B165D5D9EC","name":"TNLP005660 - Lijsterbes 18, Heiloo","address":"18 Lijsterbes","city":"Heiloo","operatorName":"TotalEnergies","maxPowerKw":13,"isMegawatt":false,"status":"UNAVAILABLE","source":"ndw"}},{"type":"Feature","geometry":{"type":"Point","coordinates":[4.700774,52.59283]},"properties":{"type":"charge","layer":"passenger","locationId":"5872D8B9-0B62-419F-9255-AC8FE295EA3D","name":"TNLP006552 - Haagbeuk 3, Heiloo","address":"3 Haagbeuk","city":"Heiloo","operatorName":"TotalEnergies","maxPowerKw":13,"isMegawatt":false,"status":"AVAILABLE","source":"ndw"}},{"type":"Feature","geometry":{"type":"Point","coordinates":[4.710981,52.599266]},"properties":{"type":"charge","layer":"passenger","locationId":"E6FE81B8-6D8A-4DE1-AC97-8DE756E2C307","name":"TNLP008480 - Melkrijdersweg 2, Heiloo","address":"2 Melkrijdersweg","city":"Heiloo","operatorName":"TotalEnergies","maxPowerKw":14,"isMegawatt":false,"status":"CHARGING","source":"ndw"}},{"type":"Feature","geometry":{"type":"Point","coordinates":[4.704861,52.59597]},"properties":{"type":"charge","layer":"passenger","locationId":"F0AE5529-6391-4130-9DA2-ED40CF689456","name":"TNLP007376 - Brasemcroftlaan 23, Heiloo","address":"23 Brasemcroftlaan","city":"Heiloo","operatorName":"TotalEnergies","maxPowerKw":13,"isMegawatt":false,"status":"AVAILABLE","source":"ndw"}},{"type":"Feature","geometry":{"type":"Point","coordinates":[4.70634,52.59103]},"properties":{"type":"charge","layer":"passenger","locationId":"672A78F3-0A9F-4319-A5DF-4D13F6306481","name":"PP005060 - Ambachtsweg 61, Heiloo","address":"61 Ambachtsweg","city":"Heiloo","operatorName":"TotalEnergies","maxPowerKw":13,"isMegawatt":false,"status":"AVAILABLE","source":"ndw"}},{"type":"Feature","geometry":{"type":"Point","coordinates":[4.709042,52.590103]},"properties":{"type":"charge","layer":"passenger","locationId":"398C444A-9119-4AA5-A685-45BCE4582713","name":"TNLP005673 - De Krommert 22, Heiloo","address":"22 De Krommert","city":"Heiloo","operatorName":"TotalEnergies","maxPowerKw":13,"isMegawatt":false,"status":"UNAVAILABLE","source":"ndw"}},{"type":"Feature","geometry":{"type":"Point","coordinates":[4.68685,52.59787]},"properties":{"type":"charge","layer":"passenger","locationId":"b39e445d8655a160c41e0c5144b9d461","name":"Vredenoord 174","address":"Vredenoord 174","city":"Heiloo","operatorName":"Vattenfall InCharge","maxPowerKw":11,"isMegawatt":false,"status":"AVAILABLE","source":"ndw","priceKwh":0.2805}},{"type":"Feature","geometry":{"type":"Point","coordinates":[4.710056,52.593945]},"properties":{"type":"charge","layer":"passenger","locationId":"f849ccdb-b957-47ef-8180-0fcd3ff2429c","name":"TNLP034017 - De Stuifbergen 1, Heiloo","address":"1 De Stuifbergen","city":"Heiloo","operatorName":"TotalEnergies","maxPowerKw":13,"isMegawatt":false,"status":"AVAILABLE","source":"ndw"}},{"type":"Feature","geometry":{"type":"Point","coordinates":[4.68394,52.59814]},"properties":{"type":"charge","layer":"passenger","locationId":"7DB70B6D-9CE7-4CF6-81ED-81CBD209B4D4","name":"PP004023 - Vredenoord 103, Heiloo","address":"103 Vredenoord","city":"Heiloo","operatorName":"TotalEnergies","maxPowerKw":13,"isMegawatt":false,"status":"AVAILABLE","source":"ndw"}},{"type":"Feature","geometry":{"type":"Point","coordinates":[4.70863,52.59126]},"properties":{"type":"charge","layer":"passenger","locationId":"a2744405-15f9-46d3-a41b-181f4c7ed9a8","name":"PP001475 - De Krommert 27, Heiloo","address":"27 De Krommert","city":"Heiloo","operatorName":"TotalEnergies","maxPowerKw":11,"isMegawatt":false,"status":"UNAVAILABLE","source":"ndw"}},{"type":"Feature","geometry":{"type":"Point","coordinates":[4.710992,52.588097]},"properties":{"type":"charge","layer":"passenger","locationId":"69","name":"Shell Recharge NL Vijverlaan 74","address":"Vijverlaan 74","city":"Heiloo","operatorName":"Ubitricity","maxPowerKw":11,"isMegawatt":false,"status":"AVAILABLE","source":"ndw","priceKwh":0.392}},{"type":"Feature","geometry":{"type":"Point","coordinates":[4.70165,52.596687]},"properties":{"type":"charge","layer":"passenger","locationId":"BDB83341-0055-4143-9C7E-B861BC71E3EF","name":"PP005627 - Sandecamplaan 23, Heiloo","address":"23 Sandecamplaan","city":"Heiloo","operatorName":"TotalEnergies","maxPowerKw":13,"isMegawatt":false,"status":"AVAILABLE","source":"ndw"}},{"type":"Feature","geometry":{"type":"Point","coordinates":[4.703467,52.610294]},"properties":{"type":"charge","layer":"passenger","locationId":"A5FF03FB-6716-4974-877C-D46BAB47B993","name":"TNLP006619 - De Dors 2, Heiloo","address":"2 De Dors","city":"Heiloo","operatorName":"TotalEnergies","maxPowerKw":13,"isMegawatt":false,"status":"AVAILABLE","source":"ndw"}},{"type":"Feature","geometry":{"type":"Point","coordinates":[4.70533,52.59102]},"properties":{"type":"charge","layer":"passenger","locationId":"4A8CF735-03A9-4A11-957E-D0D9BE37FD0E","name":"TNLP034139 - Ambachtsweg 26, Heiloo","address":"26 Ambachtsweg","city":"Heiloo","operatorName":"TotalEnergies","maxPowerKw":13,"isMegawatt":false,"status":"UNAVAILABLE","source":"ndw"}},{"type":"Feature","geometry":{"type":"Point","coordinates":[4.72625,52.602497]},"properties":{"type":"charge","layer":"passenger","locationId":"5090F239-80AF-43CE-8E47-974E26C6D3CD","name":"PP005654 - De Oostkanter 9321, Heiloo","address":"9321 De Oostkanter","city":"Heiloo","operatorName":"TotalEnergies","maxPowerKw":13,"isMegawatt":false,"status":"AVAILABLE","source":"ndw"}},{"type":"Feature","geometry":{"type":"Point","coordinates":[4.692815,52.596176]},"properties":{"type":"charge","layer":"passenger","locationId":"67450EDA-B392-4AB3-9C1A-A7314C564817","name":"TNLP007604 - Het Zevenhuizen 41, Heiloo","address":"41 Het Zevenhuizen","city":"Heiloo","operatorName":"TotalEnergies","maxPowerKw":15,"isMegawatt":false,"status":"AVAILABLE","source":"ndw"}},{"type":"Feature","geometry":{"type":"Point","coordinates":[4.710282,52.603672]},"properties":{"type":"charge","layer":"passenger","locationId":"7DF9888B-DF59-4AE7-B52E-67825A7A20D5","name":"TNLP009092 - Laarmanstraat 18, Heiloo","address":"18 Laarmanstraat","city":"Heiloo","operatorName":"TotalEnergies","maxPowerKw":13,"isMegawatt":false,"status":"AVAILABLE","source":"ndw"}},{"type":"Feature","geometry":{"type":"Point","coordinates":[4.711091,52.606953]},"properties":{"type":"charge","layer":"passenger","locationId":"D39B7C12-C1E9-4187-BC84-C4542F45DBC3","name":"PP005435 - Vinkenbaan 2, Heiloo","address":"2 Vinkenbaan","city":"Heiloo","operatorName":"TotalEnergies","maxPowerKw":13,"isMegawatt":false,"status":"UNAVAILABLE","source":"ndw"}},{"type":"Feature","geometry":{"type":"Point","coordinates":[4.715032,52.604797]},"properties":{"type":"charge","layer":"passenger","locationId":"5142D87F-F2A8-4A2B-8C8B-1109D1AD1A6B","name":"TNLP006622 - Nic Beetsweg 61, Heiloo","address":"61 Nic Beetsweg","city":"Heiloo","operatorName":"TotalEnergies","maxPowerKw":13,"isMegawatt":false,"status":"AVAILABLE","source":"ndw"}},{"type":"Feature","geometry":{"type":"Point","coordinates":[4.693404,52.59198]},"properties":{"type":"charge","layer":"passenger","locationId":"265AA445-5BC6-423D-AA3A-830867299E6F","name":"TNLP008475 - Ringelwikke 12, Heiloo","address":"12 Ringelwikke","city":"Heiloo","operatorName":"TotalEnergies","maxPowerKw":14,"isMegawatt":false,"status":"UNAVAILABLE","source":"ndw"}},{"type":"Feature","geometry":{"type":"Point","coordinates":[4.703978,52.588062]},"properties":{"type":"charge","layer":"passenger","locationId":"E0F3F180-3AD3-4AB3-AF0F-4284DDCADD25","name":"TNLP007931 - Maria's Hof 1, Heiloo","address":"1 Maria's Hof","city":"Heiloo","operatorName":"TotalEnergies","maxPowerKw":13,"isMegawatt":false,"status":"AVAILABLE","source":"ndw"}},{"type":"Feature","geometry":{"type":"Point","coordinates":[4.68889,52.60185]},"properties":{"type":"charge","layer":"passenger","locationId":"b47f6569857cdabecbc94a27906e6b99","name":"Mariënstein 25","address":"Mariënstein 25","city":"Heiloo","operatorName":"Vattenfall InCharge","maxPowerKw":11,"isMegawatt":false,"status":"AVAILABLE","source":"ndw","priceKwh":0.2805}},{"type":"Feature","geometry":{"type":"Point","coordinates":[4.710398,52.60376]},"properties":{"type":"charge","layer":"passenger","locationId":"91066734","name":"50five-S NL 07105958","address":"Laarmanstraat 24","city":"Heiloo","operatorName":"50five","maxPowerKw":14,"isMegawatt":false,"status":"AVAILABLE","source":"ndw"}},{"type":"Feature","geometry":{"type":"Point","coordinates":[4.6983,52.612225]},"properties":{"type":"charge","layer":"passenger","locationId":"42C50B95-11E3-4E6D-B595-A52A58C1566D","name":"TNLP007450 - De Watergang 29, Heiloo","address":"29 De Watergang","city":"Heiloo","operatorName":"TotalEnergies","maxPowerKw":15,"isMegawatt":false,"status":"AVAILABLE","source":"ndw"}},{"type":"Feature","geometry":{"type":"Point","coordinates":[4.71234,52.60576]},"properties":{"type":"charge","layer":"passenger","locationId":"DB7AC03A-A991-48CB-9329-CC146DC7E430","name":"PP002618 - t Loo 69, Heiloo","address":"69 t Loo","city":"Heiloo","operatorName":"TotalEnergies","maxPowerKw":13,"isMegawatt":false,"status":"CHARGING","source":"ndw"}},{"type":"Feature","geometry":{"type":"Point","coordinates":[4.714452,52.590748]},"properties":{"type":"charge","layer":"passenger","locationId":"CC77814D-248E-4010-9AC1-C56F80BAD31D","name":"TNLP006620 - Het Zandstuk 104, Heiloo","address":"104 Het Zandstuk","city":"Heiloo","operatorName":"TotalEnergies","maxPowerKw":15,"isMegawatt":false,"status":"AVAILABLE","source":"ndw"}},{"type":"Feature","geometry":{"type":"Point","coordinates":[4.69881,52.58928]},"properties":{"type":"charge","layer":"passenger","locationId":"56ccab94cdc8d4f841b82a25acc69ec4","name":"Jeneverbes 1","address":"Jeneverbes 1","city":"Heiloo","operatorName":"Vattenfall InCharge","maxPowerKw":11,"isMegawatt":false,"status":"AVAILABLE","source":"ndw","priceKwh":0.2805}},{"type":"Feature","geometry":{"type":"Point","coordinates":[4.70498,52.60753]},"properties":{"type":"charge","layer":"passenger","locationId":"FD3B0895-AA78-479B-A9DA-34B657A2CCB2","name":"PP004260 - De Opkamer 7, Heiloo","address":"7 De Opkamer","city":"Heiloo","operatorName":"TotalEnergies","maxPowerKw":13,"isMegawatt":false,"status":"AVAILABLE","source":"ndw"}},{"type":"Feature","geometry":{"type":"Point","coordinates":[4.707694,52.593377]},"properties":{"type":"charge","layer":"passenger","locationId":"91171600","name":"50five-S NL 07004509","address":"Oosterzijweg 19","city":"Heiloo","operatorName":"50five","maxPowerKw":22,"isMegawatt":false,"status":"AVAILABLE","source":"ndw"}},{"type":"Feature","geometry":{"type":"Point","coordinates":[4.70813,52.58819]},"properties":{"type":"charge","layer":"passenger","locationId":"AB83C51E-396D-4D25-AE1D-19A31E7AFEEF","name":"PP004073 - De Boog 49, Heiloo","address":"49 De Boog","city":"Heiloo","operatorName":"TotalEnergies","maxPowerKw":13,"isMegawatt":false,"status":"UNAVAILABLE","source":"ndw"}},{"type":"Feature","geometry":{"type":"Point","coordinates":[4.705249,52.602196]},"properties":{"type":"charge","layer":"passenger","locationId":"E2C80F6E-0389-4EFC-AC3F-C100772D6626","name":"TNLP006600 - Holleweg 80, Heiloo","address":"80 Holleweg","city":"Heiloo","operatorName":"TotalEnergies","maxPowerKw":13,"isMegawatt":false,"status":"AVAILABLE","source":"ndw"}},{"type":"Feature","geometry":{"type":"Point","coordinates":[4.71264,52.59278]},"properties":{"type":"charge","layer":"passenger","locationId":"1CAFD025-5E90-4A26-A17E-66019DEA98CB","name":"PP002617 - De Kuilenaar 2, Heiloo","address":"2 De Kuilenaar","city":"Heiloo","operatorName":"TotalEnergies","maxPowerKw":13,"isMegawatt":false,"status":"AVAILABLE","source":"ndw"}},{"type":"Feature","geometry":{"type":"Point","coordinates":[4.70305,52.60085]},"properties":{"type":"charge","layer":"passenger","locationId":"BF4BBCD4-9A90-491B-84D1-98C2959BC382","name":"TNLP005766 - Holleweg 116, Heiloo","address":"116 Holleweg","city":"Heiloo","operatorName":"TotalEnergies","maxPowerKw":17,"isMegawatt":false,"status":"AVAILABLE","source":"ndw"}},{"type":"Feature","geometry":{"type":"Point","coordinates":[4.724995,52.600977]},"properties":{"type":"charge","layer":"passenger","locationId":"ea658e3c9caa75bed9825c60d472e8bb","name":"De Karremel 12","address":"De Karremel 12","city":"Heiloo","operatorName":"Vattenfall InCharge","maxPowerKw":11,"isMegawatt":false,"status":"AVAILABLE","source":"ndw","priceKwh":0.2805}},{"type":"Feature","geometry":{"type":"MultiPolygon","coordinates":[[[[4.721528577259078,52.6225097730121],[4.7312628423388805,52.61868557908073],[4.731262901802116,52.61868555244667],[4.73318682043329,52.617655593849264],[4.739449762758563,52.613868867788625],[4.737878522600878,52.61216231326159],[4.737878259401565,52.61216203950672],[4.7333465382068916,52.60754786845756],[4.733897619007637,52.60729606917046],[4.736185327377721,52.60544527530516],[4.735408680262242,52.603825049734496],[4.737908006883482,52.59729119418778],[4.736964935812249,52.59576267157107],[4.7374606541740825,52.59385891933338],[4.752137370577582,52.59189150290857],[4.750967225485371,52.58911939698739],[4.744454624457851,52.590289016050164],[4.73999155100453,52.578928707691304],[4.726706596213709,52.57963766752804],[4.7248821262047445,52.578737676537976],[4.723337929057903,52.57976619958425],[4.718466791701346,52.580062012073505],[4.718181223894001,52.58008140658066],[4.710256532717696,52.58058810035602],[4.703754667312987,52.58033907611072],[4.703358862061666,52.58155153788358],[4.698315098650082,52.58185552532883],[4.6965862727082595,52.57897843872997],[4.691084411319063,52.579578739987824],[4.691303670078838,52.580049271860965],[4.685424190167208,52.58095751764847],[4.686242448613133,52.58295743384236],[4.685520888734371,52.58313156426896],[4.679272536619481,52.58387377007414],[4.677652825539167,52.58433773382878],[4.6777371382301,52.58548410097092],[4.671640025900468,52.58729857551628],[4.670614096347089,52.58872986391568],[4.673978401001145,52.58994774483197],[4.672580068266239,52.59090468046884],[4.672399570128986,52.59229740514689],[4.673861512636611,52.59292921653671],[4.673173764108345,52.596211497814636],[4.673878901236663,52.60095958588229],[4.674441317825638,52.603772149051],[4.68037261376669,52.608461184923904],[4.68076601757371,52.61028018722055],[4.683691567489212,52.61267304948785],[4.685804817483663,52.61777091957661],[4.685509702544691,52.61931187822561],[4.689991888657906,52.62375186468353],[4.705698814960652,52.621355051798496],[4.707953773756104,52.620349098385624],[4.714585224456518,52.624782685673615],[4.716306725562499,52.62498589013946],[4.721528577259078,52.6225097730121]]]]},"properties":{"type":"boundary","gemeente":"Heiloo","code":"GM0399"}}]}