{"type":"FeatureCollection","metadata":{"gemeente":"Hoeksche Waard","slug":"hoeksche-waard","code":"GM1963","generated_at":"2026-08-08T12:05:52.020Z","total_passenger":197,"total_freight":0,"bounds":[4.230411932622145,51.69513449013545,4.631125942303366,51.83704631992339],"operators":["50five","Allego","E-Flux by Road","Eneco","Fastned","Laadnet","Laadpaal24","Laadsnel","Lanova Laadpalen","Lidl","Local Green Energy","Pluq","PowerGo","Shell Recharge","Van Leeuwen","Vattenfall InCharge","bp pulse"]},"features":[{"type":"Feature","geometry":{"type":"Point","coordinates":[4.445697,51.745912]},"properties":{"type":"charge","layer":"passenger","locationId":"91106804","name":"50five-S NL 18B03882","address":"Edisonstraat 64","city":"Numansdorp","operatorName":"50five","maxPowerKw":11,"isMegawatt":false,"status":"AVAILABLE","source":"ndw"}},{"type":"Feature","geometry":{"type":"Point","coordinates":[4.478596,51.82301]},"properties":{"type":"charge","layer":"passenger","locationId":"6a6099afaf5650fb342e1cf3","name":"dupie's station","address":"a. j. albertsstraat 31, achterzijde","city":"Heinenoord","operatorName":"E-Flux by Road","maxPowerKw":22,"isMegawatt":false,"status":"AVAILABLE","source":"ndw","priceKwh":0.5}},{"type":"Feature","geometry":{"type":"Point","coordinates":[4.473847,51.78485]},"properties":{"type":"charge","layer":"passenger","locationId":"NLLOC006659","name":"NL, Manhille 2, 3273 XH Westmaas","address":"Manhille 2","city":"Westmaas","operatorName":"Allego","maxPowerKw":11,"isMegawatt":false,"status":"AVAILABLE","source":"ndw","priceKwh":0.511}},{"type":"Feature","geometry":{"type":"Point","coordinates":[4.410367,51.73645]},"properties":{"type":"charge","layer":"passenger","locationId":"13","name":"Shell Recharge NL2058 - Shell Buttervliet","address":"Rijksweg A29 WZ","city":"Numansdorp","operatorName":"Shell Recharge","maxPowerKw":175,"isMegawatt":false,"status":"AVAILABLE","source":"ndw","priceKwh":0.7025}},{"type":"Feature","geometry":{"type":"Point","coordinates":[4.428862,51.815473]},"properties":{"type":"charge","layer":"passenger","locationId":"91088251","name":"50five-S NL 17B24383","address":"Rossinistraat 3","city":"Oud-Beijerland","operatorName":"50five","maxPowerKw":4,"isMegawatt":false,"status":"AVAILABLE","source":"ndw"}},{"type":"Feature","geometry":{"type":"Point","coordinates":[4.400917,51.829098]},"properties":{"type":"charge","layer":"passenger","locationId":"NLLOC011182","name":"NL, Beetwortelweg 91, 3263 EA, Oud-Beijerland","address":"Beetwortelweg 91","city":"Oud-Beijerland","operatorName":"Allego","maxPowerKw":11,"isMegawatt":false,"status":"AVAILABLE","source":"ndw","priceKwh":0.511}},{"type":"Feature","geometry":{"type":"Point","coordinates":[4.434582,51.810784]},"properties":{"type":"charge","layer":"passenger","locationId":"c64a1099-4ba0-4abe-b9aa-4e41e137b60f","name":"Lidl Oud-Beijerland","address":"Polderlaan","city":"Oud-Beijerland","operatorName":"Lidl","maxPowerKw":11,"isMegawatt":false,"status":"UNAVAILABLE","source":"ndw"}},{"type":"Feature","geometry":{"type":"Point","coordinates":[4.40385,51.820047]},"properties":{"type":"charge","layer":"passenger","locationId":"NLLOC002135","name":"NLD, Oud Beijerland, Grebbestraat 1","address":"Grebbestraat 1","city":"Oud Beijerland","operatorName":"Allego","maxPowerKw":22,"isMegawatt":false,"status":"AVAILABLE","source":"ndw","priceKwh":0.511}},{"type":"Feature","geometry":{"type":"Point","coordinates":[4.522742,51.818963]},"properties":{"type":"charge","layer":"passenger","locationId":"630604d0480ff00bd2c51b1e","name":"Natuurbegraafplaats zomerlanden 084","address":"Natuurbegraafplaats zomerlanden","city":"Heinenoord","operatorName":"E-Flux by Road","maxPowerKw":11,"isMegawatt":false,"status":"AVAILABLE","source":"ndw","priceKwh":0.48}},{"type":"Feature","geometry":{"type":"Point","coordinates":[4.560801,51.801292]},"properties":{"type":"charge","layer":"passenger","locationId":"91084255","name":"50five-S NL ICUCOMPACT000900","address":"Dorslaan 14","city":"Puttershoek","operatorName":"50five","maxPowerKw":4,"isMegawatt":false,"status":"UNAVAILABLE","source":"ndw"}},{"type":"Feature","geometry":{"type":"Point","coordinates":[4.445075,51.759455]},"properties":{"type":"charge","layer":"passenger","locationId":"66d5b5ba34d552001c2b0b94","name":"Rechter laadstation Ndorp","address":"Rijksstraatweg 100","city":"NUMANSDORP","operatorName":"E-Flux by Road","maxPowerKw":22,"isMegawatt":false,"status":"AVAILABLE","source":"ndw","priceKwh":0.25}},{"type":"Feature","geometry":{"type":"Point","coordinates":[4.450089,51.788919]},"properties":{"type":"charge","layer":"passenger","locationId":"91151214","name":"50five-S NL 08002595","address":"Groeneweg 5","city":"Westmaas","operatorName":"50five","maxPowerKw":11,"isMegawatt":false,"status":"AVAILABLE","source":"ndw"}},{"type":"Feature","geometry":{"type":"Point","coordinates":[4.616228,51.777373]},"properties":{"type":"charge","layer":"passenger","locationId":"NLLOC000235","name":"NLD, 's-Gravendeel, Weegje 5","address":"Weegje 5-T.O.","city":"'s-Gravendeel","operatorName":"Allego","maxPowerKw":22,"isMegawatt":false,"status":"AVAILABLE","source":"ndw","priceKwh":0.511}},{"type":"Feature","geometry":{"type":"Point","coordinates":[4.277284,51.794727]},"properties":{"type":"charge","layer":"passenger","locationId":"63caa8d70480a80012cb03de","name":"C.G Slingerland 's station","address":"BURGEMEESTER ZAHNWEG 1","city":"Goudswaard","operatorName":"E-Flux by Road","maxPowerKw":11,"isMegawatt":false,"status":"AVAILABLE","source":"ndw","priceKwh":0.2643}},{"type":"Feature","geometry":{"type":"Point","coordinates":[4.410235,51.737028]},"properties":{"type":"charge","layer":"passenger","locationId":"31115","name":"Fastned Buttervliet","address":"Buttervliet A29","city":"Numansdorp","operatorName":"Fastned","maxPowerKw":300,"isMegawatt":false,"status":"AVAILABLE","source":"ndw","priceKwh":0.6364}},{"type":"Feature","geometry":{"type":"Point","coordinates":[4.551879,51.780528]},"properties":{"type":"charge","layer":"passenger","locationId":"NLLOC017423","name":"NL, Molenlaan 27, 3299 BH Maasdam","address":"Molenlaan 27","city":"Maasdam","operatorName":"Allego","maxPowerKw":11,"isMegawatt":false,"status":"AVAILABLE","source":"ndw","priceKwh":0.511}},{"type":"Feature","geometry":{"type":"Point","coordinates":[4.434709,51.81574]},"properties":{"type":"charge","layer":"passenger","locationId":"NLLOC004234","name":"NLD Chopinplein 44, 3261 WL Oud-beijerland","address":"Chopinplein 44","city":"Oud-Beijerland","operatorName":"Allego","maxPowerKw":11,"isMegawatt":false,"status":"CHARGING","source":"ndw","priceKwh":0.511}},{"type":"Feature","geometry":{"type":"Point","coordinates":[4.440013,51.723069]},"properties":{"type":"charge","layer":"passenger","locationId":"69e600db5f53b41a94d0220e","name":"Paltrokmolen 29 – Privé Laadpaal","address":"Paltrokmolen 29","city":"Numansdorp","operatorName":"E-Flux by Road","maxPowerKw":14,"isMegawatt":false,"status":"AVAILABLE","source":"ndw","priceKwh":0.62}},{"type":"Feature","geometry":{"type":"Point","coordinates":[4.395162,51.818333]},"properties":{"type":"charge","layer":"passenger","locationId":"691336ff8b3e6faf3f715cd1","name":"Ger van Ruiswijk 's station","address":"Randweg 2","city":"Oud Beijerland","operatorName":"E-Flux by Road","maxPowerKw":22,"isMegawatt":false,"status":"AVAILABLE","source":"ndw","priceKwh":0.33}},{"type":"Feature","geometry":{"type":"Point","coordinates":[4.577824,51.806565]},"properties":{"type":"charge","layer":"passenger","locationId":"6218aaa83d4adc928333b045","name":"Scheepswerf Kampers","address":"Oosthavenzijde 5","city":"PUTTERSHOEK","operatorName":"E-Flux by Road","maxPowerKw":22,"isMegawatt":false,"status":"UNAVAILABLE","source":"ndw"}},{"type":"Feature","geometry":{"type":"Point","coordinates":[4.434177,51.812293]},"properties":{"type":"charge","layer":"passenger","locationId":"NLLOC006664","name":"NL, Viool 53, 3261 GG Oud-Beijerland","address":"Viool 53","city":"Oud-Beijerland","operatorName":"Allego","maxPowerKw":11,"isMegawatt":false,"status":"AVAILABLE","source":"ndw","priceKwh":0.511}},{"type":"Feature","geometry":{"type":"Point","coordinates":[4.397378,51.820161]},"properties":{"type":"charge","layer":"passenger","locationId":"NLLOC012950","name":"NL, Griendwerker 1, 3263CA, Oud-Beijerland","address":"Griendwerker 1","city":"Oud-Beijerland","operatorName":"Allego","maxPowerKw":11,"isMegawatt":false,"status":"AVAILABLE","source":"ndw","priceKwh":0.511}},{"type":"Feature","geometry":{"type":"Point","coordinates":[4.440218,51.729328]},"properties":{"type":"charge","layer":"passenger","locationId":"NLLOC016547","name":"NL, Leeuwerikstraat 11, 3281 JL Numansdorp","address":"Leeuwerikstraat 11","city":"Numansdorp","operatorName":"Allego","maxPowerKw":11,"isMegawatt":false,"status":"AVAILABLE","source":"ndw","priceKwh":0.511}},{"type":"Feature","geometry":{"type":"Point","coordinates":[4.421242,51.819658]},"properties":{"type":"charge","layer":"passenger","locationId":"NLLOC004758","name":"NLD Sportlaan 72, 3261 AW Oud-Beijerland","address":"Sportlaan 72","city":"Oud-Beijerland","operatorName":"Allego","maxPowerKw":11,"isMegawatt":false,"status":"AVAILABLE","source":"ndw","priceKwh":0.511}},{"type":"Feature","geometry":{"type":"Point","coordinates":[4.432396,51.819005]},"properties":{"type":"charge","layer":"passenger","locationId":"NLLOC011755","name":"NL, Huizingastraat 21, 3261 SK, Oud-Beijerland","address":"Huizingastraat 21","city":"Oud-Bijerland","operatorName":"Allego","maxPowerKw":11,"isMegawatt":false,"status":"AVAILABLE","source":"ndw","priceKwh":0.511}},{"type":"Feature","geometry":{"type":"Point","coordinates":[4.439895,51.77518]},"properties":{"type":"charge","layer":"passenger","locationId":"4238546","name":"Laadnet Molendijk 57 A","address":"Molendijk 57A","city":"Klaaswaal","operatorName":"Laadnet","maxPowerKw":22,"isMegawatt":false,"status":"AVAILABLE","source":"ndw"}},{"type":"Feature","geometry":{"type":"Point","coordinates":[4.4203,51.8247795]},"properties":{"type":"charge","layer":"passenger","locationId":"53506","name":"Jumbo 3748 Oud-Beijerland (PowerGo)","address":"Beneden Oostdijk 18","city":"Oud-Beijerland","operatorName":"PowerGo","maxPowerKw":150,"isMegawatt":false,"status":"AVAILABLE","source":"ndw","priceKwh":0.55}},{"type":"Feature","geometry":{"type":"Point","coordinates":[4.444865,51.772373]},"properties":{"type":"charge","layer":"passenger","locationId":"91097566","name":"50five-S NL 17B31018","address":"Rozenlaan 12","city":"Hoeksche Waard","operatorName":"50five","maxPowerKw":11,"isMegawatt":false,"status":"AVAILABLE","source":"ndw"}},{"type":"Feature","geometry":{"type":"Point","coordinates":[4.363934,51.781517]},"properties":{"type":"charge","layer":"passenger","locationId":"3692438","name":"Laadnet thuis Petra","address":"Zuidzijdsedijk 38","city":"Nieuw-Beijerland","operatorName":"Laadnet","maxPowerKw":11,"isMegawatt":false,"status":"CHARGING","source":"ndw"}},{"type":"Feature","geometry":{"type":"Point","coordinates":[4.55149,51.739129]},"properties":{"type":"charge","layer":"passenger","locationId":"6470ac083dad11001cf56247","name":"Maurits den Boer 's station","address":"Van Esscheplantsoen 11","city":"Strijen","operatorName":"E-Flux by Road","maxPowerKw":11,"isMegawatt":false,"status":"AVAILABLE","source":"ndw"}},{"type":"Feature","geometry":{"type":"Point","coordinates":[4.555689,51.751736]},"properties":{"type":"charge","layer":"passenger","locationId":"DF3E2D72-CBEC-4CF4-8398-64B5D82DCAD0","name":"Eneco eMobility Simon Stevinstraat 6 Strijen","address":"Simon Stevinstraat 6","city":"Strijen","operatorName":"Eneco","maxPowerKw":22,"isMegawatt":false,"status":"UNAVAILABLE","source":"ndw","priceKwh":0.32}},{"type":"Feature","geometry":{"type":"Point","coordinates":[4.556003,51.793251]},"properties":{"type":"charge","layer":"passenger","locationId":"NLLOC001808","name":"NLD, Sportlaan 22 Maasdam, 3299 XG","address":"Sportlaan 22","city":"Maasdam","operatorName":"Allego","maxPowerKw":11,"isMegawatt":false,"status":"AVAILABLE","source":"ndw","priceKwh":0.511}},{"type":"Feature","geometry":{"type":"Point","coordinates":[4.438381,51.825519]},"properties":{"type":"charge","layer":"passenger","locationId":"353","name":"Shell Recharge NL9154 - Gamma Oud Beijerland","address":"Willem Beukelszstraat 2","city":"Oud Beijerland","operatorName":"Shell Recharge","maxPowerKw":150,"isMegawatt":false,"status":"AVAILABLE","source":"ndw","priceKwh":0.7025}},{"type":"Feature","geometry":{"type":"Point","coordinates":[4.445075,51.759455]},"properties":{"type":"charge","layer":"passenger","locationId":"66d5b213a76275001cd39ffb","name":"Linker Station Ndorp","address":"Rijksstraatweg 100","city":"NUMANSDORP","operatorName":"E-Flux by Road","maxPowerKw":22,"isMegawatt":false,"status":"AVAILABLE","source":"ndw","priceKwh":0.25}},{"type":"Feature","geometry":{"type":"Point","coordinates":[4.538615,51.710224]},"properties":{"type":"charge","layer":"passenger","locationId":"91064064","name":"50five-S NL 17B16266","address":"Buitendijk 60","city":"Hoeksche Waard","operatorName":"50five","maxPowerKw":11,"isMegawatt":false,"status":"CHARGING","source":"ndw"}},{"type":"Feature","geometry":{"type":"Point","coordinates":[4.451224,51.747966]},"properties":{"type":"charge","layer":"passenger","locationId":"754","name":"Shell Recharge NL9298 - Karwei Numansdorp","address":"Voltastraat 1","city":"Numansdorp","operatorName":"Shell Recharge","maxPowerKw":150,"isMegawatt":false,"status":"AVAILABLE","source":"ndw","priceKwh":0.7025}},{"type":"Feature","geometry":{"type":"Point","coordinates":[4.52866,51.817263]},"properties":{"type":"charge","layer":"passenger","locationId":"63b68ffe64d6d30012a521b5","name":"Numafa HQ","address":"Sikkel 1","city":"Heinenoord","operatorName":"E-Flux by Road","maxPowerKw":22,"isMegawatt":false,"status":"UNAVAILABLE","source":"ndw"}},{"type":"Feature","geometry":{"type":"Point","coordinates":[4.419696,51.824507]},"properties":{"type":"charge","layer":"passenger","locationId":"1a6ecd03-0dd4-4bb4-a737-d80e1ffe7158","name":"bp pulse Oud-Beijerland","address":"Beneden Oostdijk 18","city":"Oud-Beijerland","operatorName":"bp pulse","maxPowerKw":150,"isMegawatt":false,"status":"AVAILABLE","source":"ndw","priceKwh":0.7}},{"type":"Feature","geometry":{"type":"Point","coordinates":[4.407003,51.790453]},"properties":{"type":"charge","layer":"passenger","locationId":"69835257e8ddff44aa2e3fd0","name":"Van der Linden Tuinbouw's station","address":"Langeweg 67","city":"Oud-Beijerland","operatorName":"E-Flux by Road","maxPowerKw":22,"isMegawatt":false,"status":"AVAILABLE","source":"ndw","priceKwh":0.53}},{"type":"Feature","geometry":{"type":"Point","coordinates":[4.561218,51.801929]},"properties":{"type":"charge","layer":"passenger","locationId":"E3C3A1D6-7ABA-437A-893B-EF51983E13B9","name":"Eneco eMobility Zorggroep Profila - Puttershoek","address":"Oogstlaan 18-26","city":"Puttershoek","operatorName":"Eneco","maxPowerKw":11,"isMegawatt":false,"status":"AVAILABLE","source":"ndw","priceKwh":0.32}},{"type":"Feature","geometry":{"type":"Point","coordinates":[4.485549,51.825601]},"properties":{"type":"charge","layer":"passenger","locationId":"91231511","name":"50five-S NL 07108971","address":"Dokter de Vliegerstraat 25","city":"Heinenoord","operatorName":"50five","maxPowerKw":11,"isMegawatt":false,"status":"AVAILABLE","source":"ndw"}},{"type":"Feature","geometry":{"type":"Point","coordinates":[4.417578,51.813613]},"properties":{"type":"charge","layer":"passenger","locationId":"89605678","name":"Van Leeuwen Aston Martinlaan 28","address":"Aston Martinlaan 28","city":"Oud-Beijerland","operatorName":"Van Leeuwen","maxPowerKw":22,"isMegawatt":false,"status":"AVAILABLE","source":"ndw"}},{"type":"Feature","geometry":{"type":"Point","coordinates":[4.406984,51.817495]},"properties":{"type":"charge","layer":"passenger","locationId":"NLLOC007970","name":"NL, Jan Tooropstraat 89, 3262 TG Oud-Beijerland","address":"Jan Tooropstraat 89","city":"Oud-Beijerland","operatorName":"Allego","maxPowerKw":11,"isMegawatt":false,"status":"AVAILABLE","source":"ndw","priceKwh":0.511}},{"type":"Feature","geometry":{"type":"Point","coordinates":[4.546418,51.769257]},"properties":{"type":"charge","layer":"passenger","locationId":"69e496d3556d1348dd23435b","name":"PZ-KD","address":"Keizersdijk  125","city":"Strijen","operatorName":"E-Flux by Road","maxPowerKw":11,"isMegawatt":false,"status":"AVAILABLE","source":"ndw","priceKwh":0.51}},{"type":"Feature","geometry":{"type":"Point","coordinates":[4.554892,51.743477]},"properties":{"type":"charge","layer":"passenger","locationId":"NLLOC002531","name":"NLD, Strijen, Schoolstraat 20","address":"Schoolstraat 20","city":"Strijen","operatorName":"Allego","maxPowerKw":11,"isMegawatt":false,"status":"AVAILABLE","source":"ndw","priceKwh":0.511}},{"type":"Feature","geometry":{"type":"Point","coordinates":[4.439737,51.72336]},"properties":{"type":"charge","layer":"passenger","locationId":"611cc16af937e466bb9a521b","name":"Thuis","address":"Paltrokmolen 26","city":"Numansdorp","operatorName":"E-Flux by Road","maxPowerKw":11,"isMegawatt":false,"status":"AVAILABLE","source":"ndw","priceKwh":0.5}},{"type":"Feature","geometry":{"type":"Point","coordinates":[4.527158,51.812765]},"properties":{"type":"charge","layer":"passenger","locationId":"91231471","name":"50five-S NL 19B03636","address":"Sikkel 17","city":"Heinenoord","operatorName":"50five","maxPowerKw":11,"isMegawatt":false,"status":"AVAILABLE","source":"ndw"}},{"type":"Feature","geometry":{"type":"Point","coordinates":[4.366487,51.782041]},"properties":{"type":"charge","layer":"passenger","locationId":"91442636","name":"Van Leeuwen prive","address":"Zuidsijdsedijk 31","city":"Nieuw-Beijerland","operatorName":"Van Leeuwen","maxPowerKw":11,"isMegawatt":false,"status":"AVAILABLE","source":"ndw"}},{"type":"Feature","geometry":{"type":"Point","coordinates":[4.522742,51.818963]},"properties":{"type":"charge","layer":"passenger","locationId":"630606c908546a240c0ff052","name":"Natuurbegraafplaats Zomerlanden 006","address":"Natuurbegraafplaats Zomerlanden","city":"Heinenoord","operatorName":"E-Flux by Road","maxPowerKw":11,"isMegawatt":false,"status":"AVAILABLE","source":"ndw","priceKwh":0.48}},{"type":"Feature","geometry":{"type":"Point","coordinates":[4.31252,51.793571]},"properties":{"type":"charge","layer":"passenger","locationId":"654e1dc0b3c928001bebf94a","name":"Fit in Piershil","address":"Beatrixstraat 5","city":"Piershil","operatorName":"E-Flux by Road","maxPowerKw":11,"isMegawatt":false,"status":"AVAILABLE","source":"ndw","priceKwh":0.39}},{"type":"Feature","geometry":{"type":"Point","coordinates":[4.428596,51.824261]},"properties":{"type":"charge","layer":"passenger","locationId":"64f6fa11e31412001c437d78","name":"DBS Tyre Management Group","address":"Laurens Janszoon Costerstraat 6b","city":"Oud-Beijerland","operatorName":"E-Flux by Road","maxPowerKw":22,"isMegawatt":false,"status":"AVAILABLE","source":"ndw","priceKwh":0.58}},{"type":"Feature","geometry":{"type":"Point","coordinates":[4.489629,51.799343]},"properties":{"type":"charge","layer":"passenger","locationId":"NLLOC003125","name":"NL, Burgemeester Van Walsumstraat 26, 3271 BT Mijnsheerenland","address":"Burgemeester Van Walsumstraat 26","city":"Mijnsheerenland","operatorName":"Allego","maxPowerKw":11,"isMegawatt":false,"status":"AVAILABLE","source":"ndw","priceKwh":0.511}},{"type":"Feature","geometry":{"type":"Point","coordinates":[4.566999,51.807805]},"properties":{"type":"charge","layer":"passenger","locationId":"NLLOC013102","name":"NL, Arie van Drielstraat 42,3297EC, Puttershoek","address":"Arie van Drielstraat 42","city":"Puttershoek","operatorName":"Allego","maxPowerKw":11,"isMegawatt":false,"status":"AVAILABLE","source":"ndw","priceKwh":0.511}},{"type":"Feature","geometry":{"type":"Point","coordinates":[4.408891,51.821058]},"properties":{"type":"charge","layer":"passenger","locationId":"682b041acb71b9f8f9d67632","name":"Zeekr charge","address":"Van Ghentsraat 32","city":"Oud-beijerland","operatorName":"E-Flux by Road","maxPowerKw":22,"isMegawatt":false,"status":"AVAILABLE","source":"ndw","priceKwh":0.35}},{"type":"Feature","geometry":{"type":"Point","coordinates":[4.556377,51.788092]},"properties":{"type":"charge","layer":"passenger","locationId":"NLLOC002676","name":"NLD, Hoeksedijk 6 3299AG Maasdam","address":"Hoeksedijk 6","city":"Maasdam","operatorName":"Allego","maxPowerKw":11,"isMegawatt":false,"status":"AVAILABLE","source":"ndw","priceKwh":0.511}},{"type":"Feature","geometry":{"type":"Point","coordinates":[4.39148,51.750438]},"properties":{"type":"charge","layer":"passenger","locationId":"66b9cfd0d16161001ce038e3","name":"Paardenhouderij A. Hoogendonk","address":"Schoutsdijk 22","city":"Zuid-Beijerland","operatorName":"Pluq","maxPowerKw":14,"isMegawatt":false,"status":"AVAILABLE","source":"ndw","priceKwh":0.42}},{"type":"Feature","geometry":{"type":"Point","coordinates":[4.316233,51.794101]},"properties":{"type":"charge","layer":"passenger","locationId":"NLLOC006546","name":"NL, Voorstraat 33, 3265 BT, Piershil","address":"Voorstraat 33","city":"Piershil","operatorName":"Allego","maxPowerKw":11,"isMegawatt":false,"status":"AVAILABLE","source":"ndw","priceKwh":0.511}},{"type":"Feature","geometry":{"type":"Point","coordinates":[4.448593,51.771074]},"properties":{"type":"charge","layer":"passenger","locationId":"91043125","name":"50five-S NL PD12300011194","address":"Hoflaan 2","city":"Klaaswaal","operatorName":"50five","maxPowerKw":4,"isMegawatt":false,"status":"CHARGING","source":"ndw"}},{"type":"Feature","geometry":{"type":"Point","coordinates":[4.62218,51.77757]},"properties":{"type":"charge","layer":"passenger","locationId":"NLLOC000660","name":"NLD, 's-Gravendeel, van Heesenstraat 4","address":"van Heesenstraat 4","city":"'s-Gravendeel","operatorName":"Allego","maxPowerKw":22,"isMegawatt":false,"status":"AVAILABLE","source":"ndw","priceKwh":0.511}},{"type":"Feature","geometry":{"type":"Point","coordinates":[4.391054,51.825544]},"properties":{"type":"charge","layer":"passenger","locationId":"NLLOC009847","name":"NL, Roerdompweg 89, 3263AJ, Oud-Beijerland","address":"Roerdompweg 89","city":"Oud-Beijerland","operatorName":"Allego","maxPowerKw":11,"isMegawatt":false,"status":"AVAILABLE","source":"ndw","priceKwh":0.511}},{"type":"Feature","geometry":{"type":"Point","coordinates":[4.52688,51.8158]},"properties":{"type":"charge","layer":"passenger","locationId":"6877840cd0ea6496cac887f6","name":"Bastian De Romph 's station","address":"Sikkel  14F","city":"Heinenoord","operatorName":"E-Flux by Road","maxPowerKw":22,"isMegawatt":false,"status":"AVAILABLE","source":"ndw","priceKwh":0.62}},{"type":"Feature","geometry":{"type":"Point","coordinates":[4.613789,51.779597]},"properties":{"type":"charge","layer":"passenger","locationId":"NLLOC000252","name":"NLD, s Gravendeel, Lindehof 5","address":"Lindehof 5","city":"'s Gravendeel","operatorName":"Allego","maxPowerKw":22,"isMegawatt":false,"status":"AVAILABLE","source":"ndw","priceKwh":0.511}},{"type":"Feature","geometry":{"type":"Point","coordinates":[4.562089,51.80623]},"properties":{"type":"charge","layer":"passenger","locationId":"NLLOC001430","name":"NLD, Puttershoek, Hazelaarstraat 45","address":"Hazelaarstraat 45","city":"Puttershoek","operatorName":"Allego","maxPowerKw":11,"isMegawatt":false,"status":"AVAILABLE","source":"ndw","priceKwh":0.511}},{"type":"Feature","geometry":{"type":"Point","coordinates":[4.429072,51.814368]},"properties":{"type":"charge","layer":"passenger","locationId":"NLLOC016314","name":"NL, Vivaldistraat 33, 3261JD Oud-Beijerland","address":"Vivaldistraat 33","city":"Oud-Beijerland","operatorName":"Allego","maxPowerKw":11,"isMegawatt":false,"status":"AVAILABLE","source":"ndw","priceKwh":0.511}},{"type":"Feature","geometry":{"type":"Point","coordinates":[4.578965,51.761992]},"properties":{"type":"charge","layer":"passenger","locationId":"3841422E-68C4-4E16-8AF8-24BAFC862D94","name":"Eneco eMobility Zorggroep Profila - Strijen","address":"Langedam 2","city":"Strijen","operatorName":"Eneco","maxPowerKw":11,"isMegawatt":false,"status":"AVAILABLE","source":"ndw","priceKwh":0.32}},{"type":"Feature","geometry":{"type":"Point","coordinates":[4.613415,51.774309]},"properties":{"type":"charge","layer":"passenger","locationId":"NLLOC000292","name":"NLD, 's-Gravendeel, Dauwrootstraat 2","address":"Dauwrootstraat 2","city":"'s-Gravendeel","operatorName":"Allego","maxPowerKw":22,"isMegawatt":false,"status":"AVAILABLE","source":"ndw","priceKwh":0.511}},{"type":"Feature","geometry":{"type":"Point","coordinates":[4.500171,51.814112]},"properties":{"type":"charge","layer":"passenger","locationId":"A4476185-F3F9-4F56-B27F-06AEE8C37854","name":"Eneco eMobility Transdev - Heinenoord - Reedijk 7A","address":"Reedijk 7A","city":"Heinenoord","operatorName":"Eneco","maxPowerKw":22,"isMegawatt":false,"status":"AVAILABLE","source":"ndw","priceKwh":0.45}},{"type":"Feature","geometry":{"type":"Point","coordinates":[4.512392,51.813301]},"properties":{"type":"charge","layer":"passenger","locationId":"91052033","name":"50five-S NL 07004748","address":"Doormanstraat 2","city":"Heinenoord","operatorName":"50five","maxPowerKw":6,"isMegawatt":false,"status":"AVAILABLE","source":"ndw"}},{"type":"Feature","geometry":{"type":"Point","coordinates":[4.437355,51.816619]},"properties":{"type":"charge","layer":"passenger","locationId":"6184fa7d77460c805d5e541a","name":"JVS - Bachlaan 172","address":"Bachlaan 172","city":"Oud-Beijerland","operatorName":"E-Flux by Road","maxPowerKw":11,"isMegawatt":false,"status":"CHARGING","source":"ndw","priceKwh":0.27}},{"type":"Feature","geometry":{"type":"Point","coordinates":[4.405845,51.826438]},"properties":{"type":"charge","layer":"passenger","locationId":"91149241","name":"50five-S NL 03010353","address":"Zinkweg 6c","city":"Oud-Beijerland","operatorName":"50five","maxPowerKw":11,"isMegawatt":false,"status":"CHARGING","source":"ndw"}},{"type":"Feature","geometry":{"type":"Point","coordinates":[4.447719,51.745272]},"properties":{"type":"charge","layer":"passenger","locationId":"89082484","name":"Van Leeuwen 89082484","address":"Edisonstraat 8","city":"Numansdorp","operatorName":"Van Leeuwen","maxPowerKw":22,"isMegawatt":false,"status":"AVAILABLE","source":"ndw"}},{"type":"Feature","geometry":{"type":"Point","coordinates":[4.413763,51.823987]},"properties":{"type":"charge","layer":"passenger","locationId":"NLLOC000267","name":"NLD, Oud-Beijerland, Wilhelminastraat 1","address":"Wilhelminastraat 1","city":"Oud-Beijerland","operatorName":"Allego","maxPowerKw":11,"isMegawatt":false,"status":"CHARGING","source":"ndw","priceKwh":0.511}},{"type":"Feature","geometry":{"type":"Point","coordinates":[4.617146,51.781823]},"properties":{"type":"charge","layer":"passenger","locationId":"NLLOC001114","name":"NLD, Gravendeel, Onder de Molen 1","address":"Onder de Molen 1","city":"Gravendeel","operatorName":"Allego","maxPowerKw":11,"isMegawatt":false,"status":"AVAILABLE","source":"ndw","priceKwh":0.511}},{"type":"Feature","geometry":{"type":"Point","coordinates":[4.401287,51.823103]},"properties":{"type":"charge","layer":"passenger","locationId":"NLLOC008882","name":"NL, Uitloop 24 3262 CE Oud-Beijerland","address":"Uitloop 24","city":"Oud-Beijerland","operatorName":"Allego","maxPowerKw":11,"isMegawatt":false,"status":"AVAILABLE","source":"ndw","priceKwh":0.511}},{"type":"Feature","geometry":{"type":"Point","coordinates":[4.400426,51.817442]},"properties":{"type":"charge","layer":"passenger","locationId":"NLLOC017740","name":"NL, Grebbestraat 60, 3262GE, Oud-Beijerland","address":"Grebbestraat 60","city":"Oud-Beijerland","operatorName":"Allego","maxPowerKw":22,"isMegawatt":false,"status":"AVAILABLE","source":"ndw","priceKwh":0.511}},{"type":"Feature","geometry":{"type":"Point","coordinates":[4.620801,51.783156]},"properties":{"type":"charge","layer":"passenger","locationId":"89965662","name":"Laadpaal24 Maasdam Vastgoed bv","address":"Mijlweg 9-B","city":"'s-Gravendeel","operatorName":"Laadpaal24","maxPowerKw":22,"isMegawatt":false,"status":"AVAILABLE","source":"ndw"}},{"type":"Feature","geometry":{"type":"Point","coordinates":[4.623423,51.784063]},"properties":{"type":"charge","layer":"passenger","locationId":"91013400","name":"50five-S NL 511.0","address":"Havenweg 1","city":"'s-Gravendeel","operatorName":"50five","maxPowerKw":4,"isMegawatt":false,"status":"AVAILABLE","source":"ndw"}},{"type":"Feature","geometry":{"type":"Point","coordinates":[4.447226,51.749555]},"properties":{"type":"charge","layer":"passenger","locationId":"ac7822130b894185877a0c6fc59c5108","name":"Foodmate","address":"Einsteinstraat 26","city":"Numansdorp","operatorName":"","maxPowerKw":22,"isMegawatt":false,"status":"AVAILABLE","source":"ndw","priceKwh":0.28}},{"type":"Feature","geometry":{"type":"Point","coordinates":[4.442108,51.733912]},"properties":{"type":"charge","layer":"passenger","locationId":"NLLOC014537","name":"NL, Reigerplaats 2, 3281JG, Numansdorp","address":"Reigerplaats 2","city":"Numansdorp","operatorName":"Allego","maxPowerKw":11,"isMegawatt":false,"status":"AVAILABLE","source":"ndw","priceKwh":0.511}},{"type":"Feature","geometry":{"type":"Point","coordinates":[4.442519,51.746862]},"properties":{"type":"charge","layer":"passenger","locationId":"9C1D1BBC-A24E-41A8-90B3-63C0C69855E0","name":"Eneco eMobility Nordex Online - Numansdorp","address":"Energieweg 1","city":"Numansdorp","operatorName":"Eneco","maxPowerKw":22,"isMegawatt":false,"status":"AVAILABLE","source":"ndw","priceKwh":0.45}},{"type":"Feature","geometry":{"type":"Point","coordinates":[4.349352,51.754813]},"properties":{"type":"charge","layer":"passenger","locationId":"91042826","name":"50five-S NL 07114506","address":"Molendijk 81","city":"Zuid-Beijerland","operatorName":"50five","maxPowerKw":11,"isMegawatt":false,"status":"CHARGING","source":"ndw"}},{"type":"Feature","geometry":{"type":"Point","coordinates":[4.562987,51.80213]},"properties":{"type":"charge","layer":"passenger","locationId":"NLLOC000224","name":"NLD, Puttershoek, Laning 4","address":"Laning 4","city":"Puttershoek","operatorName":"Allego","maxPowerKw":22,"isMegawatt":false,"status":"AVAILABLE","source":"ndw","priceKwh":0.511}},{"type":"Feature","geometry":{"type":"Point","coordinates":[4.28089,51.793281]},"properties":{"type":"charge","layer":"passenger","locationId":"NLLOC008888","name":"NL, Polderboom 2, 3267 BH, Goudswaard","address":"Polderboom 2","city":"Goudswaard","operatorName":"Allego","maxPowerKw":11,"isMegawatt":false,"status":"AVAILABLE","source":"ndw","priceKwh":0.511}},{"type":"Feature","geometry":{"type":"Point","coordinates":[4.56565,51.800922]},"properties":{"type":"charge","layer":"passenger","locationId":"NLLOC001113","name":"NLD, Puttershoek, Bovenkruier 37","address":"Bovenkruier 37","city":"Puttershoek","operatorName":"Allego","maxPowerKw":11,"isMegawatt":false,"status":"AVAILABLE","source":"ndw","priceKwh":0.511}},{"type":"Feature","geometry":{"type":"Point","coordinates":[4.451878,51.774632]},"properties":{"type":"charge","layer":"passenger","locationId":"91094259","name":"50five-S NL 07102156","address":"Mandoline 11","city":"Klaaswaal","operatorName":"50five","maxPowerKw":11,"isMegawatt":false,"status":"CHARGING","source":"ndw"}},{"type":"Feature","geometry":{"type":"Point","coordinates":[4.439614,51.82478]},"properties":{"type":"charge","layer":"passenger","locationId":"91106116","name":"50five-S NL 18B16828","address":"Jan van der Heijdenstraat 48","city":"Oud-Beijerland","operatorName":"50five","maxPowerKw":22,"isMegawatt":false,"status":"AVAILABLE","source":"ndw"}},{"type":"Feature","geometry":{"type":"Point","coordinates":[4.483125,51.798819]},"properties":{"type":"charge","layer":"passenger","locationId":"NLLOC016232","name":"NL, Nieuwegeer 1, 3271BP, Mijnsheerenland","address":"Nieuwegeer 1","city":"Mijnsheerenland","operatorName":"Allego","maxPowerKw":11,"isMegawatt":false,"status":"AVAILABLE","source":"ndw","priceKwh":0.511}},{"type":"Feature","geometry":{"type":"Point","coordinates":[4.484309,51.825236]},"properties":{"type":"charge","layer":"passenger","locationId":"65e03c660e57e2001c30ec92","name":"Elektraload 's station #1","address":"Opper van Treurenstraat 64","city":"Heinenoord","operatorName":"E-Flux by Road","maxPowerKw":11,"isMegawatt":false,"status":"AVAILABLE","source":"ndw","priceKwh":0.54}},{"type":"Feature","geometry":{"type":"Point","coordinates":[4.557419,51.805803]},"properties":{"type":"charge","layer":"passenger","locationId":"NLLOC000656","name":"NLD, Puttershoek, Biezenbloker 2","address":"Biezenbloker 2","city":"Puttershoek","operatorName":"Allego","maxPowerKw":11,"isMegawatt":false,"status":"AVAILABLE","source":"ndw","priceKwh":0.511}},{"type":"Feature","geometry":{"type":"Point","coordinates":[4.497686,51.797984]},"properties":{"type":"charge","layer":"passenger","locationId":"NLLOC006888","name":"NL, Baljuwlaan 2, 3271 TS, Mijnsheerenland","address":"Baljuwlaan 2","city":"Mijnsheerenland","operatorName":"Allego","maxPowerKw":11,"isMegawatt":false,"status":"AVAILABLE","source":"ndw","priceKwh":0.511}},{"type":"Feature","geometry":{"type":"Point","coordinates":[4.498728,51.815417]},"properties":{"type":"charge","layer":"passenger","locationId":"67ed4a412fe8711a6f755747","name":"Fit Body Circuit - Station 1","address":"Reedijk  5","city":"Heinenoord","operatorName":"E-Flux by Road","maxPowerKw":11,"isMegawatt":false,"status":"AVAILABLE","source":"ndw","priceKwh":0.43}},{"type":"Feature","geometry":{"type":"Point","coordinates":[4.437899,51.824731]},"properties":{"type":"charge","layer":"passenger","locationId":"645e1ca3f88e3d0012cf8563","name":"Image Keukens","address":"Willem Beukelszstaat 4","city":"Oud Beijerland","operatorName":"E-Flux by Road","maxPowerKw":11,"isMegawatt":false,"status":"AVAILABLE","source":"ndw","priceKwh":0.63}},{"type":"Feature","geometry":{"type":"Point","coordinates":[4.345127,51.813081]},"properties":{"type":"charge","layer":"passenger","locationId":"NLLOC011264","name":"NL, 's Gravenweg 33 3264 XM Nieuw-Beijerland","address":"'s Gravenweg 33","city":"Nieuw-Beijerland","operatorName":"Allego","maxPowerKw":11,"isMegawatt":false,"status":"AVAILABLE","source":"ndw","priceKwh":0.511}},{"type":"Feature","geometry":{"type":"Point","coordinates":[4.460849,51.774544]},"properties":{"type":"charge","layer":"passenger","locationId":"91013930","name":"50five-S NL 93494.0","address":"Kreupeleweg 47b","city":"Klaaswaal","operatorName":"50five","maxPowerKw":22,"isMegawatt":false,"status":"AVAILABLE","source":"ndw"}},{"type":"Feature","geometry":{"type":"Point","coordinates":[4.552508,51.793223]},"properties":{"type":"charge","layer":"passenger","locationId":"91228706","name":"50five-S NL ICUEVE900688","address":"Sportlaan 3","city":"Maasdam","operatorName":"50five","maxPowerKw":22,"isMegawatt":false,"status":"AVAILABLE","source":"ndw"}},{"type":"Feature","geometry":{"type":"Point","coordinates":[4.441978,51.826692]},"properties":{"type":"charge","layer":"passenger","locationId":"686e13507fd0e745a4218fd4","name":"De Beer All In Plast","address":"Louis Pasteurstraat 15","city":"Oud-Beijerland","operatorName":"E-Flux by Road","maxPowerKw":4,"isMegawatt":false,"status":"AVAILABLE","source":"ndw","priceKwh":0.33}},{"type":"Feature","geometry":{"type":"Point","coordinates":[4.54846,51.791791]},"properties":{"type":"charge","layer":"passenger","locationId":"654e5d985b55e3001c433b6a","name":"FrieslandCampina Consumer Products Europe B.V","address":"Zuivelstraat 1","city":"MAASDAM","operatorName":"Laadsnel","maxPowerKw":22,"isMegawatt":false,"status":"AVAILABLE","source":"ndw","priceKwh":0.38}},{"type":"Feature","geometry":{"type":"Point","coordinates":[4.437695,51.823494]},"properties":{"type":"charge","layer":"passenger","locationId":"69d771f76d4287294940d65f","name":"Local Green Energy Charging - Oud-Beijerland Duifhuizen","address":"Willem Beukelszstraat 13","city":"Oud-Beijerland","operatorName":"Local Green Energy","maxPowerKw":180,"isMegawatt":false,"status":"AVAILABLE","source":"ndw","priceKwh":0.405}},{"type":"Feature","geometry":{"type":"Point","coordinates":[4.418177,51.821116]},"properties":{"type":"charge","layer":"passenger","locationId":"NLLOC005091","name":"NLD, Margrietstraat 2, 3261 AN Oud-Beijerland","address":"Margrietstraat 2","city":"Oud-Beijerland","operatorName":"Allego","maxPowerKw":11,"isMegawatt":false,"status":"AVAILABLE","source":"ndw","priceKwh":0.511}},{"type":"Feature","geometry":{"type":"Point","coordinates":[4.570504,51.809222]},"properties":{"type":"charge","layer":"passenger","locationId":"3939688","name":"Laadnet Weverseinde 205","address":"Weverseinde 205","city":"Puttershoek","operatorName":"Laadnet","maxPowerKw":22,"isMegawatt":false,"status":"AVAILABLE","source":"ndw"}},{"type":"Feature","geometry":{"type":"Point","coordinates":[4.411145,51.817412]},"properties":{"type":"charge","layer":"passenger","locationId":"NLLOC000711","name":"NLD, Oud-Beijerland, Pieter de Hooghlaan 29","address":"Pieter de Hooghlaan 29","city":"Oud-Beijerland","operatorName":"Allego","maxPowerKw":22,"isMegawatt":false,"status":"AVAILABLE","source":"ndw","priceKwh":0.511}},{"type":"Feature","geometry":{"type":"Point","coordinates":[4.612269,51.78217]},"properties":{"type":"charge","layer":"passenger","locationId":"0F18BA90-EE81-448F-B98C-1005DE49035E","name":"Eneco eMobility Kooy accountants & belastingadviseurs","address":"Smidsweg 40","city":"'s-Gravendeel","operatorName":"Eneco","maxPowerKw":11,"isMegawatt":false,"status":"AVAILABLE","source":"ndw","priceKwh":0.3}},{"type":"Feature","geometry":{"type":"Point","coordinates":[4.578451,51.805657]},"properties":{"type":"charge","layer":"passenger","locationId":"NLLOC004198","name":"NLD, Zijdewinde 144, 3297 AW Puttershoek","address":"Zijdewinde 144","city":"Puttershoek","operatorName":"Allego","maxPowerKw":11,"isMegawatt":false,"status":"AVAILABLE","source":"ndw","priceKwh":0.511}},{"type":"Feature","geometry":{"type":"Point","coordinates":[4.445319,51.737887]},"properties":{"type":"charge","layer":"passenger","locationId":"NLLOC004585","name":"NLD, Gerard Numanstraat 8, 3281 SH Numansdorp","address":"Gerard Numanstraat 8","city":"Numansdorp","operatorName":"Allego","maxPowerKw":11,"isMegawatt":false,"status":"AVAILABLE","source":"ndw","priceKwh":0.511}},{"type":"Feature","geometry":{"type":"Point","coordinates":[4.4837,51.82656]},"properties":{"type":"charge","layer":"passenger","locationId":"NLLOC000291","name":"NLD, Heinenoord, Arie Jongekrijgstraat 2","address":"Arie Jongekrijgstraat 2","city":"Heinenoord","operatorName":"Allego","maxPowerKw":11,"isMegawatt":false,"status":"AVAILABLE","source":"ndw","priceKwh":0.511}},{"type":"Feature","geometry":{"type":"Point","coordinates":[4.603998,51.741848]},"properties":{"type":"charge","layer":"passenger","locationId":"NLLOC010084","name":"NL, Zweedsestraat 11D , 3295EK, ‘s Gravendeel","address":"Zweedsestraat 11 D","city":"‘s Gravendeel","operatorName":"Allego","maxPowerKw":11,"isMegawatt":false,"status":"AVAILABLE","source":"ndw","priceKwh":0.511}},{"type":"Feature","geometry":{"type":"Point","coordinates":[4.278841,51.7953]},"properties":{"type":"charge","layer":"passenger","locationId":"NLLOC004443","name":"NLD, Coorndijkstraat 7, 3267 AD Goudswaard","address":"Coorndijkstraat 7","city":"Goudswaard","operatorName":"Allego","maxPowerKw":11,"isMegawatt":false,"status":"AVAILABLE","source":"ndw","priceKwh":0.511}},{"type":"Feature","geometry":{"type":"Point","coordinates":[4.373731,51.75278]},"properties":{"type":"charge","layer":"passenger","locationId":"NLLOC003680","name":"NLD Akkerwinde 46, 3284 XZ Zuid-Beijerland","address":"Akkerwinde 46","city":"Zuid-Beijerland","operatorName":"Allego","maxPowerKw":11,"isMegawatt":false,"status":"AVAILABLE","source":"ndw","priceKwh":0.511}},{"type":"Feature","geometry":{"type":"Point","coordinates":[4.468314,51.790931]},"properties":{"type":"charge","layer":"passenger","locationId":"69e0e61ff397f745b258cac6","name":"Local Green Energy Charging - Westmaas Mol","address":"Blauwesteenweg 7A","city":"Westmaas","operatorName":"Local Green Energy","maxPowerKw":200,"isMegawatt":false,"status":"AVAILABLE","source":"ndw","priceKwh":0.405}},{"type":"Feature","geometry":{"type":"Point","coordinates":[4.437607,51.826835]},"properties":{"type":"charge","layer":"passenger","locationId":"91106585","name":"50five-S NL 18B16277","address":"Jan van der Heijdenstraat 48","city":"Oud-Beijerland","operatorName":"50five","maxPowerKw":11,"isMegawatt":false,"status":"AVAILABLE","source":"ndw"}},{"type":"Feature","geometry":{"type":"Point","coordinates":[4.429609,51.818887]},"properties":{"type":"charge","layer":"passenger","locationId":"NLLOC018099","name":"NL, Marsmanplein 2, 3216 SP Oud-Beijerland","address":"Marsmanplein 2","city":"Oud-Beijerland","operatorName":"Allego","maxPowerKw":11,"isMegawatt":false,"status":"AVAILABLE","source":"ndw","priceKwh":0.511}},{"type":"Feature","geometry":{"type":"Point","coordinates":[4.442513,51.774187]},"properties":{"type":"charge","layer":"passenger","locationId":"NLLOC007408","name":"NL, Berkenlaan 70, 3286XD, Klaaswaal","address":"Berkenlaan 70","city":"Klaaswaal","operatorName":"Allego","maxPowerKw":11,"isMegawatt":false,"status":"AVAILABLE","source":"ndw","priceKwh":0.511}},{"type":"Feature","geometry":{"type":"Point","coordinates":[4.481442,51.827868]},"properties":{"type":"charge","layer":"passenger","locationId":"NLLOC001428","name":"NLD, Heinenoord, Dreeshof 2","address":"Dreeshof 2","city":"Heinenoord","operatorName":"Allego","maxPowerKw":22,"isMegawatt":false,"status":"AVAILABLE","source":"ndw","priceKwh":0.511}},{"type":"Feature","geometry":{"type":"Point","coordinates":[4.485431,51.82553]},"properties":{"type":"charge","layer":"passenger","locationId":"NLLOC004150","name":"NLD, Dokter de Vliegerstraat 28, 3274 KC Heinenoord","address":"Dokter de Vliegerstraat 28","city":"Heinenoord","operatorName":"Allego","maxPowerKw":11,"isMegawatt":false,"status":"AVAILABLE","source":"ndw","priceKwh":0.511}},{"type":"Feature","geometry":{"type":"Point","coordinates":[4.55095,51.747849]},"properties":{"type":"charge","layer":"passenger","locationId":"NLLOC000230","name":"NLD, Strijen, Omloop 11","address":"Omloop 11","city":"Strijen","operatorName":"Allego","maxPowerKw":22,"isMegawatt":false,"status":"AVAILABLE","source":"ndw","priceKwh":0.511}},{"type":"Feature","geometry":{"type":"Point","coordinates":[4.558415,51.753725]},"properties":{"type":"charge","layer":"passenger","locationId":"4213429","name":"Laadnet Hak Beveiliging","address":"Edisonweg 32","city":"Strijen","operatorName":"Laadnet","maxPowerKw":22,"isMegawatt":false,"status":"AVAILABLE","source":"ndw"}},{"type":"Feature","geometry":{"type":"Point","coordinates":[4.421688,51.723843]},"properties":{"type":"charge","layer":"passenger","locationId":"89215226","name":"Van Leeuwen 89215226","address":"Veerweg 1c","city":"Numansdorp","operatorName":"Van Leeuwen","maxPowerKw":22,"isMegawatt":false,"status":"AVAILABLE","source":"ndw"}},{"type":"Feature","geometry":{"type":"Point","coordinates":[4.557558,51.748408]},"properties":{"type":"charge","layer":"passenger","locationId":"6554628b16f723001c5b039e","name":"Aannemingsbedrijf P.&G. Hooghwerff B.V.","address":"Handelstraat  21","city":"Strijen","operatorName":"Lanova Laadpalen","maxPowerKw":11,"isMegawatt":false,"status":"AVAILABLE","source":"ndw","priceKwh":0.42}},{"type":"Feature","geometry":{"type":"Point","coordinates":[4.364917,51.750912]},"properties":{"type":"charge","layer":"passenger","locationId":"NLLOC017229","name":"NL, Gravin Sabinastraat 2, 3284A, Zuid-Beijerland","address":"Gravin Sabinastraat 2D","city":"Zuid-Beijerland","operatorName":"Allego","maxPowerKw":11,"isMegawatt":false,"status":"AVAILABLE","source":"ndw","priceKwh":0.511}},{"type":"Feature","geometry":{"type":"Point","coordinates":[4.435863,51.729163]},"properties":{"type":"charge","layer":"passenger","locationId":"NLLOC014662","name":"NL, Poortvlietstraat 1, 3281XL, Numansdorp","address":"Poortvlietstraat 1","city":"Numansdorp","operatorName":"Allego","maxPowerKw":11,"isMegawatt":false,"status":"AVAILABLE","source":"ndw","priceKwh":0.511}},{"type":"Feature","geometry":{"type":"Point","coordinates":[4.560258,51.803696]},"properties":{"type":"charge","layer":"passenger","locationId":"NLLOC006200","name":"NL, Eikenlaan 62, 3297 XB, Puttershoek","address":"Eikenlaan 62","city":"Puttershoek","operatorName":"Allego","maxPowerKw":11,"isMegawatt":false,"status":"AVAILABLE","source":"ndw","priceKwh":0.511}},{"type":"Feature","geometry":{"type":"Point","coordinates":[4.481348,51.798336]},"properties":{"type":"charge","layer":"passenger","locationId":"91053154","name":"50five-S NL 17B31965","address":"Laan van Westmolen 24","city":"Mijnsheerenland","operatorName":"50five","maxPowerKw":8,"isMegawatt":false,"status":"AVAILABLE","source":"ndw"}},{"type":"Feature","geometry":{"type":"Point","coordinates":[4.555894,51.798479]},"properties":{"type":"charge","layer":"passenger","locationId":"NLLOC001112","name":"NLD, Binnenmaas, Waterkers 20","address":"Waterkers 20","city":"Binnenmaas","operatorName":"Allego","maxPowerKw":11,"isMegawatt":false,"status":"AVAILABLE","source":"ndw","priceKwh":0.511}},{"type":"Feature","geometry":{"type":"Point","coordinates":[4.6092,51.7829]},"properties":{"type":"charge","layer":"passenger","locationId":"NLLOC000234","name":"NLD, 's-Gravendeel, Wetering 1","address":"Wetering 1","city":"'s-Gravendeel","operatorName":"Allego","maxPowerKw":11,"isMegawatt":false,"status":"AVAILABLE","source":"ndw","priceKwh":0.511}},{"type":"Feature","geometry":{"type":"Point","coordinates":[4.622333,51.779524]},"properties":{"type":"charge","layer":"passenger","locationId":"NLLOC015830","name":"NL, Doctor Bossersstraat 11, 3295AG, s-Gravendeel","address":"Doctor Bossersstraat 11","city":"s-Gravendeel","operatorName":"Allego","maxPowerKw":11,"isMegawatt":false,"status":"AVAILABLE","source":"ndw","priceKwh":0.511}},{"type":"Feature","geometry":{"type":"Point","coordinates":[4.56771,51.805252]},"properties":{"type":"charge","layer":"passenger","locationId":"NLLOC008050","name":"NL, Nassaulaan 44, 3297 BG, Puttershoek","address":"Nassaulaan 44","city":"Puttershoek","operatorName":"Allego","maxPowerKw":11,"isMegawatt":false,"status":"AVAILABLE","source":"ndw","priceKwh":0.511}},{"type":"Feature","geometry":{"type":"Point","coordinates":[4.413815,51.82561]},"properties":{"type":"charge","layer":"passenger","locationId":"NLLOC016440","name":"NL, Prinses Beatrixstraat 48, 3262SL, Oud-Beijerland","address":"Prinses Beatrixstraat 48","city":"Oud-Beijerland","operatorName":"Allego","maxPowerKw":11,"isMegawatt":false,"status":"AVAILABLE","source":"ndw","priceKwh":0.511}},{"type":"Feature","geometry":{"type":"Point","coordinates":[4.530431,51.817508]},"properties":{"type":"charge","layer":"passenger","locationId":"67e2cffc8926dae1fb610a97","name":"VRIA HQ","address":"Zaaiviool 1","city":"Heinenoord","operatorName":"E-Flux by Road","maxPowerKw":22,"isMegawatt":false,"status":"AVAILABLE","source":"ndw","priceKwh":0.43}},{"type":"Feature","geometry":{"type":"Point","coordinates":[4.451991,51.772477]},"properties":{"type":"charge","layer":"passenger","locationId":"NLLOC008138","name":"NL, Jaap Kosterstraat 43, 3286VT, Klaaswaal","address":"Jaap Kosterstraat 43","city":"Klaaswaal","operatorName":"Allego","maxPowerKw":11,"isMegawatt":false,"status":"AVAILABLE","source":"ndw","priceKwh":0.511}},{"type":"Feature","geometry":{"type":"Point","coordinates":[4.566621,51.802394]},"properties":{"type":"charge","layer":"passenger","locationId":"NLLOC006196","name":"NL, Sterrenlaan 69, 3297 TN Puttershoek","address":"Sterrenlaan 69","city":"Puttershoek","operatorName":"Allego","maxPowerKw":11,"isMegawatt":false,"status":"AVAILABLE","source":"ndw","priceKwh":0.511}},{"type":"Feature","geometry":{"type":"Point","coordinates":[4.43514,51.814523]},"properties":{"type":"charge","layer":"passenger","locationId":"NLLOC000047","name":"NLD, Oud-Beijerland, Mozartlaan 4","address":"Mozartlaan 4","city":"Oud-Beijerland","operatorName":"Allego","maxPowerKw":22,"isMegawatt":false,"status":"AVAILABLE","source":"ndw","priceKwh":0.511}},{"type":"Feature","geometry":{"type":"Point","coordinates":[4.558827,51.798432]},"properties":{"type":"charge","layer":"passenger","locationId":"NLLOC013811","name":"NL, Gele Lis 40, 3297WC, Puttershoek","address":"Gele Lis 40","city":"Puttershoek","operatorName":"Allego","maxPowerKw":11,"isMegawatt":false,"status":"AVAILABLE","source":"ndw","priceKwh":0.511}},{"type":"Feature","geometry":{"type":"Point","coordinates":[4.493589,51.799007]},"properties":{"type":"charge","layer":"passenger","locationId":"NLLOC002332","name":"NLD, Mijnsheerenlaand, Binnenbans 49","address":"Binnenbans 49","city":"Mijnsheerenland","operatorName":"Allego","maxPowerKw":11,"isMegawatt":false,"status":"AVAILABLE","source":"ndw","priceKwh":0.511}},{"type":"Feature","geometry":{"type":"Point","coordinates":[4.407872,51.827509]},"properties":{"type":"charge","layer":"passenger","locationId":"NLLOC000693","name":"NLD, Oud Beijerland, Vierwiekenplein 100","address":"Vierwiekenplein 100","city":"Oud Beijerland","operatorName":"Allego","maxPowerKw":22,"isMegawatt":false,"status":"AVAILABLE","source":"ndw","priceKwh":0.511}},{"type":"Feature","geometry":{"type":"Point","coordinates":[4.472117,51.788459]},"properties":{"type":"charge","layer":"passenger","locationId":"NLLOC006666","name":"Van Koetsveldlaan 2A 3273 AL Westmaas","address":"Van Koetsveldlaan 2A","city":"Westmaas","operatorName":"Allego","maxPowerKw":11,"isMegawatt":false,"status":"AVAILABLE","source":"ndw","priceKwh":0.511}},{"type":"Feature","geometry":{"type":"Point","coordinates":[4.437271,51.734151]},"properties":{"type":"charge","layer":"passenger","locationId":"NLLOC003130","name":"NLD, Mozartstraat 1, 3281 TD Numansdorp","address":"Mozartstraat 1","city":"Numansdorp","operatorName":"Allego","maxPowerKw":11,"isMegawatt":false,"status":"AVAILABLE","source":"ndw","priceKwh":0.511}},{"type":"Feature","geometry":{"type":"Point","coordinates":[4.47781,51.8272]},"properties":{"type":"charge","layer":"passenger","locationId":"NLLOC000272","name":"NLD, Heinenoord, Oranjestraat 30","address":"Oranjestraat 30","city":"Heinenoord","operatorName":"Allego","maxPowerKw":22,"isMegawatt":false,"status":"AVAILABLE","source":"ndw","priceKwh":0.511}},{"type":"Feature","geometry":{"type":"Point","coordinates":[4.415133,51.814891]},"properties":{"type":"charge","layer":"passenger","locationId":"E8D97BDD-1800-451F-901A-632027A28597","name":"Eneco eMobility Schep Registergoed B.V. - Oud-Beijerland","address":"Langeweg 11","city":"Oud-Beijerland","operatorName":"Eneco","maxPowerKw":22,"isMegawatt":false,"status":"UNAVAILABLE","source":"ndw","priceKwh":0.35}},{"type":"Feature","geometry":{"type":"Point","coordinates":[4.434783,51.736419]},"properties":{"type":"charge","layer":"passenger","locationId":"NLLOC003128","name":"NLD Brahmsstraat 67, 3281 VC Numansdorp","address":"Brahmsstraat 67","city":"Numansdorp","operatorName":"Allego","maxPowerKw":11,"isMegawatt":false,"status":"AVAILABLE","source":"ndw","priceKwh":0.511}},{"type":"Feature","geometry":{"type":"Point","coordinates":[4.431272,51.820492]},"properties":{"type":"charge","layer":"passenger","locationId":"NLLOC004777","name":"NLD, Kloosring 33, 3261 SE Oud-Beijerland","address":"Kloosring 33","city":"Oud-Beijerland","operatorName":"Allego","maxPowerKw":11,"isMegawatt":false,"status":"AVAILABLE","source":"ndw","priceKwh":0.511}},{"type":"Feature","geometry":{"type":"Point","coordinates":[4.445075,51.759455]},"properties":{"type":"charge","layer":"passenger","locationId":"67bf340ad9db196e99d0c62a","name":"SCHOTGROEP Holding 's station","address":"RIjksstraatweg 100","city":"Numansdorp","operatorName":"E-Flux by Road","maxPowerKw":22,"isMegawatt":false,"status":"AVAILABLE","source":"ndw","priceKwh":0.33}},{"type":"Feature","geometry":{"type":"Point","coordinates":[4.395582,51.821776]},"properties":{"type":"charge","layer":"passenger","locationId":"NLLOC000314","name":"NLD, Oud-Beijerland, Sigarenmaker 32","address":"Sigarenmaker 32","city":"Oud-Beijerland","operatorName":"Allego","maxPowerKw":11,"isMegawatt":false,"status":"AVAILABLE","source":"ndw","priceKwh":0.511}},{"type":"Feature","geometry":{"type":"Point","coordinates":[4.40566,51.825983]},"properties":{"type":"charge","layer":"passenger","locationId":"NLLOC007559","name":"NL, van Speijkstraat 46, 3262 PV, Oud-Beijerland","address":"van Speijkstraat 46","city":"Oud-Beijerland","operatorName":"Allego","maxPowerKw":11,"isMegawatt":false,"status":"AVAILABLE","source":"ndw","priceKwh":0.511}},{"type":"Feature","geometry":{"type":"Point","coordinates":[4.405782,51.828579]},"properties":{"type":"charge","layer":"passenger","locationId":"NLLOC009990","name":"NL van Tijnerf 2, 3263 EL Oud-Beijerland","address":"van Tijnerf 2","city":"Oud Beijerland","operatorName":"Allego","maxPowerKw":11,"isMegawatt":false,"status":"AVAILABLE","source":"ndw","priceKwh":0.511}},{"type":"Feature","geometry":{"type":"Point","coordinates":[4.405905,51.820434]},"properties":{"type":"charge","layer":"passenger","locationId":"NLLOC005377","name":"NLD, W. van Vlietstraat 6, 3262 GM Oud-Beijerland","address":"W. van Vlietstraat 6","city":"Oud-Beijerland","operatorName":"Allego","maxPowerKw":11,"isMegawatt":false,"status":"AVAILABLE","source":"ndw","priceKwh":0.511}},{"type":"Feature","geometry":{"type":"Point","coordinates":[4.423931,51.817816]},"properties":{"type":"charge","layer":"passenger","locationId":"NLLOC004305","name":"NLD Hazelaarstraat 35, 3261 XC Oud-beijerland","address":"Hazelaarstraat 35","city":"Oud-Beijerland","operatorName":"Allego","maxPowerKw":11,"isMegawatt":false,"status":"AVAILABLE","source":"ndw","priceKwh":0.511}},{"type":"Feature","geometry":{"type":"Point","coordinates":[4.397635,51.823289]},"properties":{"type":"charge","layer":"passenger","locationId":"NLLOC013272","name":"NL, Zoomwijcklaan 79, 3262CM, Oud-Beijerland","address":"Zoomwijcklaan 79","city":"Oud-Beijerland","operatorName":"Allego","maxPowerKw":11,"isMegawatt":false,"status":"AVAILABLE","source":"ndw","priceKwh":0.511}},{"type":"Feature","geometry":{"type":"Point","coordinates":[4.399203,51.826362]},"properties":{"type":"charge","layer":"passenger","locationId":"NLLOC003489","name":"NLD Hooizolder 2 3262CS Oud-Beijerland","address":"Hooizolder 2","city":"Oud-Beijerland","operatorName":"Allego","maxPowerKw":11,"isMegawatt":false,"status":"AVAILABLE","source":"ndw","priceKwh":0.511}},{"type":"Feature","geometry":{"type":"Point","coordinates":[4.55435,51.789769]},"properties":{"type":"charge","layer":"passenger","locationId":"NLLOC006558","name":"NL, Merwedestraat 39, 3299 XC, Maasdam","address":"Merwedestraat 39","city":"Maasdam","operatorName":"Allego","maxPowerKw":11,"isMegawatt":false,"status":"AVAILABLE","source":"ndw","priceKwh":0.511}},{"type":"Feature","geometry":{"type":"Point","coordinates":[4.395274,51.828395]},"properties":{"type":"charge","layer":"passenger","locationId":"6719025db797f9001d043270","name":"Hippisch Centrum \"Hoeksche Waard\"","address":"Randweg 31","city":"Oud-Beijerland","operatorName":"Pluq","maxPowerKw":11,"isMegawatt":false,"status":"AVAILABLE","source":"ndw","priceKwh":0.4}},{"type":"Feature","geometry":{"type":"Point","coordinates":[4.481348,51.798476]},"properties":{"type":"charge","layer":"passenger","locationId":"NLLOC004038","name":"NLD Laan van Westmolen 22 3271 BK Mijnsheerenland","address":"Laan van Westmolen 22","city":"Mijnsheerenland","operatorName":"Allego","maxPowerKw":11,"isMegawatt":false,"status":"AVAILABLE","source":"ndw","priceKwh":0.511}},{"type":"Feature","geometry":{"type":"Point","coordinates":[4.405423,51.816257]},"properties":{"type":"charge","layer":"passenger","locationId":"NLLOC005086","name":"NLD Rubensdreef 1, 3262 TL Oud-Beijerland","address":"Rubensdreef 1","city":"Oud-Beijerland","operatorName":"Allego","maxPowerKw":11,"isMegawatt":false,"status":"AVAILABLE","source":"ndw","priceKwh":0.511}},{"type":"Feature","geometry":{"type":"Point","coordinates":[4.398764,51.825224]},"properties":{"type":"charge","layer":"passenger","locationId":"NLLOC000270","name":"NLD, Oud-Beijerland, Schoener 10","address":"Schoener 10","city":"Oud-Beijerland","operatorName":"Allego","maxPowerKw":22,"isMegawatt":false,"status":"AVAILABLE","source":"ndw","priceKwh":0.511}},{"type":"Feature","geometry":{"type":"Point","coordinates":[4.27667,51.792015]},"properties":{"type":"charge","layer":"passenger","locationId":"NLLOC008714","name":"NL, van Almondestraat 78, 3267 AV, Goudswaard","address":"van Almondestraat 78","city":"Goudswaard","operatorName":"Allego","maxPowerKw":11,"isMegawatt":false,"status":"AVAILABLE","source":"ndw","priceKwh":0.511}},{"type":"Feature","geometry":{"type":"Point","coordinates":[4.398876,51.826837]},"properties":{"type":"charge","layer":"passenger","locationId":"NLLOC000046","name":"NLD, Oud-Beijerland, Zoomwijcklaan 12","address":"Zoomwijcklaan 12","city":"Oud-Beijerland","operatorName":"Allego","maxPowerKw":11,"isMegawatt":false,"status":"AVAILABLE","source":"ndw","priceKwh":0.511}},{"type":"Feature","geometry":{"type":"Point","coordinates":[4.611637,51.779856]},"properties":{"type":"charge","layer":"passenger","locationId":"NLLOC004414","name":"NLD Hyanciterf 2, 3295 SJ 's-Gravendeel","address":"Hyanciterf 2","city":"'s-Gravendeel","operatorName":"Allego","maxPowerKw":11,"isMegawatt":false,"status":"AVAILABLE","source":"ndw","priceKwh":0.511}},{"type":"Feature","geometry":{"type":"Point","coordinates":[4.395037,51.820583]},"properties":{"type":"charge","layer":"passenger","locationId":"91232164","name":"50five-S NL 03990555","address":"Helen Parkhurstweg 4","city":"Oud-Beijerland","operatorName":"50five","maxPowerKw":4,"isMegawatt":false,"status":"AVAILABLE","source":"ndw"}},{"type":"Feature","geometry":{"type":"Point","coordinates":[4.574986,51.80428]},"properties":{"type":"charge","layer":"passenger","locationId":"NLLOC000177","name":"NLD, Puttershoek , Schouteneinde 50","address":"Schouteneinde 50-B","city":"Puttershoek","operatorName":"Allego","maxPowerKw":11,"isMegawatt":false,"status":"AVAILABLE","source":"ndw","priceKwh":0.511}},{"type":"Feature","geometry":{"type":"Point","coordinates":[4.484391,51.825552]},"properties":{"type":"charge","layer":"passenger","locationId":"NLLOC009900","name":"NL, Opper van Treurenstraat 56, 3274ND Heinenoord","address":"Opper van Treurenstraat 56","city":"Heinenoord","operatorName":"Allego","maxPowerKw":11,"isMegawatt":false,"status":"AVAILABLE","source":"ndw","priceKwh":0.511}},{"type":"Feature","geometry":{"type":"Point","coordinates":[4.409926,51.821673]},"properties":{"type":"charge","layer":"passenger","locationId":"NLLOC012662","name":"NL, van Ghentstraat, 3, 3262 EM, Oud-Beijerland","address":"van Ghentstraat 3","city":"Oud-Beijerland","operatorName":"Allego","maxPowerKw":11,"isMegawatt":false,"status":"AVAILABLE","source":"ndw","priceKwh":0.511}},{"type":"Feature","geometry":{"type":"Point","coordinates":[4.403184,51.828971]},"properties":{"type":"charge","layer":"passenger","locationId":"NLLOC001343","name":"NLD, Oud-Beijerland, Beetwortelweg 55","address":"Beetwortelweg 55","city":"Oud-Beijerland","operatorName":"Allego","maxPowerKw":22,"isMegawatt":false,"status":"AVAILABLE","source":"ndw","priceKwh":0.511}},{"type":"Feature","geometry":{"type":"Point","coordinates":[4.473843,51.825823]},"properties":{"type":"charge","layer":"passenger","locationId":"NLLOC004749","name":"NLD Kerkplein 2, 3274 BL Heinenoord","address":"Kerkplein 2","city":"Heinenoord","operatorName":"Allego","maxPowerKw":11,"isMegawatt":false,"status":"AVAILABLE","source":"ndw","priceKwh":0.511}},{"type":"Feature","geometry":{"type":"Point","coordinates":[4.403919,51.819738]},"properties":{"type":"charge","layer":"passenger","locationId":"NLLOC010409","name":"NL, Mariniersweg 24, 3262VD, Oud-Beijerland","address":"Mariniersweg 24","city":"Oud-Beijerland","operatorName":"Allego","maxPowerKw":11,"isMegawatt":false,"status":"AVAILABLE","source":"ndw","priceKwh":0.511}},{"type":"Feature","geometry":{"type":"Point","coordinates":[4.476321,51.784729]},"properties":{"type":"charge","layer":"passenger","locationId":"NLLOC002310","name":"NLD, Vlasakkers 29, 3273 XG","address":"Vlasakkers 29","city":"Westmaas","operatorName":"Allego","maxPowerKw":11,"isMegawatt":false,"status":"AVAILABLE","source":"ndw","priceKwh":0.511}},{"type":"Feature","geometry":{"type":"Point","coordinates":[4.416244,51.81453]},"properties":{"type":"charge","layer":"passenger","locationId":"91105675","name":"50five-S NL 03001465","address":"Maseratilaan 8","city":"Oud-Beijerland","operatorName":"50five","maxPowerKw":11,"isMegawatt":false,"status":"AVAILABLE","source":"ndw"}},{"type":"Feature","geometry":{"type":"Point","coordinates":[4.342654,51.806451]},"properties":{"type":"charge","layer":"passenger","locationId":"NLLOC010238","name":"NL, Fruitdoel 11, 3264 PD, Nieuw-Beijerland","address":"Fruitdoel 11","city":"Nieuw-Beijerland","operatorName":"Allego","maxPowerKw":11,"isMegawatt":false,"status":"AVAILABLE","source":"ndw","priceKwh":0.511}},{"type":"Feature","geometry":{"type":"Point","coordinates":[4.610278,51.775347]},"properties":{"type":"charge","layer":"passenger","locationId":"NLLOC001058","name":"NLD, s-Gravendeel, Vlasstraat 44","address":"Vlasstraat 44","city":"s-Gravendeel","operatorName":"Allego","maxPowerKw":11,"isMegawatt":false,"status":"AVAILABLE","source":"ndw","priceKwh":0.511}},{"type":"Feature","geometry":{"type":"Point","coordinates":[4.447861,51.773357]},"properties":{"type":"charge","layer":"passenger","locationId":"NLLOC010450","name":"NL, Madeliefstraat 2a, 3286 VE, Klaaswaal","address":"Madeliefstraat 2a","city":"Klaaswaal","operatorName":"Allego","maxPowerKw":11,"isMegawatt":false,"status":"AVAILABLE","source":"ndw","priceKwh":0.511}},{"type":"Feature","geometry":{"type":"Point","coordinates":[4.435996,51.820763]},"properties":{"type":"charge","layer":"passenger","locationId":"6448e7fa8883000012c8ddcf","name":"Laadstation De Vriesstraat 4","address":"De Vriesstraat 4","city":"Oud-Beijerland","operatorName":"E-Flux by Road","maxPowerKw":22,"isMegawatt":false,"status":"AVAILABLE","source":"ndw","priceKwh":0.56}},{"type":"Feature","geometry":{"type":"Point","coordinates":[4.443288,51.742874]},"properties":{"type":"charge","layer":"passenger","locationId":"NLLOC003293","name":"NLD Schoolweg 40, 3281 AS Numansdorp","address":"Schoolweg 40","city":"Numansdorp","operatorName":"Allego","maxPowerKw":11,"isMegawatt":false,"status":"AVAILABLE","source":"ndw","priceKwh":0.511}},{"type":"Feature","geometry":{"type":"Point","coordinates":[4.479131,51.797106]},"properties":{"type":"charge","layer":"passenger","locationId":"NLLOC008539","name":"NL, Zeggegors, 41, 3271XJ, Mijnsheerenland","address":"Zeggegors 41","city":"Mijnsheerenland","operatorName":"Allego","maxPowerKw":11,"isMegawatt":false,"status":"AVAILABLE","source":"ndw","priceKwh":0.511}},{"type":"Feature","geometry":{"type":"Point","coordinates":[4.43399,51.813909]},"properties":{"type":"charge","layer":"passenger","locationId":"NLLOC000247","name":"NLD, Oud-Beijerland, Muzieklaan 37","address":"Muzieklaan 37","city":"Oud-Beijerland","operatorName":"Allego","maxPowerKw":11,"isMegawatt":false,"status":"AVAILABLE","source":"ndw","priceKwh":0.511}},{"type":"Feature","geometry":{"type":"Point","coordinates":[4.408474,51.825458]},"properties":{"type":"charge","layer":"passenger","locationId":"NLLOC000625","name":"NLD, Oud Beijerland, Van Linschotenplein 1","address":"Van Linschotenplein 1","city":"Oud Beijerland","operatorName":"Allego","maxPowerKw":22,"isMegawatt":false,"status":"AVAILABLE","source":"ndw","priceKwh":0.511}},{"type":"Feature","geometry":{"type":"Point","coordinates":[4.338233,51.813908]},"properties":{"type":"charge","layer":"passenger","locationId":"NLLOC007006","name":"NL, Dijkstraat 3, 3264 LD, Nieuw-Beijerland","address":"Dijkstraat 3","city":"Nieuw-Beijerland","operatorName":"Allego","maxPowerKw":11,"isMegawatt":false,"status":"AVAILABLE","source":"ndw","priceKwh":0.511}},{"type":"Feature","geometry":{"type":"Point","coordinates":[4.401856,51.82385]},"properties":{"type":"charge","layer":"passenger","locationId":"696a447dc4e69ca594e689d5","name":"Stephan Schuller 's station","address":"Uitloop 42","city":"Oud-Beijerland","operatorName":"E-Flux by Road","maxPowerKw":22,"isMegawatt":false,"status":"AVAILABLE","source":"ndw","priceKwh":0.38}},{"type":"Feature","geometry":{"type":"Point","coordinates":[4.554514,51.738744]},"properties":{"type":"charge","layer":"passenger","locationId":"NLLOC000579","name":"NLD, Strijen, 't Hoogt 15","address":"'t Hoogt 15","city":"Strijen","operatorName":"Allego","maxPowerKw":11,"isMegawatt":false,"status":"AVAILABLE","source":"ndw","priceKwh":0.511}},{"type":"Feature","geometry":{"type":"Point","coordinates":[4.414797,51.8237]},"properties":{"type":"charge","layer":"passenger","locationId":"NLLOC016345","name":"NL, Emmastraat 2, 3262SG, Oud-Beijerland","address":"Emmastraat 2","city":"Oud-Beijerland","operatorName":"Allego","maxPowerKw":11,"isMegawatt":false,"status":"AVAILABLE","source":"ndw","priceKwh":0.511}},{"type":"Feature","geometry":{"type":"Point","coordinates":[4.486096,51.828012]},"properties":{"type":"charge","layer":"passenger","locationId":"NLLOC001161","name":"NLD, Heinenoord, Professor Teldersstraat 32","address":"Professor Teldersstraat 32","city":"Heinenoord","operatorName":"Allego","maxPowerKw":11,"isMegawatt":false,"status":"AVAILABLE","source":"ndw","priceKwh":0.511}},{"type":"Feature","geometry":{"type":"Point","coordinates":[4.460052,51.782993]},"properties":{"type":"charge","layer":"passenger","locationId":"66b9d999d16161001ce09742","name":"De Koningshoeve","address":"Botweg 1b","city":"Klaaswaal","operatorName":"Pluq","maxPowerKw":22,"isMegawatt":false,"status":"AVAILABLE","source":"ndw","priceKwh":0.34}},{"type":"Feature","geometry":{"type":"Point","coordinates":[4.391251,51.82385]},"properties":{"type":"charge","layer":"passenger","locationId":"NLLOC004223","name":"NLD Pijlstaart 29, 3263BK Oud-Beijerland","address":"Pijlstaart 29","city":"Oud-Beijerland","operatorName":"Allego","maxPowerKw":11,"isMegawatt":false,"status":"AVAILABLE","source":"ndw","priceKwh":0.511}},{"type":"Feature","geometry":{"type":"Point","coordinates":[4.429711,51.815356]},"properties":{"type":"charge","layer":"passenger","locationId":"NLLOC000676","name":"NLD, Oud Beijerland, Ravelstraat 15","address":"Ravelstraat 15","city":"Oud Beijerland","operatorName":"Allego","maxPowerKw":22,"isMegawatt":false,"status":"AVAILABLE","source":"ndw","priceKwh":0.511}},{"type":"Feature","geometry":{"type":"Point","coordinates":[4.442257,51.725396]},"properties":{"type":"charge","layer":"passenger","locationId":"NLLOC012897","name":"NL, Kruizemunt, 1, 3281 MC Numansdorp","address":"Kruizemunt 1","city":"Numansdorp","operatorName":"Allego","maxPowerKw":11,"isMegawatt":false,"status":"AVAILABLE","source":"ndw","priceKwh":0.511}},{"type":"Feature","geometry":{"type":"Point","coordinates":[4.560031,51.799662]},"properties":{"type":"charge","layer":"passenger","locationId":"NLLOC000604","name":"NLD, Puttershoek, Penningkruid 12","address":"Penningkruid 12","city":"Puttershoek","operatorName":"Allego","maxPowerKw":22,"isMegawatt":false,"status":"AVAILABLE","source":"ndw","priceKwh":0.511}},{"type":"Feature","geometry":{"type":"Point","coordinates":[4.431659,51.728369]},"properties":{"type":"charge","layer":"passenger","locationId":"NLLOC004925","name":"NLD, Nassaustraat 2, 3281 BV Numansdorp","address":"Nassaustraat 2","city":"Numansdorp","operatorName":"Allego","maxPowerKw":11,"isMegawatt":false,"status":"AVAILABLE","source":"ndw","priceKwh":0.511}},{"type":"Feature","geometry":{"type":"Point","coordinates":[4.445231,51.745967]},"properties":{"type":"charge","layer":"passenger","locationId":"91110141","name":"50five-S NL 19B04380","address":"Edisonstraat 64","city":"Numansdorp","operatorName":"50five","maxPowerKw":11,"isMegawatt":false,"status":"AVAILABLE","source":"ndw"}},{"type":"Feature","geometry":{"type":"Point","coordinates":[4.407003,51.790453]},"properties":{"type":"charge","layer":"passenger","locationId":"698350ca16126fe93e13e845","name":"Van der Linden Tuinbouw's station","address":"Langeweg  67","city":"Oud-Beijerland","operatorName":"E-Flux by Road","maxPowerKw":22,"isMegawatt":false,"status":"AVAILABLE","source":"ndw","priceKwh":0.53}},{"type":"Feature","geometry":{"type":"Point","coordinates":[4.438047,51.817448]},"properties":{"type":"charge","layer":"passenger","locationId":"NLLOC002182","name":"NLD, Oud-Beijerland, Bordewijkring 46","address":"Bordewijkring 46","city":"Oud-Beijerland","operatorName":"Allego","maxPowerKw":11,"isMegawatt":false,"status":"AVAILABLE","source":"ndw","priceKwh":0.511}},{"type":"Feature","geometry":{"type":"Point","coordinates":[4.548132,51.741678]},"properties":{"type":"charge","layer":"passenger","locationId":"NLLOC000240","name":"NLD, Strijen, Leeuwerikstraat 26","address":"Leeuwerikstraat 26","city":"Strijen","operatorName":"Allego","maxPowerKw":22,"isMegawatt":false,"status":"AVAILABLE","source":"ndw","priceKwh":0.511}},{"type":"Feature","geometry":{"type":"Point","coordinates":[4.527654,51.812718]},"properties":{"type":"charge","layer":"passenger","locationId":"91228107","name":"50five-S NL 18B10189","address":"Sikkel 17","city":"Heinenoord","operatorName":"50five","maxPowerKw":11,"isMegawatt":false,"status":"AVAILABLE","source":"ndw"}},{"type":"Feature","geometry":{"type":"Point","coordinates":[4.559332,51.741088]},"properties":{"type":"charge","layer":"passenger","locationId":"NLLOC013128","name":"NL, Irenestraat 44, 3291 BK Strijen","address":"Irenestraat 44","city":"Strijen","operatorName":"Allego","maxPowerKw":11,"isMegawatt":false,"status":"AVAILABLE","source":"ndw","priceKwh":0.511}},{"type":"Feature","geometry":{"type":"Point","coordinates":[4.550903,51.738497]},"properties":{"type":"charge","layer":"passenger","locationId":"NLLOC005087","name":"NLD Van Esscheplantsoen 28, 3291 GK Strijen","address":"Van Esscheplantsoen 28","city":"Strijen","operatorName":"Allego","maxPowerKw":11,"isMegawatt":false,"status":"AVAILABLE","source":"ndw","priceKwh":0.511}},{"type":"Feature","geometry":{"type":"Point","coordinates":[4.432859,51.734303]},"properties":{"type":"charge","layer":"passenger","locationId":"NLLOC006629","name":"NL, Bizetstraat 11, 3281 TT, Numansdorp","address":"Bizetstraat 11","city":"Numansdorp","operatorName":"Allego","maxPowerKw":11,"isMegawatt":false,"status":"AVAILABLE","source":"ndw","priceKwh":0.511}},{"type":"Feature","geometry":{"type":"Point","coordinates":[4.370156,51.753443]},"properties":{"type":"charge","layer":"passenger","locationId":"NLLOC003922","name":"NLD Ridder van dorplaan 68, 3284 AV Zuid-Beijerland","address":"Ridder van dorplaan 68","city":"Zuid-Beijerland","operatorName":"Allego","maxPowerKw":11,"isMegawatt":false,"status":"AVAILABLE","source":"ndw","priceKwh":0.511}},{"type":"Feature","geometry":{"type":"Point","coordinates":[4.546643,51.73951]},"properties":{"type":"charge","layer":"passenger","locationId":"NLLOC015983","name":"NL, Rietgansstraat 49, 3291VJ, Strijen","address":"Rietgansstraat 49","city":"Strijen","operatorName":"Allego","maxPowerKw":11,"isMegawatt":false,"status":"AVAILABLE","source":"ndw","priceKwh":0.511}},{"type":"Feature","geometry":{"type":"Point","coordinates":[4.563689,51.785431]},"properties":{"type":"charge","layer":"passenger","locationId":"NLLOC003120","name":"NLD Poelwijk 2, 3299 WG Maasdam","address":"Poelwijk 2","city":"Maasdam","operatorName":"Allego","maxPowerKw":11,"isMegawatt":false,"status":"AVAILABLE","source":"ndw","priceKwh":0.511}},{"type":"Feature","geometry":{"type":"Point","coordinates":[4.557032,51.742263]},"properties":{"type":"charge","layer":"passenger","locationId":"NLLOC000174","name":"NLD, Strijen, Julianastraat 27","address":"Julianastraat 27","city":"Strijen","operatorName":"Allego","maxPowerKw":11,"isMegawatt":false,"status":"AVAILABLE","source":"ndw","priceKwh":0.511}},{"type":"Feature","geometry":{"type":"Point","coordinates":[4.520222,51.812471]},"properties":{"type":"charge","layer":"passenger","locationId":"5ad57201-0ff1-4b2d-b3cc-551880764b5c","name":"Boonsweg","address":"Boonsweg 3 a","city":"Heinenoord","operatorName":"Vattenfall InCharge","maxPowerKw":11,"isMegawatt":false,"status":"CHARGING","source":"ndw","priceKwh":0.38}},{"type":"Feature","geometry":{"type":"MultiPolygon","coordinates":[[[[4.544376840614823,51.69513449013545],[4.548200579686419,51.696539679998835],[4.565559986765408,51.69973407759841],[4.572305113401685,51.700072722586675],[4.554929606883789,51.69685438708403],[4.544376840614823,51.69513449013545]]],[[[4.357144839657688,51.731812681512714],[4.348018935193162,51.730256074255465],[4.338458489685998,51.727208490797445],[4.329735264121259,51.72615539636994],[4.310421754085735,51.72780968207539],[4.299322066037378,51.73100066839764],[4.290866583262554,51.73420717778376],[4.2904726426812045,51.734625585352084],[4.29115153073208,51.73477099040749],[4.291225652473811,51.734917650209894],[4.2912102168075,51.73547218906403],[4.291613278944072,51.735684598361864],[4.291667625939115,51.73579212842739],[4.290240872833918,51.7351001893308],[4.289178698406677,51.735360299062],[4.267763194208932,51.74572688221265],[4.262022418767644,51.746696735550195],[4.258307137353894,51.74864291770518],[4.2583657425569825,51.750060033668376],[4.259367479086011,51.751563435977566],[4.263350150196807,51.75406894039742],[4.269622699772954,51.75305349290264],[4.278588048629075,51.75280988163531],[4.29848267091629,51.749270174443026],[4.311311718315749,51.747113576756426],[4.334275459908845,51.74050377646104],[4.352904791314821,51.736807527413845],[4.357171249108409,51.734665634904516],[4.357144839657688,51.731812681512714]]],[[[4.467119800578059,51.831943828495824],[4.478968716411176,51.83421403651734],[4.489094687917649,51.835395540483674],[4.4992472533650485,51.83524316478502],[4.511490479891068,51.83268433230756],[4.525478346106942,51.82985416091593],[4.531273029952391,51.83019895049932],[4.536294333168157,51.83117713661382],[4.542844175251318,51.83186860222375],[4.548653218024341,51.831763037432964],[4.5536090950631545,51.8298968737387],[4.556345721036497,51.827831837292926],[4.559300636314142,51.8231386979171],[4.560725918487314,51.818735547127865],[4.564462313951245,51.814330178209396],[4.566743609464336,51.812829181036626],[4.5696318225076675,51.81130853686229],[4.578295298743707,51.80835525420553],[4.583083648192075,51.80747998584353],[4.596876092514281,51.806431669179496],[4.597775710152194,51.80629598768214],[4.621221587744014,51.80080394768958],[4.621871674379717,51.79769075907342],[4.623212639714685,51.79241342999271],[4.6268402867079805,51.784751582353294],[4.627421819414494,51.782485769292634],[4.6274952716710684,51.78217220364018],[4.627711826839245,51.7776383457918],[4.626985169489771,51.77290668823052],[4.626928984984302,51.77266338366535],[4.626115141657025,51.766051774998274],[4.627110049957504,51.76028330848939],[4.631121936451162,51.750107119097954],[4.631125942303366,51.741746079531474],[4.626579081310477,51.72825635422671],[4.623596894583145,51.72139590949798],[4.618555163344765,51.72325657601142],[4.605927147000016,51.71706629697194],[4.597023925695734,51.715460824353904],[4.588660955553999,51.712218441288336],[4.588287925347022,51.712535222498516],[4.5901341709248324,51.71355843715553],[4.589371453742272,51.7144452290934],[4.590528426866074,51.71630893358395],[4.590189321581616,51.716334626389504],[4.589051443938877,51.714716077968795],[4.5884767375709625,51.71497384181274],[4.58698231899667,51.71389267738628],[4.588098768630341,51.71202997330575],[4.584387747411011,51.71114251829827],[4.580456828635805,51.71196425524151],[4.574895260382902,51.71067205652908],[4.566364607408168,51.706936918531085],[4.556760298876988,51.70447984783172],[4.534974825461091,51.70190906690307],[4.5304448565036735,51.700642343701624],[4.528823910074385,51.70164104190331],[4.515900117542388,51.70336685607907],[4.511885412625344,51.70449177154588],[4.508715141902929,51.70656067677133],[4.503903079221232,51.70658829145995],[4.498370919570606,51.70827992087321],[4.49291144180094,51.708936710586315],[4.489548786056385,51.71082452553851],[4.475512957490786,51.71296344372036],[4.4682767873483735,51.71495772168556],[4.457988844955961,51.71571812956166],[4.451963721919156,51.715529308915734],[4.451619734009818,51.71785239969176],[4.449790503352811,51.71750776642324],[4.448870600591172,51.71784917130038],[4.4480340952416135,51.71770587119724],[4.448255970101556,51.71686908813116],[4.448977996242935,51.71716073642326],[4.450241025298414,51.71703084736452],[4.451310893488707,51.71660138975402],[4.451567450800735,51.714979425841136],[4.446190252982196,51.715476081702214],[4.444889667029202,51.71703512377197],[4.446703252581923,51.71711371386338],[4.44658614196999,51.71762618315148],[4.4439870609212235,51.71750565776506],[4.445266790332182,51.71545536298629],[4.443127894556122,51.71549374755005],[4.442091373933202,51.71664755579361],[4.438729356020069,51.71560253375426],[4.431984778044491,51.71743526239155],[4.4181335306646705,51.71877859306098],[4.419525314528436,51.72083441821207],[4.418422136200581,51.72096682960661],[4.416913439374721,51.719026390296584],[4.40601998981377,51.72189905051181],[4.403203842675634,51.719300272632324],[4.398231032877431,51.71133423125645],[4.398046095701443,51.711378143385254],[4.397899422756281,51.71141297119866],[4.403309918522161,51.720107884965465],[4.400006147750767,51.72160436918342],[4.402916107427955,51.721384985271555],[4.404230661300043,51.7233282895937],[4.400715598708705,51.72494615225982],[4.384466963055641,51.7305940781505],[4.3835952370127975,51.73175500608294],[4.372841323068442,51.73464702089705],[4.349499037787377,51.743331738147],[4.317199688998709,51.751851274016516],[4.317615829117044,51.754412485442494],[4.316836813334423,51.752139175478455],[4.293067412958448,51.75685785461323],[4.290243249809363,51.757589777649784],[4.290432965575657,51.75772993787002],[4.29590543051923,51.75658100700928],[4.296356255650933,51.7573568733929],[4.290105714443779,51.75855902741313],[4.282220572051224,51.758702983782065],[4.271697533130894,51.76032789628552],[4.257292984452366,51.76422868647857],[4.248950480275827,51.76582980020623],[4.246080746552747,51.767651439182984],[4.240671336152005,51.77094923158036],[4.2360363424686565,51.775565233198265],[4.230889343045229,51.77921295801108],[4.230411932622145,51.78041861106355],[4.232244440147015,51.781721624451926],[4.2373250977508246,51.779858900180585],[4.250417357332586,51.78407877634455],[4.246628489731889,51.78533953790294],[4.264369516370401,51.803396691798895],[4.26859661196503,51.80483938194363],[4.271604796422915,51.80515568135392],[4.2844973586068695,51.8036647518735],[4.295792181231208,51.802111161707224],[4.299039853773897,51.80406122400631],[4.305858568157312,51.808595632643396],[4.3172642428084185,51.81128770753161],[4.330791658095778,51.812974887001005],[4.337085379283255,51.816439071283774],[4.33983471973668,51.81682936221385],[4.3471084195264895,51.817887636656216],[4.3542985889016,51.81916529383182],[4.3690826439600166,51.816981639712544],[4.379195304374284,51.82249770722885],[4.382132142273691,51.82407939389738],[4.3966299184544,51.83103480779886],[4.399136932566628,51.831420435657556],[4.412553316403236,51.829922618647245],[4.415597956767391,51.829668901657485],[4.419013370239977,51.82959054025218],[4.422274331203867,51.83022672427289],[4.428452198719497,51.83421114922068],[4.432482634340814,51.83704631992339],[4.443892836833149,51.83343066964524],[4.450083323938416,51.83217353450108],[4.458562497267077,51.831645429592015],[4.467119800578059,51.831943828495824]]]]},"properties":{"type":"boundary","gemeente":"Hoeksche Waard","code":"GM1963"}}]}