{"type":"FeatureCollection","metadata":{"gemeente":"Hoogeveen","slug":"hoogeveen","code":"GM0118","generated_at":"2026-08-08T12:05:52.020Z","total_passenger":107,"total_freight":1,"bounds":[6.40359885007126,52.65450748745323,6.632413300985521,52.80055695357613],"operators":["50five","Allego","Alva Charging Services","Blink Charging","ChargePoint","DAEN Mobility","E-Flux by Road","Eneco","Green Planet Pesse BV","Laadnet","Laadpaal24","Lanova Laadpalen","Opcharge","Pluq","SMA eMobility Portal","bp pulse"]},"features":[{"type":"Feature","geometry":{"type":"Point","coordinates":[6.478827,52.718764]},"properties":{"type":"charge","layer":"passenger","locationId":"2658415","name":"Laadnet Fantastic Sports","address":"Beukemaplein 66","city":"Hoogeveen","operatorName":"Laadnet","maxPowerKw":22,"isMegawatt":false,"status":"AVAILABLE","source":"ndw"}},{"type":"Feature","geometry":{"type":"Point","coordinates":[6.512475,52.713111]},"properties":{"type":"charge","layer":"passenger","locationId":"922958","name":"DAE_NL_2000775","address":"Buitenvaart 1207","city":"Hoogeveen","operatorName":"DAEN Mobility","maxPowerKw":11,"isMegawatt":false,"status":"UNAVAILABLE","source":"ndw","priceKwh":0.45}},{"type":"Feature","geometry":{"type":"Point","coordinates":[6.50604,52.720157]},"properties":{"type":"charge","layer":"passenger","locationId":"210e7572-69f4-455e-a2f2-b647a8c4930a","name":"bp pulse Zuid Oost","address":"Buizerdlaan 147","city":"Hoogeveen","operatorName":"bp pulse","maxPowerKw":150,"isMegawatt":false,"status":"AVAILABLE","source":"ndw","priceKwh":0.7}},{"type":"Feature","geometry":{"type":"Point","coordinates":[6.503956,52.715751]},"properties":{"type":"charge","layer":"passenger","locationId":"656dda730447a5001ca6544b","name":"De Henkie's station","address":"De Wulp 16","city":"Hoogeveen","operatorName":"E-Flux by Road","maxPowerKw":11,"isMegawatt":false,"status":"CHARGING","source":"ndw","priceKwh":0.43}},{"type":"Feature","geometry":{"type":"Point","coordinates":[6.48006,52.734848]},"properties":{"type":"charge","layer":"passenger","locationId":"66978548214ecf001c86c778","name":"Roelof van Echten College","address":"Voltastraat 27","city":"Hoogeveen","operatorName":"Pluq","maxPowerKw":22,"isMegawatt":false,"status":"AVAILABLE","source":"ndw","priceKwh":0.4}},{"type":"Feature","geometry":{"type":"Point","coordinates":[6.50353,52.73137]},"properties":{"type":"charge","layer":"passenger","locationId":"A4774F42-F167-45C0-BE86-B18E63E387D0","name":"Eneco eMobility Terwolde Renault Hoogeveen","address":"Edisonstraat 24","city":"Hoogeveen","operatorName":"Eneco","maxPowerKw":22,"isMegawatt":false,"status":"AVAILABLE","source":"ndw","priceKwh":0.36}},{"type":"Feature","geometry":{"type":"Point","coordinates":[6.537105,52.722881]},"properties":{"type":"charge","layer":"passenger","locationId":"NLLOC009429","name":"NL, Jan Naardingweg 4, 7914 PM Noordscheschut","address":"Jan Naardingweg 4","city":"Noordscheschut","operatorName":"Allego","maxPowerKw":11,"isMegawatt":false,"status":"AVAILABLE","source":"ndw","priceKwh":0.407}},{"type":"Feature","geometry":{"type":"Point","coordinates":[6.610396,52.708975]},"properties":{"type":"charge","layer":"passenger","locationId":"65ae41b91eb466001b0e5969","name":"PowerUp snelladen","address":"Joh. Poststraat  12","city":"Nieuwlande","operatorName":"Lanova Laadpalen","maxPowerKw":150,"isMegawatt":false,"status":"AVAILABLE","source":"ndw","priceKwh":0.58}},{"type":"Feature","geometry":{"type":"Point","coordinates":[6.510861,52.733682]},"properties":{"type":"charge","layer":"passenger","locationId":"68d10c76b358620fbe905f21","name":"Zonnebeek 2","address":"Parmentierstraat  2","city":"Hoogeveen","operatorName":"E-Flux by Road","maxPowerKw":22,"isMegawatt":false,"status":"AVAILABLE","source":"ndw","priceKwh":0.43}},{"type":"Feature","geometry":{"type":"Point","coordinates":[6.564439,52.761582]},"properties":{"type":"charge","layer":"passenger","locationId":"669793a693db13001cb07e9a","name":"Golfbaan Martensplek","address":"Haarweg 22","city":"Tiendeveen","operatorName":"Pluq","maxPowerKw":22,"isMegawatt":false,"status":"AVAILABLE","source":"ndw","priceKwh":0.34}},{"type":"Feature","geometry":{"type":"Point","coordinates":[6.512034,52.728304]},"properties":{"type":"charge","layer":"passenger","locationId":"922959","name":"DAE_NL_2000727","address":"Pascalstraat 5","city":"Hoogeveen","operatorName":"DAEN Mobility","maxPowerKw":11,"isMegawatt":false,"status":"AVAILABLE","source":"ndw","priceKwh":0.5}},{"type":"Feature","geometry":{"type":"Point","coordinates":[6.461739,52.719881]},"properties":{"type":"charge","layer":"passenger","locationId":"66976e2f214ecf001c860258","name":"Hotel Yume Hoogeveen","address":"Mathijsenstraat 1","city":"Hoogeveen","operatorName":"Pluq","maxPowerKw":22,"isMegawatt":false,"status":"AVAILABLE","source":"ndw","priceKwh":0.35}},{"type":"Feature","geometry":{"type":"Point","coordinates":[6.513149,52.70927]},"properties":{"type":"charge","layer":"passenger","locationId":"NLCPIL6899125","name":"FOURCE BV BUITENVAART 5","address":"1003 Buitenvaart","city":"Hoogeveen","operatorName":"ChargePoint","maxPowerKw":22,"isMegawatt":false,"status":"AVAILABLE","source":"ndw","priceKwh":0.5}},{"type":"Feature","geometry":{"type":"Point","coordinates":[6.444663,52.774272]},"properties":{"type":"charge","layer":"passenger","locationId":"668d148a262ad1001c496dd9","name":"Green Planet Slim Laden","address":"Bultinge 2","city":"Pesse","operatorName":"Green Planet Pesse BV","maxPowerKw":50,"isMegawatt":false,"status":"AVAILABLE","source":"ndw","priceKwh":0.35}},{"type":"Feature","geometry":{"type":"Point","coordinates":[6.483079,52.770876]},"properties":{"type":"charge","layer":"passenger","locationId":"626265111238c14d41dd1f0b","name":"De Oosterweide","address":"Oostering 51","city":"Pesse","operatorName":"E-Flux by Road","maxPowerKw":22,"isMegawatt":false,"status":"AVAILABLE","source":"ndw","priceKwh":0.28}},{"type":"Feature","geometry":{"type":"Point","coordinates":[6.485535,52.732163]},"properties":{"type":"charge","layer":"passenger","locationId":"91231341","name":"50five-S NL 08100986","address":"Industrieweg 31","city":"Hoogeveen","operatorName":"50five","maxPowerKw":22,"isMegawatt":false,"status":"AVAILABLE","source":"ndw"}},{"type":"Feature","geometry":{"type":"Point","coordinates":[6.4681,52.719048]},"properties":{"type":"charge","layer":"passenger","locationId":"651ad443d08b47001f214a29","name":"LadenBijKlok Shell Recharge.","address":"Schutstraat 187","city":"Hoogeveen","operatorName":"E-Flux by Road","maxPowerKw":300,"isMegawatt":false,"status":"AVAILABLE","source":"ndw","priceKwh":0.57}},{"type":"Feature","geometry":{"type":"Point","coordinates":[6.48599,52.726678]},"properties":{"type":"charge","layer":"passenger","locationId":"NLLOC018667","name":"NL, Julianastraat 16, 7902 NK Hoogeveen","address":"Julianastraat 16","city":"Hoogeveen","operatorName":"Allego","maxPowerKw":11,"isMegawatt":false,"status":"AVAILABLE","source":"ndw","priceKwh":0.407}},{"type":"Feature","geometry":{"type":"Point","coordinates":[6.451028,52.719312]},"properties":{"type":"charge","layer":"passenger","locationId":"NLLOC014195","name":"NL, De Weide 4, 7908AB, Hoogeveen","address":"de Weide 4","city":"Hoogeveen","operatorName":"Allego","maxPowerKw":11,"isMegawatt":false,"status":"CHARGING","source":"ndw","priceKwh":0.407}},{"type":"Feature","geometry":{"type":"Point","coordinates":[6.5081,52.719389]},"properties":{"type":"charge","layer":"passenger","locationId":"NLLOC015140","name":"NL, Roerdomplaan 230, 7905 EM Hoogeveen","address":"Roerdomplaan 230","city":"Hoogeveen","operatorName":"Allego","maxPowerKw":11,"isMegawatt":false,"status":"AVAILABLE","source":"ndw","priceKwh":0.407}},{"type":"Feature","geometry":{"type":"Point","coordinates":[6.511431,52.733771]},"properties":{"type":"charge","layer":"passenger","locationId":"68d10a413cee66a2f4553b4c","name":"De Parmentier","address":"Parmentierstraat  2e","city":"Hoogeveen","operatorName":"E-Flux by Road","maxPowerKw":22,"isMegawatt":false,"status":"AVAILABLE","source":"ndw","priceKwh":0.43}},{"type":"Feature","geometry":{"type":"Point","coordinates":[6.510861,52.733682]},"properties":{"type":"charge","layer":"passenger","locationId":"68d10cf346828f66c8b9f11d","name":"Zonnebeek 3","address":"Parmentierstraat  2","city":"Hoogeveen","operatorName":"E-Flux by Road","maxPowerKw":11,"isMegawatt":false,"status":"AVAILABLE","source":"ndw"}},{"type":"Feature","geometry":{"type":"Point","coordinates":[6.418321,52.72309]},"properties":{"type":"charge","layer":"passenger","locationId":"6807afe55dd77a0e99344911","name":"Boerenlodge 't Vennetje","address":"Fluitenbergseweg 93","city":"Fluitenberg","operatorName":"E-Flux by Road","maxPowerKw":11,"isMegawatt":false,"status":"CHARGING","source":"ndw","priceKwh":0.53}},{"type":"Feature","geometry":{"type":"Point","coordinates":[6.486511,52.7318]},"properties":{"type":"charge","layer":"passenger","locationId":"91231263","name":"50five-S NL 18B09534","address":"Industrieweg 31","city":"Hoogeveen","operatorName":"50five","maxPowerKw":22,"isMegawatt":false,"status":"AVAILABLE","source":"ndw"}},{"type":"Feature","geometry":{"type":"Point","coordinates":[6.50423,52.73447]},"properties":{"type":"charge","layer":"passenger","locationId":"1040648B-5183-4B76-8CF0-C56C8EA259D9","name":"Eneco eMobility Edisonstraat 1 Hoogeveen","address":"Edisonstraat 1","city":"Hoogeveen","operatorName":"Eneco","maxPowerKw":22,"isMegawatt":false,"status":"AVAILABLE","source":"ndw","priceKwh":0.32}},{"type":"Feature","geometry":{"type":"Point","coordinates":[6.460845,52.720525]},"properties":{"type":"charge","layer":"passenger","locationId":"NLLOC005680","name":"NLD, Hoogeveen, Curiestraat 395","address":"Curiestraat 395","city":"Hoogeveen","operatorName":"Allego","maxPowerKw":11,"isMegawatt":false,"status":"AVAILABLE","source":"ndw","priceKwh":0.407}},{"type":"Feature","geometry":{"type":"Point","coordinates":[6.512475,52.713111]},"properties":{"type":"charge","layer":"passenger","locationId":"922902","name":"DAE_NL_2000652","address":"Buitenvaart 1207","city":"Hoogeveen","operatorName":"DAEN Mobility","maxPowerKw":11,"isMegawatt":false,"status":"UNAVAILABLE","source":"ndw","priceKwh":0.45}},{"type":"Feature","geometry":{"type":"Point","coordinates":[6.502408,52.735196]},"properties":{"type":"charge","layer":"passenger","locationId":"91107723","name":"50five-S NL 19B09264","address":"Edisonstraat 8","city":"Hoogeveen","operatorName":"50five","maxPowerKw":15,"isMegawatt":false,"status":"UNAVAILABLE","source":"ndw"}},{"type":"Feature","geometry":{"type":"Point","coordinates":[6.517013,52.724955]},"properties":{"type":"charge","layer":"passenger","locationId":"NLLOC006017","name":"NL, Spica 14, 7904 KH, Hoogeveen","address":"Spica 14","city":"Hoogeveen","operatorName":"Allego","maxPowerKw":11,"isMegawatt":false,"status":"AVAILABLE","source":"ndw","priceKwh":0.407}},{"type":"Feature","geometry":{"type":"Point","coordinates":[6.481706,52.737255]},"properties":{"type":"charge","layer":"passenger","locationId":"6421991b164fae0012804317","name":"Wilcovak - Hoogeveen","address":"A.G. Bellstraat 27","city":"Hoogeveen","operatorName":"Alva Charging Services","maxPowerKw":11,"isMegawatt":false,"status":"AVAILABLE","source":"ndw","priceKwh":0.49}},{"type":"Feature","geometry":{"type":"Point","coordinates":[6.538456,52.687018]},"properties":{"type":"charge","layer":"passenger","locationId":"91314565","name":"50five-S NL Location","address":"Zuideropgaande 73A","city":"Hollandscheveld","operatorName":"50five","maxPowerKw":11,"isMegawatt":false,"status":"AVAILABLE","source":"ndw"}},{"type":"Feature","geometry":{"type":"Point","coordinates":[6.539929,52.707359]},"properties":{"type":"charge","layer":"passenger","locationId":"NLLOC006841","name":"NL, Ds Kooimanstraat 52, 7913AX, Hollandscheveld","address":"Ds Kooimanstraat 52","city":"Hollandscheveld","operatorName":"Allego","maxPowerKw":11,"isMegawatt":false,"status":"AVAILABLE","source":"ndw","priceKwh":0.407}},{"type":"Feature","geometry":{"type":"Point","coordinates":[6.45989,52.72716]},"properties":{"type":"charge","layer":"passenger","locationId":"2fc77def025d424788308b84473f1658","name":"Hoogeveen Bethesda P3 (Treant)","address":"Dr G.H. Amshoffweg 1","city":"Hoogeveen","operatorName":"Opcharge","maxPowerKw":22,"isMegawatt":false,"status":"AVAILABLE","source":"ndw","priceKwh":0.48}},{"type":"Feature","geometry":{"type":"Point","coordinates":[6.477797,52.731676]},"properties":{"type":"charge","layer":"passenger","locationId":"91180039","name":"50five-S NL Hoogeveen, Industrieweg 2","address":"Industrieweg 2","city":"Hoogeveen","operatorName":"50five","maxPowerKw":11,"isMegawatt":false,"status":"AVAILABLE","source":"ndw"}},{"type":"Feature","geometry":{"type":"Point","coordinates":[6.481942,52.732186]},"properties":{"type":"charge","layer":"passenger","locationId":"91539320","name":"50five-S NL 04003986","address":"Industrieweg 17","city":"Hoogenveen","operatorName":"50five","maxPowerKw":11,"isMegawatt":false,"status":"AVAILABLE","source":"ndw"}},{"type":"Feature","geometry":{"type":"Point","coordinates":[6.455817,52.711264]},"properties":{"type":"charge","layer":"passenger","locationId":"91057260","name":"50five-S NL 07107971","address":"Reekalf 2","city":"Hoogeveen","operatorName":"50five","maxPowerKw":11,"isMegawatt":false,"status":"AVAILABLE","source":"ndw"}},{"type":"Feature","geometry":{"type":"Point","coordinates":[6.513251,52.709271]},"properties":{"type":"charge","layer":"passenger","locationId":"NLCPIL6899115","name":"FOURCE BV BUITENVAART 4","address":"1003 Buitenvaart","city":"Hoogeveen","operatorName":"ChargePoint","maxPowerKw":22,"isMegawatt":false,"status":"AVAILABLE","source":"ndw","priceKwh":0.5}},{"type":"Feature","geometry":{"type":"Point","coordinates":[6.520159,52.739489]},"properties":{"type":"charge","layer":"passenger","locationId":"68e783b6f77beb6a7a55c7e1","name":"Zuidema Groep","address":"Smirnoffstraat 14","city":"Hoogeveen","operatorName":"E-Flux by Road","maxPowerKw":6,"isMegawatt":false,"status":"AVAILABLE","source":"ndw","priceKwh":0.21}},{"type":"Feature","geometry":{"type":"Point","coordinates":[6.456744,52.710572]},"properties":{"type":"charge","layer":"passenger","locationId":"91065066","name":"50five-S NL 17B02350","address":"Eekhoorn 12","city":"Hoogeveen","operatorName":"50five","maxPowerKw":11,"isMegawatt":false,"status":"CHARGING","source":"ndw"}},{"type":"Feature","geometry":{"type":"Point","coordinates":[6.537168,52.705958]},"properties":{"type":"charge","layer":"passenger","locationId":"63626c928480189f56bf0f05","name":"Bruins  |  administratie  • belasting  • advies","address":"Het Hoekje 24","city":"Hollandscheveld","operatorName":"E-Flux by Road","maxPowerKw":11,"isMegawatt":false,"status":"AVAILABLE","source":"ndw","priceKwh":0.48}},{"type":"Feature","geometry":{"type":"Point","coordinates":[6.517537,52.72917]},"properties":{"type":"charge","layer":"passenger","locationId":"2652173","name":"Laadnet SW Hoogeveen","address":"Stephensonstraat 55","city":"Hoogeveen","operatorName":"Laadnet","maxPowerKw":22,"isMegawatt":false,"status":"AVAILABLE","source":"ndw"}},{"type":"Feature","geometry":{"type":"Point","coordinates":[6.512475,52.713111]},"properties":{"type":"charge","layer":"passenger","locationId":"922901","name":"DAE_NL_2000649","address":"Buitenvaart 1207","city":"Hoogeveen","operatorName":"DAEN Mobility","maxPowerKw":11,"isMegawatt":false,"status":"UNAVAILABLE","source":"ndw","priceKwh":0.45}},{"type":"Feature","geometry":{"type":"Point","coordinates":[6.532364,52.693872]},"properties":{"type":"charge","layer":"passenger","locationId":"60dac6f4f60a2d2a9a5c8b76","name":"Fieten Electric B.V. | Hollandscheveld","address":"Riegshoogtendijk 124","city":"Hollandscheveld","operatorName":"E-Flux by Road","maxPowerKw":22,"isMegawatt":false,"status":"AVAILABLE","source":"ndw","priceKwh":0.32}},{"type":"Feature","geometry":{"type":"Point","coordinates":[6.458861,52.780563]},"properties":{"type":"charge","layer":"passenger","locationId":"62395921","name":"Laadpaal24 62395921","address":"Hendrik Reindersweg 7","city":"Pesse","operatorName":"Laadpaal24","maxPowerKw":22,"isMegawatt":false,"status":"AVAILABLE","source":"ndw"}},{"type":"Feature","geometry":{"type":"Point","coordinates":[6.511369,52.735308]},"properties":{"type":"charge","layer":"passenger","locationId":"91106549","name":"50five-S NL 19B03371","address":"Europaweg 10","city":"Hoogeveen","operatorName":"50five","maxPowerKw":22,"isMegawatt":false,"status":"AVAILABLE","source":"ndw"}},{"type":"Feature","geometry":{"type":"Point","coordinates":[6.51633,52.71403]},"properties":{"type":"charge","layer":"passenger","locationId":"D564E9A2-2416-447E-80F1-6C2B8D7C356A","name":"Eneco eMobility Broekhuis Volvo Ford Hoogeveen","address":"Buitenvaart 1113","city":"Hoogeveen","operatorName":"Eneco","maxPowerKw":22,"isMegawatt":false,"status":"AVAILABLE","source":"ndw","priceKwh":0.45}},{"type":"Feature","geometry":{"type":"Point","coordinates":[6.433254,52.719856]},"properties":{"type":"charge","layer":"passenger","locationId":"91045634","name":"50five-S NL 17B33297","address":"Rietland 24","city":"Hoogeveen","operatorName":"50five","maxPowerKw":11,"isMegawatt":false,"status":"AVAILABLE","source":"ndw"}},{"type":"Feature","geometry":{"type":"Point","coordinates":[6.444896,52.773979]},"properties":{"type":"charge","layer":"passenger","locationId":"6582e46af874ff001d9209cd","name":"Green Planet Cars","address":"Bultinge 2","city":"Pesse","operatorName":"Green Planet Pesse BV","maxPowerKw":300,"isMegawatt":false,"status":"AVAILABLE","source":"ndw","priceKwh":0.67}},{"type":"Feature","geometry":{"type":"Point","coordinates":[6.456011,52.76977]},"properties":{"type":"charge","layer":"passenger","locationId":"91314559","name":"50five-S NL Location","address":"Stijgbeugel 7","city":"Pesse","operatorName":"50five","maxPowerKw":11,"isMegawatt":false,"status":"AVAILABLE","source":"ndw"}},{"type":"Feature","geometry":{"type":"Point","coordinates":[6.514573,52.712087]},"properties":{"type":"charge","layer":"passenger","locationId":"029b6555-29d6-47aa-b574-dfa5e5b61bda","name":"DWB - Bert Jansen -Vanesch - Hoogeveen","address":"Buitenvaart 1206","city":"Hoogeveen","operatorName":"Blink Charging","maxPowerKw":25,"isMegawatt":false,"status":"UNAVAILABLE","source":"ndw","priceKwh":0.42}},{"type":"Feature","geometry":{"type":"Point","coordinates":[6.467497,52.719055]},"properties":{"type":"charge","layer":"passenger","locationId":"64915bf06b4d32001c4ded7f","name":"LadenBijKlok","address":"Schutstraat  191","city":"Hoogeveen","operatorName":"E-Flux by Road","maxPowerKw":22,"isMegawatt":false,"status":"AVAILABLE","source":"ndw","priceKwh":0.45}},{"type":"Feature","geometry":{"type":"Point","coordinates":[6.468008,52.737988]},"properties":{"type":"charge","layer":"passenger","locationId":"91149411","name":"50five-S NL 04000495","address":"De Stroom 8","city":"Hoogeveen","operatorName":"50five","maxPowerKw":7,"isMegawatt":false,"status":"AVAILABLE","source":"ndw"}},{"type":"Feature","geometry":{"type":"Point","coordinates":[6.487758,52.731353]},"properties":{"type":"charge","layer":"passenger","locationId":"91146725","name":"50five-S NL 03009375","address":"Industrieweg 62","city":"Hoogeveen","operatorName":"50five","maxPowerKw":22,"isMegawatt":false,"status":"AVAILABLE","source":"ndw"}},{"type":"Feature","geometry":{"type":"Point","coordinates":[6.555053,52.741979]},"properties":{"type":"charge","layer":"passenger","locationId":"6926f61bb36adeecf6822832","name":"Minicamping en kwekerij \"De Bulte\"","address":"Hoogeveenseweg 8","city":"Tiendeveen","operatorName":"SMA eMobility Portal","maxPowerKw":22,"isMegawatt":false,"status":"AVAILABLE","source":"ndw","priceKwh":0.48}},{"type":"Feature","geometry":{"type":"Point","coordinates":[6.446764,52.709306]},"properties":{"type":"charge","layer":"passenger","locationId":"NLLOC021149","name":"NL, Citroenvlinder 57 7908 XN Hoogeveen","address":"Citroenvlinder 57","city":"Hoogeveen","operatorName":"Allego","maxPowerKw":11,"isMegawatt":false,"status":"AVAILABLE","source":"ndw","priceKwh":0.407}},{"type":"Feature","geometry":{"type":"Point","coordinates":[6.505676,52.729667]},"properties":{"type":"charge","layer":"passenger","locationId":"61dc3996ece09673172d8c62","name":"Parkeerplaats Klaas","address":"Stephensonstraat 3","city":"Hoogeveen","operatorName":"E-Flux by Road","maxPowerKw":22,"isMegawatt":false,"status":"AVAILABLE","source":"ndw"}},{"type":"Feature","geometry":{"type":"Point","coordinates":[6.45856,52.713663]},"properties":{"type":"charge","layer":"passenger","locationId":"91051859","name":"50five-S NL 07118773","address":"Jos van Aalderenlaan 78","city":"Hoogeveen","operatorName":"50five","maxPowerKw":7,"isMegawatt":false,"status":"AVAILABLE","source":"ndw"}},{"type":"Feature","geometry":{"type":"Point","coordinates":[6.491099,52.716755]},"properties":{"type":"charge","layer":"passenger","locationId":"NLLOC005588","name":"NLD, Hoogeveen, Tamboerlaan 16","address":"Tamboerlaan 16","city":"Hoogeveen","operatorName":"Allego","maxPowerKw":11,"isMegawatt":false,"status":"AVAILABLE","source":"ndw","priceKwh":0.407}},{"type":"Feature","geometry":{"type":"Point","coordinates":[6.493559,52.712727]},"properties":{"type":"charge","layer":"passenger","locationId":"NLLOC020946","name":"NL, Spireastraat 24, 7906 KJ Hoogeveen","address":"Spireastraat 24","city":"Hoogeveen","operatorName":"Allego","maxPowerKw":11,"isMegawatt":false,"status":"AVAILABLE","source":"ndw","priceKwh":0.407}},{"type":"Feature","geometry":{"type":"Point","coordinates":[6.53832,52.725168]},"properties":{"type":"charge","layer":"passenger","locationId":"4233734","name":"Laadnet Eurogros BV","address":"Meester Kosterweg 10","city":"Noordscheschut","operatorName":"Laadnet","maxPowerKw":11,"isMegawatt":false,"status":"AVAILABLE","source":"ndw"}},{"type":"Feature","geometry":{"type":"Point","coordinates":[6.513889,52.710084]},"properties":{"type":"charge","layer":"passenger","locationId":"NLCPIL6937505","name":"FOURCE BV BUITENVAART 2","address":"1003 Buitenvaart","city":"Hoogeveen","operatorName":"ChargePoint","maxPowerKw":22,"isMegawatt":false,"status":"AVAILABLE","source":"ndw","priceKwh":0.5}},{"type":"Feature","geometry":{"type":"Point","coordinates":[6.513013,52.710212]},"properties":{"type":"charge","layer":"passenger","locationId":"NLCPIL6887255","name":"FOURCE BV BUITENVAART 1","address":"1003 Buitenvaart","city":"Hoogeveen","operatorName":"ChargePoint","maxPowerKw":22,"isMegawatt":false,"status":"AVAILABLE","source":"ndw","priceKwh":0.5}},{"type":"Feature","geometry":{"type":"Point","coordinates":[6.51299,52.735431]},"properties":{"type":"charge","layer":"passenger","locationId":"682db29c3ba8802ca2534e6f","name":"De Jonge Berging","address":"Europaweg 12","city":"Hoogeveen","operatorName":"E-Flux by Road","maxPowerKw":4,"isMegawatt":false,"status":"AVAILABLE","source":"ndw","priceKwh":0.41}},{"type":"Feature","geometry":{"type":"Point","coordinates":[6.475578,52.719543]},"properties":{"type":"charge","layer":"passenger","locationId":"NLLOC005449","name":"NLD, Hoogeveen, Schutsplein 22","address":"Schutsplein 22","city":"Hoogeveen","operatorName":"Allego","maxPowerKw":11,"isMegawatt":false,"status":"AVAILABLE","source":"ndw","priceKwh":0.407}},{"type":"Feature","geometry":{"type":"Point","coordinates":[6.457105,52.71155]},"properties":{"type":"charge","layer":"passenger","locationId":"3964876","name":"Laadnet Snijders","address":"Damhert 15","city":"Hoogeveen","operatorName":"Laadnet","maxPowerKw":11,"isMegawatt":false,"status":"CHARGING","source":"ndw"}},{"type":"Feature","geometry":{"type":"Point","coordinates":[6.510861,52.733682]},"properties":{"type":"charge","layer":"passenger","locationId":"68d10beae69f2f65a27a2fdd","name":"Zonnebeek 1","address":"Parmentierstraat  2","city":"Hoogeveen","operatorName":"E-Flux by Road","maxPowerKw":22,"isMegawatt":false,"status":"AVAILABLE","source":"ndw","priceKwh":0.43}},{"type":"Feature","geometry":{"type":"Point","coordinates":[6.517399,52.729434]},"properties":{"type":"charge","layer":"passenger","locationId":"91276483","name":"50five-S NL 09101543","address":"Stephensonstraat 55","city":"Hoogeveen","operatorName":"50five","maxPowerKw":22,"isMegawatt":false,"status":"AVAILABLE","source":"ndw"}},{"type":"Feature","geometry":{"type":"Point","coordinates":[6.480251,52.7387]},"properties":{"type":"charge","layer":"passenger","locationId":"65f4280fbf6251001c6be941","name":"Autoprofi Laadpunt 2","address":"A.G. Bellstraat 31b","city":"Hoogeveen","operatorName":"E-Flux by Road","maxPowerKw":22,"isMegawatt":false,"status":"AVAILABLE","source":"ndw","priceKwh":0.26}},{"type":"Feature","geometry":{"type":"Point","coordinates":[6.480251,52.7387]},"properties":{"type":"charge","layer":"passenger","locationId":"65f42713fe7947001cf8d83d","name":"Autoprofi Laadpunt 1","address":"A.G. Bellstraat 31b","city":"Hoogeveen","operatorName":"E-Flux by Road","maxPowerKw":22,"isMegawatt":false,"status":"AVAILABLE","source":"ndw","priceKwh":0.26}},{"type":"Feature","geometry":{"type":"Point","coordinates":[6.50954,52.73493]},"properties":{"type":"charge","layer":"passenger","locationId":"11B907BF-F8D4-4BA8-AE54-A5EF82C2A1C5","name":"Eneco eMobility Europaweg 8A, Hoogeveen","address":"Europaweg 8A","city":"Hoogeveen","operatorName":"Eneco","maxPowerKw":22,"isMegawatt":false,"status":"AVAILABLE","source":"ndw","priceKwh":0.32}},{"type":"Feature","geometry":{"type":"Point","coordinates":[6.441029,52.710251]},"properties":{"type":"charge","layer":"passenger","locationId":"91314574","name":"50five-S NL Location","address":"Brasem 31","city":"Hoogeveen","operatorName":"50five","maxPowerKw":11,"isMegawatt":false,"status":"AVAILABLE","source":"ndw"}},{"type":"Feature","geometry":{"type":"Point","coordinates":[6.488192,52.712706]},"properties":{"type":"charge","layer":"passenger","locationId":"NLLOC009251","name":"NL, Begoniastraat 31, 7906 JA, Hoogeveen","address":"Begoniastraat 31","city":"Hoogeveen","operatorName":"Allego","maxPowerKw":11,"isMegawatt":false,"status":"AVAILABLE","source":"ndw","priceKwh":0.407}},{"type":"Feature","geometry":{"type":"Point","coordinates":[6.508475,52.721274]},"properties":{"type":"charge","layer":"passenger","locationId":"NLLOC010849","name":"NL, Saturnus 44, 7904 GB, Hoogeveen","address":"Saturnus 44","city":"Hoogeveen","operatorName":"Allego","maxPowerKw":11,"isMegawatt":false,"status":"AVAILABLE","source":"ndw","priceKwh":0.407}},{"type":"Feature","geometry":{"type":"Point","coordinates":[6.483149,52.731918]},"properties":{"type":"charge","layer":"passenger","locationId":"91299453","name":"50five-S NL 04002168","address":"Industrieweg","city":"Hoogeveen","operatorName":"50five","maxPowerKw":11,"isMegawatt":false,"status":"UNAVAILABLE","source":"ndw"}},{"type":"Feature","geometry":{"type":"Point","coordinates":[6.508564,52.733285]},"properties":{"type":"charge","layer":"passenger","locationId":"3651045","name":"Laadnet LB Hoogeveen","address":"Europaweg 1","city":"Hoogeveen","operatorName":"Laadnet","maxPowerKw":22,"isMegawatt":false,"status":"AVAILABLE","source":"ndw"}},{"type":"Feature","geometry":{"type":"Point","coordinates":[6.482318,52.732311]},"properties":{"type":"charge","layer":"passenger","locationId":"91106591","name":"50five-S NL 04002129","address":"Industrieweg 17","city":"Hoogeveen","operatorName":"50five","maxPowerKw":7,"isMegawatt":false,"status":"AVAILABLE","source":"ndw"}},{"type":"Feature","geometry":{"type":"Point","coordinates":[6.433754,52.709027]},"properties":{"type":"charge","layer":"passenger","locationId":"91179924","name":"50five-S NL Hoogeveen, Koedijk 2","address":"Koedijk 2","city":"Hoogeveen","operatorName":"50five","maxPowerKw":11,"isMegawatt":false,"status":"AVAILABLE","source":"ndw"}},{"type":"Feature","geometry":{"type":"Point","coordinates":[6.487182,52.731922]},"properties":{"type":"charge","layer":"passenger","locationId":"91230313","name":"50five-S NL 04001618","address":"Industrieweg 31","city":"Hoogeveen","operatorName":"50five","maxPowerKw":7,"isMegawatt":false,"status":"UNAVAILABLE","source":"ndw"}},{"type":"Feature","geometry":{"type":"Point","coordinates":[6.44466,52.713965]},"properties":{"type":"charge","layer":"passenger","locationId":"91053155","name":"50five-S NL 17B13560","address":"De waring 16","city":"Hoogeveen","operatorName":"50five","maxPowerKw":11,"isMegawatt":false,"status":"UNAVAILABLE","source":"ndw"}},{"type":"Feature","geometry":{"type":"Point","coordinates":[6.445379,52.710256]},"properties":{"type":"charge","layer":"passenger","locationId":"NLLOC011316","name":"NL, Zilvervlek, 47, 7908vl, Hoogeveen","address":"Zilvervlek 47","city":"Hoogeveen","operatorName":"Allego","maxPowerKw":11,"isMegawatt":false,"status":"AVAILABLE","source":"ndw","priceKwh":0.407}},{"type":"Feature","geometry":{"type":"Point","coordinates":[6.514901,52.728664]},"properties":{"type":"charge","layer":"passenger","locationId":"923057","name":"Akupanel_DAE_NL_2000835","address":"Nobelstraat 2","city":"Hoogeveen","operatorName":"DAEN Mobility","maxPowerKw":11,"isMegawatt":false,"status":"AVAILABLE","source":"ndw","priceKwh":0.54}},{"type":"Feature","geometry":{"type":"Point","coordinates":[6.467558,52.719055]},"properties":{"type":"charge","layer":"passenger","locationId":"6491546e01377b001c308a4b","name":"LadenBijKlok","address":"Schutstraat  191","city":"Hoogeveen","operatorName":"E-Flux by Road","maxPowerKw":22,"isMegawatt":false,"status":"AVAILABLE","source":"ndw","priceKwh":0.45}},{"type":"Feature","geometry":{"type":"Point","coordinates":[6.448792,52.711767]},"properties":{"type":"charge","layer":"passenger","locationId":"NLLOC016138","name":"NL, Keizersmantel 69, 7908XA, Hoogeveen","address":"Keizersmantel 69","city":"Hoogeveen","operatorName":"Allego","maxPowerKw":11,"isMegawatt":false,"status":"AVAILABLE","source":"ndw","priceKwh":0.407}},{"type":"Feature","geometry":{"type":"Point","coordinates":[6.48868,52.730087]},"properties":{"type":"charge","layer":"passenger","locationId":"91163818","name":"50five Exploitatie Trivium Hoogeveen","address":"Newtonstraat 16","city":"Hoogeveen","operatorName":"50five","maxPowerKw":11,"isMegawatt":false,"status":"AVAILABLE","source":"ndw"}},{"type":"Feature","geometry":{"type":"Point","coordinates":[6.476572,52.72131]},"properties":{"type":"charge","layer":"passenger","locationId":"NLLOC007105","name":"NL, Reviusplein 71, 7901 EW, Hoogeveen","address":"Reviusplein 71","city":"Hoogeveen","operatorName":"Allego","maxPowerKw":11,"isMegawatt":false,"status":"AVAILABLE","source":"ndw","priceKwh":0.407}},{"type":"Feature","geometry":{"type":"Point","coordinates":[6.510001,52.733633]},"properties":{"type":"charge","layer":"passenger","locationId":"68d10b5d6aa214bc0e9b39bb","name":"GGM Gastro","address":"Parmentierstraat  2b","city":"Hoogeveen","operatorName":"E-Flux by Road","maxPowerKw":22,"isMegawatt":false,"status":"AVAILABLE","source":"ndw","priceKwh":0.43}},{"type":"Feature","geometry":{"type":"Point","coordinates":[6.467457,52.712873]},"properties":{"type":"charge","layer":"passenger","locationId":"4282117","name":"Laadnet Ballista","address":"Beukencamp 6","city":"Hoogeveen","operatorName":"Laadnet","maxPowerKw":22,"isMegawatt":false,"status":"UNAVAILABLE","source":"ndw"}},{"type":"Feature","geometry":{"type":"Point","coordinates":[6.505955,52.729498]},"properties":{"type":"charge","layer":"passenger","locationId":"61dc3849be126f6846675da5","name":"Parkeerplaats vlaggenmast","address":"Stephensonstraat 3VM","city":"Hoogeveen","operatorName":"E-Flux by Road","maxPowerKw":22,"isMegawatt":false,"status":"AVAILABLE","source":"ndw","priceKwh":0.28}},{"type":"Feature","geometry":{"type":"Point","coordinates":[6.486863,52.722481]},"properties":{"type":"charge","layer":"passenger","locationId":"NLLOC019293","name":"NL, K de Raadstraat 18, 7902JD, Hoogeveen","address":"K de Raadstraat 18","city":"Hoogeveen","operatorName":"Allego","maxPowerKw":11,"isMegawatt":false,"status":"AVAILABLE","source":"ndw","priceKwh":0.407}},{"type":"Feature","geometry":{"type":"Point","coordinates":[6.51643,52.7121]},"properties":{"type":"charge","layer":"passenger","locationId":"46E91708-BD00-49DA-BECF-6B25F8325E44","name":"Eneco eMobility Van der Linden Auto's - Hoogeveen","address":"Buitenvaart 1107A","city":"Hoogeveen","operatorName":"Eneco","maxPowerKw":22,"isMegawatt":false,"status":"AVAILABLE","source":"ndw","priceKwh":0.6}},{"type":"Feature","geometry":{"type":"Point","coordinates":[6.514659,52.729401]},"properties":{"type":"charge","layer":"passenger","locationId":"3966648","name":"Laadnet Concordia Hoogeveen","address":"Stephensonstraat 39","city":"Hoogeveen","operatorName":"Laadnet","maxPowerKw":22,"isMegawatt":false,"status":"AVAILABLE","source":"ndw"}},{"type":"Feature","geometry":{"type":"Point","coordinates":[6.513207,52.711127]},"properties":{"type":"charge","layer":"passenger","locationId":"AA2EC0A2-0F73-48EB-A36F-ACA34E2DE1BD","name":"Eneco eMobility Visser & Smit Hanab Distributie BV - Hoogeveen","address":"Buitenvaart 1201","city":"Hoogeveen","operatorName":"Eneco","maxPowerKw":11,"isMegawatt":false,"status":"UNAVAILABLE","source":"ndw","priceKwh":0.33}},{"type":"Feature","geometry":{"type":"Point","coordinates":[6.550084,52.759763]},"properties":{"type":"charge","layer":"passenger","locationId":"6686b73fffc661001c05e014","name":"Camping de Beukenhof","address":"Kanaal Oostzijde 15","city":"Tiendeveen","operatorName":"Pluq","maxPowerKw":22,"isMegawatt":false,"status":"AVAILABLE","source":"ndw","priceKwh":0.33}},{"type":"Feature","geometry":{"type":"Point","coordinates":[6.5009,52.71705]},"properties":{"type":"charge","layer":"passenger","locationId":"NLLOC018424","name":"NL, Spechtlaan 25, 7905 HH Hoogeveen","address":"Spechtlaan 25","city":"Hoogeveen","operatorName":"Allego","maxPowerKw":11,"isMegawatt":false,"status":"AVAILABLE","source":"ndw","priceKwh":0.407}},{"type":"Feature","geometry":{"type":"Point","coordinates":[6.470649,52.73137]},"properties":{"type":"charge","layer":"passenger","locationId":"3966374","name":"Laadnet Stichting IT Hub","address":"Griendtsveenweg 29","city":"Hoogeveen","operatorName":"Laadnet","maxPowerKw":22,"isMegawatt":false,"status":"AVAILABLE","source":"ndw"}},{"type":"Feature","geometry":{"type":"Point","coordinates":[6.511949,52.721768]},"properties":{"type":"charge","layer":"passenger","locationId":"NLLOC013395","name":"NL, Neptunus 1, 7904GD, Hoogeveen","address":"Neptunus 1","city":"Hoogeveen","operatorName":"Allego","maxPowerKw":11,"isMegawatt":false,"status":"AVAILABLE","source":"ndw","priceKwh":0.407}},{"type":"Feature","geometry":{"type":"Point","coordinates":[6.455692,52.769624]},"properties":{"type":"charge","layer":"passenger","locationId":"NLLOC012488","name":"NL, Stijgbeugel 3, 7933TE, Pesse","address":"Stijgbeugel 3","city":"Pesse","operatorName":"Allego","maxPowerKw":11,"isMegawatt":false,"status":"AVAILABLE","source":"ndw","priceKwh":0.407}},{"type":"Feature","geometry":{"type":"Point","coordinates":[6.469555,52.71847]},"properties":{"type":"charge","layer":"passenger","locationId":"NLLOC011239","name":"NL, Oldenbandringhstraat 7, 7907CT, Hoogeveen","address":"Oldenbandringhstraat 7","city":"Hoogeveen","operatorName":"Allego","maxPowerKw":11,"isMegawatt":false,"status":"AVAILABLE","source":"ndw","priceKwh":0.407}},{"type":"Feature","geometry":{"type":"Point","coordinates":[6.501344,52.718992]},"properties":{"type":"charge","layer":"passenger","locationId":"NLLOC012035","name":"NL, De Fazant 41, 7905HB, Hoogeveen","address":"De Fazant 41","city":"Hoogeveen","operatorName":"Allego","maxPowerKw":11,"isMegawatt":false,"status":"AVAILABLE","source":"ndw","priceKwh":0.407}},{"type":"Feature","geometry":{"type":"Point","coordinates":[6.455061,52.771176]},"properties":{"type":"charge","layer":"passenger","locationId":"NLLOC023896","name":"NL, Veldbrake 5, 7933 PW Pesse","address":"Veldbrake 5","city":"Pesse","operatorName":"Allego","maxPowerKw":11,"isMegawatt":false,"status":"AVAILABLE","source":"ndw","priceKwh":0.407}},{"type":"Feature","geometry":{"type":"Point","coordinates":[6.484417,52.716597]},"properties":{"type":"charge","layer":"passenger","locationId":"NLLOC014716","name":"NL, Tamboerlaan, 117-G008, 7906EE, Hoogeveen","address":"Tamboerlaan 117-G008","city":"Hoogeveen","operatorName":"Allego","maxPowerKw":11,"isMegawatt":false,"status":"AVAILABLE","source":"ndw","priceKwh":0.407}},{"type":"Feature","geometry":{"type":"Point","coordinates":[6.479809,52.726648]},"properties":{"type":"charge","layer":"passenger","locationId":"NLLOC019294","name":"NL, Tamboerpassage 40, 7902GN, Hoogeveen","address":"Tamboerpassage 40","city":"Hoogeveen","operatorName":"Allego","maxPowerKw":11,"isMegawatt":false,"status":"AVAILABLE","source":"ndw","priceKwh":0.407}},{"type":"Feature","geometry":{"type":"Point","coordinates":[6.449414,52.714516]},"properties":{"type":"charge","layer":"passenger","locationId":"NLLOC019378","name":"NL, Booyenverlaat 6, 7908EE, Hoogeveen","address":"Booyenverlaat 6","city":"Hoogeveen","operatorName":"Allego","maxPowerKw":11,"isMegawatt":false,"status":"AVAILABLE","source":"ndw","priceKwh":0.407}},{"type":"Feature","geometry":{"type":"Point","coordinates":[6.501809,52.734263]},"properties":{"type":"charge","layer":"passenger","locationId":"91107631","name":"50five-S NL 18B03313","address":"Dieselstraat 5","city":"Hoogeveen","operatorName":"50five","maxPowerKw":22,"isMegawatt":false,"status":"AVAILABLE","source":"ndw"}},{"type":"Feature","geometry":{"type":"Point","coordinates":[6.486888,52.731795]},"properties":{"type":"charge","layer":"passenger","locationId":"91231202","name":"50five-S NL 18B09580","address":"Industrieweg 31","city":"Hoogeveen","operatorName":"50five","maxPowerKw":22,"isMegawatt":false,"status":"AVAILABLE","source":"ndw"}},{"type":"Feature","geometry":{"type":"Point","coordinates":[6.481147,52.716832]},"properties":{"type":"charge","layer":"passenger","locationId":"67ebf97d1afaa1419dba6f29","name":"Bosch Car Service van der Weide","address":"Tamboerlaan 1","city":"Hoogeveen","operatorName":"E-Flux by Road","maxPowerKw":22,"isMegawatt":false,"status":"AVAILABLE","source":"ndw","priceKwh":0.4876}},{"type":"Feature","geometry":{"type":"Point","coordinates":[6.508111,52.71791]},"properties":{"type":"charge","layer":"passenger","locationId":"NLLOC010873","name":"NL, Leeuweriklaan 118, 7905 CD, Hoogeveen","address":"Leeuweriklaan 118","city":"Hoogeveen","operatorName":"Allego","maxPowerKw":11,"isMegawatt":false,"status":"AVAILABLE","source":"ndw","priceKwh":0.407}},{"type":"Feature","geometry":{"type":"Point","coordinates":[6.445752,52.773367]},"properties":{"type":"charge","layer":"freight","locationId":"65a654352504b1001cb0b431","name":"Green Planet Trucks","address":"Bultinge 2","city":"Pesse","operatorName":"Green Planet Pesse BV","maxPowerKw":300,"isMegawatt":false,"status":"AVAILABLE","source":"ndw","priceKwh":0.67,"freightKind":"dedicated","freightReason":"truck-name"}},{"type":"Feature","geometry":{"type":"MultiPolygon","coordinates":[[[[6.503364850666767,52.769346510132834],[6.505539244141475,52.76807475427975],[6.507904489182101,52.76884759775812],[6.512792868240242,52.76210093672284],[6.5353676363393065,52.768104680195684],[6.537521198528686,52.76523458849797],[6.566277700908759,52.765577230748875],[6.5624301987263305,52.75669477422569],[6.557578067338626,52.745350322808115],[6.5596615964894225,52.74506558907567],[6.57078010634909,52.740793327587006],[6.573220091999722,52.73985798915379],[6.574036849975984,52.74052354913723],[6.5758658874767715,52.73981245195839],[6.587468112292653,52.73569003412634],[6.576822074341797,52.72555590091345],[6.576429321001488,52.72426590470817],[6.5967801261953545,52.72354687377208],[6.595795642498122,52.71321794550715],[6.607196350540804,52.71276107270059],[6.629938110469702,52.71272233611637],[6.628842953104356,52.69641517153306],[6.630390365397725,52.69061620904222],[6.632413300985521,52.68672994119033],[6.632095906386509,52.68096164754953],[6.632125574000066,52.67865931231395],[6.631768477771051,52.673872790936265],[6.629453980436505,52.66968831206108],[6.614527582931659,52.674049345569415],[6.612980921468444,52.67383835971611],[6.6038016103272525,52.672585421702934],[6.581020163221832,52.66946873296055],[6.5528220938601365,52.665595090193115],[6.547746583432732,52.663971498081146],[6.529381286033439,52.65450748745323],[6.530069774313886,52.66461560163065],[6.530556459626456,52.67247253186602],[6.502418455205732,52.673460221268826],[6.499552302081673,52.67355424817961],[6.499774465135505,52.67564309312352],[6.492574310144654,52.675971066753725],[6.492926428207994,52.683587145510046],[6.484852409847497,52.68424595287974],[6.485980794755623,52.69363296333683],[6.474699486759672,52.6942078171311],[6.463319764329775,52.693307942194096],[6.462814855130304,52.695203220320224],[6.448676832681408,52.69378793918707],[6.451311852475411,52.699406068268075],[6.4498759316452325,52.70527513840426],[6.4511418357112,52.70698191624773],[6.435646815847246,52.70609635747476],[6.426518746577685,52.704778873555455],[6.41966595390628,52.70165581154709],[6.416222143513548,52.70346418997633],[6.407167614926508,52.70679594768349],[6.4047496581249455,52.704675719299935],[6.40359885007126,52.705999233986304],[6.404726211707562,52.70912159245796],[6.405588777360517,52.71258327909535],[6.407176145572235,52.713824901944996],[6.409933613154436,52.71429574655698],[6.413202851734348,52.716209210607154],[6.414365027503498,52.71726158909148],[6.414195643070346,52.71940473946807],[6.414636840949637,52.720220766737356],[6.413246630324442,52.720560960811426],[6.406802379280176,52.72841044043184],[6.421325358984182,52.73141563895565],[6.415406598718258,52.74083373112668],[6.423192409124893,52.743000445118255],[6.422461416180025,52.7451394740714],[6.420522714858622,52.74822738445245],[6.426285496087128,52.751423024018976],[6.419402923488648,52.75599457618409],[6.416144296636615,52.7553175009574],[6.410139807140729,52.76488742361612],[6.413890528484057,52.76605982351704],[6.431523412721439,52.76862394744092],[6.436458564598503,52.770398834345364],[6.440598033703746,52.77291374206489],[6.442976485382819,52.774485824368526],[6.446152100239241,52.776095779338235],[6.446214090702033,52.77772822210601],[6.4464904569088075,52.781542254095676],[6.446920075219792,52.78588962185603],[6.449733837531495,52.79276384235727],[6.455450486012235,52.80055695357613],[6.478490632718518,52.79584826147475],[6.491804904714716,52.79312376091905],[6.496164144293279,52.78622509349159],[6.490847960302805,52.77088374640035],[6.503364850666767,52.769346510132834]]]]},"properties":{"type":"boundary","gemeente":"Hoogeveen","code":"GM0118"}}]}