{"type":"FeatureCollection","metadata":{"gemeente":"Huizen","slug":"huizen","code":"GM0406","generated_at":"2026-08-08T12:05:52.020Z","total_passenger":182,"total_freight":0,"bounds":[5.184702685192581,52.2671155363467,5.287809744817028,52.315913810721824],"operators":["50five","E-Flux by Road","Eneco","JOLT Energy","Laadnet","Laadpaal24","Lidl","NRG Accounting","TotalEnergies","Ubitricity","Vattenfall InCharge"]},"features":[{"type":"Feature","geometry":{"type":"Point","coordinates":[5.25411,52.300055]},"properties":{"type":"charge","layer":"passenger","locationId":"43f072c2752f77d0064cd1e69e3fadf4","name":"Look 30","address":"Look 30","city":"Huizen","operatorName":"Vattenfall InCharge","maxPowerKw":11,"isMegawatt":false,"status":"AVAILABLE","source":"ndw","priceKwh":0.2805}},{"type":"Feature","geometry":{"type":"Point","coordinates":[5.252633,52.29893]},"properties":{"type":"charge","layer":"passenger","locationId":"F1C7B4B6-1AE8-4E93-ACC3-28D74363450B","name":"PP005424 - Mos 17, Huizen","address":"17 Mos","city":"Huizen","operatorName":"TotalEnergies","maxPowerKw":11,"isMegawatt":false,"status":"UNAVAILABLE","source":"ndw"}},{"type":"Feature","geometry":{"type":"Point","coordinates":[5.277762,52.2968]},"properties":{"type":"charge","layer":"passenger","locationId":"0282693c-374c-4b7f-9ec8-d0e79df7f470","name":"TNLP015096 - Pythagoraspark 2, Huizen","address":"2 Pythagoraspark","city":"Huizen","operatorName":"TotalEnergies","maxPowerKw":17,"isMegawatt":false,"status":"AVAILABLE","source":"ndw"}},{"type":"Feature","geometry":{"type":"Point","coordinates":[5.241219,52.291344]},"properties":{"type":"charge","layer":"passenger","locationId":"5CBCCD44-FB7D-4652-BC2C-6D8764D14ABD","name":"TNLP008247 - Lindenlaan 139, Huizen","address":"139 Lindenlaan","city":"Huizen","operatorName":"TotalEnergies","maxPowerKw":17,"isMegawatt":false,"status":"AVAILABLE","source":"ndw"}},{"type":"Feature","geometry":{"type":"Point","coordinates":[5.2374134,52.30668]},"properties":{"type":"charge","layer":"passenger","locationId":"26750140-d614-48be-8e09-68200eb9f04f","name":"EV Hub - IJsselmeerstraat 1, Huizen","address":"1 IJsselmeerstraat","city":"Huizen","operatorName":"TotalEnergies","maxPowerKw":50,"isMegawatt":false,"status":"AVAILABLE","source":"ndw"}},{"type":"Feature","geometry":{"type":"Point","coordinates":[5.237613,52.303355]},"properties":{"type":"charge","layer":"passenger","locationId":"91203264","name":"50five-S NL 09000452","address":"Botterstraat 47","city":"Huizen","operatorName":"50five","maxPowerKw":11,"isMegawatt":false,"status":"AVAILABLE","source":"ndw"}},{"type":"Feature","geometry":{"type":"Point","coordinates":[5.2621646,52.294838]},"properties":{"type":"charge","layer":"passenger","locationId":"1108","name":"Shell Recharge NL Monnickskamp 3","address":"Monnickskamp 3","city":"Huizen","operatorName":"Ubitricity","maxPowerKw":22,"isMegawatt":false,"status":"CHARGING","source":"ndw","priceKwh":0.267}},{"type":"Feature","geometry":{"type":"Point","coordinates":[5.209222,52.276814]},"properties":{"type":"charge","layer":"passenger","locationId":"d549a2c5f89245099b0dd85a8974c461","name":"Bouwlocatie Koopmans Trappenberg","address":"Crailoseweg 116","city":"Huizen","operatorName":"NRG Accounting","maxPowerKw":11,"isMegawatt":false,"status":"UNAVAILABLE","source":"ndw","priceKwh":0.57}},{"type":"Feature","geometry":{"type":"Point","coordinates":[5.261222,52.2925]},"properties":{"type":"charge","layer":"passenger","locationId":"FF494FD5-9341-4D88-911A-F2593FA8327A","name":"TNLP008076 - Radboud 25, Huizen","address":"25 Radboud","city":"Huizen","operatorName":"TotalEnergies","maxPowerKw":15,"isMegawatt":false,"status":"AVAILABLE","source":"ndw"}},{"type":"Feature","geometry":{"type":"Point","coordinates":[5.257784,52.305893]},"properties":{"type":"charge","layer":"passenger","locationId":"07E89F0B-4BA9-47DD-ACA0-B2C18EA92D28","name":"TNLP006753 - Zomerkade 122, Huizen","address":"122 Zomerkade","city":"Huizen","operatorName":"TotalEnergies","maxPowerKw":17,"isMegawatt":false,"status":"AVAILABLE","source":"ndw"}},{"type":"Feature","geometry":{"type":"Point","coordinates":[5.23829,52.303742]},"properties":{"type":"charge","layer":"passenger","locationId":"91107495","name":"50five-S NL 08000734","address":"Botterstraat 47","city":"Huizen","operatorName":"50five","maxPowerKw":11,"isMegawatt":false,"status":"AVAILABLE","source":"ndw"}},{"type":"Feature","geometry":{"type":"Point","coordinates":[5.271649,52.298534]},"properties":{"type":"charge","layer":"passenger","locationId":"C1B84BEC-E20D-4663-9245-3F88EBCF0042","name":"TNLP005917 - Bovenmaatweg 338, Huizen","address":"338 Bovenmaatweg","city":"Huizen","operatorName":"TotalEnergies","maxPowerKw":11,"isMegawatt":false,"status":"AVAILABLE","source":"ndw"}},{"type":"Feature","geometry":{"type":"Point","coordinates":[5.265766,52.291277]},"properties":{"type":"charge","layer":"passenger","locationId":"6c715014-aa5e-46e6-9aab-4da426e6b9f2","name":"Salamander","address":"Salamander 2","city":"Huizen","operatorName":"Vattenfall InCharge","maxPowerKw":11,"isMegawatt":false,"status":"UNAVAILABLE","source":"ndw","priceKwh":0.4316}},{"type":"Feature","geometry":{"type":"Point","coordinates":[5.236772,52.30532]},"properties":{"type":"charge","layer":"passenger","locationId":"6c9f31ee-b0ff-4e8f-8434-9f2d1294162c","name":"Lidl Huizen","address":"Warandebergstraat","city":"Huizen","operatorName":"Lidl","maxPowerKw":50,"isMegawatt":false,"status":"AVAILABLE","source":"ndw"}},{"type":"Feature","geometry":{"type":"Point","coordinates":[5.235704,52.305281]},"properties":{"type":"charge","layer":"passenger","locationId":"eb8361f7-ea8f-42c0-a2ac-89a1177d5426","name":"Lidl HUIZEN","address":"Warandebergstraat","city":"Huizen","operatorName":"Lidl","maxPowerKw":11,"isMegawatt":false,"status":"AVAILABLE","source":"ndw"}},{"type":"Feature","geometry":{"type":"Point","coordinates":[5.237594,52.300655]},"properties":{"type":"charge","layer":"passenger","locationId":"04C4CD1A-4BD0-481B-B0DA-C51AEC8A0E74","name":"PP005225 - Eemlandweg 2, Huizen","address":"2 Eemlandweg","city":"Huizen","operatorName":"TotalEnergies","maxPowerKw":11,"isMegawatt":false,"status":"AVAILABLE","source":"ndw"}},{"type":"Feature","geometry":{"type":"Point","coordinates":[5.248451,52.301254]},"properties":{"type":"charge","layer":"passenger","locationId":"AD1AA968-91C2-4119-9746-E6FC9E7BB354","name":"TNLP007542 - Kropaar 1, Huizen","address":"1 Kropaar","city":"Huizen","operatorName":"TotalEnergies","maxPowerKw":17,"isMegawatt":false,"status":"AVAILABLE","source":"ndw"}},{"type":"Feature","geometry":{"type":"Point","coordinates":[5.27365,52.29413]},"properties":{"type":"charge","layer":"passenger","locationId":"137","name":"Shell Recharge NL Augustinuslaan 23","address":"Augustinuslaan 23","city":"Huizen","operatorName":"Ubitricity","maxPowerKw":11,"isMegawatt":false,"status":"AVAILABLE","source":"ndw","priceKwh":0.392}},{"type":"Feature","geometry":{"type":"Point","coordinates":[5.250607,52.2927941]},"properties":{"type":"charge","layer":"passenger","locationId":"1119","name":"Shell Recharge NL Greppelweg 12","address":"Greppelweg 12","city":"Huizen","operatorName":"Ubitricity","maxPowerKw":22,"isMegawatt":false,"status":"AVAILABLE","source":"ndw","priceKwh":0.267}},{"type":"Feature","geometry":{"type":"Point","coordinates":[5.253845,52.302931]},"properties":{"type":"charge","layer":"passenger","locationId":"210","name":"Shell Recharge NL Onderwei 28","address":"Onderwei 28","city":"Huizen","operatorName":"Ubitricity","maxPowerKw":11,"isMegawatt":false,"status":"AVAILABLE","source":"ndw","priceKwh":0.392}},{"type":"Feature","geometry":{"type":"Point","coordinates":[5.238365,52.302311]},"properties":{"type":"charge","layer":"passenger","locationId":"4235714","name":"Laadnet Vooruit Huizen B.V.","address":"Rokerijweg 2","city":"Huizen","operatorName":"Laadnet","maxPowerKw":22,"isMegawatt":false,"status":"AVAILABLE","source":"ndw"}},{"type":"Feature","geometry":{"type":"Point","coordinates":[5.239802,52.29588]},"properties":{"type":"charge","layer":"passenger","locationId":"B4630E14-3546-44C3-A6C8-2239B5501196","name":"PP005410 - Langestraat 57, Huizen","address":"57 Langestraat","city":"Huizen","operatorName":"TotalEnergies","maxPowerKw":11,"isMegawatt":false,"status":"AVAILABLE","source":"ndw"}},{"type":"Feature","geometry":{"type":"Point","coordinates":[5.272244,52.302986]},"properties":{"type":"charge","layer":"passenger","locationId":"9601F209-1DCF-4121-89B3-1ABB77CD274B","name":"TNLP005913 - Spaanderbank 37, Huizen","address":"37 Spaanderbank","city":"Huizen","operatorName":"TotalEnergies","maxPowerKw":17,"isMegawatt":false,"status":"AVAILABLE","source":"ndw"}},{"type":"Feature","geometry":{"type":"Point","coordinates":[5.267631,52.294857]},"properties":{"type":"charge","layer":"passenger","locationId":"98220ABB-4F85-4508-89EC-ECDEADEF7F11","name":"TNLP007301 - Bovenmaatweg 116, Huizen","address":"116 Bovenmaatweg","city":"Huizen","operatorName":"TotalEnergies","maxPowerKw":15,"isMegawatt":false,"status":"CHARGING","source":"ndw"}},{"type":"Feature","geometry":{"type":"Point","coordinates":[5.284965,52.296157]},"properties":{"type":"charge","layer":"passenger","locationId":"91090376","name":"50five-S NL 17B08156","address":"Aletta Jacobslaan 7","city":"Huizen","operatorName":"50five","maxPowerKw":5,"isMegawatt":false,"status":"AVAILABLE","source":"ndw"}},{"type":"Feature","geometry":{"type":"Point","coordinates":[5.262747,52.305283]},"properties":{"type":"charge","layer":"passenger","locationId":"FBFB35B3-9AFC-49AC-97D3-0A8B9F76A8C5","name":"TNLP008758 - Gouwe 16, Huizen","address":"16 Gouwe","city":"Huizen","operatorName":"TotalEnergies","maxPowerKw":14,"isMegawatt":false,"status":"AVAILABLE","source":"ndw"}},{"type":"Feature","geometry":{"type":"Point","coordinates":[5.240819,52.287115]},"properties":{"type":"charge","layer":"passenger","locationId":"681A73EB-CE8D-4CD9-A60D-D8EE88C68A1F","name":"Eneco eMobility Transdev - Huizen - Randweg 2","address":"Randweg 2","city":"Huizen","operatorName":"Eneco","maxPowerKw":11,"isMegawatt":false,"status":"AVAILABLE","source":"ndw","priceKwh":0.45}},{"type":"Feature","geometry":{"type":"Point","coordinates":[5.250219,52.295406]},"properties":{"type":"charge","layer":"passenger","locationId":"A2944F91-BB1C-46A0-8B5C-2CD31FA21F58","name":"TNLP034032 - Godelinde 53, Huizen","address":"53 Godelinde","city":"Huizen","operatorName":"TotalEnergies","maxPowerKw":13,"isMegawatt":false,"status":"UNAVAILABLE","source":"ndw"}},{"type":"Feature","geometry":{"type":"Point","coordinates":[5.26816,52.296686]},"properties":{"type":"charge","layer":"passenger","locationId":"a105d0efb0ffe67b1666c8137a6cb2f9","name":"Damwand 172","address":"Damwand 172","city":"Huizen","operatorName":"Vattenfall InCharge","maxPowerKw":11,"isMegawatt":false,"status":"AVAILABLE","source":"ndw","priceKwh":0.2805}},{"type":"Feature","geometry":{"type":"Point","coordinates":[5.197707,52.289523]},"properties":{"type":"charge","layer":"passenger","locationId":"91149385","name":"50five-S NL 07142318","address":"Nieuwe Bussummerweg 242","city":"Huizen","operatorName":"50five","maxPowerKw":11,"isMegawatt":false,"status":"AVAILABLE","source":"ndw"}},{"type":"Feature","geometry":{"type":"Point","coordinates":[5.267962,52.29202]},"properties":{"type":"charge","layer":"passenger","locationId":"303011B1-8A66-46FC-9585-EA72EBA37D80","name":"TNLP008248 - Aristoteleslaan 2, Huizen","address":"2 Aristoteleslaan","city":"Huizen","operatorName":"TotalEnergies","maxPowerKw":15,"isMegawatt":false,"status":"UNAVAILABLE","source":"ndw"}},{"type":"Feature","geometry":{"type":"Point","coordinates":[5.27156,52.30329]},"properties":{"type":"charge","layer":"passenger","locationId":"55D109E8-32C4-498D-BEA8-6E336D17365A","name":"PP001242 - Middelgronden 86, Huizen","address":"86 Middelgronden","city":"Huizen","operatorName":"TotalEnergies","maxPowerKw":11,"isMegawatt":false,"status":"AVAILABLE","source":"ndw"}},{"type":"Feature","geometry":{"type":"Point","coordinates":[5.256484,52.294624]},"properties":{"type":"charge","layer":"passenger","locationId":"D5A58E19-4824-4769-B213-14E9839C3FB4","name":"TNLP008766 - Boeg 46, Huizen","address":"46 Boeg","city":"Huizen","operatorName":"TotalEnergies","maxPowerKw":14,"isMegawatt":false,"status":"AVAILABLE","source":"ndw"}},{"type":"Feature","geometry":{"type":"Point","coordinates":[5.251636,52.30127]},"properties":{"type":"charge","layer":"passenger","locationId":"56B671B8-4957-47D2-928B-57705EED25DD","name":"PP005571 - Braam 2, Huizen","address":"2 Braam","city":"Huizen","operatorName":"TotalEnergies","maxPowerKw":11,"isMegawatt":false,"status":"CHARGING","source":"ndw"}},{"type":"Feature","geometry":{"type":"Point","coordinates":[5.23746,52.29468]},"properties":{"type":"charge","layer":"passenger","locationId":"6A29AF5C-06A3-49D8-A8D9-A511218E76C6","name":"TNLP007548 - Lindenlaan 75, Huizen","address":"75 Lindenlaan","city":"Huizen","operatorName":"TotalEnergies","maxPowerKw":17,"isMegawatt":false,"status":"UNAVAILABLE","source":"ndw"}},{"type":"Feature","geometry":{"type":"Point","coordinates":[5.220222,52.295107]},"properties":{"type":"charge","layer":"passenger","locationId":"91052418","name":"50five-S NL 07104836","address":"Berkenlaantje 10","city":"Huizen","operatorName":"50five","maxPowerKw":11,"isMegawatt":false,"status":"AVAILABLE","source":"ndw"}},{"type":"Feature","geometry":{"type":"Point","coordinates":[5.27201,52.29804]},"properties":{"type":"charge","layer":"passenger","locationId":"1497","name":"Shell Recharge NL Enkhuizerzand 2","address":"Enkhuizerzand 2","city":"Huizen","operatorName":"Ubitricity","maxPowerKw":22,"isMegawatt":false,"status":"AVAILABLE","source":"ndw","priceKwh":0.392}},{"type":"Feature","geometry":{"type":"Point","coordinates":[5.244506,52.307768]},"properties":{"type":"charge","layer":"passenger","locationId":"1696485","name":"Laadnet Alliantie werkplaats Huizen","address":"Energieweg 23","city":"Huizen","operatorName":"Laadnet","maxPowerKw":22,"isMegawatt":false,"status":"AVAILABLE","source":"ndw"}},{"type":"Feature","geometry":{"type":"Point","coordinates":[5.23834,52.298653]},"properties":{"type":"charge","layer":"passenger","locationId":"6CC8E58B-F409-43E8-BCF7-DFE7245EA467","name":"TNLP009061 - Kerkstraat 68, Huizen","address":"68 Kerkstraat","city":"Huizen","operatorName":"TotalEnergies","maxPowerKw":17,"isMegawatt":false,"status":"CHARGING","source":"ndw"}},{"type":"Feature","geometry":{"type":"Point","coordinates":[5.225066,52.298515]},"properties":{"type":"charge","layer":"passenger","locationId":"8DF6AAC4-6AD3-465A-905D-EA4CC03B4D22","name":"TNLP034054 - Jacob van Heemskerkstraat 21, Huizen","address":"21 Jacob van Heemskerkstraat","city":"Huizen","operatorName":"TotalEnergies","maxPowerKw":13,"isMegawatt":false,"status":"UNAVAILABLE","source":"ndw"}},{"type":"Feature","geometry":{"type":"Point","coordinates":[5.250541,52.308248]},"properties":{"type":"charge","layer":"passenger","locationId":"1961","name":"Shell Recharge NL Alaskastroom 13","address":"Alaskastroom 13","city":"Huizen","operatorName":"Ubitricity","maxPowerKw":22,"isMegawatt":false,"status":"CHARGING","source":"ndw","priceKwh":0.267}},{"type":"Feature","geometry":{"type":"Point","coordinates":[5.222813,52.292343]},"properties":{"type":"charge","layer":"passenger","locationId":"6a478a325f1f201fb003e0d7","name":"Bachlaan 34 Huizen","address":"Handellaan naast no.2. ( Carport van Bachlaan","city":"huizen","operatorName":"E-Flux by Road","maxPowerKw":14,"isMegawatt":false,"status":"AVAILABLE","source":"ndw","priceKwh":0.78}},{"type":"Feature","geometry":{"type":"Point","coordinates":[5.239317,52.304488]},"properties":{"type":"charge","layer":"passenger","locationId":"803b1f5c-cd85-464d-bf95-e7fd2f1bc69d","name":"LNL01EVCP36","address":"Havenstraat 71","city":"Huizen","operatorName":"Lidl","maxPowerKw":22,"isMegawatt":false,"status":"AVAILABLE","source":"ndw"}},{"type":"Feature","geometry":{"type":"Point","coordinates":[5.265991,52.303894]},"properties":{"type":"charge","layer":"passenger","locationId":"ED61D076-CA39-43CA-884E-F1A4DF8A7A6D","name":"PP005107 - Kooizand 58, Huizen","address":"58 Kooizand","city":"Huizen","operatorName":"TotalEnergies","maxPowerKw":17,"isMegawatt":false,"status":"AVAILABLE","source":"ndw"}},{"type":"Feature","geometry":{"type":"Point","coordinates":[5.209222,52.276814]},"properties":{"type":"charge","layer":"passenger","locationId":"684ffef6288349929ffb1851ad99445a","name":"Bouwlocatie Koopmans Trappenberg","address":"Crailoseweg 116","city":"Huizen","operatorName":"","maxPowerKw":11,"isMegawatt":false,"status":"AVAILABLE","source":"ndw","priceKwh":0.58}},{"type":"Feature","geometry":{"type":"Point","coordinates":[5.26103,52.29674]},"properties":{"type":"charge","layer":"passenger","locationId":"656","name":"Shell Recharge NL Gems 44","address":"Gems 44","city":"Huizen","operatorName":"Ubitricity","maxPowerKw":11,"isMegawatt":false,"status":"AVAILABLE","source":"ndw","priceKwh":0.392}},{"type":"Feature","geometry":{"type":"Point","coordinates":[5.22574,52.290528]},"properties":{"type":"charge","layer":"passenger","locationId":"68b9d06225cf25b83456a6b7","name":"Laadstation Nolenslaan 7","address":"Nolenslaan 7","city":"Huizen","operatorName":"E-Flux by Road","maxPowerKw":11,"isMegawatt":false,"status":"AVAILABLE","source":"ndw","priceKwh":0.48}},{"type":"Feature","geometry":{"type":"Point","coordinates":[5.266192,52.29702]},"properties":{"type":"charge","layer":"passenger","locationId":"DD2535EC-702E-42F9-A9B3-FF86F1C7356E","name":"TNLP015368 - Westkade 87, Huizen","address":"87 Westkade","city":"Huizen","operatorName":"TotalEnergies","maxPowerKw":17,"isMegawatt":false,"status":"UNAVAILABLE","source":"ndw"}},{"type":"Feature","geometry":{"type":"Point","coordinates":[5.26108,52.30323]},"properties":{"type":"charge","layer":"passenger","locationId":"753bc021-7373-4a62-b7ed-2a9185459b8a","name":"PP001102 - Dieze 142, Huizen","address":"142 Dieze","city":"Huizen","operatorName":"TotalEnergies","maxPowerKw":11,"isMegawatt":false,"status":"AVAILABLE","source":"ndw"}},{"type":"Feature","geometry":{"type":"Point","coordinates":[5.247984,52.29022]},"properties":{"type":"charge","layer":"passenger","locationId":"80103CB1-D035-4F6E-A87B-D4C7415D9E1C","name":"PP005563 - Omroeplaan 7, Huizen","address":"7 Omroeplaan","city":"Huizen","operatorName":"TotalEnergies","maxPowerKw":11,"isMegawatt":false,"status":"AVAILABLE","source":"ndw"}},{"type":"Feature","geometry":{"type":"Point","coordinates":[5.22995,52.291295]},"properties":{"type":"charge","layer":"passenger","locationId":"91090768","name":"50five-S NL 07102578","address":"Van Hogendorplaan 54","city":"Huizen","operatorName":"50five","maxPowerKw":11,"isMegawatt":false,"status":"AVAILABLE","source":"ndw"}},{"type":"Feature","geometry":{"type":"Point","coordinates":[5.2427781,52.3086933]},"properties":{"type":"charge","layer":"passenger","locationId":"1003","name":"Shell Recharge NL Havenstraat 300","address":"Havenstraat 300","city":"Huizen","operatorName":"Ubitricity","maxPowerKw":22,"isMegawatt":false,"status":"AVAILABLE","source":"ndw","priceKwh":0.267}},{"type":"Feature","geometry":{"type":"Point","coordinates":[5.240474,52.29969]},"properties":{"type":"charge","layer":"passenger","locationId":"1C9EA706-2A13-4A79-91D9-C1C9AA4BC09B","name":"TNLP015078 - Gooilandweg 16, Huizen","address":"16 Gooilandweg","city":"Huizen","operatorName":"TotalEnergies","maxPowerKw":17,"isMegawatt":false,"status":"AVAILABLE","source":"ndw"}},{"type":"Feature","geometry":{"type":"Point","coordinates":[5.23635,52.29109]},"properties":{"type":"charge","layer":"passenger","locationId":"522","name":"Shell Recharge NL Lage Laarderweg 21","address":"Lage Laarderweg 21","city":"Huizen","operatorName":"Ubitricity","maxPowerKw":11,"isMegawatt":false,"status":"AVAILABLE","source":"ndw","priceKwh":0.392}},{"type":"Feature","geometry":{"type":"Point","coordinates":[5.244003,52.291053]},"properties":{"type":"charge","layer":"passenger","locationId":"4763548","name":"Laadnet Thuis","address":"Eemnesserweg 65","city":"Huizen","operatorName":"Laadnet","maxPowerKw":11,"isMegawatt":false,"status":"AVAILABLE","source":"ndw"}},{"type":"Feature","geometry":{"type":"Point","coordinates":[5.268677,52.297565]},"properties":{"type":"charge","layer":"passenger","locationId":"565B3EA4-0688-4B82-96C3-9B67C1AF678F","name":"TNLP008178 - Damwand 226, Huizen","address":"226 Damwand","city":"Huizen","operatorName":"TotalEnergies","maxPowerKw":17,"isMegawatt":false,"status":"AVAILABLE","source":"ndw"}},{"type":"Feature","geometry":{"type":"Point","coordinates":[5.235854,52.305074]},"properties":{"type":"charge","layer":"passenger","locationId":"0f9c8ed2-d85f-45d5-a907-502aba2ba249","name":"Lidl Huizen","address":"Warandebergstraat","city":"Huizen","operatorName":"Lidl","maxPowerKw":22,"isMegawatt":false,"status":"AVAILABLE","source":"ndw"}},{"type":"Feature","geometry":{"type":"Point","coordinates":[5.273435,52.293964]},"properties":{"type":"charge","layer":"passenger","locationId":"6CC3DD36-780E-4DE8-829D-C54C22704FC9","name":"TNLP008177 - Augustinuslaan 23, Huizen","address":"23 Augustinuslaan","city":"Huizen","operatorName":"TotalEnergies","maxPowerKw":17,"isMegawatt":false,"status":"AVAILABLE","source":"ndw"}},{"type":"Feature","geometry":{"type":"Point","coordinates":[5.260019,52.3029]},"properties":{"type":"charge","layer":"passenger","locationId":"E9DE0551-3BEF-4D51-A882-1719068A7D02","name":"TNLP015388 - Delta 142, Huizen","address":"142 Delta","city":"Huizen","operatorName":"TotalEnergies","maxPowerKw":17,"isMegawatt":false,"status":"UNAVAILABLE","source":"ndw"}},{"type":"Feature","geometry":{"type":"Point","coordinates":[5.240662,52.3069]},"properties":{"type":"charge","layer":"passenger","locationId":"4AB3756E-DEED-4450-97F1-9CCA49DFB2F7","name":"TNLP009929 - Scheepswerf 15, Huizen","address":"15 Scheepswerf","city":"Huizen","operatorName":"TotalEnergies","maxPowerKw":17,"isMegawatt":false,"status":"CHARGING","source":"ndw"}},{"type":"Feature","geometry":{"type":"Point","coordinates":[5.238549,52.307958]},"properties":{"type":"charge","layer":"passenger","locationId":"39eea562-6b32-4890-81c4-a2a372ccbb01","name":"JOLT AMS00890","address":"IJsselmeerstraat 5B","city":"Huizen","operatorName":"JOLT Energy","maxPowerKw":300,"isMegawatt":false,"status":"AVAILABLE","source":"ndw"}},{"type":"Feature","geometry":{"type":"Point","coordinates":[5.23567,52.29647]},"properties":{"type":"charge","layer":"passenger","locationId":"3C303496-1D28-45E8-ADEF-08CE5E3CB448","name":"PP005089 - Lindenlaan 30, Huizen","address":"30 Lindenlaan","city":"Huizen","operatorName":"TotalEnergies","maxPowerKw":11,"isMegawatt":false,"status":"AVAILABLE","source":"ndw"}},{"type":"Feature","geometry":{"type":"Point","coordinates":[5.250767,52.296717]},"properties":{"type":"charge","layer":"passenger","locationId":"62","name":"Shell Recharge NL Huizermaatweg 298","address":"Huizermaatweg 298","city":"Huizen","operatorName":"Ubitricity","maxPowerKw":11,"isMegawatt":false,"status":"AVAILABLE","source":"ndw","priceKwh":0.392}},{"type":"Feature","geometry":{"type":"Point","coordinates":[5.28045,52.298115]},"properties":{"type":"charge","layer":"passenger","locationId":"28069935-27D9-42F4-BDAB-A9C58B4C695D","name":"TNLP006786 - Aristoteleslaan 135, Huizen","address":"135 Aristoteleslaan","city":"Huizen","operatorName":"TotalEnergies","maxPowerKw":17,"isMegawatt":false,"status":"CHARGING","source":"ndw"}},{"type":"Feature","geometry":{"type":"Point","coordinates":[5.245672,52.289975]},"properties":{"type":"charge","layer":"passenger","locationId":"ac590fb1ec1b22c7c9bb1ef73b09fa98","name":"Zenderlaan 11","address":"Zenderlaan 11","city":"Huizen","operatorName":"Vattenfall InCharge","maxPowerKw":11,"isMegawatt":false,"status":"AVAILABLE","source":"ndw","priceKwh":0.2805}},{"type":"Feature","geometry":{"type":"Point","coordinates":[5.252996,52.30276]},"properties":{"type":"charge","layer":"passenger","locationId":"1F861A77-7D45-4FDD-9867-115530ACA364","name":"TNLP007022 - Sporkehout 40, Huizen","address":"40 Sporkehout","city":"Huizen","operatorName":"TotalEnergies","maxPowerKw":15,"isMegawatt":false,"status":"AVAILABLE","source":"ndw"}},{"type":"Feature","geometry":{"type":"Point","coordinates":[5.235922,52.294253]},"properties":{"type":"charge","layer":"passenger","locationId":"91195284","name":"50five-S NL 09000656","address":"Ceintuurbaan 45","city":"Huizen","operatorName":"50five","maxPowerKw":22,"isMegawatt":false,"status":"AVAILABLE","source":"ndw"}},{"type":"Feature","geometry":{"type":"Point","coordinates":[5.237329,52.303566]},"properties":{"type":"charge","layer":"passenger","locationId":"D8B3CBFB-0011-4DDE-B72C-031A68639AB7","name":"TNLP006372 - Balatumstraat 10, Huizen","address":"10 Balatumstraat","city":"Huizen","operatorName":"TotalEnergies","maxPowerKw":17,"isMegawatt":false,"status":"AVAILABLE","source":"ndw"}},{"type":"Feature","geometry":{"type":"Point","coordinates":[5.266444,52.290611]},"properties":{"type":"charge","layer":"passenger","locationId":"61103413","name":"Laadpaal24 Gidts & Feldman Group","address":"Hoofdweg 67","city":"Huizen","operatorName":"Laadpaal24","maxPowerKw":22,"isMegawatt":false,"status":"AVAILABLE","source":"ndw"}},{"type":"Feature","geometry":{"type":"Point","coordinates":[5.240451,52.304146]},"properties":{"type":"charge","layer":"passenger","locationId":"2269987","name":"Laadnet Peter Kos Beheer","address":"Havenstraat 76","city":"Huizen","operatorName":"Laadnet","maxPowerKw":22,"isMegawatt":false,"status":"AVAILABLE","source":"ndw"}},{"type":"Feature","geometry":{"type":"Point","coordinates":[5.235696,52.30427]},"properties":{"type":"charge","layer":"passenger","locationId":"FFEB1FEB-29BA-4599-87A7-C00F8071039F","name":"TNLP015352 - Warandebergstraat 2, Huizen","address":"2 Warandebergstraat","city":"Huizen","operatorName":"TotalEnergies","maxPowerKw":17,"isMegawatt":false,"status":"AVAILABLE","source":"ndw"}},{"type":"Feature","geometry":{"type":"Point","coordinates":[5.281421,52.295062]},"properties":{"type":"charge","layer":"passenger","locationId":"91064394","name":"50five-S NL 07111902","address":"Simone de Beauvoirlaan 24","city":"Huizen","operatorName":"50five","maxPowerKw":11,"isMegawatt":false,"status":"AVAILABLE","source":"ndw"}},{"type":"Feature","geometry":{"type":"Point","coordinates":[5.245037,52.291035]},"properties":{"type":"charge","layer":"passenger","locationId":"5AD4E114-C58C-4393-9553-15E116EBF345","name":"TNLP034037 - Archipelplein 40, Huizen","address":"40 Archipelplein","city":"Huizen","operatorName":"TotalEnergies","maxPowerKw":13,"isMegawatt":false,"status":"UNAVAILABLE","source":"ndw"}},{"type":"Feature","geometry":{"type":"Point","coordinates":[5.243285,52.302407]},"properties":{"type":"charge","layer":"passenger","locationId":"3486272","name":"Laadnet Huizen","address":"Ambachtsweg 24","city":"Huizen","operatorName":"Laadnet","maxPowerKw":22,"isMegawatt":false,"status":"AVAILABLE","source":"ndw"}},{"type":"Feature","geometry":{"type":"Point","coordinates":[5.245561,52.29522]},"properties":{"type":"charge","layer":"passenger","locationId":"318A1907-11E3-4C61-B40F-0BBEBF3072C6","name":"TNLP009654 - Trekkerweg 14, Huizen","address":"14 Trekkerweg","city":"Huizen","operatorName":"TotalEnergies","maxPowerKw":15,"isMegawatt":false,"status":"AVAILABLE","source":"ndw"}},{"type":"Feature","geometry":{"type":"Point","coordinates":[5.229613,52.29797]},"properties":{"type":"charge","layer":"passenger","locationId":"697cf48a6d2ee9998266ffe3","name":"Visnet Huizen 1","address":"De Ruyterstraat 7","city":"Huizen","operatorName":"E-Flux by Road","maxPowerKw":11,"isMegawatt":false,"status":"AVAILABLE","source":"ndw","priceKwh":0.53}},{"type":"Feature","geometry":{"type":"Point","coordinates":[5.2505,52.28991]},"properties":{"type":"charge","layer":"passenger","locationId":"5AA5DD53-B091-4D7F-8376-0230116263C5","name":"PP004236 - Branding 1, Huizen","address":"1 Branding","city":"Huizen","operatorName":"TotalEnergies","maxPowerKw":13,"isMegawatt":false,"status":"AVAILABLE","source":"ndw"}},{"type":"Feature","geometry":{"type":"Point","coordinates":[5.282141,52.299522]},"properties":{"type":"charge","layer":"passenger","locationId":"4eeca2c6fad1db48039ccb898dbe73d7","name":"Aristoteleslaan 86","address":"Aristoteleslaan 86","city":"Huizen","operatorName":"Vattenfall InCharge","maxPowerKw":11,"isMegawatt":false,"status":"CHARGING","source":"ndw","priceKwh":0.2805}},{"type":"Feature","geometry":{"type":"Point","coordinates":[5.256654,52.304127]},"properties":{"type":"charge","layer":"passenger","locationId":"F32F5D72-5387-4DF8-8445-F1CCECC42E23","name":"TNLP007370 - Schipbeek 1, Huizen","address":"1 Schipbeek","city":"Huizen","operatorName":"TotalEnergies","maxPowerKw":15,"isMegawatt":false,"status":"AVAILABLE","source":"ndw"}},{"type":"Feature","geometry":{"type":"Point","coordinates":[5.249274,52.296867]},"properties":{"type":"charge","layer":"passenger","locationId":"6A66B86E-AD13-4E51-AEE5-0737F823B31D","name":"TNLP015474 - Graaf Floris 2, Huizen","address":"2 Graaf Floris","city":"Huizen","operatorName":"TotalEnergies","maxPowerKw":17,"isMegawatt":false,"status":"UNAVAILABLE","source":"ndw"}},{"type":"Feature","geometry":{"type":"Point","coordinates":[5.250276,52.297356]},"properties":{"type":"charge","layer":"passenger","locationId":"4C0F6B4E-D4E1-42E9-B9A2-3BDF42ED73E0","name":"TNLP008809 - Huizermaatweg 3e, Huizen","address":"3e Huizermaatweg","city":"Huizen","operatorName":"TotalEnergies","maxPowerKw":14,"isMegawatt":false,"status":"AVAILABLE","source":"ndw"}},{"type":"Feature","geometry":{"type":"Point","coordinates":[5.266569,52.301197]},"properties":{"type":"charge","layer":"passenger","locationId":"82709F2D-F22F-441C-9E8E-82C60F4BBABB","name":"PP005569 - Zuidwal 44, Huizen","address":"44 Zuidwal","city":"Huizen","operatorName":"TotalEnergies","maxPowerKw":11,"isMegawatt":false,"status":"AVAILABLE","source":"ndw"}},{"type":"Feature","geometry":{"type":"Point","coordinates":[5.219579,52.29898]},"properties":{"type":"charge","layer":"passenger","locationId":"9A4238DC-E6E7-416D-A686-951917F4F8FA","name":"TNLP006864 - Driftweg 135, Huizen","address":"135 Driftweg","city":"Huizen","operatorName":"TotalEnergies","maxPowerKw":17,"isMegawatt":false,"status":"UNAVAILABLE","source":"ndw"}},{"type":"Feature","geometry":{"type":"Point","coordinates":[5.236052,52.301078]},"properties":{"type":"charge","layer":"passenger","locationId":"027f4b8290e4e24d8740e045d6c5fdb7","name":"Hellingstraat 17","address":"Hellingstraat 17","city":"Huizen","operatorName":"Vattenfall InCharge","maxPowerKw":11,"isMegawatt":false,"status":"AVAILABLE","source":"ndw","priceKwh":0.2805}},{"type":"Feature","geometry":{"type":"Point","coordinates":[5.25295,52.2933]},"properties":{"type":"charge","layer":"passenger","locationId":"AA9F0943-E1C7-486A-9B5D-D4B28C35EFBD","name":"PP005052 - Bakboord 51, Huizen","address":"51 Bakboord","city":"Huizen","operatorName":"TotalEnergies","maxPowerKw":11,"isMegawatt":false,"status":"AVAILABLE","source":"ndw"}},{"type":"Feature","geometry":{"type":"Point","coordinates":[5.26565,52.29568]},"properties":{"type":"charge","layer":"passenger","locationId":"1588","name":"Shell Recharge NL Oostkade 56","address":"Oostkade 56","city":"Huizen","operatorName":"Ubitricity","maxPowerKw":11,"isMegawatt":false,"status":"AVAILABLE","source":"ndw","priceKwh":0.392}},{"type":"Feature","geometry":{"type":"Point","coordinates":[5.261553,52.28832]},"properties":{"type":"charge","layer":"passenger","locationId":"D64B2E0C-E0BC-4BFE-809D-51A14DA60D6C","name":"TNLP005918 - Stobbe 118, Huizen","address":"118 Stobbe","city":"Huizen","operatorName":"TotalEnergies","maxPowerKw":11,"isMegawatt":false,"status":"UNAVAILABLE","source":"ndw"}},{"type":"Feature","geometry":{"type":"Point","coordinates":[5.224233,52.291687]},"properties":{"type":"charge","layer":"passenger","locationId":"A369D3CF-7C9E-4E99-9BB5-57AD8E3DCD35","name":"TNLP008091 - Piersonlaan 2, Huizen","address":"2 Piersonlaan","city":"Huizen","operatorName":"TotalEnergies","maxPowerKw":17,"isMegawatt":false,"status":"AVAILABLE","source":"ndw"}},{"type":"Feature","geometry":{"type":"Point","coordinates":[5.23504,52.29931]},"properties":{"type":"charge","layer":"passenger","locationId":"3df32ba8-4744-442d-b0dc-08b852264ac9","name":"PP001364 - Havenstraat 23, Huizen","address":"23 Havenstraat","city":"Huizen","operatorName":"TotalEnergies","maxPowerKw":11,"isMegawatt":false,"status":"UNAVAILABLE","source":"ndw"}},{"type":"Feature","geometry":{"type":"Point","coordinates":[5.275324,52.298283]},"properties":{"type":"charge","layer":"passenger","locationId":"2192BB61-88BC-4110-99EA-A0C15BD68D5F","name":"TNLP007771 - Enkuizerzand 49, Huizen","address":"49 Enkuizerzand","city":"Huizen","operatorName":"TotalEnergies","maxPowerKw":17,"isMegawatt":false,"status":"AVAILABLE","source":"ndw"}},{"type":"Feature","geometry":{"type":"Point","coordinates":[5.2674571,52.2992919]},"properties":{"type":"charge","layer":"passenger","locationId":"1087","name":"Shell Recharge NL Westkade 152","address":"Westkade 152","city":"Huizen","operatorName":"Ubitricity","maxPowerKw":22,"isMegawatt":false,"status":"AVAILABLE","source":"ndw","priceKwh":0.267}},{"type":"Feature","geometry":{"type":"Point","coordinates":[5.23936,52.29277]},"properties":{"type":"charge","layer":"passenger","locationId":"78ca05ea-8025-4da8-8f28-e7295760f642","name":"PP001435 - Lindenlaan 92, Huizen","address":"92 Lindenlaan","city":"Huizen","operatorName":"TotalEnergies","maxPowerKw":11,"isMegawatt":false,"status":"UNAVAILABLE","source":"ndw"}},{"type":"Feature","geometry":{"type":"Point","coordinates":[5.244579,52.288162]},"properties":{"type":"charge","layer":"passenger","locationId":"D0C50C1D-7AE3-4DB2-8A27-441DB8B25E2C","name":"TNLP009953 - Dr. Lelylaan 61, Huizen","address":"61 Dr. Lelylaan","city":"Huizen","operatorName":"TotalEnergies","maxPowerKw":17,"isMegawatt":false,"status":"AVAILABLE","source":"ndw"}},{"type":"Feature","geometry":{"type":"Point","coordinates":[5.26852,52.293934]},"properties":{"type":"charge","layer":"passenger","locationId":"5FD7302B-F7A3-4D99-AC8B-23CCABE13EAE","name":"TNLP006663 - Rijnland 44, Huizen","address":"44 Rijnland","city":"Huizen","operatorName":"TotalEnergies","maxPowerKw":17,"isMegawatt":false,"status":"UNAVAILABLE","source":"ndw"}},{"type":"Feature","geometry":{"type":"Point","coordinates":[5.232924,52.298676]},"properties":{"type":"charge","layer":"passenger","locationId":"C435C358-256D-48D5-AAE5-34E4AA8B5262","name":"TNLP008806 - Oranje Weeshuisstraat 11, Huizen","address":"11 Oranje Weeshuisstraat","city":"Huizen","operatorName":"TotalEnergies","maxPowerKw":14,"isMegawatt":false,"status":"AVAILABLE","source":"ndw"}},{"type":"Feature","geometry":{"type":"Point","coordinates":[5.251642,52.287025]},"properties":{"type":"charge","layer":"passenger","locationId":"8F023AC5-B756-47FD-999D-33274DF4AED0","name":"TNLP008920 - Loefzij 97, Huizen","address":"97 Loefzij","city":"Huizen","operatorName":"TotalEnergies","maxPowerKw":13,"isMegawatt":false,"status":"UNAVAILABLE","source":"ndw"}},{"type":"Feature","geometry":{"type":"Point","coordinates":[5.2472,52.30765]},"properties":{"type":"charge","layer":"passenger","locationId":"36a45ce0-7af8-458e-9f37-c64cc1e6a5df","name":"PP001299 - Kaap Hoornstroom 8, Huizen","address":"8 Kaap Hoornstroom","city":"Huizen","operatorName":"TotalEnergies","maxPowerKw":11,"isMegawatt":false,"status":"UNAVAILABLE","source":"ndw"}},{"type":"Feature","geometry":{"type":"Point","coordinates":[5.250249,52.294186]},"properties":{"type":"charge","layer":"passenger","locationId":"73E0BEE5-30B4-46FB-9FDE-A8051225B632","name":"TNLP015435 - Opperweg 2, Huizen","address":"2 Opperweg","city":"Huizen","operatorName":"TotalEnergies","maxPowerKw":17,"isMegawatt":false,"status":"UNAVAILABLE","source":"ndw"}},{"type":"Feature","geometry":{"type":"Point","coordinates":[5.2562821,52.3062894]},"properties":{"type":"charge","layer":"passenger","locationId":"1418","name":"Shell Recharge NL Zomerkade 90","address":"Zomerkade 90","city":"Huizen","operatorName":"Ubitricity","maxPowerKw":22,"isMegawatt":false,"status":"AVAILABLE","source":"ndw","priceKwh":0.267}},{"type":"Feature","geometry":{"type":"Point","coordinates":[5.248146,52.296032]},"properties":{"type":"charge","layer":"passenger","locationId":"D9C9BF68-56B1-4624-ABD3-751DB4F736E1","name":"PP005403 - Graaf Floris 43, Huizen","address":"43 Graaf Floris","city":"Huizen","operatorName":"TotalEnergies","maxPowerKw":11,"isMegawatt":false,"status":"AVAILABLE","source":"ndw"}},{"type":"Feature","geometry":{"type":"Point","coordinates":[5.229812,52.301804]},"properties":{"type":"charge","layer":"passenger","locationId":"7e0dfd1b-e2e7-46ff-bcff-53fb5c9af4bb","name":"Driftweg","address":"Driftweg 24","city":"Huizen","operatorName":"Vattenfall InCharge","maxPowerKw":11,"isMegawatt":false,"status":"UNAVAILABLE","source":"ndw","priceKwh":0.4316}},{"type":"Feature","geometry":{"type":"Point","coordinates":[5.25372,52.29692]},"properties":{"type":"charge","layer":"passenger","locationId":"224","name":"Shell Recharge NL Huizermaatweg 400","address":"Huizermaatweg 400","city":"Huizen","operatorName":"Ubitricity","maxPowerKw":11,"isMegawatt":false,"status":"AVAILABLE","source":"ndw","priceKwh":0.392}},{"type":"Feature","geometry":{"type":"Point","coordinates":[5.2323633,52.3047138]},"properties":{"type":"charge","layer":"passenger","locationId":"821","name":"Shell Recharge NL Prinses Irenestraat 42","address":"Prinses Irenestraat 42","city":"Huizen","operatorName":"Ubitricity","maxPowerKw":22,"isMegawatt":false,"status":"AVAILABLE","source":"ndw","priceKwh":0.267}},{"type":"Feature","geometry":{"type":"Point","coordinates":[5.22001,52.29814]},"properties":{"type":"charge","layer":"passenger","locationId":"B9D43FE0-5657-45A5-93EB-29F1391D616D","name":"PP004226 - Jacob van Heemskerkstraat 65, Huizen","address":"65 Jacob van Heemskerkstraat","city":"Huizen","operatorName":"TotalEnergies","maxPowerKw":11,"isMegawatt":false,"status":"AVAILABLE","source":"ndw"}},{"type":"Feature","geometry":{"type":"Point","coordinates":[5.2428227,52.2983855]},"properties":{"type":"charge","layer":"passenger","locationId":"1755","name":"Shell Recharge NL Graaf Wichman 10","address":"Graaf Wichman 10","city":"Huizen","operatorName":"Ubitricity","maxPowerKw":22,"isMegawatt":false,"status":"AVAILABLE","source":"ndw","priceKwh":0.267}},{"type":"Feature","geometry":{"type":"Point","coordinates":[5.24077,52.305006]},"properties":{"type":"charge","layer":"passenger","locationId":"91179735","name":"50five-S NL Huizen, Bestevaer 46","address":"Bestevaer 46","city":"Huizen","operatorName":"50five","maxPowerKw":11,"isMegawatt":false,"status":"AVAILABLE","source":"ndw"}},{"type":"Feature","geometry":{"type":"Point","coordinates":[5.261143,52.293372]},"properties":{"type":"charge","layer":"passenger","locationId":"4208919","name":"Laadnet Veiligheidsregio Nevenpost Huizen","address":"Bovenmaatweg 2","city":"Huizen","operatorName":"Laadnet","maxPowerKw":22,"isMegawatt":false,"status":"AVAILABLE","source":"ndw"}},{"type":"Feature","geometry":{"type":"Point","coordinates":[5.23447,52.30521]},"properties":{"type":"charge","layer":"passenger","locationId":"017AC8FE-53B5-4B8F-BFD2-1896C92A3D7D","name":"Eneco eMobility Lady Bird B.V. - Huizen","address":"Bestevaer 44 A","city":"Huizen","operatorName":"Eneco","maxPowerKw":22,"isMegawatt":false,"status":"UNAVAILABLE","source":"ndw","priceKwh":0.32}},{"type":"Feature","geometry":{"type":"Point","coordinates":[5.272753,52.29804]},"properties":{"type":"charge","layer":"passenger","locationId":"069AD350-1DE8-4E96-958D-99D9A473CAC8","name":"TNLP009173 - Ellertsveld 2, Huizen","address":"2 Ellertsveld","city":"Huizen","operatorName":"TotalEnergies","maxPowerKw":17,"isMegawatt":false,"status":"UNAVAILABLE","source":"ndw"}},{"type":"Feature","geometry":{"type":"Point","coordinates":[5.285551,52.297566]},"properties":{"type":"charge","layer":"passenger","locationId":"699308ed4339d422de9cf4be","name":"Jeroen Koetze 's station","address":"Belle van zuylenhof  3","city":"Huizen","operatorName":"E-Flux by Road","maxPowerKw":11,"isMegawatt":false,"status":"AVAILABLE","source":"ndw","priceKwh":0.39}},{"type":"Feature","geometry":{"type":"Point","coordinates":[5.25296,52.28818]},"properties":{"type":"charge","layer":"passenger","locationId":"F81F8E08-57EE-472E-A823-33E7E0CA2CB9","name":"PP005051 - Bezaan 2, Huizen","address":"2 Bezaan","city":"Huizen","operatorName":"TotalEnergies","maxPowerKw":11,"isMegawatt":false,"status":"AVAILABLE","source":"ndw"}},{"type":"Feature","geometry":{"type":"Point","coordinates":[5.26195,52.3013]},"properties":{"type":"charge","layer":"passenger","locationId":"403BBE8B-5683-4AED-BB45-594B1517C435","name":"TNLP005943 - Delta 78, Huizen","address":"78 Delta","city":"Huizen","operatorName":"TotalEnergies","maxPowerKw":11,"isMegawatt":false,"status":"AVAILABLE","source":"ndw"}},{"type":"Feature","geometry":{"type":"Point","coordinates":[5.254173,52.295166]},"properties":{"type":"charge","layer":"passenger","locationId":"4230C7E5-9274-4BD4-B48B-A7C1B2F53795","name":"TNLP009128 - Jol 43, Huizen","address":"43 Jol","city":"Huizen","operatorName":"TotalEnergies","maxPowerKw":17,"isMegawatt":false,"status":"UNAVAILABLE","source":"ndw"}},{"type":"Feature","geometry":{"type":"Point","coordinates":[5.272995,52.295837]},"properties":{"type":"charge","layer":"passenger","locationId":"5213270E-5FCA-4D72-B2D0-540D827C5D2B","name":"TNLP007752 - Oostergo 36, Huizen","address":"36 Oostergo","city":"Huizen","operatorName":"TotalEnergies","maxPowerKw":17,"isMegawatt":false,"status":"AVAILABLE","source":"ndw"}},{"type":"Feature","geometry":{"type":"Point","coordinates":[5.230845,52.29177]},"properties":{"type":"charge","layer":"passenger","locationId":"e3bf1a71-e169-45e2-b94b-910d9e194d23","name":"TNLP007541 - Dr. de Visserlaan 21, Huizen","address":"21 Dr. de Visserlaan","city":"Huizen","operatorName":"TotalEnergies","maxPowerKw":17,"isMegawatt":false,"status":"CHARGING","source":"ndw"}},{"type":"Feature","geometry":{"type":"Point","coordinates":[5.26806,52.29365]},"properties":{"type":"charge","layer":"passenger","locationId":"9F05A30C-43FD-489F-988F-EBAA91580BBC","name":"PP004231 - Rijnland 24-44, Huizen","address":"24-44 Rijnland","city":"Huizen","operatorName":"TotalEnergies","maxPowerKw":11,"isMegawatt":false,"status":"UNAVAILABLE","source":"ndw"}},{"type":"Feature","geometry":{"type":"Point","coordinates":[5.237432,52.301266]},"properties":{"type":"charge","layer":"passenger","locationId":"9CF2E963-75FA-49F8-A2DF-845FCF1A9EA3","name":"TNLP006781 - Havenstraat 44, Huizen","address":"44 Havenstraat","city":"Huizen","operatorName":"TotalEnergies","maxPowerKw":17,"isMegawatt":false,"status":"AVAILABLE","source":"ndw"}},{"type":"Feature","geometry":{"type":"Point","coordinates":[5.25208,52.28693]},"properties":{"type":"charge","layer":"passenger","locationId":"531","name":"Shell Recharge NL Loefzij 97","address":"Loefzij 97","city":"Huizen","operatorName":"Ubitricity","maxPowerKw":11,"isMegawatt":false,"status":"AVAILABLE","source":"ndw","priceKwh":0.392}},{"type":"Feature","geometry":{"type":"Point","coordinates":[5.27493,52.29843]},"properties":{"type":"charge","layer":"passenger","locationId":"599","name":"Shell Recharge NL Enkhuizerzand 47","address":"Enkhuizerzand 47","city":"Huizen","operatorName":"Ubitricity","maxPowerKw":11,"isMegawatt":false,"status":"AVAILABLE","source":"ndw","priceKwh":0.392}},{"type":"Feature","geometry":{"type":"Point","coordinates":[5.229498,52.30141]},"properties":{"type":"charge","layer":"passenger","locationId":"4237279","name":"Laadnet Driftweg 19","address":"Veldweg 19","city":"Huizen","operatorName":"Laadnet","maxPowerKw":11,"isMegawatt":false,"status":"AVAILABLE","source":"ndw"}},{"type":"Feature","geometry":{"type":"Point","coordinates":[5.268333,52.293761]},"properties":{"type":"charge","layer":"passenger","locationId":"91087148","name":"50five-S NL 07004707","address":"Rijnland 22","city":"Huizen","operatorName":"50five","maxPowerKw":11,"isMegawatt":false,"status":"AVAILABLE","source":"ndw"}},{"type":"Feature","geometry":{"type":"Point","coordinates":[5.261443,52.29407]},"properties":{"type":"charge","layer":"passenger","locationId":"74B7879A-3F52-40E7-944D-3244FA5DEF6F","name":"TNLP005911 - De Regentesse 96, Huizen","address":"96 De Regentesse","city":"Huizen","operatorName":"TotalEnergies","maxPowerKw":17,"isMegawatt":false,"status":"AVAILABLE","source":"ndw"}},{"type":"Feature","geometry":{"type":"Point","coordinates":[5.268957,52.300232]},"properties":{"type":"charge","layer":"passenger","locationId":"7FA61D23-E39A-41D0-AE36-828C4A672543","name":"TNLP007146 - Eek 1, Huizen","address":"1 Eek","city":"Huizen","operatorName":"TotalEnergies","maxPowerKw":17,"isMegawatt":false,"status":"UNAVAILABLE","source":"ndw"}},{"type":"Feature","geometry":{"type":"Point","coordinates":[5.258035,52.299065]},"properties":{"type":"charge","layer":"passenger","locationId":"10BE6E34-B983-4392-A6A6-7C5F129E3225","name":"PP005362 - Hinde 1, Huizen","address":"1 Hinde","city":"Huizen","operatorName":"TotalEnergies","maxPowerKw":11,"isMegawatt":false,"status":"AVAILABLE","source":"ndw"}},{"type":"Feature","geometry":{"type":"Point","coordinates":[5.239515,52.290802]},"properties":{"type":"charge","layer":"passenger","locationId":"69D6C52B-A520-491D-934F-230769276C3B","name":"TNLP015017 - Blaricummerstraat 12, Huizen","address":"12 Blaricummerstraat","city":"Huizen","operatorName":"TotalEnergies","maxPowerKw":17,"isMegawatt":false,"status":"UNAVAILABLE","source":"ndw"}},{"type":"Feature","geometry":{"type":"Point","coordinates":[5.2606067,52.2990918]},"properties":{"type":"charge","layer":"passenger","locationId":"2378","name":"Shell Recharge NL Moeflon 31","address":"Moeflon 31","city":"Huizen","operatorName":"Ubitricity","maxPowerKw":22,"isMegawatt":false,"status":"AVAILABLE","source":"ndw","priceKwh":0.267}},{"type":"Feature","geometry":{"type":"Point","coordinates":[5.241558,52.29124]},"properties":{"type":"charge","layer":"passenger","locationId":"49EFBB77-1477-4232-97D7-F3A8A0079757","name":"PP005237 - Zuiderweg 12, Huizen","address":"12 Zuiderweg","city":"Huizen","operatorName":"TotalEnergies","maxPowerKw":11,"isMegawatt":false,"status":"AVAILABLE","source":"ndw"}},{"type":"Feature","geometry":{"type":"Point","coordinates":[5.26201,52.291187]},"properties":{"type":"charge","layer":"passenger","locationId":"826521F4-13A9-4132-8475-1FB5D273B111","name":"TNLP006792 - Duivenvoorde 14, Huizen","address":"14 Duivenvoorde","city":"Huizen","operatorName":"TotalEnergies","maxPowerKw":15,"isMegawatt":false,"status":"AVAILABLE","source":"ndw"}},{"type":"Feature","geometry":{"type":"Point","coordinates":[5.27372,52.299436]},"properties":{"type":"charge","layer":"passenger","locationId":"91230406","name":"50five-S NL 07103958","address":"De Geldersman 22","city":"Huizen","operatorName":"50five","maxPowerKw":11,"isMegawatt":false,"status":"AVAILABLE","source":"ndw"}},{"type":"Feature","geometry":{"type":"Point","coordinates":[5.242584,52.299786]},"properties":{"type":"charge","layer":"passenger","locationId":"4208920","name":"Laadnet Veiligheidsregio Hoofdpost Huizen","address":"Eemlandweg 30","city":"Huizen","operatorName":"Laadnet","maxPowerKw":22,"isMegawatt":false,"status":"AVAILABLE","source":"ndw"}},{"type":"Feature","geometry":{"type":"Point","coordinates":[5.224917,52.299984]},"properties":{"type":"charge","layer":"passenger","locationId":"4D189CBA-B38B-4649-AC41-F5D518CA6247","name":"TNLP006589 - Joost Banckertstraat 75, Huizen","address":"75 Joost Banckertstraat","city":"Huizen","operatorName":"TotalEnergies","maxPowerKw":17,"isMegawatt":false,"status":"UNAVAILABLE","source":"ndw"}},{"type":"Feature","geometry":{"type":"Point","coordinates":[5.26491,52.30044]},"properties":{"type":"charge","layer":"passenger","locationId":"A7AF31FE-4555-4CEB-A518-41CF1F5A7B5C","name":"PP004317 - Amer 10, Huizen","address":"10 Amer","city":"Huizen","operatorName":"TotalEnergies","maxPowerKw":11,"isMegawatt":false,"status":"UNAVAILABLE","source":"ndw"}},{"type":"Feature","geometry":{"type":"Point","coordinates":[5.22905,52.29699]},"properties":{"type":"charge","layer":"passenger","locationId":"B684B6C1-3992-418E-B634-7A5EE5AC5621","name":"PP005035 - Trompstraat 2, Huizen","address":"2 Trompstraat","city":"Huizen","operatorName":"TotalEnergies","maxPowerKw":11,"isMegawatt":false,"status":"AVAILABLE","source":"ndw"}},{"type":"Feature","geometry":{"type":"Point","coordinates":[5.27118,52.301485]},"properties":{"type":"charge","layer":"passenger","locationId":"6655efafcbdfa7001ce91b95","name":"MTCSW1274","address":"Middelgronden","city":"Huizen","operatorName":"E-Flux by Road","maxPowerKw":11,"isMegawatt":false,"status":"CHARGING","source":"ndw","priceKwh":0.44}},{"type":"Feature","geometry":{"type":"Point","coordinates":[5.26311,52.303724]},"properties":{"type":"charge","layer":"passenger","locationId":"34843d4c-9b13-4531-baab-9fe02ea9adef","name":"Westkade","address":"Westkade 359","city":"Huizen","operatorName":"Vattenfall InCharge","maxPowerKw":11,"isMegawatt":false,"status":"UNAVAILABLE","source":"ndw","priceKwh":0.4316}},{"type":"Feature","geometry":{"type":"Point","coordinates":[5.24179,52.29767]},"properties":{"type":"charge","layer":"passenger","locationId":"5a80c985-bbeb-45b7-92ba-8cb70d7bb638","name":"PP001938 - E. Ludenstraat 27B, Huizen","address":"27B E. Ludenstraat","city":"Huizen","operatorName":"TotalEnergies","maxPowerKw":11,"isMegawatt":false,"status":"AVAILABLE","source":"ndw"}},{"type":"Feature","geometry":{"type":"Point","coordinates":[5.26246,52.28887]},"properties":{"type":"charge","layer":"passenger","locationId":"664BFFDC-E933-4ACA-8BAC-F631FD391916","name":"PP002054 - Kruin 45, Huizen","address":"45 Kruin","city":"Huizen","operatorName":"TotalEnergies","maxPowerKw":17,"isMegawatt":false,"status":"AVAILABLE","source":"ndw"}},{"type":"Feature","geometry":{"type":"Point","coordinates":[5.229585,52.297953]},"properties":{"type":"charge","layer":"passenger","locationId":"50cf8798-1841-4b66-8f8c-86c43af6dfea","name":"De Ruyterstraat","address":"De Ruyterstraat 7","city":"Huizen","operatorName":"Vattenfall InCharge","maxPowerKw":11,"isMegawatt":false,"status":"UNAVAILABLE","source":"ndw","priceKwh":0.4316}},{"type":"Feature","geometry":{"type":"Point","coordinates":[5.24551,52.2964]},"properties":{"type":"charge","layer":"passenger","locationId":"DF1C72F4-8FF7-4405-BC2A-716824222A70","name":"PP004126 - Bovenweg 24, Huizen","address":"24 Bovenweg","city":"Huizen","operatorName":"TotalEnergies","maxPowerKw":11,"isMegawatt":false,"status":"AVAILABLE","source":"ndw"}},{"type":"Feature","geometry":{"type":"Point","coordinates":[5.269501,52.298203]},"properties":{"type":"charge","layer":"passenger","locationId":"D4EE9048-9A18-4E45-9922-2E97B55D08EA","name":"TNLP015015 - Draaikom 41, Huizen","address":"41 Draaikom","city":"Huizen","operatorName":"TotalEnergies","maxPowerKw":17,"isMegawatt":false,"status":"UNAVAILABLE","source":"ndw"}},{"type":"Feature","geometry":{"type":"Point","coordinates":[5.255637,52.306072]},"properties":{"type":"charge","layer":"passenger","locationId":"6F84214D-7643-447C-9834-03D34DF13F1A","name":"PP005193 - Zomerkade 2, Huizen","address":"2 Zomerkade","city":"Huizen","operatorName":"TotalEnergies","maxPowerKw":11,"isMegawatt":false,"status":"AVAILABLE","source":"ndw"}},{"type":"Feature","geometry":{"type":"Point","coordinates":[5.25773,52.29457]},"properties":{"type":"charge","layer":"passenger","locationId":"b904ca23-1232-49ad-9fdb-fadfdec0164c","name":"PP001097 - Sloep 37, Huizen","address":"37 Sloep","city":"Huizen","operatorName":"TotalEnergies","maxPowerKw":11,"isMegawatt":false,"status":"UNAVAILABLE","source":"ndw"}},{"type":"Feature","geometry":{"type":"Point","coordinates":[5.243037,52.281934]},"properties":{"type":"charge","layer":"passenger","locationId":"1701826","name":"Laadnet Landal Gooise Heide","address":"Woensbergweg 5","city":"Huizen","operatorName":"Laadnet","maxPowerKw":11,"isMegawatt":false,"status":"AVAILABLE","source":"ndw"}},{"type":"Feature","geometry":{"type":"Point","coordinates":[5.26794,52.29791]},"properties":{"type":"charge","layer":"passenger","locationId":"533B1E4E-B6D9-48D1-B709-0716868C52D7","name":"PP004222 - Oostkade 144, Huizen","address":"144 Oostkade","city":"Huizen","operatorName":"TotalEnergies","maxPowerKw":11,"isMegawatt":false,"status":"AVAILABLE","source":"ndw"}},{"type":"Feature","geometry":{"type":"Point","coordinates":[5.236641,52.295235]},"properties":{"type":"charge","layer":"passenger","locationId":"80805251-ABAF-4CC0-B4AC-99AEC7FC5222","name":"PP005198 - Lindenlaan 52, Huizen","address":"52 Lindenlaan","city":"Huizen","operatorName":"TotalEnergies","maxPowerKw":11,"isMegawatt":false,"status":"AVAILABLE","source":"ndw"}},{"type":"Feature","geometry":{"type":"Point","coordinates":[5.260524,52.305568]},"properties":{"type":"charge","layer":"passenger","locationId":"691343b7-cb61-4117-9d42-db44ceb4ba32","name":"Zomerkade","address":"Zomerkade 290","city":"Huizen","operatorName":"Vattenfall InCharge","maxPowerKw":11,"isMegawatt":false,"status":"UNAVAILABLE","source":"ndw","priceKwh":0.4316}},{"type":"Feature","geometry":{"type":"Point","coordinates":[5.263901,52.293587]},"properties":{"type":"charge","layer":"passenger","locationId":"78308E93-7E05-4589-9EB3-2901F34CF8D2","name":"TNLP006377 - Bovenmaatweg 60, Huizen","address":"60 Bovenmaatweg","city":"Huizen","operatorName":"TotalEnergies","maxPowerKw":17,"isMegawatt":false,"status":"AVAILABLE","source":"ndw"}},{"type":"Feature","geometry":{"type":"Point","coordinates":[5.270036,52.300655]},"properties":{"type":"charge","layer":"passenger","locationId":"8E1DC9A8-36D2-4A97-8184-6D4684AE10BC","name":"TNLP009968 - Houtrib 2, Huizen","address":"2 Houtrib","city":"Huizen","operatorName":"TotalEnergies","maxPowerKw":17,"isMegawatt":false,"status":"UNAVAILABLE","source":"ndw"}},{"type":"Feature","geometry":{"type":"Point","coordinates":[5.247378,52.297832]},"properties":{"type":"charge","layer":"passenger","locationId":"2104A12B-57CE-4D47-A95E-09BC3A3BDF73","name":"TNLP009992 - Graaf Gerolf 2, Huizen","address":"2 Graaf Gerolf","city":"Huizen","operatorName":"TotalEnergies","maxPowerKw":17,"isMegawatt":false,"status":"AVAILABLE","source":"ndw"}},{"type":"Feature","geometry":{"type":"Point","coordinates":[5.269374,52.303593]},"properties":{"type":"charge","layer":"passenger","locationId":"80E04D8E-C77E-4594-B07B-31FDC83CDD5C","name":"TNLP006653 - Middelgronden 151, Huizen","address":"151 Middelgronden","city":"Huizen","operatorName":"TotalEnergies","maxPowerKw":17,"isMegawatt":false,"status":"AVAILABLE","source":"ndw"}},{"type":"Feature","geometry":{"type":"Point","coordinates":[5.26518,52.2963]},"properties":{"type":"charge","layer":"passenger","locationId":"96ABD249-FED1-4CFE-8697-C4172F9C46A3","name":"PP004314 - Westkade 37, Huizen","address":"37 Westkade","city":"Huizen","operatorName":"TotalEnergies","maxPowerKw":11,"isMegawatt":false,"status":"AVAILABLE","source":"ndw"}},{"type":"Feature","geometry":{"type":"Point","coordinates":[5.221339,52.294308]},"properties":{"type":"charge","layer":"passenger","locationId":"97A29841-C69D-4F3A-9395-968C4C18EBB8","name":"TNLP005715 - Imkerweg 2, Huizen","address":"2 Imkerweg","city":"Huizen","operatorName":"TotalEnergies","maxPowerKw":17,"isMegawatt":false,"status":"UNAVAILABLE","source":"ndw"}},{"type":"Feature","geometry":{"type":"Point","coordinates":[5.277591,52.299225]},"properties":{"type":"charge","layer":"passenger","locationId":"3799939D-FD53-4FE6-817A-CBA29723E5A8","name":"TNLP008871 - Naarderhop 7, Huizen","address":"7 Naarderhop","city":"Huizen","operatorName":"TotalEnergies","maxPowerKw":14,"isMegawatt":false,"status":"AVAILABLE","source":"ndw"}},{"type":"Feature","geometry":{"type":"Point","coordinates":[5.247029,52.305656]},"properties":{"type":"charge","layer":"passenger","locationId":"60b0e24b5c20a82c9ac0ed11","name":"Bouwmaat Huizen","address":"Machineweg 4","city":"Huizen","operatorName":"E-Flux by Road","maxPowerKw":22,"isMegawatt":false,"status":"AVAILABLE","source":"ndw","priceKwh":0.33}},{"type":"Feature","geometry":{"type":"Point","coordinates":[5.250307,52.29445]},"properties":{"type":"charge","layer":"passenger","locationId":"5113E1D2-6752-4A42-B219-3339712E789B","name":"TNLP006375 - Schaarweg 36, Huizen","address":"36 Schaarweg","city":"Huizen","operatorName":"TotalEnergies","maxPowerKw":17,"isMegawatt":false,"status":"AVAILABLE","source":"ndw"}},{"type":"Feature","geometry":{"type":"Point","coordinates":[5.277129,52.29934]},"properties":{"type":"charge","layer":"passenger","locationId":"52546456-4CFC-4E0F-8717-B95C6B45EA0E","name":"PP005416 - Gooisekust 48, Huizen","address":"48 Gooisekust","city":"Huizen","operatorName":"TotalEnergies","maxPowerKw":11,"isMegawatt":false,"status":"AVAILABLE","source":"ndw"}},{"type":"Feature","geometry":{"type":"Point","coordinates":[5.263517,52.3055]},"properties":{"type":"charge","layer":"passenger","locationId":"A895DB65-C43F-41E5-9E5A-B2A7BF486622","name":"TNLP015462 - Westkade 429, Huizen","address":"429 Westkade","city":"Huizen","operatorName":"TotalEnergies","maxPowerKw":17,"isMegawatt":false,"status":"UNAVAILABLE","source":"ndw"}},{"type":"Feature","geometry":{"type":"Point","coordinates":[5.253118,52.290997]},"properties":{"type":"charge","layer":"passenger","locationId":"E39CE529-1A96-485C-B90A-B9A723B8FB8E","name":"TNLP006420 - Plecht 1, Huizen","address":"1 Plecht","city":"Huizen","operatorName":"TotalEnergies","maxPowerKw":17,"isMegawatt":false,"status":"UNAVAILABLE","source":"ndw"}},{"type":"Feature","geometry":{"type":"Point","coordinates":[5.26962,52.296033]},"properties":{"type":"charge","layer":"passenger","locationId":"bf31193a-a87d-4be2-9d01-ee43886b92f4","name":"Waterland","address":"Waterland 2","city":"Huizen","operatorName":"Vattenfall InCharge","maxPowerKw":11,"isMegawatt":false,"status":"UNAVAILABLE","source":"ndw","priceKwh":0.4316}},{"type":"Feature","geometry":{"type":"Point","coordinates":[5.24604,52.28996]},"properties":{"type":"charge","layer":"passenger","locationId":"76fc5989-8332-4513-9bef-5a5ea81dd932","name":"PP001065 - Zenderlaan 11, Huizen","address":"11 Zenderlaan","city":"Huizen","operatorName":"TotalEnergies","maxPowerKw":11,"isMegawatt":false,"status":"UNAVAILABLE","source":"ndw"}},{"type":"Feature","geometry":{"type":"Point","coordinates":[5.247571,52.29809]},"properties":{"type":"charge","layer":"passenger","locationId":"2ED0AD58-BC94-46C3-93D6-91B22BD0B7EC","name":"PP005139 - Huizermaatweg 42, Huizen","address":"42 Huizermaatweg","city":"Huizen","operatorName":"TotalEnergies","maxPowerKw":11,"isMegawatt":false,"status":"UNAVAILABLE","source":"ndw"}},{"type":"Feature","geometry":{"type":"Point","coordinates":[5.2566,52.30428]},"properties":{"type":"charge","layer":"passenger","locationId":"774bff50-4fbc-4ac4-a1df-67d4d4eb77c8","name":"PP002058 - Schipbeek 1, Huizen","address":"1 Schipbeek","city":"Huizen","operatorName":"TotalEnergies","maxPowerKw":11,"isMegawatt":false,"status":"AVAILABLE","source":"ndw"}},{"type":"Feature","geometry":{"type":"Point","coordinates":[5.246055,52.293593]},"properties":{"type":"charge","layer":"passenger","locationId":"acbe9fd2-a94e-4760-88c5-72fbb962e753","name":"Vloedwal","address":"Vloedwal 50","city":"Huizen","operatorName":"Vattenfall InCharge","maxPowerKw":4,"isMegawatt":false,"status":"UNAVAILABLE","source":"ndw","priceKwh":0.4316}},{"type":"Feature","geometry":{"type":"Point","coordinates":[5.256286,52.29312]},"properties":{"type":"charge","layer":"passenger","locationId":"553A7A17-912A-41D9-B7DF-B1A5178ACFFD","name":"TNLP007797 - Stuurboord 47, Huizen","address":"47 Stuurboord","city":"Huizen","operatorName":"TotalEnergies","maxPowerKw":17,"isMegawatt":false,"status":"AVAILABLE","source":"ndw"}},{"type":"Feature","geometry":{"type":"Point","coordinates":[5.265255,52.302225]},"properties":{"type":"charge","layer":"passenger","locationId":"715d923d-4113-4e5a-8c20-7c41a9b78227","name":"Eierlanden","address":"Eierlanden 93","city":"Huizen","operatorName":"Vattenfall InCharge","maxPowerKw":11,"isMegawatt":false,"status":"UNAVAILABLE","source":"ndw","priceKwh":0.4316}},{"type":"Feature","geometry":{"type":"Point","coordinates":[5.252808,52.299377]},"properties":{"type":"charge","layer":"passenger","locationId":"D6742B22-9078-4632-A16C-F57E1407B53F","name":"TNLP009777 - Riet 35, Huizen","address":"35 Riet","city":"Huizen","operatorName":"TotalEnergies","maxPowerKw":17,"isMegawatt":false,"status":"AVAILABLE","source":"ndw"}},{"type":"Feature","geometry":{"type":"Point","coordinates":[5.258258,52.296986]},"properties":{"type":"charge","layer":"passenger","locationId":"54C9F591-478E-47F7-AC4B-9DFF2ADC44C3","name":"TNLP009040 - Bever 62, Huizen","address":"62 Bever","city":"Huizen","operatorName":"TotalEnergies","maxPowerKw":17,"isMegawatt":false,"status":"UNAVAILABLE","source":"ndw"}},{"type":"Feature","geometry":{"type":"Point","coordinates":[5.248065,52.29242]},"properties":{"type":"charge","layer":"passenger","locationId":"8A35CC84-3B12-4592-AE0D-ADDB0DBF0E0E","name":"TNLP005936 - Borneolaan 18, Huizen","address":"18 Borneolaan","city":"Huizen","operatorName":"TotalEnergies","maxPowerKw":15,"isMegawatt":false,"status":"AVAILABLE","source":"ndw"}},{"type":"Feature","geometry":{"type":"Point","coordinates":[5.241472,52.293835]},"properties":{"type":"charge","layer":"passenger","locationId":"D5898FF6-7231-4FD2-8467-12879051099B","name":"TNLP005910 - Bloemenweg 10, Huizen","address":"10 Bloemenweg","city":"Huizen","operatorName":"TotalEnergies","maxPowerKw":17,"isMegawatt":false,"status":"UNAVAILABLE","source":"ndw"}},{"type":"Feature","geometry":{"type":"Point","coordinates":[5.238858,52.306649]},"properties":{"type":"charge","layer":"passenger","locationId":"ed2f1b05e986bc3173a29874a5aa69a9","name":"IJsselmeerstraat 76","address":"IJsselmeerstraat 76","city":"Huizen","operatorName":"Vattenfall InCharge","maxPowerKw":11,"isMegawatt":false,"status":"AVAILABLE","source":"ndw","priceKwh":0.2805}},{"type":"Feature","geometry":{"type":"Point","coordinates":[5.219514,52.293887]},"properties":{"type":"charge","layer":"passenger","locationId":"91084500","name":"50five-S NL 07100764","address":"Bachlaan 9","city":"Huizen","operatorName":"50five","maxPowerKw":11,"isMegawatt":false,"status":"AVAILABLE","source":"ndw"}},{"type":"Feature","geometry":{"type":"Point","coordinates":[5.237271,52.306952]},"properties":{"type":"charge","layer":"passenger","locationId":"50185de558ed0281c8caded5fd15d0ef","name":"IJsselmeerstraat 3","address":"IJsselmeerstraat 3","city":"Huizen","operatorName":"Vattenfall InCharge","maxPowerKw":11,"isMegawatt":false,"status":"AVAILABLE","source":"ndw","priceKwh":0.2805}},{"type":"Feature","geometry":{"type":"Point","coordinates":[5.25769,52.295666]},"properties":{"type":"charge","layer":"passenger","locationId":"517BA378-19BD-42C7-8FD1-F1B6DE4539BB","name":"PP005573 - Gooierserf 384, Huizen","address":"384 Gooierserf","city":"Huizen","operatorName":"TotalEnergies","maxPowerKw":11,"isMegawatt":false,"status":"AVAILABLE","source":"ndw"}},{"type":"Feature","geometry":{"type":"Point","coordinates":[5.235023,52.303123]},"properties":{"type":"charge","layer":"passenger","locationId":"998161EE-709D-473F-8E0E-E946FBE32881","name":"TNLP006772 - Jotterpad 1, Huizen","address":"1 Jotterpad","city":"Huizen","operatorName":"TotalEnergies","maxPowerKw":17,"isMegawatt":false,"status":"AVAILABLE","source":"ndw"}},{"type":"Feature","geometry":{"type":"Point","coordinates":[5.251985,52.305733]},"properties":{"type":"charge","layer":"passenger","locationId":"70B46E61-6FA0-43CF-BE3F-C289F3F038B5","name":"PP005406 - Slangekruid 2, Huizen","address":"2 Slangekruid","city":"Huizen","operatorName":"TotalEnergies","maxPowerKw":11,"isMegawatt":false,"status":"AVAILABLE","source":"ndw"}},{"type":"Feature","geometry":{"type":"Point","coordinates":[5.23884,52.3067]},"properties":{"type":"charge","layer":"passenger","locationId":"61F71EF1-E7A2-435A-9C80-BD385A7B9916","name":"TNLP005942 - IJsselmeerstraat 76, Huizen","address":"76 IJsselmeerstraat","city":"Huizen","operatorName":"TotalEnergies","maxPowerKw":11,"isMegawatt":false,"status":"UNAVAILABLE","source":"ndw"}},{"type":"Feature","geometry":{"type":"Point","coordinates":[5.244274,52.292861]},"properties":{"type":"charge","layer":"passenger","locationId":"9b8dd80e087e2749f06b48b179321162","name":"Gooilandweg 162","address":"Gooilandweg 162","city":"Huizen","operatorName":"Vattenfall InCharge","maxPowerKw":11,"isMegawatt":false,"status":"AVAILABLE","source":"ndw","priceKwh":0.2805}},{"type":"Feature","geometry":{"type":"Point","coordinates":[5.274441,52.300304]},"properties":{"type":"charge","layer":"passenger","locationId":"636FDDFC-F308-4146-8C14-6D409D0BF9B2","name":"TNLP007222 - Friesewal 51, Huizen","address":"51 Friesewal","city":"Huizen","operatorName":"TotalEnergies","maxPowerKw":17,"isMegawatt":false,"status":"AVAILABLE","source":"ndw"}},{"type":"Feature","geometry":{"type":"Point","coordinates":[5.278995,52.300919]},"properties":{"type":"charge","layer":"passenger","locationId":"91093682","name":"50five-S NL 03003827","address":"Professor Brouwerlaan 37","city":"Blaricum","operatorName":"50five","maxPowerKw":4,"isMegawatt":false,"status":"AVAILABLE","source":"ndw"}},{"type":"Feature","geometry":{"type":"Point","coordinates":[5.24294,52.30584]},"properties":{"type":"charge","layer":"passenger","locationId":"17C93A24-E143-4E5F-8409-1B7F83379FFB","name":"PP002330 - Energieweg 2, Huizen","address":"2 Energieweg","city":"Huizen","operatorName":"TotalEnergies","maxPowerKw":17,"isMegawatt":false,"status":"AVAILABLE","source":"ndw"}},{"type":"Feature","geometry":{"type":"Point","coordinates":[5.232727,52.300686]},"properties":{"type":"charge","layer":"passenger","locationId":"36981D26-AFC3-42DD-B2F2-56A2D405152D","name":"PP005401 - Hellingstraat 1, Huizen","address":"1 Hellingstraat","city":"Huizen","operatorName":"TotalEnergies","maxPowerKw":17,"isMegawatt":false,"status":"CHARGING","source":"ndw"}},{"type":"Feature","geometry":{"type":"Point","coordinates":[5.243149,52.310109]},"properties":{"type":"charge","layer":"passenger","locationId":"74ac2267-f060-4c21-a3fd-483702b00a19","name":"Mastspoor","address":"Mastspoor 3","city":"Huizen","operatorName":"Vattenfall InCharge","maxPowerKw":11,"isMegawatt":false,"status":"UNAVAILABLE","source":"ndw","priceKwh":0.4316}},{"type":"Feature","geometry":{"type":"MultiPolygon","coordinates":[[[[5.252721801965733,52.31013688535587],[5.256357722659886,52.306833348593656],[5.2598808958285135,52.3061140058014],[5.2642737807975095,52.306766097156505],[5.264733037588795,52.3064539640678],[5.274064215124325,52.30414531047589],[5.278001738775667,52.302359646957285],[5.2788195180614474,52.302387452634164],[5.28112641466706,52.30059396684637],[5.287809744817028,52.29760348562566],[5.280911629290908,52.29378117505109],[5.2777432094086585,52.296074376496534],[5.274408009171561,52.29340799638889],[5.271161116473474,52.29099890790924],[5.270988896028805,52.29092192465734],[5.268315859588787,52.290092906758225],[5.257562859871552,52.28674277458983],[5.250104722978564,52.28441972542092],[5.249802773130493,52.28432579135284],[5.24622564786269,52.28319588826578],[5.2463825927478815,52.28233323086074],[5.241329596541113,52.28132283343629],[5.24122990666581,52.281314744527094],[5.2363549924634745,52.28118929296345],[5.232492148120614,52.2812706460067],[5.227600451367079,52.277129486730104],[5.210957272544463,52.27735090172674],[5.2108763883853735,52.277339696533204],[5.207222259350885,52.27434939256449],[5.207025226468358,52.273418801746075],[5.2068969342344555,52.27209305396065],[5.203821879220298,52.2671155363467],[5.201116993840097,52.26814038285819],[5.196222730033625,52.27089335115953],[5.191179752900123,52.27374282742437],[5.187598142419421,52.27524475919362],[5.184702685192581,52.27801004518258],[5.18998717076063,52.27909900588466],[5.194473127228547,52.28094102858555],[5.1943472579998975,52.2824288221067],[5.194662022153984,52.28347890580715],[5.192137243674023,52.284116039229524],[5.193802706098612,52.28552822501043],[5.195683002471099,52.284765714774394],[5.195763834300159,52.286009472579856],[5.19530560461054,52.288244517243214],[5.195383185964726,52.2885810992258],[5.193232010374055,52.288223293429475],[5.192379292847681,52.29032960309722],[5.187075049359023,52.29260319438277],[5.187690539402388,52.29295358604997],[5.188223735575314,52.29255090141623],[5.190372849243413,52.293234309398606],[5.190433702554449,52.29346451882812],[5.195916922310387,52.295076967920295],[5.194991431761658,52.297107653382064],[5.195805173684352,52.2988992644401],[5.1977978330966055,52.300334821177955],[5.2022460539216695,52.29971849866913],[5.20349579158434,52.29965697240269],[5.208721459268581,52.300257659072116],[5.209009758553102,52.302020603130174],[5.210489177533556,52.30186096430009],[5.211759286869609,52.30009556508444],[5.21412633170284,52.29849833334381],[5.219479993894906,52.299157419294986],[5.227173396221927,52.30116716400763],[5.229560454255987,52.301724200446465],[5.229134146173984,52.30280336371757],[5.230080253461971,52.302924735829485],[5.229812078983099,52.30448121202806],[5.230352148355132,52.30544722618222],[5.2284881193608275,52.31125423395704],[5.230944168041488,52.31183332831933],[5.240183388287619,52.31171200115145],[5.242503373914778,52.31128478276182],[5.243742606340412,52.31210949400969],[5.244244212679214,52.31186346808223],[5.242828720170627,52.31060012197082],[5.244023038905899,52.31009041930126],[5.244957153415363,52.31083988269829],[5.245190870107664,52.31075301050089],[5.245365580655641,52.310095062625244],[5.245240586185878,52.30972144115031],[5.244008061477455,52.30897826513426],[5.242793514814738,52.30835591624229],[5.241296674817028,52.30579666373146],[5.242187800283125,52.30573116257879],[5.243482077901761,52.30810087614252],[5.244226608824979,52.30863877159052],[5.2452427823941,52.30829771157758],[5.245296317098657,52.30840489415689],[5.245451171519197,52.308514069452045],[5.2451326982177156,52.30862990909751],[5.2454030162414025,52.30890785734747],[5.244977738827538,52.30916699500632],[5.247008871505922,52.312269800046195],[5.2474197523395,52.31203479956147],[5.24631069733227,52.310323940234454],[5.251620880608841,52.30904144251408],[5.25130761990454,52.310101988155076],[5.248459944742336,52.31173361845204],[5.247870035759858,52.31385338514374],[5.249118374939115,52.315834109423854],[5.249956022901733,52.315913810721824],[5.249607576222509,52.31367926285023],[5.252121286935843,52.31206397142865],[5.252721801965733,52.31013688535587]]]]},"properties":{"type":"boundary","gemeente":"Huizen","code":"GM0406"}}]}