{"type":"FeatureCollection","metadata":{"gemeente":"Kaag en Braassem","slug":"kaag-en-braassem","code":"GM1884","generated_at":"2026-08-08T12:05:52.020Z","total_passenger":21,"total_freight":0,"bounds":[4.5381532047628514,52.15224867334701,4.729562272713666,52.23384246733632],"operators":["50five","E-Flux by Road","Eneco","Van Leeuwen","Vattenfall InCharge"]},"features":[{"type":"Feature","geometry":{"type":"Point","coordinates":[4.604283,52.167471]},"properties":{"type":"charge","layer":"passenger","locationId":"64667cbcb807350012f9b303","name":"Mariahoeve-Logies laadstation","address":"Ofwegen 8","city":"Woubrugge","operatorName":"E-Flux by Road","maxPowerKw":22,"isMegawatt":false,"status":"AVAILABLE","source":"ndw","priceKwh":0.43}},{"type":"Feature","geometry":{"type":"Point","coordinates":[4.615334,52.197479]},"properties":{"type":"charge","layer":"passenger","locationId":"6203ec7880b726cdcf56fe3f","name":"Airport Indoor Parking Laadpaal 5","address":"Veenderveld 10","city":"Roelofarendsveen","operatorName":"E-Flux by Road","maxPowerKw":22,"isMegawatt":false,"status":"CHARGING","source":"ndw","priceKwh":0.92}},{"type":"Feature","geometry":{"type":"Point","coordinates":[4.686818,52.191154]},"properties":{"type":"charge","layer":"passenger","locationId":"62f22814fc55b7b42b0aa24b","name":"laadpunt 2 de Pannekoekenbakker","address":"Woudsedijk-zuid 43","city":"Woubrugge","operatorName":"E-Flux by Road","maxPowerKw":22,"isMegawatt":false,"status":"AVAILABLE","source":"ndw","priceKwh":0.48}},{"type":"Feature","geometry":{"type":"Point","coordinates":[4.557985,52.216561]},"properties":{"type":"charge","layer":"passenger","locationId":"6D77CF59-CE20-4D6B-8F4F-CBBE695D7030","name":"Eneco eMobility Stal op de Kaag - Julianalaan 26","address":"Julianalaan 26","city":"Kaag","operatorName":"Eneco","maxPowerKw":22,"isMegawatt":false,"status":"AVAILABLE","source":"ndw","priceKwh":0.42}},{"type":"Feature","geometry":{"type":"Point","coordinates":[4.644243,52.212488]},"properties":{"type":"charge","layer":"passenger","locationId":"91067727","name":"50five-S NL 07107826","address":"Watergang 101","city":"Oude Wetering","operatorName":"50five","maxPowerKw":11,"isMegawatt":false,"status":"AVAILABLE","source":"ndw"}},{"type":"Feature","geometry":{"type":"Point","coordinates":[4.615305,52.197442]},"properties":{"type":"charge","layer":"passenger","locationId":"6203f18a80b7267e3e5752d9","name":"Airport Indoor Parking Laadpaal 7","address":"Veenderveld 10","city":"Roelofarendsveen","operatorName":"E-Flux by Road","maxPowerKw":22,"isMegawatt":false,"status":"AVAILABLE","source":"ndw","priceKwh":0.92}},{"type":"Feature","geometry":{"type":"Point","coordinates":[4.64677,52.211092]},"properties":{"type":"charge","layer":"passenger","locationId":"91275233","name":"50five-S NL 03002702","address":"Veerstraat 1A","city":"Oude Wetering","operatorName":"50five","maxPowerKw":4,"isMegawatt":false,"status":"AVAILABLE","source":"ndw"}},{"type":"Feature","geometry":{"type":"Point","coordinates":[4.64253,52.204622]},"properties":{"type":"charge","layer":"passenger","locationId":"89307235","name":"Van Leeuwen Prive","address":"Schoolbaan 1","city":"Roelofarendsveen","operatorName":"Van Leeuwen","maxPowerKw":22,"isMegawatt":false,"status":"AVAILABLE","source":"ndw"}},{"type":"Feature","geometry":{"type":"Point","coordinates":[4.686528,52.190823]},"properties":{"type":"charge","layer":"passenger","locationId":"62f17975fc55b7d48efe4ed1","name":"Laadpunt 1 de Pannekoekenbakker","address":"Woudsedijk-zuid 43","city":"Woubrugge","operatorName":"E-Flux by Road","maxPowerKw":22,"isMegawatt":false,"status":"AVAILABLE","source":"ndw","priceKwh":0.48}},{"type":"Feature","geometry":{"type":"Point","coordinates":[4.629268,52.198669]},"properties":{"type":"charge","layer":"passenger","locationId":"673ba1cce2c61923c528f62e","name":"EV STATION NOORDAKKER","address":"Noordakker 1","city":"Roelofarendsveen","operatorName":"E-Flux by Road","maxPowerKw":22,"isMegawatt":false,"status":"AVAILABLE","source":"ndw","priceKwh":0.42}},{"type":"Feature","geometry":{"type":"Point","coordinates":[4.615356,52.197515]},"properties":{"type":"charge","layer":"passenger","locationId":"6203ec4202718bb5ccfbf2df","name":"Airport Indoor Parking Laadpaal 4","address":"Veenderveld 10","city":"Roelofarendsveen","operatorName":"E-Flux by Road","maxPowerKw":22,"isMegawatt":false,"status":"AVAILABLE","source":"ndw","priceKwh":0.92}},{"type":"Feature","geometry":{"type":"Point","coordinates":[4.615327,52.197475]},"properties":{"type":"charge","layer":"passenger","locationId":"6203f0ffdb17df4561c8e8f3","name":"Airport Indoor Parking Laadpaal 6","address":"Veenderveld 10","city":"Roelofarendsveen","operatorName":"E-Flux by Road","maxPowerKw":22,"isMegawatt":false,"status":"AVAILABLE","source":"ndw","priceKwh":0.92}},{"type":"Feature","geometry":{"type":"Point","coordinates":[4.645913,52.207303]},"properties":{"type":"charge","layer":"passenger","locationId":"91053185","name":"50five-S NL 07118927","address":"Burgemeester Vostersstraat 51","city":"Oude Wetering","operatorName":"50five","maxPowerKw":9,"isMegawatt":false,"status":"AVAILABLE","source":"ndw"}},{"type":"Feature","geometry":{"type":"Point","coordinates":[4.615381,52.197567]},"properties":{"type":"charge","layer":"passenger","locationId":"6203e80e80b72630a656c508","name":"Airport Indoor Parking Laadpaal 2","address":"Veenderveld 10","city":"Roelofarendsveen","operatorName":"E-Flux by Road","maxPowerKw":22,"isMegawatt":false,"status":"AVAILABLE","source":"ndw","priceKwh":0.42}},{"type":"Feature","geometry":{"type":"Point","coordinates":[4.668608,52.193453]},"properties":{"type":"charge","layer":"passenger","locationId":"91087786","name":"50five-S NL 07101162","address":"Herenweg 86","city":"Rijnsaterwoude","operatorName":"50five","maxPowerKw":11,"isMegawatt":false,"status":"AVAILABLE","source":"ndw"}},{"type":"Feature","geometry":{"type":"Point","coordinates":[4.632316,52.169196]},"properties":{"type":"charge","layer":"passenger","locationId":"91054248","name":"50five-S NL 03008522","address":"Van Schellingerhoutstraat 21","city":"Woubrugge","operatorName":"50five","maxPowerKw":7,"isMegawatt":false,"status":"AVAILABLE","source":"ndw"}},{"type":"Feature","geometry":{"type":"Point","coordinates":[4.61537,52.197536]},"properties":{"type":"charge","layer":"passenger","locationId":"6203ebf380b7261bd156f350","name":"Airport Indoor Parking Laadpaal 3","address":"Veenderveld 10","city":"Roelofarendsveen","operatorName":"E-Flux by Road","maxPowerKw":22,"isMegawatt":false,"status":"AVAILABLE","source":"ndw","priceKwh":0.92}},{"type":"Feature","geometry":{"type":"Point","coordinates":[4.615391,52.19758]},"properties":{"type":"charge","layer":"passenger","locationId":"62038bd47bf89942a6e87db8","name":"Airport Indoor Parking Laadpaal 1","address":"Veenderveld 10","city":"Roelofarendsveen","operatorName":"E-Flux by Road","maxPowerKw":22,"isMegawatt":false,"status":"AVAILABLE","source":"ndw","priceKwh":0.42}},{"type":"Feature","geometry":{"type":"Point","coordinates":[4.615273,52.197405]},"properties":{"type":"charge","layer":"passenger","locationId":"6203f1c102718b2204fc5477","name":"Airport Indoor Parking Laadpaal 8","address":"Veenderveld 10","city":"Roelofarendsveen","operatorName":"E-Flux by Road","maxPowerKw":22,"isMegawatt":false,"status":"AVAILABLE","source":"ndw","priceKwh":0.92}},{"type":"Feature","geometry":{"type":"Point","coordinates":[4.563448,52.191302]},"properties":{"type":"charge","layer":"passenger","locationId":"91086044","name":"50five-S NL 07107341","address":"Leidseweg 30","city":"Oud Ade","operatorName":"50five","maxPowerKw":7,"isMegawatt":false,"status":"UNAVAILABLE","source":"ndw"}},{"type":"Feature","geometry":{"type":"Point","coordinates":[4.58936,52.196518]},"properties":{"type":"charge","layer":"passenger","locationId":"f6758438-65f1-4ab0-a47e-700233bef264","name":"Ripselaan 6","address":"Ripselaan 6","city":"RIJPWETERING","operatorName":"Vattenfall InCharge","maxPowerKw":22,"isMegawatt":false,"status":"AVAILABLE","source":"ndw","priceKwh":0.5}},{"type":"Feature","geometry":{"type":"MultiPolygon","coordinates":[[[[4.724154341635766,52.232371756118276],[4.722896340773161,52.22036432318055],[4.723649314301157,52.218235385929354],[4.723301684122743,52.216354281738106],[4.723764128840122,52.21657406938179],[4.724558501549544,52.21322325228344],[4.724738666725663,52.21258379815186],[4.729562272713666,52.21027156932138],[4.728765730366438,52.209819234611956],[4.725334151118886,52.21151036589036],[4.724529785243441,52.2108012405308],[4.723890126958862,52.21093623608239],[4.723783952460915,52.21143531518877],[4.7233597882136795,52.21094290045474],[4.720774013621151,52.201276912405426],[4.719990043448558,52.20161902089791],[4.707577744498731,52.20490199784297],[4.705072924198297,52.201224990459565],[4.699347714710412,52.19416837105491],[4.695315361133439,52.189154863562706],[4.69083005993273,52.19167432980828],[4.688927549672192,52.19187838393446],[4.6871647672329955,52.18627868180798],[4.681208743284578,52.167504587043595],[4.679840469207979,52.16274577916556],[4.665335060911307,52.16243379320662],[4.645516006050083,52.16200787137411],[4.641484801668889,52.16181586074497],[4.6398452112316155,52.16160668863284],[4.619031598333197,52.158708331490104],[4.610592771930214,52.15757200449382],[4.605922528217738,52.1569352914702],[4.57273630840206,52.15224867334701],[4.57148053751291,52.1531093894134],[4.561633481584151,52.16081947549498],[4.562647697238182,52.16132919497292],[4.560489743694871,52.16413052570907],[4.562399383116201,52.16611929995553],[4.560591871064622,52.1667834319931],[4.555700532305413,52.16442592902886],[4.552757831101997,52.16310433689861],[4.550349501746459,52.163013506459464],[4.542329436208463,52.171954077071035],[4.5400110679010295,52.17556914076025],[4.5390652929595605,52.17710119076483],[4.538778678384519,52.18013056327586],[4.5381532047628514,52.18008518715891],[4.543662342138699,52.187394369253084],[4.543000654823499,52.1881196642649],[4.544518982999722,52.19152196723388],[4.544480275820089,52.192217897377816],[4.545254965651971,52.19408945859573],[4.546767060957496,52.19897607842552],[4.549374659340633,52.19893819899117],[4.549296946526971,52.198362289706644],[4.5541289768751385,52.19834249630805],[4.554045588705261,52.197582605165664],[4.557154621397341,52.1977423998367],[4.556866385738159,52.19800713093226],[4.556807554947793,52.19850273160797],[4.556663594816518,52.19881810639474],[4.555564024437726,52.19920324443708],[4.555566942087112,52.19940585775208],[4.55535855450978,52.19944204442982],[4.555199991284436,52.19961280086106],[4.5552686348123785,52.19969769328955],[4.55557132750551,52.19971035886495],[4.555577597109992,52.20014570548001],[4.558141932188108,52.20036739829802],[4.5596495721003025,52.200497711029385],[4.559553924484673,52.20196186598708],[4.561661318917723,52.203639875709115],[4.560520644897657,52.203658725976865],[4.560685854245719,52.20477949501236],[4.558268919467232,52.20576101579832],[4.558090075759068,52.20852145199321],[4.558954007053697,52.21024203108241],[4.554284241607378,52.21231247259803],[4.5553734454668176,52.21401582002459],[4.557825508852037,52.215067417244796],[4.556907878398726,52.21641520070343],[4.558432520204699,52.21879899631679],[4.572201543858037,52.21699955216132],[4.573756306822289,52.21725766193113],[4.583552534154776,52.2188746422603],[4.5981800844421565,52.21554559720524],[4.6027608989665785,52.21455868818365],[4.6184364518219985,52.214476171998044],[4.622483102936737,52.21492314343634],[4.625843955511473,52.215301643204526],[4.625844549867281,52.21530171354841],[4.632633763978882,52.21618466591504],[4.638573875226565,52.218487010732595],[4.644021440782033,52.220651560577075],[4.647177121371255,52.221206264246746],[4.6538531233518805,52.22434605028343],[4.658473116710401,52.22609866729362],[4.665846622612174,52.22799679785577],[4.668345204372014,52.22958079790459],[4.670347535106556,52.230756173267665],[4.676698480277881,52.225925906508],[4.679974600414314,52.226763496193854],[4.683631796274137,52.22635442272665],[4.686210075922011,52.22663385047289],[4.6962437014231675,52.2321096719745],[4.7002432860672965,52.23307984235488],[4.704427709819538,52.23384246733632],[4.724154341635766,52.232371756118276]]]]},"properties":{"type":"boundary","gemeente":"Kaag en Braassem","code":"GM1884"}}]}