{"type":"FeatureCollection","metadata":{"gemeente":"Koggenland","slug":"koggenland","code":"GM1598","generated_at":"2026-08-08T12:05:52.020Z","total_passenger":80,"total_freight":0,"bounds":[4.862698706970559,52.59528579057151,5.038928412091418,52.69990970549247],"operators":["50five","E-Flux by Road","Laadnet","TotalEnergies","Ubitricity","Vattenfall InCharge"]},"features":[{"type":"Feature","geometry":{"type":"Point","coordinates":[4.94469,52.63388]},"properties":{"type":"charge","layer":"passenger","locationId":"666A8DE8-CAAE-476A-A9AA-2C133CFF555F","name":"PP005066 - Perengaard 23, De Goorn","address":"23 Perengaard","city":"De Goorn","operatorName":"TotalEnergies","maxPowerKw":13,"isMegawatt":false,"status":"AVAILABLE","source":"ndw"}},{"type":"Feature","geometry":{"type":"Point","coordinates":[4.946663,52.63459]},"properties":{"type":"charge","layer":"passenger","locationId":"22312E7B-2244-492B-B3CA-FC75D73D8FD0","name":"TNLP007329 - Amandelgaard 1, De Goorn","address":"1 Amandelgaard","city":"De Goorn","operatorName":"TotalEnergies","maxPowerKw":15,"isMegawatt":false,"status":"AVAILABLE","source":"ndw"}},{"type":"Feature","geometry":{"type":"Point","coordinates":[4.895527,52.627068]},"properties":{"type":"charge","layer":"passenger","locationId":"802E3420-0F84-4C5E-866A-9E2EB37DD4D3","name":"PP005493 - Zuidgouw 13, Ursem","address":"13 Zuidgouw","city":"Ursem","operatorName":"TotalEnergies","maxPowerKw":15,"isMegawatt":false,"status":"AVAILABLE","source":"ndw"}},{"type":"Feature","geometry":{"type":"Point","coordinates":[4.953116,52.616646]},"properties":{"type":"charge","layer":"passenger","locationId":"FBE2A8D0-17F8-454E-80CE-5AE736D36484","name":"TNLP009569 - De Tocht 1A, Avehorn","address":"1A De Tocht","city":"Avehorn","operatorName":"TotalEnergies","maxPowerKw":15,"isMegawatt":false,"status":"AVAILABLE","source":"ndw"}},{"type":"Feature","geometry":{"type":"Point","coordinates":[4.952168,52.62244]},"properties":{"type":"charge","layer":"passenger","locationId":"91105987","name":"50five-S NL 08101935","address":"Meerval 5","city":"Raamsdonksveer","operatorName":"50five","maxPowerKw":11,"isMegawatt":false,"status":"AVAILABLE","source":"ndw"}},{"type":"Feature","geometry":{"type":"Point","coordinates":[4.95146,52.6199985]},"properties":{"type":"charge","layer":"passenger","locationId":"1194","name":"Shell Recharge NL Bonkelaar 36","address":"Bonkelaar 36","city":"Avenhorn","operatorName":"Ubitricity","maxPowerKw":22,"isMegawatt":false,"status":"AVAILABLE","source":"ndw","priceKwh":0.267}},{"type":"Feature","geometry":{"type":"Point","coordinates":[4.943687,52.627827]},"properties":{"type":"charge","layer":"passenger","locationId":"C5DA83C2-140F-4891-9B0A-7B08B44D12AF","name":"TNLP008545 - Nicolaas Koppesstraat 13, De Goorn","address":"13 Nicolaas Koppesstraat","city":"De Goorn","operatorName":"TotalEnergies","maxPowerKw":14,"isMegawatt":false,"status":"UNAVAILABLE","source":"ndw"}},{"type":"Feature","geometry":{"type":"Point","coordinates":[4.943368,52.648598]},"properties":{"type":"charge","layer":"passenger","locationId":"E510465D-7834-49C0-B5BD-6F827F436193","name":"TNLP006522 - Ommeland 16, Spierdijk","address":"16 Ommeland","city":"Spierdijk","operatorName":"TotalEnergies","maxPowerKw":13,"isMegawatt":false,"status":"AVAILABLE","source":"ndw"}},{"type":"Feature","geometry":{"type":"Point","coordinates":[4.9553,52.63067]},"properties":{"type":"charge","layer":"passenger","locationId":"419","name":"Shell Recharge NL De Zeis 38","address":"De Zeis 38","city":"De Goorn","operatorName":"Ubitricity","maxPowerKw":11,"isMegawatt":false,"status":"AVAILABLE","source":"ndw","priceKwh":0.392}},{"type":"Feature","geometry":{"type":"Point","coordinates":[4.954541,52.621773]},"properties":{"type":"charge","layer":"passenger","locationId":"CEEC9979-3F45-42D4-AA23-CAC7A805759D","name":"PP005389 - Buitenroede 1, Avenhorn","address":"1 Buitenroede","city":"Avenhorn","operatorName":"TotalEnergies","maxPowerKw":13,"isMegawatt":false,"status":"AVAILABLE","source":"ndw"}},{"type":"Feature","geometry":{"type":"Point","coordinates":[4.889015,52.668421]},"properties":{"type":"charge","layer":"passenger","locationId":"91275720","name":"50five-S NL 19B04442","address":"Tocht 31","city":"Obdam","operatorName":"50five","maxPowerKw":11,"isMegawatt":false,"status":"AVAILABLE","source":"ndw"}},{"type":"Feature","geometry":{"type":"Point","coordinates":[4.938036,52.636935]},"properties":{"type":"charge","layer":"passenger","locationId":"68b5c66346e9cb320a26e497","name":"Ivette Bakker 's station","address":"Zuidspierdijkerweg 65","city":"Spierdijk","operatorName":"E-Flux by Road","maxPowerKw":4,"isMegawatt":false,"status":"AVAILABLE","source":"ndw","priceKwh":0.73}},{"type":"Feature","geometry":{"type":"Point","coordinates":[4.952911,52.625409]},"properties":{"type":"charge","layer":"passenger","locationId":"766808438da211a2ec5b8dac08e3320c","name":"Dorsvlegel 53","address":"Dorsvlegel 53","city":"De Goorn","operatorName":"Vattenfall InCharge","maxPowerKw":11,"isMegawatt":false,"status":"AVAILABLE","source":"ndw","priceKwh":0.2805}},{"type":"Feature","geometry":{"type":"Point","coordinates":[4.900755,52.671281]},"properties":{"type":"charge","layer":"passenger","locationId":"91110402","name":"50five-S NL 08102405","address":"Dorpsstraat 40A","city":"Obdam","operatorName":"50five","maxPowerKw":10,"isMegawatt":false,"status":"AVAILABLE","source":"ndw"}},{"type":"Feature","geometry":{"type":"Point","coordinates":[4.906848,52.677328]},"properties":{"type":"charge","layer":"passenger","locationId":"91110411","name":"50five-S NL 08103676","address":"Handelskade 5","city":"Obdam","operatorName":"50five","maxPowerKw":17,"isMegawatt":false,"status":"AVAILABLE","source":"ndw"}},{"type":"Feature","geometry":{"type":"Point","coordinates":[4.939673,52.648838]},"properties":{"type":"charge","layer":"passenger","locationId":"EC0C1EEB-5358-4E70-8783-AF7ED3FF7C09","name":"TNLP009396 - Beemd 21, Spierdijk","address":"21 Beemd","city":"Spierdijk","operatorName":"TotalEnergies","maxPowerKw":15,"isMegawatt":false,"status":"AVAILABLE","source":"ndw"}},{"type":"Feature","geometry":{"type":"Point","coordinates":[4.948334,52.623325]},"properties":{"type":"charge","layer":"passenger","locationId":"41CEDE5B-CEE1-427C-B6E3-E4FD2EE6FDEA","name":"TNLP009702 - Alver 47, Avenhorn","address":"47 Alver","city":"Avenhorn","operatorName":"TotalEnergies","maxPowerKw":15,"isMegawatt":false,"status":"AVAILABLE","source":"ndw"}},{"type":"Feature","geometry":{"type":"Point","coordinates":[4.952315,52.615738]},"properties":{"type":"charge","layer":"passenger","locationId":"ACE3029D-9260-4CD9-96CE-11367FF3DB67","name":"TNLP009802 - Het Hoog 15, Avenhorn","address":"15 Het Hoog","city":"Avenhorn","operatorName":"TotalEnergies","maxPowerKw":13,"isMegawatt":false,"status":"AVAILABLE","source":"ndw"}},{"type":"Feature","geometry":{"type":"Point","coordinates":[4.910571,52.673985]},"properties":{"type":"charge","layer":"passenger","locationId":"9B18944D-21E6-40E2-A0A2-69BB25AEF6E4","name":"TNLP006727 - Nijenburglaan 12, Obdam","address":"12 Nijenburglaan","city":"Obdam","operatorName":"TotalEnergies","maxPowerKw":17,"isMegawatt":false,"status":"UNAVAILABLE","source":"ndw"}},{"type":"Feature","geometry":{"type":"Point","coordinates":[4.885105,52.659118]},"properties":{"type":"charge","layer":"passenger","locationId":"8efdf450-af92-459f-9eb1-0b538b840bb2","name":"Dorpsweg","address":"Dorpsweg 76","city":"Hensbroek","operatorName":"Vattenfall InCharge","maxPowerKw":11,"isMegawatt":false,"status":"AVAILABLE","source":"ndw","priceKwh":0.4316}},{"type":"Feature","geometry":{"type":"Point","coordinates":[4.89294,52.667331]},"properties":{"type":"charge","layer":"passenger","locationId":"91228613","name":"50five-S NL 19B05237","address":"Braken 83","city":"Obdam","operatorName":"50five","maxPowerKw":11,"isMegawatt":false,"status":"AVAILABLE","source":"ndw"}},{"type":"Feature","geometry":{"type":"Point","coordinates":[5.004377,52.652543]},"properties":{"type":"charge","layer":"passenger","locationId":"91195491","name":"50five-S NL 07140259","address":"Slagterslaan 46","city":"Berkhout","operatorName":"50five","maxPowerKw":11,"isMegawatt":false,"status":"AVAILABLE","source":"ndw"}},{"type":"Feature","geometry":{"type":"Point","coordinates":[4.8802,52.65851]},"properties":{"type":"charge","layer":"passenger","locationId":"355","name":"Shell Recharge NL t Ouwe Hof 17","address":"t Ouwe Hof 17","city":"Hensbroek","operatorName":"Ubitricity","maxPowerKw":11,"isMegawatt":false,"status":"AVAILABLE","source":"ndw","priceKwh":0.392}},{"type":"Feature","geometry":{"type":"Point","coordinates":[4.944481,52.631058]},"properties":{"type":"charge","layer":"passenger","locationId":"50A5DD0F-1B65-49F3-87F7-54847DFB40BC","name":"PP005233 - Tulpenhof 1, De Goorn","address":"1 Tulpenhof","city":"De Goorn","operatorName":"TotalEnergies","maxPowerKw":13,"isMegawatt":false,"status":"AVAILABLE","source":"ndw"}},{"type":"Feature","geometry":{"type":"Point","coordinates":[4.906646,52.677379]},"properties":{"type":"charge","layer":"passenger","locationId":"91105945","name":"50five-S NL 08103569","address":"Handelskade 5","city":"Obdam","operatorName":"50five","maxPowerKw":11,"isMegawatt":false,"status":"AVAILABLE","source":"ndw"}},{"type":"Feature","geometry":{"type":"Point","coordinates":[4.94847,52.62297]},"properties":{"type":"charge","layer":"passenger","locationId":"204","name":"Shell Recharge NL Alver 47","address":"Alver 47","city":"Avenhorn","operatorName":"Ubitricity","maxPowerKw":11,"isMegawatt":false,"status":"AVAILABLE","source":"ndw","priceKwh":0.392}},{"type":"Feature","geometry":{"type":"Point","coordinates":[4.89656,52.62905]},"properties":{"type":"charge","layer":"passenger","locationId":"385","name":"Shell Recharge NL Gabrielstraat 40","address":"Gabrielstraat 40","city":"Ursem","operatorName":"Ubitricity","maxPowerKw":11,"isMegawatt":false,"status":"AVAILABLE","source":"ndw","priceKwh":0.392}},{"type":"Feature","geometry":{"type":"Point","coordinates":[5.003447,52.643085]},"properties":{"type":"charge","layer":"passenger","locationId":"CECC2907-EE07-408B-9195-2CAC8F8D463E","name":"TNLP007937 - Burgemeester Beemsterboerstraat 2, Berkhout","address":"2 Burgemeester Beemsterboerstraat","city":"Berkhout","operatorName":"TotalEnergies","maxPowerKw":13,"isMegawatt":false,"status":"AVAILABLE","source":"ndw"}},{"type":"Feature","geometry":{"type":"Point","coordinates":[4.893116,52.626064]},"properties":{"type":"charge","layer":"passenger","locationId":"0724FEF9-CA1C-425E-81BC-182B50D38E52","name":"TNLP008197 - Zuidgouw 2, Ursem","address":"2 Zuidgouw","city":"Ursem","operatorName":"TotalEnergies","maxPowerKw":15,"isMegawatt":false,"status":"CHARGING","source":"ndw"}},{"type":"Feature","geometry":{"type":"Point","coordinates":[4.879736,52.661982]},"properties":{"type":"charge","layer":"passenger","locationId":"91054297","name":"50five-S NL 17B03650","address":"Julianaweg 5b","city":"Hensbroek","operatorName":"50five","maxPowerKw":11,"isMegawatt":false,"status":"AVAILABLE","source":"ndw"}},{"type":"Feature","geometry":{"type":"Point","coordinates":[4.952156,52.62862]},"properties":{"type":"charge","layer":"passenger","locationId":"226C3B62-B20A-4670-87F4-B25085F0CD04","name":"PP005357 - Veldbeemd 16, De Goorn","address":"16 Veldbeemd","city":"De Goorn","operatorName":"TotalEnergies","maxPowerKw":15,"isMegawatt":false,"status":"AVAILABLE","source":"ndw"}},{"type":"Feature","geometry":{"type":"Point","coordinates":[4.8976592,52.6252383]},"properties":{"type":"charge","layer":"passenger","locationId":"1827","name":"Shell Recharge NL Henneland 52","address":"Henneland 52","city":"Ursem","operatorName":"Ubitricity","maxPowerKw":22,"isMegawatt":false,"status":"AVAILABLE","source":"ndw","priceKwh":0.267}},{"type":"Feature","geometry":{"type":"Point","coordinates":[4.9753,52.66446]},"properties":{"type":"charge","layer":"passenger","locationId":"2da280130c70a69dcc8deaec58333022","name":"Overtoom 4","address":"Overtoom 4","city":"Zuidermeer","operatorName":"Vattenfall InCharge","maxPowerKw":11,"isMegawatt":false,"status":"AVAILABLE","source":"ndw","priceKwh":0.2805}},{"type":"Feature","geometry":{"type":"Point","coordinates":[4.939455,52.649784]},"properties":{"type":"charge","layer":"passenger","locationId":"A1B69DCF-4765-47BB-BD37-DD2DDE62D65E","name":"PP005041 - Dokter Bloemstraat 18, Spierdijk","address":"18 Dokter Bloemstraat","city":"Spierdijk","operatorName":"TotalEnergies","maxPowerKw":15,"isMegawatt":false,"status":"AVAILABLE","source":"ndw"}},{"type":"Feature","geometry":{"type":"Point","coordinates":[4.907592,52.677065]},"properties":{"type":"charge","layer":"passenger","locationId":"91299477","name":"50five-S NL Location","address":"Handelskade","city":"Obdam","operatorName":"50five","maxPowerKw":11,"isMegawatt":false,"status":"AVAILABLE","source":"ndw"}},{"type":"Feature","geometry":{"type":"Point","coordinates":[4.958579,52.625337]},"properties":{"type":"charge","layer":"passenger","locationId":"61854fd781848ee8d7f73dd9","name":"Laadstation Wieder 8d","address":"Wieder 8d","city":"De Goorn","operatorName":"E-Flux by Road","maxPowerKw":22,"isMegawatt":false,"status":"AVAILABLE","source":"ndw","priceKwh":0.64}},{"type":"Feature","geometry":{"type":"Point","coordinates":[5.002647,52.64384]},"properties":{"type":"charge","layer":"passenger","locationId":"E11E0F82-F17A-448D-BBEE-2219B9A806D2","name":"TNLP007763 - Slagterslaan 23, Berkhout","address":"23 Slagterslaan","city":"Berkhout","operatorName":"TotalEnergies","maxPowerKw":15,"isMegawatt":false,"status":"AVAILABLE","source":"ndw"}},{"type":"Feature","geometry":{"type":"Point","coordinates":[4.893237,52.668266]},"properties":{"type":"charge","layer":"passenger","locationId":"91275131","name":"50five-S NL 18B07996","address":"Braken 59","city":"Obdam","operatorName":"50five","maxPowerKw":11,"isMegawatt":false,"status":"AVAILABLE","source":"ndw"}},{"type":"Feature","geometry":{"type":"Point","coordinates":[4.966834,52.602154]},"properties":{"type":"charge","layer":"passenger","locationId":"04709AB5-D23E-48C8-90FB-EAB2763589CC","name":"TNLP009605 - Lange Weide 25, Oudendijk","address":"25 Lange Weide","city":"Oudendijk","operatorName":"TotalEnergies","maxPowerKw":15,"isMegawatt":false,"status":"AVAILABLE","source":"ndw"}},{"type":"Feature","geometry":{"type":"Point","coordinates":[4.895192,52.671767]},"properties":{"type":"charge","layer":"passenger","locationId":"91146561","name":"50five-S NL 09001532","address":"A. Einsteinweg 2","city":"Alphen aan den Rijn","operatorName":"50five","maxPowerKw":11,"isMegawatt":false,"status":"AVAILABLE","source":"ndw"}},{"type":"Feature","geometry":{"type":"Point","coordinates":[4.931121,52.656183]},"properties":{"type":"charge","layer":"passenger","locationId":"67a3b47943f188677288f796","name":"Golfbaan Spierdijk","address":"Wogmeer  86A","city":"Spierdijk","operatorName":"E-Flux by Road","maxPowerKw":15,"isMegawatt":false,"status":"AVAILABLE","source":"ndw","priceKwh":0.53}},{"type":"Feature","geometry":{"type":"Point","coordinates":[4.950352,52.62404]},"properties":{"type":"charge","layer":"passenger","locationId":"3D2C6725-ABA2-4777-86FC-0FE52A3C98CD","name":"TNLP006684 - Marenesingel 1, Avenhorn","address":"1 Marenesingel","city":"Avenhorn","operatorName":"TotalEnergies","maxPowerKw":13,"isMegawatt":false,"status":"AVAILABLE","source":"ndw"}},{"type":"Feature","geometry":{"type":"Point","coordinates":[5.002702,52.641556]},"properties":{"type":"charge","layer":"passenger","locationId":"5F00B08C-D576-43E1-9C5B-1AB5526EE854","name":"TNLP006707 - Burgemeester Beststraat 67, Berkhout","address":"67 Burgemeester Beststraat","city":"Berkhout","operatorName":"TotalEnergies","maxPowerKw":13,"isMegawatt":false,"status":"AVAILABLE","source":"ndw"}},{"type":"Feature","geometry":{"type":"Point","coordinates":[5.007499,52.64354]},"properties":{"type":"charge","layer":"passenger","locationId":"0C535784-2599-49FE-8DCC-FE73CA300E67","name":"TNLP009477 - Oliesloot 1, Berkhout","address":"1 Oliesloot","city":"Berkhout","operatorName":"TotalEnergies","maxPowerKw":13,"isMegawatt":false,"status":"AVAILABLE","source":"ndw"}},{"type":"Feature","geometry":{"type":"Point","coordinates":[4.956248,52.62829]},"properties":{"type":"charge","layer":"passenger","locationId":"602105bd630212902a58836e","name":"MATE - Creatief in toegevoegde waarde","address":"Vlakdissel 6","city":"De Goorn","operatorName":"E-Flux by Road","maxPowerKw":22,"isMegawatt":false,"status":"AVAILABLE","source":"ndw","priceKwh":0.37}},{"type":"Feature","geometry":{"type":"Point","coordinates":[4.942645,52.630344]},"properties":{"type":"charge","layer":"passenger","locationId":"99AA08F1-808F-4278-9BA8-14E61A58A4D8","name":"TNLP015126 - Tulpenhof 39, De Goorn","address":"39 Tulpenhof","city":"De Goorn","operatorName":"TotalEnergies","maxPowerKw":17,"isMegawatt":false,"status":"UNAVAILABLE","source":"ndw"}},{"type":"Feature","geometry":{"type":"Point","coordinates":[4.8946401,52.6296476]},"properties":{"type":"charge","layer":"passenger","locationId":"1812","name":"Shell Recharge NL Gabriëlstraat 2","address":"Gabriëlstraat 2","city":"Ursem","operatorName":"Ubitricity","maxPowerKw":22,"isMegawatt":false,"status":"AVAILABLE","source":"ndw","priceKwh":0.267}},{"type":"Feature","geometry":{"type":"Point","coordinates":[4.90767,52.67081]},"properties":{"type":"charge","layer":"passenger","locationId":"201","name":"Shell Recharge NL Poelenburg 46","address":"Poelenburg 46","city":"Obdam","operatorName":"Ubitricity","maxPowerKw":11,"isMegawatt":false,"status":"AVAILABLE","source":"ndw","priceKwh":0.392}},{"type":"Feature","geometry":{"type":"Point","coordinates":[5.032698,52.648685]},"properties":{"type":"charge","layer":"passenger","locationId":"610bdbf29216fd97e0646437","name":"Esso Borst Leekerlanden","address":"Kleine Wijzend 2","city":"Berkhout","operatorName":"E-Flux by Road","maxPowerKw":252,"isMegawatt":false,"status":"AVAILABLE","source":"ndw","priceKwh":0.6}},{"type":"Feature","geometry":{"type":"Point","coordinates":[4.890419,52.624779]},"properties":{"type":"charge","layer":"passenger","locationId":"91147320","name":"50five-S NL 07114725","address":"Drechterlandsedijk 6","city":"Ursem","operatorName":"50five","maxPowerKw":11,"isMegawatt":false,"status":"AVAILABLE","source":"ndw"}},{"type":"Feature","geometry":{"type":"Point","coordinates":[5.032774,52.6486]},"properties":{"type":"charge","layer":"passenger","locationId":"610bdb207031f27f2bb35362","name":"Esso Borst Leekerlanden","address":"Kleine wijzend  2","city":"Berkhout","operatorName":"E-Flux by Road","maxPowerKw":252,"isMegawatt":false,"status":"AVAILABLE","source":"ndw","priceKwh":0.6}},{"type":"Feature","geometry":{"type":"Point","coordinates":[4.94739,52.625114]},"properties":{"type":"charge","layer":"passenger","locationId":"A912220B-5F8B-4111-9D42-B00FC1578BC3","name":"TNLP008036 - Buitenhof 2, De Goorn","address":"2 Buitenhof","city":"De Goorn","operatorName":"TotalEnergies","maxPowerKw":15,"isMegawatt":false,"status":"CHARGING","source":"ndw"}},{"type":"Feature","geometry":{"type":"Point","coordinates":[4.915391,52.676705]},"properties":{"type":"charge","layer":"passenger","locationId":"91108413","name":"50five-S NL Location","address":"Overweg 23","city":"Obdam","operatorName":"50five","maxPowerKw":22,"isMegawatt":false,"status":"AVAILABLE","source":"ndw"}},{"type":"Feature","geometry":{"type":"Point","coordinates":[4.893466,52.667777]},"properties":{"type":"charge","layer":"passenger","locationId":"91230761","name":"50five-S NL 19B02384","address":"Braken 83","city":"Obdam","operatorName":"50five","maxPowerKw":11,"isMegawatt":false,"status":"AVAILABLE","source":"ndw"}},{"type":"Feature","geometry":{"type":"Point","coordinates":[4.89085,52.630016]},"properties":{"type":"charge","layer":"passenger","locationId":"91E09B13-AC6A-4648-850A-289C48A986DD","name":"TNLP008370 - Reigerlaan 104, Ursem","address":"104 Reigerlaan","city":"Ursem","operatorName":"TotalEnergies","maxPowerKw":14,"isMegawatt":false,"status":"AVAILABLE","source":"ndw"}},{"type":"Feature","geometry":{"type":"Point","coordinates":[4.943703,52.62546]},"properties":{"type":"charge","layer":"passenger","locationId":"3B426735-7C62-44DF-8BD8-F44AC1AF277B","name":"TNLP034097 - De Goorn 81, De Goorn","address":"81 De Goorn","city":"De Goorn","operatorName":"TotalEnergies","maxPowerKw":13,"isMegawatt":false,"status":"UNAVAILABLE","source":"ndw"}},{"type":"Feature","geometry":{"type":"Point","coordinates":[4.948524,52.63293]},"properties":{"type":"charge","layer":"passenger","locationId":"188EF641-6225-4D26-94B3-4B9C9E60AD66","name":"TNLP008161 - Beeldentuin 14, De Goorn","address":"14 Beeldentuin","city":"De Goorn","operatorName":"TotalEnergies","maxPowerKw":15,"isMegawatt":false,"status":"AVAILABLE","source":"ndw"}},{"type":"Feature","geometry":{"type":"Point","coordinates":[4.941883,52.630917]},"properties":{"type":"charge","layer":"passenger","locationId":"D6A72E2B-9870-43C9-BE44-56DBB2FE87CE","name":"TNLP008250 - Overdorpstraat 56, De Goorn","address":"56 Overdorpstraat","city":"De Goorn","operatorName":"TotalEnergies","maxPowerKw":13,"isMegawatt":false,"status":"UNAVAILABLE","source":"ndw"}},{"type":"Feature","geometry":{"type":"Point","coordinates":[4.914236,52.652703]},"properties":{"type":"charge","layer":"passenger","locationId":"643ffd46444c470012a295cf","name":"Ride The Lightning","address":"Wogmeer 69","city":"Hensbroek","operatorName":"E-Flux by Road","maxPowerKw":11,"isMegawatt":false,"status":"AVAILABLE","source":"ndw","priceKwh":0.58}},{"type":"Feature","geometry":{"type":"Point","coordinates":[4.94758,52.62791]},"properties":{"type":"charge","layer":"passenger","locationId":"33C2E33D-1510-4853-8898-BE807AD65FA4","name":"PP004122 - Dwingel 3, De Goorn","address":"3 Dwingel","city":"De Goorn","operatorName":"TotalEnergies","maxPowerKw":13,"isMegawatt":false,"status":"UNAVAILABLE","source":"ndw"}},{"type":"Feature","geometry":{"type":"Point","coordinates":[5.002126,52.601868]},"properties":{"type":"charge","layer":"passenger","locationId":"694a96d7349575d4020bedf5","name":"La Mere Anne","address":"Dorpsweg  109","city":"Oudendijk","operatorName":"E-Flux by Road","maxPowerKw":22,"isMegawatt":false,"status":"AVAILABLE","source":"ndw","priceKwh":0.48}},{"type":"Feature","geometry":{"type":"Point","coordinates":[4.898965,52.629887]},"properties":{"type":"charge","layer":"passenger","locationId":"4666568","name":"Laadnet Stichting Bij-Anders","address":"Hoefblad 1","city":"Ursem","operatorName":"Laadnet","maxPowerKw":22,"isMegawatt":false,"status":"UNAVAILABLE","source":"ndw"}},{"type":"Feature","geometry":{"type":"Point","coordinates":[4.951747,52.618244]},"properties":{"type":"charge","layer":"passenger","locationId":"56EAD1ED-0B83-422F-A65F-20755844ED7A","name":"TNLP009612 - De Hoef 1, Avenhorn","address":"1 De Hoef","city":"Avenhorn","operatorName":"TotalEnergies","maxPowerKw":15,"isMegawatt":false,"status":"UNAVAILABLE","source":"ndw"}},{"type":"Feature","geometry":{"type":"Point","coordinates":[4.91122,52.6775287]},"properties":{"type":"charge","layer":"passenger","locationId":"807","name":"Shell Recharge NL Dorpsstraat 177","address":"Dorpsstraat 177","city":"Obdam","operatorName":"Ubitricity","maxPowerKw":22,"isMegawatt":false,"status":"AVAILABLE","source":"ndw","priceKwh":0.267}},{"type":"Feature","geometry":{"type":"Point","coordinates":[4.90124,52.67629]},"properties":{"type":"charge","layer":"passenger","locationId":"22BE737D-9E6E-447A-B9C8-EC562C10EDF6","name":"PP004178 - Dokter Lohmanstraat 105, Obdam","address":"105 Dokter Lohmanstraat","city":"Obdam","operatorName":"TotalEnergies","maxPowerKw":11,"isMegawatt":false,"status":"UNAVAILABLE","source":"ndw"}},{"type":"Feature","geometry":{"type":"Point","coordinates":[5.0067,52.642143]},"properties":{"type":"charge","layer":"passenger","locationId":"1630f226-9e0d-4c0a-82c5-7b1ff1386502","name":"TNLP006521 - Slimtocht 6, Berkhout","address":"6 Slimtocht","city":"Berkhout","operatorName":"TotalEnergies","maxPowerKw":13,"isMegawatt":false,"status":"AVAILABLE","source":"ndw"}},{"type":"Feature","geometry":{"type":"Point","coordinates":[4.970769,52.623375]},"properties":{"type":"charge","layer":"passenger","locationId":"91180029","name":"50five-S NL De Goorn, Schoffel 24","address":"Schoffel 24","city":"De Goorn","operatorName":"50five","maxPowerKw":11,"isMegawatt":false,"status":"AVAILABLE","source":"ndw"}},{"type":"Feature","geometry":{"type":"Point","coordinates":[4.893108,52.667564]},"properties":{"type":"charge","layer":"passenger","locationId":"91229741","name":"50five-S NL 19B03084","address":"Braken 83","city":"Obdam","operatorName":"50five","maxPowerKw":3,"isMegawatt":false,"status":"AVAILABLE","source":"ndw"}},{"type":"Feature","geometry":{"type":"Point","coordinates":[4.956475,52.61949]},"properties":{"type":"charge","layer":"passenger","locationId":"6AF75E0D-8C0B-44FE-9DF2-A326B6E29D9D","name":"TNLP009559 - Ariëns 30, Avenhorn","address":"30 Ariëns","city":"Avenhorn","operatorName":"TotalEnergies","maxPowerKw":15,"isMegawatt":false,"status":"AVAILABLE","source":"ndw"}},{"type":"Feature","geometry":{"type":"Point","coordinates":[4.91322,52.673973]},"properties":{"type":"charge","layer":"passenger","locationId":"9561823B-6979-46A4-93C0-F1F7FC0D20AA","name":"TNLP009785 - De IJvelandssloot 17, Obdam","address":"17 De IJvelandssloot","city":"Obdam","operatorName":"TotalEnergies","maxPowerKw":17,"isMegawatt":false,"status":"UNAVAILABLE","source":"ndw"}},{"type":"Feature","geometry":{"type":"Point","coordinates":[4.883234,52.661147]},"properties":{"type":"charge","layer":"passenger","locationId":"31b2fc4a077f93c5ce5cdb352de75ce3","name":"Pioenhof 6","address":"Pioenhof 6","city":"Hensbroek","operatorName":"Vattenfall InCharge","maxPowerKw":11,"isMegawatt":false,"status":"AVAILABLE","source":"ndw","priceKwh":0.2805}},{"type":"Feature","geometry":{"type":"Point","coordinates":[4.892358,52.672028]},"properties":{"type":"charge","layer":"passenger","locationId":"91106000","name":"50five-S NL 18B16322","address":"Dobber 1","city":"Obdam","operatorName":"50five","maxPowerKw":12,"isMegawatt":false,"status":"AVAILABLE","source":"ndw"}},{"type":"Feature","geometry":{"type":"Point","coordinates":[5.013599,52.6218]},"properties":{"type":"charge","layer":"passenger","locationId":"688F0D47-D87E-47ED-AF10-3F25A35A3D64","name":"TNLP034074 - Taeke van der Meerstraat 1, Scharwoude","address":"1 Taeke van der Meerstraat","city":"Scharwoude","operatorName":"TotalEnergies","maxPowerKw":13,"isMegawatt":false,"status":"UNAVAILABLE","source":"ndw"}},{"type":"Feature","geometry":{"type":"Point","coordinates":[4.952635,52.618694]},"properties":{"type":"charge","layer":"passenger","locationId":"C9368049-B3F8-4659-BA02-05D38157A92C","name":"TNLP006285 - Molenhof 21, Avenhorn","address":"21 Molenhof","city":"Avenhorn","operatorName":"TotalEnergies","maxPowerKw":15,"isMegawatt":false,"status":"AVAILABLE","source":"ndw"}},{"type":"Feature","geometry":{"type":"Point","coordinates":[4.949878,52.631]},"properties":{"type":"charge","layer":"passenger","locationId":"11453657-1679-4914-8A47-66A1D9BCAE30","name":"TNLP007762 - Argusvlinder 22, De Goorn","address":"22 Argusvlinder","city":"De Goorn","operatorName":"TotalEnergies","maxPowerKw":15,"isMegawatt":false,"status":"AVAILABLE","source":"ndw"}},{"type":"Feature","geometry":{"type":"Point","coordinates":[4.895967,52.626385]},"properties":{"type":"charge","layer":"passenger","locationId":"DCBBBD08-758D-415B-8200-92C4FB53749B","name":"TNLP007134 - Zuidgouw 66, Ursem","address":"66 Zuidgouw","city":"Ursem","operatorName":"TotalEnergies","maxPowerKw":13,"isMegawatt":false,"status":"UNAVAILABLE","source":"ndw"}},{"type":"Feature","geometry":{"type":"Point","coordinates":[4.891038,52.627897]},"properties":{"type":"charge","layer":"passenger","locationId":"91092126","name":"50five-S NL 07109982","address":"Henneland 24","city":"Ursem","operatorName":"50five","maxPowerKw":11,"isMegawatt":false,"status":"AVAILABLE","source":"ndw"}},{"type":"Feature","geometry":{"type":"Point","coordinates":[4.883223,52.661177]},"properties":{"type":"charge","layer":"passenger","locationId":"8cc360b77a33b87f29ef091026e56e20","name":"Pioenhof 15","address":"Pioenhof 15","city":"Hensbroek","operatorName":"Vattenfall InCharge","maxPowerKw":11,"isMegawatt":false,"status":"AVAILABLE","source":"ndw","priceKwh":0.2805}},{"type":"Feature","geometry":{"type":"Point","coordinates":[4.909101,52.676374]},"properties":{"type":"charge","layer":"passenger","locationId":"0da7bee1419ea6a142a6cbf7a012ee7d","name":"Dorpsstraat 132","address":"Dorpsstraat 132","city":"Obdam","operatorName":"Vattenfall InCharge","maxPowerKw":11,"isMegawatt":false,"status":"AVAILABLE","source":"ndw","priceKwh":0.2805}},{"type":"Feature","geometry":{"type":"Point","coordinates":[4.88431,52.659319]},"properties":{"type":"charge","layer":"passenger","locationId":"80a14b9dffb2f8eedbdbb4750356cc69","name":"Roodeswerf 2","address":"Roodeswerf 2","city":"Hensbroek","operatorName":"Vattenfall InCharge","maxPowerKw":11,"isMegawatt":false,"status":"AVAILABLE","source":"ndw"}},{"type":"Feature","geometry":{"type":"MultiPolygon","coordinates":[[[[4.950783084949762,52.67286625904351],[4.95274137129283,52.67176567892668],[4.952888201169509,52.67213046957165],[4.960563333585952,52.673739415220005],[4.960786611815448,52.67352317806643],[4.961764608596098,52.6737090973505],[4.96166936095284,52.67461208980923],[4.962129534162799,52.676027533497944],[4.963409594059111,52.67559762824289],[4.964740781056587,52.67628480144279],[4.964736682540714,52.67705048346238],[4.966319282359136,52.67719551532658],[4.9664175636212,52.67855017455831],[4.969574104840978,52.678916268087896],[4.970621350505343,52.679631543297376],[4.971577798409063,52.679158843394546],[4.976758280919733,52.67742022237233],[4.9792035816936195,52.67967934241497],[4.983008209395062,52.67510017164709],[5.002351996741693,52.674926955103295],[5.0014915627096395,52.67372081607437],[5.003538073163053,52.67335656171702],[5.00341333980164,52.67048929696283],[5.00610288432109,52.67026908315754],[5.012652863044966,52.668277370625574],[5.0213133231055025,52.66440935130915],[5.034761683842946,52.66655647495979],[5.036582839517534,52.66206305996458],[5.038928412091418,52.65614064709544],[5.0376772231263125,52.6502298088824],[5.038142251097065,52.64896120758846],[5.037138147017875,52.64765794417531],[5.0340707806825975,52.64574623396833],[5.0299203050520385,52.643509296454575],[5.027031700778801,52.64198919780456],[5.0263864501898174,52.6417411890589],[5.018290682065158,52.638263663858766],[5.01487323698512,52.634995930721495],[5.013535177285101,52.63043164023432],[5.016492422899573,52.63085459747154],[5.016860083133598,52.63027829196087],[5.018902294111895,52.62991912553804],[5.016924724894638,52.62452959726946],[5.017192936723853,52.61868765563312],[5.01965775969163,52.6124538914127],[5.01885147406253,52.61243782493204],[5.018652143697195,52.6120639546922],[5.006688538623084,52.610519490915216],[5.007947773118963,52.60779942464493],[5.0048795967520245,52.59757343926962],[4.949848294658327,52.59528579057151],[4.949256136550191,52.59953326779324],[4.9525215962125975,52.601171432867574],[4.956939461658043,52.60222299358649],[4.958674127265145,52.60326387352335],[4.959314459700397,52.60468088750926],[4.956632972609463,52.61066886075325],[4.95385488977818,52.613143031658836],[4.953333658219084,52.61339160132144],[4.9509315907861815,52.614106697401745],[4.948496135984047,52.613551359135705],[4.9376935648222675,52.60737957421842],[4.928945902407474,52.60516584266184],[4.926923798100826,52.60669738848945],[4.925789002641859,52.6094761992744],[4.922043081354793,52.611484771597766],[4.89692928403877,52.61335246619652],[4.88399057216526,52.61313891739979],[4.88724950870638,52.622594655057036],[4.889399569804858,52.62392126630654],[4.888048391805774,52.62737922534339],[4.885348986735077,52.63013713662078],[4.881374848773045,52.63343690082998],[4.875534901491181,52.6341128866796],[4.87340011264982,52.6344408955334],[4.873397683446677,52.63444677883004],[4.873281071373477,52.63472923627443],[4.8758264474398025,52.63521088955356],[4.876528039508036,52.63630567322675],[4.876718502636009,52.64053242356685],[4.875234459782209,52.642425387429725],[4.865073121693512,52.64943667446464],[4.862698706970559,52.65299876903826],[4.863177052637346,52.65646896941022],[4.866199556962734,52.659764701431264],[4.8682033336421755,52.66416405995408],[4.870779176380661,52.667840544328556],[4.874089657604496,52.67546387744638],[4.875708338842407,52.67773176243547],[4.879394021321642,52.680080772105725],[4.876291891600374,52.68634305748907],[4.879381423372665,52.688016709398816],[4.881984011729553,52.688095975249006],[4.888702430127588,52.69045581052267],[4.89141804003327,52.695176056474885],[4.8998587554032875,52.69758687029418],[4.9108455228241406,52.69990970549247],[4.915860635102181,52.699341379539355],[4.91811127564471,52.696918886995995],[4.91751678298902,52.69396166676604],[4.91732337671225,52.69295727516641],[4.917103558217669,52.69286905337005],[4.914126907600567,52.691498835714135],[4.904977961259459,52.687268749001774],[4.905616794033945,52.68641935167076],[4.918099507323907,52.68280368102546],[4.91876650579147,52.68256907670469],[4.92271910846543,52.681837075103275],[4.923953425138559,52.68158122427064],[4.9251805384568845,52.68119042781221],[4.928141887829643,52.680265498669286],[4.933852326349203,52.67865028951254],[4.949410698432314,52.67448310482456],[4.950783084949762,52.67286625904351]]]]},"properties":{"type":"boundary","gemeente":"Koggenland","code":"GM1598"}}]}