{"type":"FeatureCollection","metadata":{"gemeente":"Krimpenerwaard","slug":"krimpenerwaard","code":"GM1931","generated_at":"2026-08-08T12:05:52.020Z","total_passenger":121,"total_freight":0,"bounds":[4.576329070816476,51.88938279234093,4.877792638293838,52.022272143534515],"operators":["50five","Allego","Alva Charging Services","DAEN Mobility","E-Flux by Road","Eneco","Laadnet","Lanova Laadpalen","NRG Mobility","Smappee","Van Leeuwen"]},"features":[{"type":"Feature","geometry":{"type":"Point","coordinates":[4.788533,51.922379]},"properties":{"type":"charge","layer":"passenger","locationId":"07985ea4169841a588c1016bbf506488","name":"MDB- vaste laadpalen Bergambacht","address":"Lekdijk Oost 21","city":"Bergambacht","operatorName":"","maxPowerKw":11,"isMegawatt":false,"status":"UNAVAILABLE","source":"ndw","priceKwh":0.55}},{"type":"Feature","geometry":{"type":"Point","coordinates":[4.775317,51.974503]},"properties":{"type":"charge","layer":"passenger","locationId":"91092538","name":"50five-S NL 07140527","address":"Zwanendreef 8","city":"Stolwijk","operatorName":"50five","maxPowerKw":11,"isMegawatt":false,"status":"AVAILABLE","source":"ndw"}},{"type":"Feature","geometry":{"type":"Point","coordinates":[4.794202,51.923561]},"properties":{"type":"charge","layer":"passenger","locationId":"e47affec6bae4ccc8156","name":"MDB DC-lader Bergambacht","address":"Lekdijk Oost 21","city":"Bergambacht","operatorName":"NRG Mobility","maxPowerKw":50,"isMegawatt":false,"status":"AVAILABLE","source":"ndw","priceKwh":0.5}},{"type":"Feature","geometry":{"type":"Point","coordinates":[4.794202,51.923561]},"properties":{"type":"charge","layer":"passenger","locationId":"185a1f11646846a5899a805d19b1d11f","name":"MDB- vaste laadpalen Bergambacht","address":"Lekdijk Oost 21","city":"Bergambacht","operatorName":"NRG Mobility","maxPowerKw":11,"isMegawatt":false,"status":"AVAILABLE","source":"ndw","priceKwh":0.5}},{"type":"Feature","geometry":{"type":"Point","coordinates":[4.626688,51.899013]},"properties":{"type":"charge","layer":"passenger","locationId":"NLLOC003357","name":"NLD Rederij van Holststraat 13, 2931 PL, Krimpen aan de Lek","address":"Rederij van Holststraat 13","city":"Krimpen aan de Lek","operatorName":"Allego","maxPowerKw":11,"isMegawatt":false,"status":"AVAILABLE","source":"ndw","priceKwh":0.511}},{"type":"Feature","geometry":{"type":"Point","coordinates":[4.625594,51.896284]},"properties":{"type":"charge","layer":"passenger","locationId":"69d51835244f7ea48d855d68","name":"Lader Schoolstraat","address":"Schoolstraat 76","city":"Krimpen aan de Lek","operatorName":"E-Flux by Road","maxPowerKw":11,"isMegawatt":false,"status":"AVAILABLE","source":"ndw","priceKwh":0.63}},{"type":"Feature","geometry":{"type":"Point","coordinates":[4.851502,51.94483]},"properties":{"type":"charge","layer":"passenger","locationId":"611e27798512856ea3a84935","name":"Haven 34, Schoonhoven","address":"Haven 34,","city":"Schoonhoven","operatorName":"E-Flux by Road","maxPowerKw":14,"isMegawatt":false,"status":"AVAILABLE","source":"ndw","priceKwh":0.31}},{"type":"Feature","geometry":{"type":"Point","coordinates":[4.788217,51.933257]},"properties":{"type":"charge","layer":"passenger","locationId":"NLLOC003335","name":"NLD Meidoornstraat 8, 2861 VH Bergambacht","address":"Meidoornstraat 8","city":"Bergambacht","operatorName":"Allego","maxPowerKw":11,"isMegawatt":false,"status":"AVAILABLE","source":"ndw","priceKwh":0.511}},{"type":"Feature","geometry":{"type":"Point","coordinates":[4.777056,51.962174]},"properties":{"type":"charge","layer":"passenger","locationId":"933729","name":"FCS Betonstaal B.V.","address":"Nijverheidseweg 54A","city":"Stolwijk","operatorName":"Smappee","maxPowerKw":120,"isMegawatt":false,"status":"AVAILABLE","source":"ndw","priceKwh":0.429}},{"type":"Feature","geometry":{"type":"Point","coordinates":[4.825634,51.942164]},"properties":{"type":"charge","layer":"passenger","locationId":"922906","name":"Carport","address":"Provincialeweg 16","city":"Bergambacht","operatorName":"DAEN Mobility","maxPowerKw":11,"isMegawatt":false,"status":"AVAILABLE","source":"ndw","priceKwh":1.5}},{"type":"Feature","geometry":{"type":"Point","coordinates":[4.868325,51.950364]},"properties":{"type":"charge","layer":"passenger","locationId":"630f4c5a8a92e3bbe4f93c69","name":"Laadpaal 1","address":"Opaalstraat  2","city":"Schoonhoven","operatorName":"E-Flux by Road","maxPowerKw":22,"isMegawatt":false,"status":"AVAILABLE","source":"ndw","priceKwh":0.51}},{"type":"Feature","geometry":{"type":"Point","coordinates":[4.644159,51.967077]},"properties":{"type":"charge","layer":"passenger","locationId":"611e279d85128595f3a84937","name":"Lageweg 39, Ouderkerk aan den IJssel (Privé)","address":"Lageweg 39,","city":"Ouderkerk aan den IJssel","operatorName":"E-Flux by Road","maxPowerKw":11,"isMegawatt":false,"status":"AVAILABLE","source":"ndw","priceKwh":0.31}},{"type":"Feature","geometry":{"type":"Point","coordinates":[4.861263,51.947938]},"properties":{"type":"charge","layer":"passenger","locationId":"6527fc5dd94248001c33d942","name":"DC lader Automobielbedrijf de Bruijn BV","address":"Broeikweg 3","city":"Schoonhoven","operatorName":"Alva Charging Services","maxPowerKw":16,"isMegawatt":false,"status":"AVAILABLE","source":"ndw","priceKwh":0.61}},{"type":"Feature","geometry":{"type":"Point","coordinates":[4.788533,51.922379]},"properties":{"type":"charge","layer":"passenger","locationId":"4046881253294b07b86b905ef30b3915","name":"MDB Opslag","address":"Lekdijk Oost 21","city":"Bergambacht","operatorName":"","maxPowerKw":22,"isMegawatt":false,"status":"AVAILABLE","source":"ndw","priceKwh":0.55}},{"type":"Feature","geometry":{"type":"Point","coordinates":[4.675529,51.893417]},"properties":{"type":"charge","layer":"passenger","locationId":"91052261","name":"50five-S NL 07113049","address":"Schuwacht 24a","city":"Lekkerkerk","operatorName":"50five","maxPowerKw":11,"isMegawatt":false,"status":"UNAVAILABLE","source":"ndw"}},{"type":"Feature","geometry":{"type":"Point","coordinates":[4.84996,51.943039]},"properties":{"type":"charge","layer":"passenger","locationId":"B77ADC5C-0302-4B5D-B914-CD7EE6D0A043","name":"Eneco eMobility Cafe-Restaurant Belvedere B.V. - Lekdijk West 4 - Schoonhoven","address":"Lekdijk West 4","city":"Schoonhoven","operatorName":"Eneco","maxPowerKw":11,"isMegawatt":false,"status":"AVAILABLE","source":"ndw","priceKwh":0.6}},{"type":"Feature","geometry":{"type":"Point","coordinates":[4.868186,51.950532]},"properties":{"type":"charge","layer":"passenger","locationId":"633400252e17513ef44caf96","name":"Laadpaal 6","address":"Opaalstraat  2","city":"Schoonhoven","operatorName":"E-Flux by Road","maxPowerKw":22,"isMegawatt":false,"status":"UNAVAILABLE","source":"ndw"}},{"type":"Feature","geometry":{"type":"Point","coordinates":[4.847396,51.947558]},"properties":{"type":"charge","layer":"passenger","locationId":"NLLOC005668","name":"NLD Spoorstraat 56, 2871 TP Schoonhoven","address":"Spoorstraat 56","city":"Schoonhoven","operatorName":"Allego","maxPowerKw":11,"isMegawatt":false,"status":"AVAILABLE","source":"ndw","priceKwh":0.511}},{"type":"Feature","geometry":{"type":"Point","coordinates":[4.77671,52.002258]},"properties":{"type":"charge","layer":"passenger","locationId":"NLLOC009137","name":"NL, Hoogstraat 80, 2851BH, Haastrecht","address":"Hoogstraat 80","city":"Haastrecht","operatorName":"Allego","maxPowerKw":11,"isMegawatt":false,"status":"AVAILABLE","source":"ndw","priceKwh":0.511}},{"type":"Feature","geometry":{"type":"Point","coordinates":[4.628637,51.891821]},"properties":{"type":"charge","layer":"passenger","locationId":"91098666","name":"50five-S NL 07143306","address":"Looierijstraat 43","city":"Krimpen aan de Lek","operatorName":"50five","maxPowerKw":11,"isMegawatt":false,"status":"AVAILABLE","source":"ndw"}},{"type":"Feature","geometry":{"type":"Point","coordinates":[4.792224,51.936407]},"properties":{"type":"charge","layer":"passenger","locationId":"91067600","name":"50five-S NL 17B04297","address":"Wielewaal 12","city":"Bergambacht","operatorName":"50five","maxPowerKw":12,"isMegawatt":false,"status":"CHARGING","source":"ndw"}},{"type":"Feature","geometry":{"type":"Point","coordinates":[4.59016,51.904087]},"properties":{"type":"charge","layer":"passenger","locationId":"35e841ce48084b83a758c957f2cfd46f","name":"Struijk","address":"Noord 77","city":"Krimpen aan de Lek","operatorName":"","maxPowerKw":22,"isMegawatt":false,"status":"AVAILABLE","source":"ndw","priceKwh":0.45}},{"type":"Feature","geometry":{"type":"Point","coordinates":[4.680158,51.898876]},"properties":{"type":"charge","layer":"passenger","locationId":"NLLOC016340","name":"NL, Jan Ligthartstraat 42, 2941 GP, Lekkerkerk","address":"Jan Ligthartstraat 42","city":"Lekkerkerk","operatorName":"Allego","maxPowerKw":11,"isMegawatt":false,"status":"AVAILABLE","source":"ndw","priceKwh":0.511}},{"type":"Feature","geometry":{"type":"Point","coordinates":[4.7853,51.924353]},"properties":{"type":"charge","layer":"passenger","locationId":"NLLOC006157","name":"NL, De Watertoren 2, 2861 HA, Bergambacht","address":"De Watertoren 2","city":"Bergambacht","operatorName":"Allego","maxPowerKw":11,"isMegawatt":false,"status":"AVAILABLE","source":"ndw","priceKwh":0.511}},{"type":"Feature","geometry":{"type":"Point","coordinates":[4.849311,51.951145]},"properties":{"type":"charge","layer":"passenger","locationId":"NLLOC016046","name":"NL, Meester Kesperstraat 2, 2871GS, Schoonhoven","address":"Meester Kesperstraat 2","city":"Schoonhoven","operatorName":"Allego","maxPowerKw":11,"isMegawatt":false,"status":"AVAILABLE","source":"ndw","priceKwh":0.511}},{"type":"Feature","geometry":{"type":"Point","coordinates":[4.685666,51.896628]},"properties":{"type":"charge","layer":"passenger","locationId":"611e2744d54784f390f73119","name":"Burg. v.d. Willigenstraat 58, Lekkerkerk","address":"Burg. v.d. Willigenstraat 58,","city":"Lekkerkerk","operatorName":"E-Flux by Road","maxPowerKw":14,"isMegawatt":false,"status":"AVAILABLE","source":"ndw","priceKwh":0.31}},{"type":"Feature","geometry":{"type":"Point","coordinates":[4.784492,51.933649]},"properties":{"type":"charge","layer":"passenger","locationId":"NLLOC002209","name":"NLD, Bergambacht, Secretaris Schipperstraat 48","address":"Secretaris Schipperstraat 48","city":"Bergambacht","operatorName":"Allego","maxPowerKw":11,"isMegawatt":false,"status":"AVAILABLE","source":"ndw","priceKwh":0.511}},{"type":"Feature","geometry":{"type":"Point","coordinates":[4.692169,51.898204]},"properties":{"type":"charge","layer":"passenger","locationId":"NLLOC001949","name":"NLD, Lekkerkerk, Jan Tomstraat 4","address":"Jan Tomstraat 4","city":"Lekkerkerk","operatorName":"Allego","maxPowerKw":11,"isMegawatt":false,"status":"AVAILABLE","source":"ndw","priceKwh":0.511}},{"type":"Feature","geometry":{"type":"Point","coordinates":[4.86748,51.947494]},"properties":{"type":"charge","layer":"passenger","locationId":"NLLOC003213","name":"NLD Kattestaart 2, 2871 NM, Schoonhoven","address":"Kattestaart 2","city":"Schoonhoven","operatorName":"Allego","maxPowerKw":22,"isMegawatt":false,"status":"AVAILABLE","source":"ndw","priceKwh":0.511}},{"type":"Feature","geometry":{"type":"Point","coordinates":[4.772412,52.001131]},"properties":{"type":"charge","layer":"passenger","locationId":"NLLOC004237","name":"NLD Peperstraat 5, 2851 BG Haastrecht","address":"Peperstraat 5","city":"Haastrecht","operatorName":"Allego","maxPowerKw":11,"isMegawatt":false,"status":"AVAILABLE","source":"ndw","priceKwh":0.511}},{"type":"Feature","geometry":{"type":"Point","coordinates":[4.691208,51.900958]},"properties":{"type":"charge","layer":"passenger","locationId":"68b8415ef562e4775999c0a7","name":"Station zaak 1","address":"Luijtenstraat  30","city":"Lekkerkerk","operatorName":"Lanova Laadpalen","maxPowerKw":11,"isMegawatt":false,"status":"AVAILABLE","source":"ndw","priceKwh":0.33}},{"type":"Feature","geometry":{"type":"Point","coordinates":[4.775993,52.003345]},"properties":{"type":"charge","layer":"passenger","locationId":"69c2da068a9e1c8104827d28","name":"Asu Theisens 's station","address":"Dunantstraat 45","city":"Haastrecht","operatorName":"E-Flux by Road","maxPowerKw":14,"isMegawatt":false,"status":"CHARGING","source":"ndw","priceKwh":0.73}},{"type":"Feature","geometry":{"type":"Point","coordinates":[4.683809,51.89874]},"properties":{"type":"charge","layer":"passenger","locationId":"922976","name":"DAE_NL_2000803","address":"Kerkweg 64","city":"Lekkerkerk","operatorName":"DAEN Mobility","maxPowerKw":4,"isMegawatt":false,"status":"UNAVAILABLE","source":"ndw","priceKwh":0.45}},{"type":"Feature","geometry":{"type":"Point","coordinates":[4.777349,51.996706]},"properties":{"type":"charge","layer":"passenger","locationId":"NLLOC009630","name":"NL, Boterbloem 21, 2851 ZC, Haastrecht","address":"Boterbloem 21","city":"Haastrecht","operatorName":"Allego","maxPowerKw":11,"isMegawatt":false,"status":"AVAILABLE","source":"ndw","priceKwh":0.511}},{"type":"Feature","geometry":{"type":"Point","coordinates":[4.86288,51.94743]},"properties":{"type":"charge","layer":"passenger","locationId":"AB423FAF-885F-4185-BC1C-9FBF04291CC1","name":"Eneco eMobility Slootweg 2 Schoonhoven","address":"Slootweg 2","city":"Schoonhoven","operatorName":"Eneco","maxPowerKw":22,"isMegawatt":false,"status":"AVAILABLE","source":"ndw","priceKwh":0.32}},{"type":"Feature","geometry":{"type":"Point","coordinates":[4.793351,51.92999]},"properties":{"type":"charge","layer":"passenger","locationId":"91276411","name":"50five-S NL 19B04401","address":"Smederijstraat 6","city":"Bergambacht","operatorName":"50five","maxPowerKw":22,"isMegawatt":false,"status":"AVAILABLE","source":"ndw"}},{"type":"Feature","geometry":{"type":"Point","coordinates":[4.775819,51.99973]},"properties":{"type":"charge","layer":"passenger","locationId":"NLLOC010258","name":"NL, Concordiaplein 1, 2851 VV, Haastrecht","address":"Concordiaplein 1","city":"Haastrecht","operatorName":"Allego","maxPowerKw":11,"isMegawatt":false,"status":"AVAILABLE","source":"ndw","priceKwh":0.511}},{"type":"Feature","geometry":{"type":"Point","coordinates":[4.868671,51.944868]},"properties":{"type":"charge","layer":"passenger","locationId":"NLLOC016778","name":"NL, Waterviolier 9, 2871NZ, Schoonhoven","address":"Waterviolier 9","city":"Schoonhoven","operatorName":"Allego","maxPowerKw":11,"isMegawatt":false,"status":"CHARGING","source":"ndw","priceKwh":0.511}},{"type":"Feature","geometry":{"type":"Point","coordinates":[4.591081,51.904548]},"properties":{"type":"charge","layer":"passenger","locationId":"9277f3cb31a94547bc4d7050cee88ac5","name":"Vaste laadpalen Struijk","address":"Noord 77","city":"Krimpen aan de Lek","operatorName":"NRG Mobility","maxPowerKw":11,"isMegawatt":false,"status":"AVAILABLE","source":"ndw","priceKwh":0.5}},{"type":"Feature","geometry":{"type":"Point","coordinates":[4.675448,51.984229]},"properties":{"type":"charge","layer":"passenger","locationId":"NLLOC002089","name":"NLD, Gouderak, Karel Doormanlaan 27","address":"Karel Doormanlaan 27","city":"Gouderak","operatorName":"Allego","maxPowerKw":11,"isMegawatt":false,"status":"AVAILABLE","source":"ndw","priceKwh":0.511}},{"type":"Feature","geometry":{"type":"Point","coordinates":[4.810071,51.930355]},"properties":{"type":"charge","layer":"passenger","locationId":"NLLOC009392","name":"NL, Aan de Griendsloot 17, 2865 WX, Ammerstol","address":"Aan de Griendsloot 17","city":"Ammerstol","operatorName":"Allego","maxPowerKw":11,"isMegawatt":false,"status":"AVAILABLE","source":"ndw","priceKwh":0.511}},{"type":"Feature","geometry":{"type":"Point","coordinates":[4.777839,52.003624]},"properties":{"type":"charge","layer":"passenger","locationId":"NLLOC011241","name":"NL, Duanantstraat 85, 2851 BX Haastrecht","address":"Dunantstraat 85","city":"Haastrecht","operatorName":"Allego","maxPowerKw":11,"isMegawatt":false,"status":"AVAILABLE","source":"ndw","priceKwh":0.511}},{"type":"Feature","geometry":{"type":"Point","coordinates":[4.87163,51.946868]},"properties":{"type":"charge","layer":"passenger","locationId":"NLLOC004231","name":"NLD Kolibrie 2, 2872 AP Schoonhoven","address":"Kolibrie 2","city":"Schoohoven","operatorName":"Allego","maxPowerKw":11,"isMegawatt":false,"status":"AVAILABLE","source":"ndw","priceKwh":0.511}},{"type":"Feature","geometry":{"type":"Point","coordinates":[4.790347,52.004945]},"properties":{"type":"charge","layer":"passenger","locationId":"67c9c415b180e693678602b2","name":"Aantjes BV - elektrisch laden","address":"Provincialeweg oost 107b","city":"Haastrecht","operatorName":"E-Flux by Road","maxPowerKw":22,"isMegawatt":false,"status":"AVAILABLE","source":"ndw","priceKwh":0.53}},{"type":"Feature","geometry":{"type":"Point","coordinates":[4.870827,51.948937]},"properties":{"type":"charge","layer":"passenger","locationId":"NLLOC004901","name":"NLD Eksterstraat 30, 2872 AH Schoonhoven","address":"Eksterstraat 30","city":"Schoonhoven","operatorName":"Allego","maxPowerKw":11,"isMegawatt":false,"status":"AVAILABLE","source":"ndw","priceKwh":0.511}},{"type":"Feature","geometry":{"type":"Point","coordinates":[4.785984,51.932185]},"properties":{"type":"charge","layer":"passenger","locationId":"91057029","name":"50five-S NL 03003219","address":"Schoolstraat 36","city":"Bergambacht","operatorName":"50five","maxPowerKw":4,"isMegawatt":false,"status":"AVAILABLE","source":"ndw"}},{"type":"Feature","geometry":{"type":"Point","coordinates":[4.851847,51.94958]},"properties":{"type":"charge","layer":"passenger","locationId":"NLLOC005675","name":"NLD Nieuwe Singel 41, 2871 AX Schoonhoven","address":"Nieuwe Singel 41","city":"Schoonhoven","operatorName":"Allego","maxPowerKw":11,"isMegawatt":false,"status":"CHARGING","source":"ndw","priceKwh":0.511}},{"type":"Feature","geometry":{"type":"Point","coordinates":[4.768544,52.001809]},"properties":{"type":"charge","layer":"passenger","locationId":"NLLOC004415","name":"NLD Wilgendreef 2, 2851 TP Haastrecht","address":"Wilgendreef 2","city":"Haastrecht","operatorName":"Allego","maxPowerKw":11,"isMegawatt":false,"status":"AVAILABLE","source":"ndw","priceKwh":0.511}},{"type":"Feature","geometry":{"type":"Point","coordinates":[4.857885,51.947736]},"properties":{"type":"charge","layer":"passenger","locationId":"NLLOC005742","name":"NLD, Lopikerplein 2a, 2871 AN Schoonhoven","address":"Lopikerplein 2a","city":"Schoonhoven","operatorName":"Allego","maxPowerKw":11,"isMegawatt":false,"status":"AVAILABLE","source":"ndw","priceKwh":0.511}},{"type":"Feature","geometry":{"type":"Point","coordinates":[4.687418,51.905435]},"properties":{"type":"charge","layer":"passenger","locationId":"NLLOC003941","name":"NLD Patrijspad 38, 2941 RG Lekkerkerk","address":"Patrijspad 38","city":"Lekkerkerk","operatorName":"Allego","maxPowerKw":11,"isMegawatt":false,"status":"AVAILABLE","source":"ndw","priceKwh":0.511}},{"type":"Feature","geometry":{"type":"Point","coordinates":[4.706627,51.945473]},"properties":{"type":"charge","layer":"passenger","locationId":"NLLOC002867","name":"NLD, Koningin Julianastraat 39, 2825BJ Berkenwoude","address":"Koningin Julianastraat 39","city":"Berkenwoude","operatorName":"Allego","maxPowerKw":11,"isMegawatt":false,"status":"AVAILABLE","source":"ndw","priceKwh":0.511}},{"type":"Feature","geometry":{"type":"Point","coordinates":[4.75517,51.968659]},"properties":{"type":"charge","layer":"passenger","locationId":"91054600","name":"50five-S NL 07103866","address":"Benedenkerkseweg 94","city":"Stolwijk","operatorName":"50five","maxPowerKw":11,"isMegawatt":false,"status":"CHARGING","source":"ndw"}},{"type":"Feature","geometry":{"type":"Point","coordinates":[4.6323,51.934007]},"properties":{"type":"charge","layer":"passenger","locationId":"NLLOC003924","name":"NLD Bakwetering 8, 2935 SC Ouderkerk aan den IJssel","address":"Bakwetering 8","city":"Ouderkerk aan den IJssel","operatorName":"Allego","maxPowerKw":11,"isMegawatt":false,"status":"AVAILABLE","source":"ndw","priceKwh":0.511}},{"type":"Feature","geometry":{"type":"Point","coordinates":[4.868153,51.950592]},"properties":{"type":"charge","layer":"passenger","locationId":"6333ffe573fc28a5c59f4c41","name":"Laadpaal 5","address":"Opaalstraat 2","city":"Schoonhoven","operatorName":"E-Flux by Road","maxPowerKw":22,"isMegawatt":false,"status":"UNAVAILABLE","source":"ndw","priceKwh":0.58}},{"type":"Feature","geometry":{"type":"Point","coordinates":[4.621065,51.893998]},"properties":{"type":"charge","layer":"passenger","locationId":"NLLOC011541","name":"NL, Tuinstraat 23 2931 AX Krimpen aan de Lek","address":"Tuinstraat 23","city":"Krimpen aan de Lek","operatorName":"Allego","maxPowerKw":11,"isMegawatt":false,"status":"AVAILABLE","source":"ndw","priceKwh":0.511}},{"type":"Feature","geometry":{"type":"Point","coordinates":[4.690856,51.901153]},"properties":{"type":"charge","layer":"passenger","locationId":"69f8aa29874780dcd02ee7e5","name":"Metalflex - laadpaal buiten hek","address":"Luijtenstraat 45","city":"Lekkerkerk","operatorName":"E-Flux by Road","maxPowerKw":22,"isMegawatt":false,"status":"AVAILABLE","source":"ndw","priceKwh":0.36}},{"type":"Feature","geometry":{"type":"Point","coordinates":[4.78274,51.923658]},"properties":{"type":"charge","layer":"passenger","locationId":"3566","name":"Van Leeuwen t'Hooge Zand 2","address":"t'Hooge Zand 2","city":"Bergambacht","operatorName":"Van Leeuwen","maxPowerKw":11,"isMegawatt":false,"status":"UNAVAILABLE","source":"ndw"}},{"type":"Feature","geometry":{"type":"Point","coordinates":[4.782006,51.927748]},"properties":{"type":"charge","layer":"passenger","locationId":"NLLOC003149","name":"NLD Hoektoren 2, 2861DL Bergambacht","address":"Hoektoren 2","city":"Bergambacht","operatorName":"Allego","maxPowerKw":11,"isMegawatt":false,"status":"AVAILABLE","source":"ndw","priceKwh":0.511}},{"type":"Feature","geometry":{"type":"Point","coordinates":[4.868245,51.950377]},"properties":{"type":"charge","layer":"passenger","locationId":"6333fef4aecb38e39921c33b","name":"Laadpaal 3","address":"Opaalstraat 2","city":"Schoonhoven","operatorName":"E-Flux by Road","maxPowerKw":22,"isMegawatt":false,"status":"AVAILABLE","source":"ndw","priceKwh":0.43}},{"type":"Feature","geometry":{"type":"Point","coordinates":[4.640538,51.927429]},"properties":{"type":"charge","layer":"passenger","locationId":"91094679","name":"50five-S NL 07101342","address":"Weidehof 9","city":"Ouderkerk aan den IJssel","operatorName":"50five","maxPowerKw":11,"isMegawatt":false,"status":"AVAILABLE","source":"ndw"}},{"type":"Feature","geometry":{"type":"Point","coordinates":[4.769744,51.971906]},"properties":{"type":"charge","layer":"passenger","locationId":"NLLOC004236","name":"NLD Populierenlaan 17, 2821 BA Stolwijk","address":"Populierenlaan 17","city":"Stolwijk","operatorName":"Allego","maxPowerKw":11,"isMegawatt":false,"status":"AVAILABLE","source":"ndw","priceKwh":0.511}},{"type":"Feature","geometry":{"type":"Point","coordinates":[4.638527,51.966116]},"properties":{"type":"charge","layer":"passenger","locationId":"NLLOC011619","name":"NL, Kaaswetering 1, 2935 CZ, Ouderkerk aan den IJssel","address":"Kaaswetering 1","city":"Ouderkerk aan den IJssel","operatorName":"Allego","maxPowerKw":11,"isMegawatt":false,"status":"AVAILABLE","source":"ndw","priceKwh":0.511}},{"type":"Feature","geometry":{"type":"Point","coordinates":[4.841462,51.949562]},"properties":{"type":"charge","layer":"passenger","locationId":"NLLOC002698","name":"NLD, Boerhaavelaan 2, 2871KK Schoonhoven","address":"Boerhaavelaan 2","city":"Schoonhoven","operatorName":"Allego","maxPowerKw":11,"isMegawatt":false,"status":"AVAILABLE","source":"ndw","priceKwh":0.511}},{"type":"Feature","geometry":{"type":"Point","coordinates":[4.815496,52.013006]},"properties":{"type":"charge","layer":"passenger","locationId":"2701370","name":"Laadnet De Samenwerking - W.P. Harting","address":"Provincialeweg Oost 34A","city":"Haastrecht","operatorName":"Laadnet","maxPowerKw":22,"isMegawatt":false,"status":"AVAILABLE","source":"ndw"}},{"type":"Feature","geometry":{"type":"Point","coordinates":[4.691208,51.900958]},"properties":{"type":"charge","layer":"passenger","locationId":"68b841c8b924edab21a7c6b6","name":"Station Zaak 2","address":"Luijtenstraat  30","city":"Lekkerkerk","operatorName":"Lanova Laadpalen","maxPowerKw":11,"isMegawatt":false,"status":"CHARGING","source":"ndw","priceKwh":0.33}},{"type":"Feature","geometry":{"type":"Point","coordinates":[4.707173,51.94795]},"properties":{"type":"charge","layer":"passenger","locationId":"NLLOC003261","name":"NLD Dreef 71 2825 AN Berkenwoude","address":"Dreef 71","city":"Berkenwoude","operatorName":"Allego","maxPowerKw":11,"isMegawatt":false,"status":"AVAILABLE","source":"ndw","priceKwh":0.511}},{"type":"Feature","geometry":{"type":"Point","coordinates":[4.645621,51.930291]},"properties":{"type":"charge","layer":"passenger","locationId":"NLLOC006954","name":"NL, Sportlaan 29, 2935 AV, Ouderkerk aan den IJssel","address":"Sportlaan 29","city":"Ouderkerk aan den IJssel","operatorName":"Allego","maxPowerKw":11,"isMegawatt":false,"status":"AVAILABLE","source":"ndw","priceKwh":0.511}},{"type":"Feature","geometry":{"type":"Point","coordinates":[4.840848,51.95279]},"properties":{"type":"charge","layer":"passenger","locationId":"NLLOC002207","name":"NLD, Schoonhoven, Huygensplein 5","address":"Huygensplein 5","city":"Schoonhoven","operatorName":"Allego","maxPowerKw":11,"isMegawatt":false,"status":"AVAILABLE","source":"ndw","priceKwh":0.511}},{"type":"Feature","geometry":{"type":"Point","coordinates":[4.862802,51.946475]},"properties":{"type":"charge","layer":"passenger","locationId":"NLLOC013778","name":"NL, Sparrenstraat 12, 2871 RJ Schoonhoven","address":"Sparrenstraat 12","city":"Schoonhoven","operatorName":"Allego","maxPowerKw":11,"isMegawatt":false,"status":"AVAILABLE","source":"ndw","priceKwh":0.511}},{"type":"Feature","geometry":{"type":"Point","coordinates":[4.782439,51.927777]},"properties":{"type":"charge","layer":"passenger","locationId":"NLLOC008413","name":"NL, Traverse 42, 2861 HC Bergambacht","address":"Traverse 42","city":"Bergambacht","operatorName":"Allego","maxPowerKw":11,"isMegawatt":false,"status":"AVAILABLE","source":"ndw","priceKwh":0.511}},{"type":"Feature","geometry":{"type":"Point","coordinates":[4.621193,51.906076]},"properties":{"type":"charge","layer":"passenger","locationId":"3817","name":"50five Exploitatie Golfbaan Crimeperhout","address":"Cornelis Gerardus Roosweg 9","city":"Krimpen aan de Lek","operatorName":"50five","maxPowerKw":22,"isMegawatt":false,"status":"UNAVAILABLE","source":"ndw"}},{"type":"Feature","geometry":{"type":"Point","coordinates":[4.675232,51.986209]},"properties":{"type":"charge","layer":"passenger","locationId":"NLLOC003739","name":"NLD Zellingkade 21, 2831 BA Gouderak","address":"Zellingkade 21","city":"Gouderak","operatorName":"Allego","maxPowerKw":11,"isMegawatt":false,"status":"AVAILABLE","source":"ndw","priceKwh":0.511}},{"type":"Feature","geometry":{"type":"Point","coordinates":[4.681389,51.897624]},"properties":{"type":"charge","layer":"passenger","locationId":"NLLOC010831","name":"NL,Lorentzweg 3, 2941 VC Lekkerkerk","address":"Lorentzweg 3","city":"Lekkerkerk","operatorName":"Allego","maxPowerKw":11,"isMegawatt":false,"status":"AVAILABLE","source":"ndw","priceKwh":0.511}},{"type":"Feature","geometry":{"type":"Point","coordinates":[4.625753,51.892252]},"properties":{"type":"charge","layer":"passenger","locationId":"NLLOC009823","name":"NL, Blokmakersstraat 2, 2931GB, Krimpen aan de Lek","address":"Blokmakersstraat 2","city":"Krimpen aan de Lek","operatorName":"Allego","maxPowerKw":11,"isMegawatt":false,"status":"AVAILABLE","source":"ndw","priceKwh":0.511}},{"type":"Feature","geometry":{"type":"Point","coordinates":[4.766904,51.974004]},"properties":{"type":"charge","layer":"passenger","locationId":"NLLOC010121","name":"NL, Buitenom 58, 2821BN, Stolwijk","address":"Buitenom 58","city":"Stolwijk","operatorName":"Allego","maxPowerKw":11,"isMegawatt":false,"status":"AVAILABLE","source":"ndw","priceKwh":0.511}},{"type":"Feature","geometry":{"type":"Point","coordinates":[4.642292,51.928331]},"properties":{"type":"charge","layer":"passenger","locationId":"NLLOC014850","name":"NL, Geerlaan 6, 2935 RA Ouderkerk aan den IJssel","address":"Geerlaan 6","city":"Oudekerk aan den IJssel","operatorName":"Allego","maxPowerKw":11,"isMegawatt":false,"status":"AVAILABLE","source":"ndw","priceKwh":0.511}},{"type":"Feature","geometry":{"type":"Point","coordinates":[4.781972,51.929373]},"properties":{"type":"charge","layer":"passenger","locationId":"NLLOC002300","name":"NLD, Bergambacht, Traverse 12","address":"Traverse 12","city":"Bergambacht","operatorName":"Allego","maxPowerKw":11,"isMegawatt":false,"status":"AVAILABLE","source":"ndw","priceKwh":0.511}},{"type":"Feature","geometry":{"type":"Point","coordinates":[4.676336,51.895766]},"properties":{"type":"charge","layer":"passenger","locationId":"NLLOC004384","name":"NLD Molenwerf 52, 2941 TE Lekkerkerk","address":"Molenwerf 52","city":"Lekkerkerk","operatorName":"Allego","maxPowerKw":11,"isMegawatt":false,"status":"AVAILABLE","source":"ndw","priceKwh":0.511}},{"type":"Feature","geometry":{"type":"Point","coordinates":[4.855224,51.946554]},"properties":{"type":"charge","layer":"passenger","locationId":"NLLOC002206","name":"NLD Wal 34, 2871 BC Schoonhoven","address":"Wal 34","city":"Schoonhoven","operatorName":"Allego","maxPowerKw":11,"isMegawatt":false,"status":"AVAILABLE","source":"ndw","priceKwh":0.511}},{"type":"Feature","geometry":{"type":"Point","coordinates":[4.821166,51.975148]},"properties":{"type":"charge","layer":"passenger","locationId":"NLLOC003957","name":"NLD Julianaplein 13, 2855 AM Vlist","address":"Julianaplein 13","city":"Vlist","operatorName":"Allego","maxPowerKw":11,"isMegawatt":false,"status":"AVAILABLE","source":"ndw","priceKwh":0.511}},{"type":"Feature","geometry":{"type":"Point","coordinates":[4.843007,51.947423]},"properties":{"type":"charge","layer":"passenger","locationId":"NLLOC006429","name":"NL, Debijelaan 2, 2871 LE, Schoonhoven","address":"Debijelaan 2","city":"Schoonhoven","operatorName":"Allego","maxPowerKw":11,"isMegawatt":false,"status":"AVAILABLE","source":"ndw","priceKwh":0.511}},{"type":"Feature","geometry":{"type":"Point","coordinates":[4.845451,51.956462]},"properties":{"type":"charge","layer":"passenger","locationId":"91055831","name":"50five-S NL 07107414","address":"Opweg 25a","city":"Schoonhoven","operatorName":"50five","maxPowerKw":11,"isMegawatt":false,"status":"CHARGING","source":"ndw"}},{"type":"Feature","geometry":{"type":"Point","coordinates":[4.680782,51.984883]},"properties":{"type":"charge","layer":"passenger","locationId":"NLLOC006876","name":"NL, Pijlkruid 2, 2831 VN, Gouderak","address":"Pijlkruid 2","city":"Gouderak","operatorName":"Allego","maxPowerKw":11,"isMegawatt":false,"status":"AVAILABLE","source":"ndw","priceKwh":0.511}},{"type":"Feature","geometry":{"type":"Point","coordinates":[4.792416,51.933735]},"properties":{"type":"charge","layer":"passenger","locationId":"2268693","name":"Laadnet BAB","address":"Oosterhoef 13","city":"Bergambacht","operatorName":"Laadnet","maxPowerKw":11,"isMegawatt":false,"status":"UNAVAILABLE","source":"ndw"}},{"type":"Feature","geometry":{"type":"Point","coordinates":[4.847679,51.95352]},"properties":{"type":"charge","layer":"passenger","locationId":"NLLOC017617","name":"NL, Jan Lutmastraat 15, 2871WK, Schoonhoven","address":"Jan Lutmastraat 15","city":"Schoonhoven","operatorName":"Allego","maxPowerKw":11,"isMegawatt":false,"status":"AVAILABLE","source":"ndw","priceKwh":0.511}},{"type":"Feature","geometry":{"type":"Point","coordinates":[4.676885,51.895764]},"properties":{"type":"charge","layer":"passenger","locationId":"90305683","name":"Van Leeuwen Molenwerf 106","address":"Molenwerf 106","city":"Lekkerkerk","operatorName":"Van Leeuwen","maxPowerKw":11,"isMegawatt":false,"status":"UNAVAILABLE","source":"ndw"}},{"type":"Feature","geometry":{"type":"Point","coordinates":[4.678834,51.900004]},"properties":{"type":"charge","layer":"passenger","locationId":"NLLOC002264","name":"NLD, Lekkerkerk, Da Costastraat 113","address":"Da Costastraat 113","city":"Lekkerkerk","operatorName":"Allego","maxPowerKw":11,"isMegawatt":false,"status":"AVAILABLE","source":"ndw","priceKwh":0.511}},{"type":"Feature","geometry":{"type":"Point","coordinates":[4.685737,51.896115]},"properties":{"type":"charge","layer":"passenger","locationId":"NLLOC006950","name":"NL, Burgemeester van der Willigenstraat 47, 2941 ES, Lekkerkerk","address":"Burgemeester van der Willigenstraat 47","city":"Lekkerkerk","operatorName":"Allego","maxPowerKw":11,"isMegawatt":false,"status":"AVAILABLE","source":"ndw","priceKwh":0.511}},{"type":"Feature","geometry":{"type":"Point","coordinates":[4.637851,51.935645]},"properties":{"type":"charge","layer":"passenger","locationId":"NLLOC006478","name":"NL, Burgemeester van Waningstraat 1, 2935 XB, Ouderkerk aan den IJssel","address":"Burgemeester van Waningstraat 1","city":"Ouderkerk aan den IJssel","operatorName":"Allego","maxPowerKw":11,"isMegawatt":false,"status":"AVAILABLE","source":"ndw","priceKwh":0.511}},{"type":"Feature","geometry":{"type":"Point","coordinates":[4.635059,51.932454]},"properties":{"type":"charge","layer":"passenger","locationId":"NLLOC012007","name":"NL, Essenlaan 32, 2935 SN Ouderkerk aan den IJssel","address":"Essenlaan 32","city":"Ouderkerk aan den IJssel","operatorName":"Allego","maxPowerKw":11,"isMegawatt":false,"status":"AVAILABLE","source":"ndw","priceKwh":0.511}},{"type":"Feature","geometry":{"type":"Point","coordinates":[4.842311,51.954776]},"properties":{"type":"charge","layer":"passenger","locationId":"NLLOC016998","name":"NL, Galvanistraat, 59, 2871XB, Schoonhoven","address":"Galvanistraat 59","city":"Schoonhoven","operatorName":"Allego","maxPowerKw":11,"isMegawatt":false,"status":"AVAILABLE","source":"ndw","priceKwh":0.511}},{"type":"Feature","geometry":{"type":"Point","coordinates":[4.825634,51.942164]},"properties":{"type":"charge","layer":"passenger","locationId":"922907","name":"Parking","address":"Provincialeweg 16","city":"Bergambacht","operatorName":"DAEN Mobility","maxPowerKw":11,"isMegawatt":false,"status":"AVAILABLE","source":"ndw","priceKwh":1.5}},{"type":"Feature","geometry":{"type":"Point","coordinates":[4.630224,51.894448]},"properties":{"type":"charge","layer":"passenger","locationId":"NLLOC003516","name":"NLD De Markt 311, 2931 EC Krimpen aan de Lek","address":"De Markt 311","city":"Krimpen aan de Lek","operatorName":"Allego","maxPowerKw":11,"isMegawatt":false,"status":"AVAILABLE","source":"ndw","priceKwh":0.511}},{"type":"Feature","geometry":{"type":"Point","coordinates":[4.864802,51.946166]},"properties":{"type":"charge","layer":"passenger","locationId":"NLLOC002822","name":"NLD, Vlierstraat 13, 2871RS Schoonhoven","address":"Vlierstraat 13","city":"Schoonhoven","operatorName":"Allego","maxPowerKw":11,"isMegawatt":false,"status":"AVAILABLE","source":"ndw","priceKwh":0.511}},{"type":"Feature","geometry":{"type":"Point","coordinates":[4.628401,51.901075]},"properties":{"type":"charge","layer":"passenger","locationId":"NLLOC002755","name":"NLD, Noordwester 1, 2931PH Krimpen aan de Lek","address":"Noordwester 1","city":"Krimpen aan de Lek","operatorName":"Allego","maxPowerKw":11,"isMegawatt":false,"status":"AVAILABLE","source":"ndw","priceKwh":0.511}},{"type":"Feature","geometry":{"type":"Point","coordinates":[4.776059,51.974452]},"properties":{"type":"charge","layer":"passenger","locationId":"NLLOC007052","name":"NL, Zwanendreef 23, 2821 VZ, Stolwijk","address":"Zwanendreef 23","city":"Stolwijk","operatorName":"Allego","maxPowerKw":11,"isMegawatt":false,"status":"AVAILABLE","source":"ndw","priceKwh":0.511}},{"type":"Feature","geometry":{"type":"Point","coordinates":[4.685045,51.896873]},"properties":{"type":"charge","layer":"passenger","locationId":"NLLOC001948","name":"NLD, Lekkerkerk, Burg van de Willigenstraat 58","address":"Burg van de Willigenstraat 58","city":"Lekkerkerk","operatorName":"Allego","maxPowerKw":11,"isMegawatt":false,"status":"AVAILABLE","source":"ndw","priceKwh":0.511}},{"type":"Feature","geometry":{"type":"Point","coordinates":[4.868234,51.950384]},"properties":{"type":"charge","layer":"passenger","locationId":"6333f7674701ad83d223d87d","name":"Laadpaal 2","address":"Opaalstraat 2","city":"Schoonhoven","operatorName":"E-Flux by Road","maxPowerKw":22,"isMegawatt":false,"status":"AVAILABLE","source":"ndw","priceKwh":0.51}},{"type":"Feature","geometry":{"type":"Point","coordinates":[4.837749,51.953003]},"properties":{"type":"charge","layer":"passenger","locationId":"NLLOC007375","name":"NL, Leeghwaterstraat 56, 2871 PB, Schoonhoven","address":"Leeghwaterstraat 56","city":"Schoonhoven","operatorName":"Allego","maxPowerKw":11,"isMegawatt":false,"status":"AVAILABLE","source":"ndw","priceKwh":0.511}},{"type":"Feature","geometry":{"type":"Point","coordinates":[4.637278,51.93224]},"properties":{"type":"charge","layer":"passenger","locationId":"NLLOC002077","name":"NLD, Ouderkerk aan den Ijssel, Rozenlaan 3","address":"Rozenlaan 3","city":"Ouderkerk aan den Ijssel","operatorName":"Allego","maxPowerKw":11,"isMegawatt":false,"status":"AVAILABLE","source":"ndw","priceKwh":0.511}},{"type":"Feature","geometry":{"type":"Point","coordinates":[4.793188,51.935605]},"properties":{"type":"charge","layer":"passenger","locationId":"NLLOC002842","name":"NLD, Oosterhoef 53, 2861 WE Bergambacht","address":"Oosterhoef 53","city":"Bergambacht","operatorName":"Allego","maxPowerKw":11,"isMegawatt":false,"status":"AVAILABLE","source":"ndw","priceKwh":0.511}},{"type":"Feature","geometry":{"type":"Point","coordinates":[4.771371,51.972393]},"properties":{"type":"charge","layer":"passenger","locationId":"611e2763851285e0dca84934","name":"Dorpsplein 8, Stolwijk","address":"Dorpsplein 8,","city":"Stolwijk","operatorName":"E-Flux by Road","maxPowerKw":22,"isMegawatt":false,"status":"AVAILABLE","source":"ndw","priceKwh":0.31}},{"type":"Feature","geometry":{"type":"Point","coordinates":[4.623766,51.895659]},"properties":{"type":"charge","layer":"passenger","locationId":"NLLOC002208","name":"NLD, Krimpen aan de Lek, Kamillestraat 1","address":"Kamillestraat 1","city":"Krimpen aan de Lek","operatorName":"Allego","maxPowerKw":11,"isMegawatt":false,"status":"AVAILABLE","source":"ndw","priceKwh":0.511}},{"type":"Feature","geometry":{"type":"Point","coordinates":[4.69262,51.899965]},"properties":{"type":"charge","layer":"passenger","locationId":"NLLOC001950","name":"NLD, Lekkerkerk, Van Markenstraat 15","address":"Van Markenstraat 15","city":"Lekkerkerk","operatorName":"Allego","maxPowerKw":11,"isMegawatt":false,"status":"AVAILABLE","source":"ndw","priceKwh":0.511}},{"type":"Feature","geometry":{"type":"Point","coordinates":[4.845608,51.949536]},"properties":{"type":"charge","layer":"passenger","locationId":"NLLOC002821","name":"NLD, Waagmeestersstraat 1, 2871 GK Schoonhoven","address":"Waagmeesterstraat 1","city":"Schoonhoven","operatorName":"Allego","maxPowerKw":11,"isMegawatt":false,"status":"AVAILABLE","source":"ndw","priceKwh":0.511}},{"type":"Feature","geometry":{"type":"Point","coordinates":[4.634805,51.934042]},"properties":{"type":"charge","layer":"passenger","locationId":"NLLOC002090","name":"NLD, Ouderkerk aan den IJssel, Abelenlaan 1","address":"Abelenlaan 1","city":"Ouderkerk aan den IJssel","operatorName":"Allego","maxPowerKw":11,"isMegawatt":false,"status":"AVAILABLE","source":"ndw","priceKwh":0.511}},{"type":"Feature","geometry":{"type":"Point","coordinates":[4.632477,51.899485]},"properties":{"type":"charge","layer":"passenger","locationId":"NLLOC011788","name":"NL, Kakebeen, 1, 2931RD, Krimpen aan de Lek","address":"Kakebeen 1","city":"Krimpen aan de Lek","operatorName":"Allego","maxPowerKw":11,"isMegawatt":false,"status":"AVAILABLE","source":"ndw","priceKwh":0.511}},{"type":"Feature","geometry":{"type":"Point","coordinates":[4.868309,51.950304]},"properties":{"type":"charge","layer":"passenger","locationId":"6333ff83aecb387c7021f194","name":"Laadpaal 4","address":"Opaalstraat 2","city":"Schoonhoven","operatorName":"E-Flux by Road","maxPowerKw":22,"isMegawatt":false,"status":"AVAILABLE","source":"ndw","priceKwh":0.51}},{"type":"Feature","geometry":{"type":"Point","coordinates":[4.691044,51.904102]},"properties":{"type":"charge","layer":"passenger","locationId":"NLLOC003161","name":"NLD, Vlastiende 22 2941 RT Lekkerkerk","address":"Vlastiende 22","city":"Lekkerkerk","operatorName":"Allego","maxPowerKw":11,"isMegawatt":false,"status":"AVAILABLE","source":"ndw","priceKwh":0.511}},{"type":"Feature","geometry":{"type":"Point","coordinates":[4.778755,51.998465]},"properties":{"type":"charge","layer":"passenger","locationId":"NLLOC002697","name":"NLD, Amaliahof 61, 2851XM Haastrecht","address":"Amaliahof 61","city":"Haastrecht","operatorName":"Allego","maxPowerKw":11,"isMegawatt":false,"status":"AVAILABLE","source":"ndw","priceKwh":0.511}},{"type":"Feature","geometry":{"type":"Point","coordinates":[4.836556,51.968027]},"properties":{"type":"charge","layer":"passenger","locationId":"677bdc0fc9b9a85a593be550","name":"michael koerts 's station","address":"Bonrepas 17","city":"vlist","operatorName":"E-Flux by Road","maxPowerKw":22,"isMegawatt":false,"status":"UNAVAILABLE","source":"ndw"}},{"type":"Feature","geometry":{"type":"Point","coordinates":[4.848124,51.944798]},"properties":{"type":"charge","layer":"passenger","locationId":"NLLOC003973","name":"NLD, Olivier van Noortplein 16, 2871 SR Schoonhoven","address":"Olivier van Noortplein 16","city":"Schoonhoven","operatorName":"Allego","maxPowerKw":11,"isMegawatt":false,"status":"AVAILABLE","source":"ndw","priceKwh":0.511}},{"type":"Feature","geometry":{"type":"Point","coordinates":[4.640534,51.947215]},"properties":{"type":"charge","layer":"passenger","locationId":"91097695","name":"50five-S NL 07103859","address":"IJsseldijk Noord 98","city":"Krimpenerwaard","operatorName":"50five","maxPowerKw":14,"isMegawatt":false,"status":"AVAILABLE","source":"ndw"}},{"type":"Feature","geometry":{"type":"Point","coordinates":[4.685968,51.903613]},"properties":{"type":"charge","layer":"passenger","locationId":"91121960","name":"50five-S NL 17B02745","address":"Kievithof 6","city":"Lekkerkerk","operatorName":"50five","maxPowerKw":11,"isMegawatt":false,"status":"AVAILABLE","source":"ndw"}},{"type":"Feature","geometry":{"type":"Point","coordinates":[4.640485,51.896979]},"properties":{"type":"charge","layer":"passenger","locationId":"NLLOC012293","name":"NL, Breekade 35, 2931LA, Krimpen aan de Lek","address":"Breekade 35","city":"Krimpen aan de Lek","operatorName":"Allego","maxPowerKw":11,"isMegawatt":false,"status":"AVAILABLE","source":"ndw","priceKwh":0.511}},{"type":"Feature","geometry":{"type":"Point","coordinates":[4.68734,51.90011]},"properties":{"type":"charge","layer":"passenger","locationId":"NLLOC011487","name":"NL, Koninginneweg 54a, 2941 XK Lekkerkerk","address":"Koninginneweg 54a","city":"Lekkerkerk","operatorName":"Allego","maxPowerKw":11,"isMegawatt":false,"status":"AVAILABLE","source":"ndw","priceKwh":0.511}},{"type":"Feature","geometry":{"type":"Point","coordinates":[4.783527,51.93541]},"properties":{"type":"charge","layer":"passenger","locationId":"NLLOC002086","name":"NLD, Bergambacht, Pleinstraat 1","address":"Pleinstraat 1","city":"Bergambacht","operatorName":"Allego","maxPowerKw":11,"isMegawatt":false,"status":"UNAVAILABLE","source":"ndw","priceKwh":0.511}},{"type":"Feature","geometry":{"type":"Point","coordinates":[4.635755,51.896222]},"properties":{"type":"charge","layer":"passenger","locationId":"NLLOC002843","name":"NLD, Krimpen aan de Lek, Neptunushof 13 2931XR","address":"Neptunushof 13","city":"Krimpen aan de Lek","operatorName":"Allego","maxPowerKw":11,"isMegawatt":false,"status":"AVAILABLE","source":"ndw","priceKwh":0.511}},{"type":"Feature","geometry":{"type":"Point","coordinates":[4.679366,51.982462]},"properties":{"type":"charge","layer":"passenger","locationId":"NLLOC012507","name":"NL, Groene Wetering 14, 2831 XL Gouderak","address":"Groene Wetering 14","city":"Gouderak","operatorName":"Allego","maxPowerKw":11,"isMegawatt":false,"status":"AVAILABLE","source":"ndw","priceKwh":0.511}},{"type":"Feature","geometry":{"type":"Point","coordinates":[4.776939,51.971572]},"properties":{"type":"charge","layer":"passenger","locationId":"NLLOC003503","name":"NLD Veenderij 3, 2821 ZM Stolwijk","address":"Veenderij 3","city":"Stolwijk","operatorName":"Allego","maxPowerKw":11,"isMegawatt":false,"status":"AVAILABLE","source":"ndw","priceKwh":0.511}},{"type":"Feature","geometry":{"type":"Point","coordinates":[4.630203,51.892257]},"properties":{"type":"charge","layer":"passenger","locationId":"NLLOC002294","name":"NLD, Rijsdijk 36, Krimpen aan de Lek","address":"Rijsdijk 36","city":"Krimpen aan de Lek","operatorName":"Allego","maxPowerKw":11,"isMegawatt":false,"status":"AVAILABLE","source":"ndw","priceKwh":0.511}},{"type":"Feature","geometry":{"type":"MultiPolygon","coordinates":[[[[4.8082858971595295,52.014143578933826],[4.812632111210405,52.013942159217706],[4.815859699319127,52.014030313294214],[4.821485482074826,52.015918615248346],[4.824995052852379,52.01723693506867],[4.833335551270445,52.01642323697971],[4.840178815224477,52.0167072329005],[4.846896508003873,52.018181995161726],[4.847204148839597,52.01797458827047],[4.848603441346864,52.016117184189696],[4.8563862881352575,52.00683823928395],[4.8571271435291195,52.00595968042854],[4.853602628228583,52.004798579821355],[4.8178065210564,51.99976707735248],[4.82696914898096,51.992594783145826],[4.835218241018892,51.986143039045665],[4.834114747259953,51.98558026113813],[4.8442971944960505,51.97635171839349],[4.845546569363863,51.97520040101486],[4.847553358943579,51.97513679663627],[4.849766050608207,51.97385395843764],[4.8603822887569965,51.9680133374836],[4.8643044946294225,51.96339715523331],[4.865673936502275,51.960433120909165],[4.868956554110501,51.956706491320276],[4.871597820946089,51.953710432320115],[4.872755499788208,51.950940406195876],[4.875811797427211,51.943533253979275],[4.877792638293838,51.93803034590838],[4.872278159736276,51.9383540945584],[4.863280779547921,51.940025637773736],[4.859195312626983,51.94083089572446],[4.84670090758618,51.941376288032636],[4.837195614519147,51.940420642263376],[4.832303861627453,51.93863837922061],[4.814194808212509,51.92623098992285],[4.811283011405724,51.92455413000645],[4.80123267196817,51.92163176340569],[4.790704467616616,51.9196584993227],[4.777609658539901,51.91706476236744],[4.767193029025156,51.915902897530536],[4.761761786677546,51.914216424620975],[4.7438692463640475,51.90524845460256],[4.723972086824737,51.89809024977964],[4.715811905871285,51.89594872440115],[4.705601213722947,51.89721799912107],[4.690955860158864,51.89483733321893],[4.680676157943403,51.89300476922513],[4.675994609452674,51.89114203412311],[4.673367569946847,51.89022725785497],[4.668166991912379,51.88958501740783],[4.654652180234939,51.88968165920806],[4.639301371938155,51.89073290955092],[4.6332174714981536,51.89048325480501],[4.625423882931351,51.88938279234093],[4.621066294122008,51.889401168789504],[4.61957288434124,51.88952232367044],[4.595029543088747,51.89417239669147],[4.590797964417802,51.895848186210024],[4.583021079011741,51.90121241698073],[4.576329070816476,51.9030314707402],[4.5820354242605905,51.90408621705699],[4.584191741208185,51.903905135044326],[4.589099219032209,51.902367183206785],[4.588748353696851,51.90418711792163],[4.592213625671617,51.905600854194134],[4.592520693877543,51.90440606206151],[4.593084199910896,51.904679529507426],[4.593511560063785,51.90410126208814],[4.5967336408202515,51.90575724850096],[4.595173943264994,51.90708179188685],[4.596769625276709,51.90780468459476],[4.59682691787153,51.90781111723485],[4.601464364749495,51.90699734403518],[4.6232183544786745,51.90853578270905],[4.635152207755046,51.91007002376596],[4.642783424231772,51.91245736359821],[4.643019320748993,51.912569018709945],[4.630587492994375,51.92143337950083],[4.623665213296402,51.92628496640346],[4.617704237663643,51.931049894051995],[4.619488886274293,51.93349203849048],[4.6214638470379885,51.935249560773414],[4.623776962502687,51.93619155594166],[4.630971093673433,51.93629056226131],[4.633350618820844,51.93693954087215],[4.634735083695258,51.93797553277967],[4.636127965370068,51.941343369782345],[4.639684378478545,51.9511297903812],[4.6460056477394085,51.954181830910684],[4.645708843561815,51.95610718085648],[4.64206047736548,51.95987057011875],[4.639773292510914,51.96217681786714],[4.632921045789862,51.96632009225238],[4.630838399112608,51.968189582467936],[4.632678126040662,51.970245408244615],[4.648577092632458,51.97300747087858],[4.649834618210846,51.97342905142766],[4.655922773448374,51.97655332207634],[4.667850471343452,51.97885076696108],[4.670679400404669,51.9804221011201],[4.671822561593307,51.98447259829328],[4.674288870142177,51.98701726019025],[4.6769439921250875,51.98828612884271],[4.68250839621279,51.99269531811012],[4.688683952636637,51.99625842027634],[4.690641115015737,51.996672346043106],[4.696829180412323,51.99694430647914],[4.701070985304946,51.99756100383057],[4.707216650436906,52.00176267515173],[4.712909230275557,51.999141725229876],[4.714411191229787,52.00040322229561],[4.718860972052383,51.99836993768103],[4.72670210389743,52.00126383753283],[4.726736258187962,52.00127641613931],[4.727569580313897,52.001583264834174],[4.725279439408431,52.00257558317501],[4.724200717071416,52.003385136089655],[4.722792359589384,52.00548247528158],[4.728327530638071,52.00734412955961],[4.730773946665746,52.00735136280575],[4.737291745738711,52.00593552443977],[4.737733325505001,52.00684184031064],[4.739321535340775,52.00625249825335],[4.742056376152136,52.00458679235198],[4.74391778294525,52.003448442872795],[4.745970166287482,52.002795978485075],[4.752262087719218,52.002348554648215],[4.757327396434524,52.00143880594852],[4.757247584741764,52.0029265139998],[4.756961100310982,52.00294871047109],[4.752763189774819,52.010536957848885],[4.750991459097498,52.01389922803527],[4.750879952740499,52.01408879353768],[4.766206384267417,52.01324240690714],[4.775944750448087,52.01406456311175],[4.785078243446273,52.01645453298531],[4.798700971667406,52.022272143534515],[4.803410908583744,52.01414489615963],[4.805395563744079,52.014133271520976],[4.8082858971595295,52.014143578933826]]]]},"properties":{"type":"boundary","gemeente":"Krimpenerwaard","code":"GM1931"}}]}