{"type":"FeatureCollection","metadata":{"gemeente":"Krimpen aan den IJssel","slug":"krimpen-aan-den-ijssel","code":"GM0542","generated_at":"2026-08-08T12:05:52.020Z","total_passenger":14,"total_freight":0,"bounds":[4.549238886915969,51.902367183206785,4.643019320748993,51.931049894051995],"operators":["50five","Alva Charging Services","DAEN Mobility","E-Flux by Road","Eneco","PowerGo","Shell Recharge"]},"features":[{"type":"Feature","geometry":{"type":"Point","coordinates":[4.615806,51.925864]},"properties":{"type":"charge","layer":"passenger","locationId":"91094563","name":"50five-S NL 17B29957","address":"IJsseldijk 74","city":"Krimpen aan den IJssel","operatorName":"50five","maxPowerKw":11,"isMegawatt":false,"status":"AVAILABLE","source":"ndw"}},{"type":"Feature","geometry":{"type":"Point","coordinates":[4.576573,51.908485]},"properties":{"type":"charge","layer":"passenger","locationId":"923555","name":"Autobedrijf de Pee (77)","address":"Van Utrechtweg 77","city":"Krimpen aan den IJssel","operatorName":"DAEN Mobility","maxPowerKw":22,"isMegawatt":false,"status":"AVAILABLE","source":"ndw","priceKwh":0.69}},{"type":"Feature","geometry":{"type":"Point","coordinates":[4.581249,51.909305]},"properties":{"type":"charge","layer":"passenger","locationId":"5C458202-3672-4CFA-A8D3-33D08FA06FF0","name":"Eneco eMobility Stormpolderdijk 38 Krimpen aan den IJssel","address":"Stormpolderdijk 38","city":"Krimpen aan den IJssel","operatorName":"Eneco","maxPowerKw":22,"isMegawatt":false,"status":"UNAVAILABLE","source":"ndw","priceKwh":0.32}},{"type":"Feature","geometry":{"type":"Point","coordinates":[4.579344,51.913097]},"properties":{"type":"charge","layer":"passenger","locationId":"0847F325-6180-45FA-99BD-BBC524458D07","name":"Eneco eMobility FLW_0091","address":"Haven 1","city":"Krimpen aan den IJssel","operatorName":"Eneco","maxPowerKw":22,"isMegawatt":false,"status":"AVAILABLE","source":"ndw","priceKwh":0.25}},{"type":"Feature","geometry":{"type":"Point","coordinates":[4.6176782,51.914875]},"properties":{"type":"charge","layer":"passenger","locationId":"29436","name":"Jumbo 3753 Krimpen aan den IJssel De Olm (PowerGo)","address":"De Olm 8","city":"Krimpen aan den IJssel","operatorName":"PowerGo","maxPowerKw":150,"isMegawatt":false,"status":"AVAILABLE","source":"ndw","priceKwh":0.55}},{"type":"Feature","geometry":{"type":"Point","coordinates":[4.586557,51.920251]},"properties":{"type":"charge","layer":"passenger","locationId":"5192","name":"Shell Recharge NL9283 - Karwei Krimpen aan den Ijssel","address":"IJsseldijk 361","city":"Krimpen aan den Ijssel","operatorName":"Shell Recharge","maxPowerKw":150,"isMegawatt":false,"status":"AVAILABLE","source":"ndw","priceKwh":0.7025}},{"type":"Feature","geometry":{"type":"Point","coordinates":[4.577108,51.908319]},"properties":{"type":"charge","layer":"passenger","locationId":"923346","name":"Autobedrijf de Pee (63)","address":"Van Utrechtweg 63","city":"Krimpen aan den IJssel","operatorName":"DAEN Mobility","maxPowerKw":22,"isMegawatt":false,"status":"AVAILABLE","source":"ndw","priceKwh":0.69}},{"type":"Feature","geometry":{"type":"Point","coordinates":[4.6114511,51.921936]},"properties":{"type":"charge","layer":"passenger","locationId":"15054","name":"Jumbo 6344 Krimpen ad IJssel Korf (PowerGo)","address":"De Korf 8b","city":"Krimpen aan den IJssel","operatorName":"PowerGo","maxPowerKw":90,"isMegawatt":false,"status":"AVAILABLE","source":"ndw","priceKwh":0.55}},{"type":"Feature","geometry":{"type":"Point","coordinates":[4.581211,51.908537]},"properties":{"type":"charge","layer":"passenger","locationId":"654e32f869726b001ca9203e","name":"DC snellader, Krimpen (50kWh)","address":"Industrieweg 17a","city":"Krimpen aan den IJsel","operatorName":"Alva Charging Services","maxPowerKw":50,"isMegawatt":false,"status":"UNAVAILABLE","source":"ndw","priceKwh":0.59}},{"type":"Feature","geometry":{"type":"Point","coordinates":[4.579358,51.90943]},"properties":{"type":"charge","layer":"passenger","locationId":"695a65b051dd11a3d00d5712","name":"Paracord.eu","address":"van der Giessenweg 19","city":"Krimpen aan den IJssel","operatorName":"E-Flux by Road","maxPowerKw":22,"isMegawatt":false,"status":"UNAVAILABLE","source":"ndw","priceKwh":0.42}},{"type":"Feature","geometry":{"type":"Point","coordinates":[4.584312,51.913276]},"properties":{"type":"charge","layer":"passenger","locationId":"91086075","name":"50five-S NL 17B18083","address":"Oosterstraat 9A","city":"Krimpen aan den IJssel","operatorName":"50five","maxPowerKw":6,"isMegawatt":false,"status":"AVAILABLE","source":"ndw"}},{"type":"Feature","geometry":{"type":"Point","coordinates":[4.622423,51.910767]},"properties":{"type":"charge","layer":"passenger","locationId":"922875","name":"DAE_NL_2000524","address":"Krimpenerbosweg 1","city":"Krimpen aan den IJssel","operatorName":"DAEN Mobility","maxPowerKw":11,"isMegawatt":false,"status":"AVAILABLE","source":"ndw","priceKwh":0.75}},{"type":"Feature","geometry":{"type":"Point","coordinates":[4.60704,51.924846]},"properties":{"type":"charge","layer":"passenger","locationId":"68e14a28e11efa96a5d3bd09","name":"IJsseldijk 150TO","address":"IJsseldijk 150","city":"Krimpen aan den IJssel","operatorName":"E-Flux by Road","maxPowerKw":4,"isMegawatt":false,"status":"CHARGING","source":"ndw","priceKwh":0.48}},{"type":"Feature","geometry":{"type":"Point","coordinates":[4.60824,51.913566]},"properties":{"type":"charge","layer":"passenger","locationId":"91055160","name":"50five-S NL 07107453","address":"Ratelaar 28","city":"Krimpen aan den IJssel","operatorName":"50five","maxPowerKw":11,"isMegawatt":false,"status":"AVAILABLE","source":"ndw"}},{"type":"Feature","geometry":{"type":"MultiPolygon","coordinates":[[[[4.623665213296402,51.92628496640346],[4.630587492994375,51.92143337950083],[4.643019320748993,51.912569018709945],[4.642783424231772,51.91245736359821],[4.635152207755046,51.91007002376596],[4.6232183544786745,51.90853578270905],[4.601464364749495,51.90699734403518],[4.59682691787153,51.90781111723485],[4.596769625276709,51.90780468459476],[4.595173943264994,51.90708179188685],[4.5967336408202515,51.90575724850096],[4.593511560063785,51.90410126208814],[4.593084199910896,51.904679529507426],[4.592520693877543,51.90440606206151],[4.592213625671617,51.905600854194134],[4.588748353696851,51.90418711792163],[4.589099219032209,51.902367183206785],[4.584191741208185,51.903905135044326],[4.5820354242605905,51.90408621705699],[4.576329070816476,51.9030314707402],[4.569463546800038,51.904350720189925],[4.555088042460745,51.90564634509613],[4.549238886915969,51.90488205091534],[4.549901701739876,51.90672841055461],[4.558685601557827,51.908238752972565],[4.566061467733793,51.90924629198523],[4.571183785273329,51.91186537413485],[4.577152022237058,51.914551417807154],[4.579455080926434,51.91675356273798],[4.579491459730572,51.91682911882285],[4.581280844964339,51.91986795479535],[4.582840229533253,51.9207767076269],[4.588137149858964,51.92179583628889],[4.59395977898258,51.924475910141986],[4.598155922369752,51.92608268554317],[4.601683661958514,51.92665077386742],[4.607054322704516,51.925682117175505],[4.610724797719123,51.92534081213057],[4.613236091041473,51.926076956162944],[4.615068225341988,51.92735336512155],[4.617704237663643,51.931049894051995],[4.623665213296402,51.92628496640346]]]]},"properties":{"type":"boundary","gemeente":"Krimpen aan den IJssel","code":"GM0542"}}]}