{"type":"FeatureCollection","metadata":{"gemeente":"Lansingerland","slug":"lansingerland","code":"GM1621","generated_at":"2026-08-08T12:05:52.020Z","total_passenger":104,"total_freight":0,"bounds":[4.424446158418727,51.96028647006856,4.565042517498243,52.06174132555933],"operators":["50five","Allego","DAEN Mobility","E-Flux by Road","Eneco","Laadnet","Lidl","Pluq","Shell Recharge","Streetplug","Van Leeuwen","Vattenfall InCharge","bp pulse"]},"features":[{"type":"Feature","geometry":{"type":"Point","coordinates":[4.45761,51.982773]},"properties":{"type":"charge","layer":"passenger","locationId":"91179492","name":"50five-S NL Berkel En Rodenrijs, Industrieweg 46","address":"Industrieweg 46","city":"Berkel en Rodenrijs","operatorName":"50five","maxPowerKw":11,"isMegawatt":false,"status":"AVAILABLE","source":"ndw"}},{"type":"Feature","geometry":{"type":"Point","coordinates":[4.54148,52.041641]},"properties":{"type":"charge","layer":"passenger","locationId":"6b5aded087697928cb4c6a255624d61e","name":"Jadestraat 10","address":"Jadestraat 10","city":"Bleiswijk","operatorName":"Vattenfall InCharge","maxPowerKw":50,"isMegawatt":false,"status":"UNAVAILABLE","source":"ndw","priceKwh":0.46}},{"type":"Feature","geometry":{"type":"Point","coordinates":[4.539444,52.039855]},"properties":{"type":"charge","layer":"passenger","locationId":"922591","name":"LP 3 DAE-NL-2000010","address":"Facetlaan 6","city":"Bleiswijk","operatorName":"DAEN Mobility","maxPowerKw":22,"isMegawatt":false,"status":"AVAILABLE","source":"ndw","priceKwh":0.32}},{"type":"Feature","geometry":{"type":"Point","coordinates":[4.482156,52.010247]},"properties":{"type":"charge","layer":"passenger","locationId":"91160513","name":"Van Leeuwen van der meer transport","address":"Noordersingel 33","city":"Berkel en Rodenrijs","operatorName":"Van Leeuwen","maxPowerKw":11,"isMegawatt":false,"status":"AVAILABLE","source":"ndw"}},{"type":"Feature","geometry":{"type":"Point","coordinates":[4.532846,52.03462]},"properties":{"type":"charge","layer":"passenger","locationId":"91049173","name":"Van Leeuwen Kamps","address":"Laan van Mathenesse 7B","city":"Bleiswijk","operatorName":"Van Leeuwen","maxPowerKw":22,"isMegawatt":false,"status":"AVAILABLE","source":"ndw"}},{"type":"Feature","geometry":{"type":"Point","coordinates":[4.539444,52.039855]},"properties":{"type":"charge","layer":"passenger","locationId":"922589","name":"LP 1 DAE-NL-2000008","address":"Facetlaan 6","city":"Bleiswijk","operatorName":"DAEN Mobility","maxPowerKw":22,"isMegawatt":false,"status":"AVAILABLE","source":"ndw","priceKwh":0.32}},{"type":"Feature","geometry":{"type":"Point","coordinates":[4.493439,51.981601]},"properties":{"type":"charge","layer":"passenger","locationId":"89344541","name":"Van Leeuwen Gemeente Lansingerland","address":"Tobias Asserlaan 1","city":"Bergschenhoek","operatorName":"Van Leeuwen","maxPowerKw":22,"isMegawatt":false,"status":"AVAILABLE","source":"ndw"}},{"type":"Feature","geometry":{"type":"Point","coordinates":[4.45183,51.98199]},"properties":{"type":"charge","layer":"passenger","locationId":"NLENV00015","name":"Celsiusstraat 20  Berkel en Rodenrijs","address":"Celsiusstraat  20","city":"Berkel en Rodenrijs","operatorName":"","maxPowerKw":11,"isMegawatt":false,"status":"AVAILABLE","source":"ndw","priceKwh":0.5}},{"type":"Feature","geometry":{"type":"Point","coordinates":[4.547645,52.032525]},"properties":{"type":"charge","layer":"passenger","locationId":"3966738","name":"Laadnet Hollandweg 30","address":"Hollandweg 30","city":"Bleiswijk","operatorName":"Laadnet","maxPowerKw":22,"isMegawatt":false,"status":"AVAILABLE","source":"ndw"}},{"type":"Feature","geometry":{"type":"Point","coordinates":[4.530848,52.045925]},"properties":{"type":"charge","layer":"passenger","locationId":"91105343","name":"50five-S NL 09101570","address":"Amethistweg 51","city":"Bleiswijk","operatorName":"50five","maxPowerKw":12,"isMegawatt":false,"status":"AVAILABLE","source":"ndw"}},{"type":"Feature","geometry":{"type":"Point","coordinates":[4.514744,51.984183]},"properties":{"type":"charge","layer":"passenger","locationId":"63ef8b0dbaa5bf00129df18d","name":"Las Moras","address":"hoeksehof 16","city":"Bergschenhoek","operatorName":"E-Flux by Road","maxPowerKw":22,"isMegawatt":false,"status":"AVAILABLE","source":"ndw","priceKwh":0.48}},{"type":"Feature","geometry":{"type":"Point","coordinates":[4.474677,51.990106]},"properties":{"type":"charge","layer":"passenger","locationId":"780","name":"Shell Recharge NL9219 - Karwei Berkel en Rodenrijs","address":"Berkelse Poort 1","city":"Berkel en Rodenrijs","operatorName":"Shell Recharge","maxPowerKw":150,"isMegawatt":false,"status":"AVAILABLE","source":"ndw","priceKwh":0.7025}},{"type":"Feature","geometry":{"type":"Point","coordinates":[4.471146,51.998376]},"properties":{"type":"charge","layer":"passenger","locationId":"6903ea48de09704448289ad7","name":"RachConnect","address":"oosterscheldestraat 7","city":"Berkel en Rodenrijs","operatorName":"E-Flux by Road","maxPowerKw":11,"isMegawatt":false,"status":"AVAILABLE","source":"ndw","priceKwh":0.58}},{"type":"Feature","geometry":{"type":"Point","coordinates":[4.539444,52.039855]},"properties":{"type":"charge","layer":"passenger","locationId":"922590","name":"LP 2 DAE-NL-2000009","address":"Facetlaan 6","city":"Bleiswijk","operatorName":"DAEN Mobility","maxPowerKw":22,"isMegawatt":false,"status":"AVAILABLE","source":"ndw","priceKwh":0.32}},{"type":"Feature","geometry":{"type":"Point","coordinates":[4.529585,52.013411]},"properties":{"type":"charge","layer":"passenger","locationId":"NLLOC001409","name":"NLD, Bleiswijk, Karel Doormanlaan 24","address":"Karel Doormanlaan 24","city":"Bleiswijk","operatorName":"Allego","maxPowerKw":11,"isMegawatt":false,"status":"AVAILABLE","source":"ndw","priceKwh":0.511}},{"type":"Feature","geometry":{"type":"Point","coordinates":[4.497482,51.979623]},"properties":{"type":"charge","layer":"passenger","locationId":"8269fdb2-0be9-4bd0-90c2-3c1d872fb0ca","name":"bp pulse express Bergschenhoek #2","address":"Bergweg Zuid 70","city":"Bergschenhoek","operatorName":"bp pulse","maxPowerKw":300,"isMegawatt":false,"status":"AVAILABLE","source":"ndw","priceKwh":0.7}},{"type":"Feature","geometry":{"type":"Point","coordinates":[4.453145,51.98159]},"properties":{"type":"charge","layer":"passenger","locationId":"91179498","name":"50five-S NL Berkel En Rodenrijs, Braillestraat 18","address":"Braillestraat 18","city":"Berkel en Rodenrijs","operatorName":"50five","maxPowerKw":11,"isMegawatt":false,"status":"AVAILABLE","source":"ndw"}},{"type":"Feature","geometry":{"type":"Point","coordinates":[4.537643,52.045394]},"properties":{"type":"charge","layer":"passenger","locationId":"4235716","name":"Laadnet Dole Europe BV","address":"Spectrumlaan 29","city":"Bleiswijk","operatorName":"Laadnet","maxPowerKw":22,"isMegawatt":false,"status":"AVAILABLE","source":"ndw"}},{"type":"Feature","geometry":{"type":"Point","coordinates":[4.528101,52.035363]},"properties":{"type":"charge","layer":"passenger","locationId":"3576504","name":"Laadnet Dynalogic Bleiswijk","address":"Laan van Mathenesse 7A","city":"Bleiswijk","operatorName":"Laadnet","maxPowerKw":22,"isMegawatt":false,"status":"AVAILABLE","source":"ndw"}},{"type":"Feature","geometry":{"type":"Point","coordinates":[4.536849,52.044134]},"properties":{"type":"charge","layer":"passenger","locationId":"3763894","name":"Laadnet Rexel DC Bleiswijk (Unit C)","address":"Brandpuntlaan Zuid 5","city":"Bleiswijk","operatorName":"Laadnet","maxPowerKw":22,"isMegawatt":false,"status":"AVAILABLE","source":"ndw"}},{"type":"Feature","geometry":{"type":"Point","coordinates":[4.533994,52.016807]},"properties":{"type":"charge","layer":"passenger","locationId":"87068c2d-e3a7-4b4e-8795-997263cefbef","name":"Lidl Bleiswijk","address":"Hoefweg 133","city":"Bleiswijk","operatorName":"Lidl","maxPowerKw":50,"isMegawatt":false,"status":"AVAILABLE","source":"ndw"}},{"type":"Feature","geometry":{"type":"Point","coordinates":[4.547952,52.028122]},"properties":{"type":"charge","layer":"passenger","locationId":"4227352","name":"Laadnet Horticoop","address":"Klappolder 150","city":"Bleiswijk","operatorName":"Laadnet","maxPowerKw":22,"isMegawatt":false,"status":"AVAILABLE","source":"ndw"}},{"type":"Feature","geometry":{"type":"Point","coordinates":[4.45837,51.980469]},"properties":{"type":"charge","layer":"passenger","locationId":"90284139","name":"Van Leeuwen Koppert","address":"Veilingweg 18","city":"Berkel en Rodenrijs","operatorName":"Van Leeuwen","maxPowerKw":22,"isMegawatt":false,"status":"AVAILABLE","source":"ndw"}},{"type":"Feature","geometry":{"type":"Point","coordinates":[4.552749,52.025255]},"properties":{"type":"charge","layer":"passenger","locationId":"3966739","name":"Laadnet Klappolder 55","address":"Klappolder 55","city":"Bleiswijk","operatorName":"Laadnet","maxPowerKw":22,"isMegawatt":false,"status":"AVAILABLE","source":"ndw"}},{"type":"Feature","geometry":{"type":"Point","coordinates":[4.551146,52.031676]},"properties":{"type":"charge","layer":"passenger","locationId":"3966737","name":"Laadnet Hollandweg 32","address":"Hollandweg 32","city":"Bleiswijk","operatorName":"Laadnet","maxPowerKw":22,"isMegawatt":false,"status":"UNAVAILABLE","source":"ndw"}},{"type":"Feature","geometry":{"type":"Point","coordinates":[4.447207,51.978329]},"properties":{"type":"charge","layer":"passenger","locationId":"91105871","name":"50five-S NL 09000105","address":"Morsestraat 20a","city":"Berkel en Rodenrijs","operatorName":"50five","maxPowerKw":22,"isMegawatt":false,"status":"AVAILABLE","source":"ndw"}},{"type":"Feature","geometry":{"type":"Point","coordinates":[4.49545,52.002562]},"properties":{"type":"charge","layer":"passenger","locationId":"91299517","name":"50five-S NL Location","address":"Diamant","city":"Berkel en Rodenrijs","operatorName":"50five","maxPowerKw":11,"isMegawatt":false,"status":"AVAILABLE","source":"ndw"}},{"type":"Feature","geometry":{"type":"Point","coordinates":[4.449055,51.976589]},"properties":{"type":"charge","layer":"passenger","locationId":"91543345","name":"Van Leeuwen Perflexxion Berkel en Rodenrijs","address":"Morsestraat 4","city":"Berkel en Rodenrijs","operatorName":"Van Leeuwen","maxPowerKw":22,"isMegawatt":false,"status":"AVAILABLE","source":"ndw"}},{"type":"Feature","geometry":{"type":"Point","coordinates":[4.501629,51.982321]},"properties":{"type":"charge","layer":"passenger","locationId":"91168708","name":"50five-S NL 07103007","address":"Zwaluwlaan 4","city":"Bergschenhoek","operatorName":"50five","maxPowerKw":11,"isMegawatt":false,"status":"UNAVAILABLE","source":"ndw"}},{"type":"Feature","geometry":{"type":"Point","coordinates":[4.468173,51.980108]},"properties":{"type":"charge","layer":"passenger","locationId":"91434705","name":"Van Leeuwen Prive terrein","address":"Parnassialaan","city":"Berkel en Rodenrijs","operatorName":"Van Leeuwen","maxPowerKw":11,"isMegawatt":false,"status":"AVAILABLE","source":"ndw"}},{"type":"Feature","geometry":{"type":"Point","coordinates":[4.50149,51.985565]},"properties":{"type":"charge","layer":"passenger","locationId":"4734311","name":"Laadnet Garage terrein","address":"Burgemeester van Oostenweg 7","city":"Bergschenhoek","operatorName":"Laadnet","maxPowerKw":11,"isMegawatt":false,"status":"AVAILABLE","source":"ndw"}},{"type":"Feature","geometry":{"type":"Point","coordinates":[4.457176,51.982891]},"properties":{"type":"charge","layer":"passenger","locationId":"91179495","name":"50five-S NL Berkel En Rodenrijs, Veilingweg 48A","address":"Veilingweg 48A","city":"Berkel en Rodenrijs","operatorName":"50five","maxPowerKw":11,"isMegawatt":false,"status":"AVAILABLE","source":"ndw"}},{"type":"Feature","geometry":{"type":"Point","coordinates":[4.49863,51.996277]},"properties":{"type":"charge","layer":"passenger","locationId":"91058973","name":"50five-S NL 07101055","address":"Planciusdreef 20","city":"Bergschenhoek","operatorName":"50five","maxPowerKw":14,"isMegawatt":false,"status":"AVAILABLE","source":"ndw"}},{"type":"Feature","geometry":{"type":"Point","coordinates":[4.457898,51.981546]},"properties":{"type":"charge","layer":"passenger","locationId":"90284137","name":"Van Leeuwen Koppert","address":"Veilingweg 32","city":"Berkel en Rodenrijs","operatorName":"Van Leeuwen","maxPowerKw":11,"isMegawatt":false,"status":"AVAILABLE","source":"ndw"}},{"type":"Feature","geometry":{"type":"Point","coordinates":[4.49873,51.97874]},"properties":{"type":"charge","layer":"passenger","locationId":"D72CABC1-6313-43E4-93FA-D72356A0C7C8","name":"Eneco eMobility Noordermeer Automotive B.V.","address":"Weg en land 4","city":"Bergschenhoek","operatorName":"Eneco","maxPowerKw":22,"isMegawatt":false,"status":"UNAVAILABLE","source":"ndw","priceKwh":0.32}},{"type":"Feature","geometry":{"type":"Point","coordinates":[4.539725,52.046494]},"properties":{"type":"charge","layer":"passenger","locationId":"91105952","name":"50five-S NL 09100931","address":"Snelliuslaan 13","city":"Bleiswijk","operatorName":"50five","maxPowerKw":11,"isMegawatt":false,"status":"AVAILABLE","source":"ndw"}},{"type":"Feature","geometry":{"type":"Point","coordinates":[4.474677,51.990106]},"properties":{"type":"charge","layer":"passenger","locationId":"89486949","name":"Van Leeuwen Karwei","address":"Berkelse Poort 1","city":"Berkel en Rodenrijs","operatorName":"Van Leeuwen","maxPowerKw":17,"isMegawatt":false,"status":"AVAILABLE","source":"ndw"}},{"type":"Feature","geometry":{"type":"Point","coordinates":[4.491573,51.989538]},"properties":{"type":"charge","layer":"passenger","locationId":"67ceb604253f14c0fe722a37","name":"Maisveld","address":"Maisveld 2","city":"Bergschenghoek","operatorName":"E-Flux by Road","maxPowerKw":11,"isMegawatt":false,"status":"AVAILABLE","source":"ndw","priceKwh":0.41}},{"type":"Feature","geometry":{"type":"Point","coordinates":[4.50087,51.995323]},"properties":{"type":"charge","layer":"passenger","locationId":"NLLOC001415","name":"NLD, Bergschenhoek, Mercatordreef 1","address":"Mercatordreef 1","city":"Bergschenhoek","operatorName":"Allego","maxPowerKw":11,"isMegawatt":false,"status":"AVAILABLE","source":"ndw","priceKwh":0.511}},{"type":"Feature","geometry":{"type":"Point","coordinates":[4.552185,52.026937]},"properties":{"type":"charge","layer":"passenger","locationId":"60b9fa9b28d15f33fb01c121","name":"Klappolder 191, 2665 MP Bleiswijk","address":"Klappolder 191","city":"Bleiswijk","operatorName":"E-Flux by Road","maxPowerKw":17,"isMegawatt":false,"status":"AVAILABLE","source":"ndw","priceKwh":0.53}},{"type":"Feature","geometry":{"type":"Point","coordinates":[4.472331,51.99744]},"properties":{"type":"charge","layer":"passenger","locationId":"6683f017952d74001c9f339c","name":"Laurens De Oudelandse Hof","address":"Oudelandselaan 226","city":"Berkel en Rodenrijs","operatorName":"Pluq","maxPowerKw":14,"isMegawatt":false,"status":"AVAILABLE","source":"ndw","priceKwh":0.41}},{"type":"Feature","geometry":{"type":"Point","coordinates":[4.455324,51.995273]},"properties":{"type":"charge","layer":"passenger","locationId":"88307274","name":"Van Leeuwen Leeweg 33","address":"Leeweg 33","city":"Berkel en Rodenrijs","operatorName":"Van Leeuwen","maxPowerKw":22,"isMegawatt":false,"status":"AVAILABLE","source":"ndw"}},{"type":"Feature","geometry":{"type":"Point","coordinates":[4.53898,52.010996]},"properties":{"type":"charge","layer":"passenger","locationId":"NLLOC001411","name":"NLD, Lansingerland, Herlaerstraat 30","address":"Herlaerstraat 30","city":"Lansingerland","operatorName":"Allego","maxPowerKw":11,"isMegawatt":false,"status":"AVAILABLE","source":"ndw","priceKwh":0.511}},{"type":"Feature","geometry":{"type":"Point","coordinates":[4.455906,51.981017]},"properties":{"type":"charge","layer":"passenger","locationId":"91179494","name":"50five-S NL Berkel En Rodenrijs, Industrieweg 48","address":"Industrieweg 48","city":"Berkel en Rodenrijs","operatorName":"50five","maxPowerKw":11,"isMegawatt":false,"status":"UNAVAILABLE","source":"ndw"}},{"type":"Feature","geometry":{"type":"Point","coordinates":[4.47515,51.989259]},"properties":{"type":"charge","layer":"passenger","locationId":"91114845","name":"Van Leeuwen Möller Autoschade Berkel B.V.","address":"Berkelse Poort 85","city":"Berkel en Rodenrijs","operatorName":"Van Leeuwen","maxPowerKw":11,"isMegawatt":false,"status":"AVAILABLE","source":"ndw"}},{"type":"Feature","geometry":{"type":"Point","coordinates":[4.533084,52.015883]},"properties":{"type":"charge","layer":"passenger","locationId":"645e222f9e9c3200128d9a9a","name":"Jan Groen Tegels Bleiswijk","address":"Hoefweg 95","city":"Bleiswijk","operatorName":"E-Flux by Road","maxPowerKw":22,"isMegawatt":false,"status":"AVAILABLE","source":"ndw","priceKwh":0.43}},{"type":"Feature","geometry":{"type":"Point","coordinates":[4.536326,52.026422]},"properties":{"type":"charge","layer":"passenger","locationId":"91275412","name":"50five-S NL 18B12195","address":"Hoefweg 186","city":"Bleiswijk","operatorName":"50five","maxPowerKw":11,"isMegawatt":false,"status":"AVAILABLE","source":"ndw"}},{"type":"Feature","geometry":{"type":"Point","coordinates":[4.463984,51.99234]},"properties":{"type":"charge","layer":"passenger","locationId":"NLLOC001408","name":"NLD, Lansingerland, Simon Carmiggeltstraat 32","address":"Simon Carmiggeltstraat 32","city":"Lansingerland","operatorName":"Allego","maxPowerKw":11,"isMegawatt":false,"status":"AVAILABLE","source":"ndw","priceKwh":0.511}},{"type":"Feature","geometry":{"type":"Point","coordinates":[4.543087,52.044107]},"properties":{"type":"charge","layer":"passenger","locationId":"91106426","name":"50five-S NL 18B08678","address":"Prismalaan Oost 17","city":"Bleiswijk","operatorName":"50five","maxPowerKw":11,"isMegawatt":false,"status":"AVAILABLE","source":"ndw"}},{"type":"Feature","geometry":{"type":"Point","coordinates":[4.499557,51.978892]},"properties":{"type":"charge","layer":"passenger","locationId":"90882787","name":"Van Leeuwen Biemond Elektro","address":"Weg en Land 7","city":"Bergschenhoek","operatorName":"Van Leeuwen","maxPowerKw":17,"isMegawatt":false,"status":"AVAILABLE","source":"ndw"}},{"type":"Feature","geometry":{"type":"Point","coordinates":[4.516216,52.013594]},"properties":{"type":"charge","layer":"passenger","locationId":"91141275","name":"Van Leeuwen Ammerlaan","address":"Petuniaweg 21","city":"Bleiswijk","operatorName":"Van Leeuwen","maxPowerKw":11,"isMegawatt":false,"status":"AVAILABLE","source":"ndw"}},{"type":"Feature","geometry":{"type":"Point","coordinates":[4.503105,51.991416]},"properties":{"type":"charge","layer":"passenger","locationId":"1105986","name":"Streetplug Struisvaren 19","address":"Struisvaren 19","city":"Bergschenhoek","operatorName":"Streetplug","maxPowerKw":19,"isMegawatt":false,"status":"AVAILABLE","source":"ndw"}},{"type":"Feature","geometry":{"type":"Point","coordinates":[4.519168,52.018272]},"properties":{"type":"charge","layer":"passenger","locationId":"90279006","name":"Van Leeuwen Kwekerij de Hooge Woert","address":"Hyacintenweg 8","city":"Bleiswijk","operatorName":"Van Leeuwen","maxPowerKw":22,"isMegawatt":false,"status":"AVAILABLE","source":"ndw"}},{"type":"Feature","geometry":{"type":"Point","coordinates":[4.504218,51.989202]},"properties":{"type":"charge","layer":"passenger","locationId":"90290341","name":"50five Exploitatie Vve de Stander","address":"Wilhelminastraat 1","city":"Bergschenhoek","operatorName":"50five","maxPowerKw":22,"isMegawatt":false,"status":"AVAILABLE","source":"ndw"}},{"type":"Feature","geometry":{"type":"Point","coordinates":[4.473812,51.99003]},"properties":{"type":"charge","layer":"passenger","locationId":"91448256","name":"Van Leeuwen Jules Goossens","address":"Berkelse Poort 281-283","city":"Berkel en Rodenrijs","operatorName":"Van Leeuwen","maxPowerKw":22,"isMegawatt":false,"status":"AVAILABLE","source":"ndw"}},{"type":"Feature","geometry":{"type":"Point","coordinates":[4.46213,51.98875]},"properties":{"type":"charge","layer":"passenger","locationId":"89401521","name":"Van Leeuwen Stationssingel 1","address":"Stationssingel 1","city":"Berkel en Rodenrijs","operatorName":"Van Leeuwen","maxPowerKw":22,"isMegawatt":false,"status":"AVAILABLE","source":"ndw"}},{"type":"Feature","geometry":{"type":"Point","coordinates":[4.46398,52.017047]},"properties":{"type":"charge","layer":"passenger","locationId":"91276085","name":"50five-S NL 17B21777","address":"Kleihoogt 40","city":"Berkel en Rodenrijs","operatorName":"50five","maxPowerKw":11,"isMegawatt":false,"status":"CHARGING","source":"ndw"}},{"type":"Feature","geometry":{"type":"Point","coordinates":[4.548188,52.014536]},"properties":{"type":"charge","layer":"passenger","locationId":"6a57826f7a781bd0aaa05dbd","name":"Krijtmolen 37 Bleiswijk","address":"Krijtmolen 37","city":"BLEISWIJK","operatorName":"E-Flux by Road","maxPowerKw":11,"isMegawatt":false,"status":"AVAILABLE","source":"ndw","priceKwh":0.42}},{"type":"Feature","geometry":{"type":"Point","coordinates":[4.457428,51.994595]},"properties":{"type":"charge","layer":"passenger","locationId":"91196608","name":"50five-S NL 17B16767","address":"Leeweg 25","city":"Berkel en Rodenrijs","operatorName":"50five","maxPowerKw":22,"isMegawatt":false,"status":"UNAVAILABLE","source":"ndw"}},{"type":"Feature","geometry":{"type":"Point","coordinates":[4.53962,52.046321]},"properties":{"type":"charge","layer":"passenger","locationId":"91230902","name":"50five-S NL 08103060","address":"Snelliuslaan 13","city":"Bleiswijk","operatorName":"50five","maxPowerKw":11,"isMegawatt":false,"status":"AVAILABLE","source":"ndw"}},{"type":"Feature","geometry":{"type":"Point","coordinates":[4.529574,52.046671]},"properties":{"type":"charge","layer":"passenger","locationId":"91179611","name":"50five-S NL Bleiswijk, Prismalaan West 23","address":"Prismalaan West 23","city":"Bleiswijk","operatorName":"50five","maxPowerKw":11,"isMegawatt":false,"status":"AVAILABLE","source":"ndw"}},{"type":"Feature","geometry":{"type":"Point","coordinates":[4.520428,52.003031]},"properties":{"type":"charge","layer":"passenger","locationId":"8DB13220-10C9-4B68-A1B2-8D10E204DC00","name":"Eneco eMobility Anthuriumweg 4 Bleiswijk","address":"Anthuriumweg 4","city":"Bleiswijk","operatorName":"Eneco","maxPowerKw":22,"isMegawatt":false,"status":"AVAILABLE","source":"ndw","priceKwh":0.32}},{"type":"Feature","geometry":{"type":"Point","coordinates":[4.475799,51.997168]},"properties":{"type":"charge","layer":"passenger","locationId":"91061364","name":"50five-S NL 07104961","address":"Oudelandselaan 231","city":"Lansingerland","operatorName":"50five","maxPowerKw":14,"isMegawatt":false,"status":"CHARGING","source":"ndw"}},{"type":"Feature","geometry":{"type":"Point","coordinates":[4.50554,51.981124]},"properties":{"type":"charge","layer":"passenger","locationId":"88924733","name":"Van Leeuwen 88924733","address":"Weg en Bos 88","city":"Bergschenhoek","operatorName":"Van Leeuwen","maxPowerKw":17,"isMegawatt":false,"status":"UNAVAILABLE","source":"ndw"}},{"type":"Feature","geometry":{"type":"Point","coordinates":[4.463152,51.984344]},"properties":{"type":"charge","layer":"passenger","locationId":"NLLOC001410","name":"NLD, Berkel en Rodenrijs, Rozenpad 58","address":"Rozenpad 58","city":"Berkel en Rodenrijs","operatorName":"Allego","maxPowerKw":11,"isMegawatt":false,"status":"AVAILABLE","source":"ndw","priceKwh":0.511}},{"type":"Feature","geometry":{"type":"Point","coordinates":[4.493447,51.98726]},"properties":{"type":"charge","layer":"passenger","locationId":"91056455","name":"50five-S NL 07108419","address":"De Eilanden 42","city":"Bergschenhoek","operatorName":"50five","maxPowerKw":11,"isMegawatt":false,"status":"AVAILABLE","source":"ndw"}},{"type":"Feature","geometry":{"type":"Point","coordinates":[4.481813,51.99976]},"properties":{"type":"charge","layer":"passenger","locationId":"6683e9f367c22e001c805438","name":"Laurens Sint Petrus","address":"Noordeindseweg 94","city":"Berkel en Rodenrijs","operatorName":"Pluq","maxPowerKw":22,"isMegawatt":false,"status":"AVAILABLE","source":"ndw","priceKwh":0.43}},{"type":"Feature","geometry":{"type":"Point","coordinates":[4.446849,51.979057]},"properties":{"type":"charge","layer":"passenger","locationId":"91110044","name":"50five-S NL 09102561","address":"Leeuwenhoekstraat 5","city":"Berkel en Rodenrijs","operatorName":"50five","maxPowerKw":14,"isMegawatt":false,"status":"AVAILABLE","source":"ndw"}},{"type":"Feature","geometry":{"type":"Point","coordinates":[4.514944,51.993596]},"properties":{"type":"charge","layer":"passenger","locationId":"4238551","name":"Laadnet Atrium Agri","address":"Oosteindsepad 8","city":"Bergschenhoek","operatorName":"Laadnet","maxPowerKw":22,"isMegawatt":false,"status":"AVAILABLE","source":"ndw"}},{"type":"Feature","geometry":{"type":"Point","coordinates":[4.49558,52.005492]},"properties":{"type":"charge","layer":"passenger","locationId":"NLLOC001719","name":"NLD, Berkel en Rodenrijs, Edelsteenweg 25","address":"Edelsteenweg 25","city":"Berkel en Rodenrijs","operatorName":"Allego","maxPowerKw":11,"isMegawatt":false,"status":"AVAILABLE","source":"ndw","priceKwh":0.511}},{"type":"Feature","geometry":{"type":"Point","coordinates":[4.485496,52.000229]},"properties":{"type":"charge","layer":"passenger","locationId":"NLLOC001416","name":"NLD, Lansingerland, Burgemeester Hendrixstraat 61","address":"Burgemeester Hendrixstraat 61","city":"Lansingerland","operatorName":"Allego","maxPowerKw":11,"isMegawatt":false,"status":"UNAVAILABLE","source":"ndw","priceKwh":0.511}},{"type":"Feature","geometry":{"type":"Point","coordinates":[4.541712,52.00581]},"properties":{"type":"charge","layer":"passenger","locationId":"NLLOC002151","name":"NLD, Bleiswijk, Kastanjelaan 104","address":"Kastanjelaan 104","city":"Bleiswijk","operatorName":"Allego","maxPowerKw":11,"isMegawatt":false,"status":"UNAVAILABLE","source":"ndw","priceKwh":0.511}},{"type":"Feature","geometry":{"type":"Point","coordinates":[4.464731,51.994379]},"properties":{"type":"charge","layer":"passenger","locationId":"90995633","name":"Van Leeuwen Vve Dotterbloem","address":"Klapwijkse Zoom","city":"Berkel en Rodenrijs","operatorName":"Van Leeuwen","maxPowerKw":11,"isMegawatt":false,"status":"AVAILABLE","source":"ndw"}},{"type":"Feature","geometry":{"type":"Point","coordinates":[4.520706,51.963749]},"properties":{"type":"charge","layer":"passenger","locationId":"91058532","name":"50five-S NL 07112866","address":"Rottekade 218","city":"Bergschenhoek","operatorName":"50five","maxPowerKw":11,"isMegawatt":false,"status":"AVAILABLE","source":"ndw"}},{"type":"Feature","geometry":{"type":"Point","coordinates":[4.539444,52.039855]},"properties":{"type":"charge","layer":"passenger","locationId":"922592","name":"LP 4 DAE-NL-2000011","address":"Facetlaan 6","city":"Bleiswijk","operatorName":"DAEN Mobility","maxPowerKw":22,"isMegawatt":false,"status":"UNAVAILABLE","source":"ndw","priceKwh":0.32}},{"type":"Feature","geometry":{"type":"Point","coordinates":[4.457487,51.986425]},"properties":{"type":"charge","layer":"passenger","locationId":"91053231","name":"50five-S NL 07112396","address":"Waterlinie 35","city":"Berkel en Rodenrijs","operatorName":"50five","maxPowerKw":11,"isMegawatt":false,"status":"AVAILABLE","source":"ndw"}},{"type":"Feature","geometry":{"type":"Point","coordinates":[4.539444,52.039855]},"properties":{"type":"charge","layer":"passenger","locationId":"922595","name":"LP 6 DAE-NL-2000014","address":"Facetlaan 6","city":"Bleiswijk","operatorName":"DAEN Mobility","maxPowerKw":22,"isMegawatt":false,"status":"AVAILABLE","source":"ndw","priceKwh":0.32}},{"type":"Feature","geometry":{"type":"Point","coordinates":[4.4523,51.97594]},"properties":{"type":"charge","layer":"passenger","locationId":"2267290","name":"Laadnet ZaaKado Parking","address":"Hertzstraat 8","city":"Berkel en Rodenrijs","operatorName":"Laadnet","maxPowerKw":22,"isMegawatt":false,"status":"AVAILABLE","source":"ndw"}},{"type":"Feature","geometry":{"type":"Point","coordinates":[4.536022,52.00616]},"properties":{"type":"charge","layer":"passenger","locationId":"91057055","name":"50five-S NL 07113327","address":"Zwanendreef 1","city":"Bleiswijk","operatorName":"50five","maxPowerKw":14,"isMegawatt":false,"status":"AVAILABLE","source":"ndw"}},{"type":"Feature","geometry":{"type":"Point","coordinates":[4.535581,52.011789]},"properties":{"type":"charge","layer":"passenger","locationId":"NLLOC001412","name":"NLD, Bleiswijk, Oranjestein 2","address":"Oranjestein 2","city":"Bleiswijk","operatorName":"Allego","maxPowerKw":11,"isMegawatt":false,"status":"AVAILABLE","source":"ndw","priceKwh":0.511}},{"type":"Feature","geometry":{"type":"Point","coordinates":[4.492988,51.985921]},"properties":{"type":"charge","layer":"passenger","locationId":"NLLOC001414","name":"NLD, Lansingerland, Brederodestraat 2","address":"Brederodestraat 2","city":"Lansingerland","operatorName":"Allego","maxPowerKw":22,"isMegawatt":false,"status":"AVAILABLE","source":"ndw","priceKwh":0.511}},{"type":"Feature","geometry":{"type":"Point","coordinates":[4.49467,51.97464]},"properties":{"type":"charge","layer":"passenger","locationId":"124F787F-6AD1-474D-BE6B-90E22524FE9C","name":"Eneco eMobility Bergweg-Zuid 96 BERGSCHENHOEK","address":"Bergweg-Zuid 96","city":"Bergschenhoek","operatorName":"Eneco","maxPowerKw":22,"isMegawatt":false,"status":"UNAVAILABLE","source":"ndw","priceKwh":0.32}},{"type":"Feature","geometry":{"type":"Point","coordinates":[4.546523,52.014799]},"properties":{"type":"charge","layer":"passenger","locationId":"NLLOC001721","name":"NLD, Bleiswijk, Bergmolen 35","address":"Bergmolen 35","city":"Bleiswijk","operatorName":"Allego","maxPowerKw":11,"isMegawatt":false,"status":"AVAILABLE","source":"ndw","priceKwh":0.511}},{"type":"Feature","geometry":{"type":"Point","coordinates":[4.448309,51.978797]},"properties":{"type":"charge","layer":"passenger","locationId":"88924910","name":"Van Leeuwen 88924910","address":"Leeuwenhoekstraat 1","city":"Berkel en Rodenrijs","operatorName":"Van Leeuwen","maxPowerKw":22,"isMegawatt":false,"status":"AVAILABLE","source":"ndw"}},{"type":"Feature","geometry":{"type":"Point","coordinates":[4.539444,52.039855]},"properties":{"type":"charge","layer":"passenger","locationId":"922593","name":"LP 5 DAE-NL-2000012","address":"Facetlaan 6","city":"Bleiswijk","operatorName":"DAEN Mobility","maxPowerKw":22,"isMegawatt":false,"status":"AVAILABLE","source":"ndw","priceKwh":0.32}},{"type":"Feature","geometry":{"type":"Point","coordinates":[4.470082,51.994259]},"properties":{"type":"charge","layer":"passenger","locationId":"NLLOC001720","name":"NLD, Berkel en Rodenrijs, Parkstraat 43","address":"Parkstraat 43","city":"Berkel en Rodenrijs","operatorName":"Allego","maxPowerKw":22,"isMegawatt":false,"status":"AVAILABLE","source":"ndw","priceKwh":0.511}},{"type":"Feature","geometry":{"type":"Point","coordinates":[4.451048,51.98178]},"properties":{"type":"charge","layer":"passenger","locationId":"e6887daa-d71a-43bc-bae5-7daeb35de283","name":"Celsiusstraat","address":"Celsiusstraat 20","city":"Berkel en Rodenrijs","operatorName":"Vattenfall InCharge","maxPowerKw":50,"isMegawatt":false,"status":"AVAILABLE","source":"ndw","priceKwh":0.46}},{"type":"Feature","geometry":{"type":"Point","coordinates":[4.539444,52.039855]},"properties":{"type":"charge","layer":"passenger","locationId":"922594","name":"LP 7 DAE-NL-2000013","address":"Facetlaan 6","city":"Bleiswijk","operatorName":"DAEN Mobility","maxPowerKw":22,"isMegawatt":false,"status":"AVAILABLE","source":"ndw","priceKwh":0.32}},{"type":"Feature","geometry":{"type":"Point","coordinates":[4.539304,52.04231]},"properties":{"type":"charge","layer":"passenger","locationId":"4853357","name":"Laadnet Rexel DC Bleiswijk (Unit A)","address":"Maansteenweg 1","city":"Bleiswijk","operatorName":"Laadnet","maxPowerKw":11,"isMegawatt":false,"status":"AVAILABLE","source":"ndw"}},{"type":"Feature","geometry":{"type":"Point","coordinates":[4.4922,51.989742]},"properties":{"type":"charge","layer":"passenger","locationId":"NLLOC001413","name":"NLD, Bergschenhoek, Haverveld 33","address":"Haverveld 33","city":"Bergschenhoek","operatorName":"Allego","maxPowerKw":11,"isMegawatt":false,"status":"AVAILABLE","source":"ndw","priceKwh":0.511}},{"type":"Feature","geometry":{"type":"Point","coordinates":[4.47697,51.992286]},"properties":{"type":"charge","layer":"passenger","locationId":"NLLOC001480","name":"NLD, Berkel en Rodenrijs, Laan van Romen 25","address":"Laan van Romen 25","city":"Berkel en Rodenrijs","operatorName":"Allego","maxPowerKw":11,"isMegawatt":false,"status":"AVAILABLE","source":"ndw","priceKwh":0.511}},{"type":"Feature","geometry":{"type":"Point","coordinates":[4.443588,51.976783]},"properties":{"type":"charge","layer":"passenger","locationId":"89307291","name":"Van Leeuwen Singerstraat 4","address":"Singerstraat 4","city":"Berkel en Rodenrijs","operatorName":"Van Leeuwen","maxPowerKw":22,"isMegawatt":false,"status":"AVAILABLE","source":"ndw"}},{"type":"Feature","geometry":{"type":"Point","coordinates":[4.499465,51.984697]},"properties":{"type":"charge","layer":"passenger","locationId":"91064511","name":"50five-S NL 07107095","address":"Bergweg Noord 47","city":"Bergschenhoek","operatorName":"50five","maxPowerKw":11,"isMegawatt":false,"status":"AVAILABLE","source":"ndw"}},{"type":"Feature","geometry":{"type":"Point","coordinates":[4.544662,52.004627]},"properties":{"type":"charge","layer":"passenger","locationId":"NLLOC001417","name":"NLD, Bleiswijk, Beukenlaan 30","address":"Beukenlaan 30","city":"Bleiswijk","operatorName":"Allego","maxPowerKw":22,"isMegawatt":false,"status":"AVAILABLE","source":"ndw","priceKwh":0.511}},{"type":"Feature","geometry":{"type":"Point","coordinates":[4.453903,51.976244]},"properties":{"type":"charge","layer":"passenger","locationId":"90327707","name":"Van Leeuwen Berkel Industrial B.V.","address":"Hertzstraat 6","city":"Berkel en Rodenrijs","operatorName":"Van Leeuwen","maxPowerKw":22,"isMegawatt":false,"status":"AVAILABLE","source":"ndw"}},{"type":"Feature","geometry":{"type":"Point","coordinates":[4.482276,52.005162]},"properties":{"type":"charge","layer":"passenger","locationId":"a8b73fca-8a19-45f7-98bb-77b0b09c37d4","name":"Veersemeerstraat","address":"Veersemeerstraat 41","city":"Berkel en Rodenrijs","operatorName":"Vattenfall InCharge","maxPowerKw":22,"isMegawatt":false,"status":"AVAILABLE","source":"ndw","priceKwh":0.27}},{"type":"Feature","geometry":{"type":"Point","coordinates":[4.477806,51.978606]},"properties":{"type":"charge","layer":"passenger","locationId":"91040521","name":"50five-S NL 17B30009","address":"Rooseveltstraat 16","city":"Bergschenhoek","operatorName":"50five","maxPowerKw":12,"isMegawatt":false,"status":"AVAILABLE","source":"ndw"}},{"type":"Feature","geometry":{"type":"Point","coordinates":[4.505901,51.981564]},"properties":{"type":"charge","layer":"passenger","locationId":"90822471","name":"Van Leeuwen Dovianus B.V.","address":"Leeuwenhoekweg 24","city":"Bergschenhoek","operatorName":"Van Leeuwen","maxPowerKw":22,"isMegawatt":false,"status":"AVAILABLE","source":"ndw"}},{"type":"Feature","geometry":{"type":"Point","coordinates":[4.45995,51.991819]},"properties":{"type":"charge","layer":"passenger","locationId":"91147660","name":"50five-S NL 07102396","address":"Paul van Ostaijenlaan 21","city":"Berkel en Rodenrijs","operatorName":"50five","maxPowerKw":6,"isMegawatt":false,"status":"AVAILABLE","source":"ndw"}},{"type":"Feature","geometry":{"type":"Point","coordinates":[4.505668,51.980728]},"properties":{"type":"charge","layer":"passenger","locationId":"2577","name":"Van Leeuwen Beerco Bergschenhoek","address":"Weg en Bos 51","city":"Bergschenhoek","operatorName":"Van Leeuwen","maxPowerKw":11,"isMegawatt":false,"status":"AVAILABLE","source":"ndw","priceKwh":0.655}},{"type":"Feature","geometry":{"type":"Point","coordinates":[4.551074,52.030292]},"properties":{"type":"charge","layer":"passenger","locationId":"63fe00b9b3c54200122a7c74","name":"Haluog BV","address":"Klappolder 224","city":"Bleiswijk","operatorName":"E-Flux by Road","maxPowerKw":22,"isMegawatt":false,"status":"AVAILABLE","source":"ndw","priceKwh":0.38}},{"type":"Feature","geometry":{"type":"Point","coordinates":[4.548314,52.014493]},"properties":{"type":"charge","layer":"passenger","locationId":"NLLOC001481","name":"NLD, Lansingerland, Stellingmolen 36","address":"Stellingmolen 36","city":"Lansingerland","operatorName":"Allego","maxPowerKw":11,"isMegawatt":false,"status":"UNAVAILABLE","source":"ndw","priceKwh":0.511}},{"type":"Feature","geometry":{"type":"Point","coordinates":[4.504368,51.995451]},"properties":{"type":"charge","layer":"passenger","locationId":"NLLOC001497","name":"NLD, Lansingerland, Frans Halslaan 96","address":"Frans Halslaan 96","city":"Lansingerland","operatorName":"Allego","maxPowerKw":11,"isMegawatt":false,"status":"AVAILABLE","source":"ndw","priceKwh":0.511}},{"type":"Feature","geometry":{"type":"Point","coordinates":[4.486499,51.987349]},"properties":{"type":"charge","layer":"passenger","locationId":"NLLOC001418","name":"NLD, Bergschenhoek, Rozentuin 1","address":"Rozentuin 1","city":"Bergschenhoek","operatorName":"Allego","maxPowerKw":11,"isMegawatt":false,"status":"AVAILABLE","source":"ndw","priceKwh":0.511}},{"type":"Feature","geometry":{"type":"MultiPolygon","coordinates":[[[[4.565042517498243,52.0585695530937],[4.561059097276838,52.04206107182239],[4.563304213774565,52.03827724178137],[4.5634566012269655,52.03577720643823],[4.5601397105517965,52.033190120103484],[4.559346762720073,52.03140759226599],[4.558217392459452,52.02890868109488],[4.556776382286716,52.01840096503802],[4.557118847307958,52.01393663098213],[4.554874576967059,52.005948831899545],[4.553443969893972,52.00392418658147],[4.549893086010367,51.995746794983575],[4.547004915100421,51.99394311560801],[4.548387399086782,51.99255756314952],[4.546338787926787,51.991514386212415],[4.546909126026089,51.99022857221798],[4.547393185422582,51.988746463229525],[4.548417525331113,51.98495728960145],[4.548161800431014,51.983294460441996],[4.5508853422594315,51.98187383020907],[4.5519914858832875,51.978869501946065],[4.553760163789368,51.977041300249404],[4.551934376412003,51.974737566484215],[4.547685955789135,51.9728067908713],[4.545651593581211,51.97231973094923],[4.539951066546351,51.969885317237136],[4.53578204233669,51.97044802095682],[4.534984830708275,51.96827248016247],[4.528759644902462,51.967023821288954],[4.527821434375983,51.96565887671899],[4.523653514278459,51.96392510838563],[4.52094636256311,51.963408122737164],[4.518586270279175,51.96028647006856],[4.513900472170596,51.962653950251635],[4.513103045522934,51.96292188496567],[4.512246619296779,51.96242060265057],[4.505843915441188,51.96565222697428],[4.506584223093227,51.96637596464946],[4.496856901138913,51.971306039364784],[4.495799403758052,51.9718446866727],[4.495233815511048,51.967415194938035],[4.491006605935403,51.96954987065089],[4.483251493288393,51.97336252035361],[4.4705578507140205,51.979779732840775],[4.469515548168262,51.98030081663776],[4.469011879880422,51.980549323617126],[4.468971359308232,51.9805288376634],[4.468874604734634,51.980479897738675],[4.469450898354172,51.98018766459077],[4.468186400583949,51.979266910007965],[4.466679966002739,51.97849848126088],[4.465802427947428,51.97892987432272],[4.464124351666124,51.978307176441106],[4.463240739656886,51.97752667433726],[4.46402288679444,51.977147831087635],[4.461676100157374,51.97512211652651],[4.461346249438219,51.97483737878335],[4.462220309459334,51.97268158292063],[4.460161119666948,51.971608933281],[4.460374457309972,51.96910160815828],[4.456824314233554,51.967311168390395],[4.450882890262062,51.9658850710903],[4.446681895291698,51.96278613805183],[4.428968223563908,51.97587621573423],[4.4278982104631135,51.976466563295354],[4.424446158418727,51.97961110917914],[4.447247686140568,51.99240916561931],[4.450569037200377,51.99569730310259],[4.450800999490684,51.995880331404884],[4.452812884900917,51.99722675786668],[4.451386969886555,51.998138330683176],[4.449775638660381,52.000502877995416],[4.451930065225678,52.00083792848867],[4.458727811235974,52.002209336790266],[4.4588681445316265,52.00466565871348],[4.4570422315837614,52.00494388338702],[4.455350680868819,52.00642498111052],[4.456390392454662,52.008512976010756],[4.461561326991186,52.01265154099952],[4.458392563956949,52.01602315064376],[4.459437753374193,52.0170455909587],[4.458110542537678,52.01852783866482],[4.457198875220818,52.022169001449065],[4.457353980692241,52.022260700926736],[4.457960274110472,52.02235419815516],[4.460568446845187,52.02320835892835],[4.461303765258959,52.023888687555356],[4.463040575529778,52.0242147714345],[4.463470010739859,52.02422277119184],[4.464489360400375,52.02463142924785],[4.467174954426925,52.02535375505717],[4.46799212297161,52.025787008294444],[4.468107684656428,52.026490227303704],[4.47670566534651,52.03164228809198],[4.477027439798758,52.03128071987484],[4.477680521601396,52.03139496935556],[4.477383991665023,52.031791718023115],[4.488006179463737,52.03186455399735],[4.504708768136642,52.031930936310744],[4.507059830379535,52.032825519160234],[4.512072137864215,52.036825355354694],[4.518278574953491,52.04099115230248],[4.518995308176647,52.04138421690873],[4.519254704956128,52.041526472506376],[4.5225830613828455,52.043391828697736],[4.5351088539494,52.049613405732956],[4.545078962401662,52.048861209041924],[4.54754621790608,52.05036985301553],[4.5493423790723995,52.05474464018956],[4.550532594150992,52.056304218689455],[4.557179828220584,52.06123952989398],[4.557808577705077,52.06174132555933],[4.565042517498243,52.0585695530937]]]]},"properties":{"type":"boundary","gemeente":"Lansingerland","code":"GM1621"}}]}