{"type":"FeatureCollection","metadata":{"gemeente":"Leidschendam-Voorburg","slug":"leidschendam-voorburg","code":"GM1916","generated_at":"2026-08-08T12:05:52.020Z","total_passenger":26,"total_freight":0,"bounds":[4.33521313438158,52.056255056555145,4.4930178817829205,52.12898035309882],"operators":["50five","E-Flux by Road","Eneco","Laadnet","Van Leeuwen"]},"features":[{"type":"Feature","geometry":{"type":"Point","coordinates":[4.444429,52.094484]},"properties":{"type":"charge","layer":"passenger","locationId":"63ce6addadea300012550bb0","name":"Rick Boheemen 's station","address":"Stompwijkseweg 57","city":"Leidschendam","operatorName":"E-Flux by Road","maxPowerKw":22,"isMegawatt":false,"status":"UNAVAILABLE","source":"ndw","priceKwh":0.58}},{"type":"Feature","geometry":{"type":"Point","coordinates":[4.394356,52.085019]},"properties":{"type":"charge","layer":"passenger","locationId":"679a08dfa421e787324dae2b","name":"Parkeerplaats GLV openbaar laadpaal 1","address":"koningin Wilhelminalaan 2","city":"Leidschendam","operatorName":"E-Flux by Road","maxPowerKw":6,"isMegawatt":false,"status":"UNAVAILABLE","source":"ndw","priceKwh":0.45}},{"type":"Feature","geometry":{"type":"Point","coordinates":[4.367546,52.088736]},"properties":{"type":"charge","layer":"passenger","locationId":"0bec887d42784b4eaa3b92b1dba9479b","name":"VVE Populierendreef","address":"Populierendreef 318","city":"Voorburg","operatorName":"","maxPowerKw":22,"isMegawatt":false,"status":"AVAILABLE","source":"ndw","priceKwh":0.68}},{"type":"Feature","geometry":{"type":"Point","coordinates":[4.378792,52.088923]},"properties":{"type":"charge","layer":"passenger","locationId":"7199E471-5B19-4309-83D8-7E48970C1B2B","name":"Eneco eMobility Westfield Mall of the Netherlands - Liguster P1","address":"Liguster 202 - P1","city":"Leidschendam","operatorName":"Eneco","maxPowerKw":11,"isMegawatt":false,"status":"AVAILABLE","source":"ndw","priceKwh":0.54}},{"type":"Feature","geometry":{"type":"Point","coordinates":[4.394416,52.08488]},"properties":{"type":"charge","layer":"passenger","locationId":"679a4bdc9259e767e0598b62","name":"Parkeerplaats GLV openbaar Laadpaal 5","address":"Koningin Wilhelminalaan 2","city":"2","operatorName":"E-Flux by Road","maxPowerKw":6,"isMegawatt":false,"status":"AVAILABLE","source":"ndw","priceKwh":0.46}},{"type":"Feature","geometry":{"type":"Point","coordinates":[4.385296,52.087859]},"properties":{"type":"charge","layer":"passenger","locationId":"F8E94AAD-7350-47A9-9F36-3BF49CDA75A9","name":"Eneco eMobility Westfield Mall of the Netherlands - Liguster P5","address":"Liguster 202 - P5","city":"Leidschendam","operatorName":"Eneco","maxPowerKw":11,"isMegawatt":false,"status":"UNAVAILABLE","source":"ndw","priceKwh":0.54}},{"type":"Feature","geometry":{"type":"Point","coordinates":[4.410185,52.091694]},"properties":{"type":"charge","layer":"passenger","locationId":"4257896","name":"Laadnet Veursestraatweg","address":"Veursestraatweg 106D","city":"Leidschendam","operatorName":"Laadnet","maxPowerKw":22,"isMegawatt":false,"status":"UNAVAILABLE","source":"ndw"}},{"type":"Feature","geometry":{"type":"Point","coordinates":[4.470648,52.092232]},"properties":{"type":"charge","layer":"passenger","locationId":"90891605","name":"Van Leeuwen luiten","address":"Klaverblad 11","city":"Leidschendam","operatorName":"Van Leeuwen","maxPowerKw":22,"isMegawatt":false,"status":"AVAILABLE","source":"ndw"}},{"type":"Feature","geometry":{"type":"Point","coordinates":[4.381884,52.090351]},"properties":{"type":"charge","layer":"passenger","locationId":"34E77922-7381-4E91-A027-CFB0BB8A4A3C","name":"Eneco eMobility Westfield Mall of the Netherlands - Liguster P2","address":"Liguster 202 - P2","city":"Leidschendam","operatorName":"Eneco","maxPowerKw":22,"isMegawatt":false,"status":"AVAILABLE","source":"ndw","priceKwh":0.54}},{"type":"Feature","geometry":{"type":"Point","coordinates":[4.394292,52.085076]},"properties":{"type":"charge","layer":"passenger","locationId":"679a49a1c834b49127671dec","name":"Parkeerplaats GLV openbaar laadpaal 3","address":"koningin Wiihelminalaan  2","city":"Leidschendam","operatorName":"E-Flux by Road","maxPowerKw":6,"isMegawatt":false,"status":"AVAILABLE","source":"ndw","priceKwh":0.45}},{"type":"Feature","geometry":{"type":"Point","coordinates":[4.394319,52.084798]},"properties":{"type":"charge","layer":"passenger","locationId":"679a4c96247d325f2c5fcd95","name":"Parkeerplaats GLV openbaar laadpaal 6","address":"koningin Wilhelminalaan 2","city":"Leidschendam","operatorName":"E-Flux by Road","maxPowerKw":6,"isMegawatt":false,"status":"AVAILABLE","source":"ndw","priceKwh":0.45}},{"type":"Feature","geometry":{"type":"Point","coordinates":[4.392198,52.077295]},"properties":{"type":"charge","layer":"passenger","locationId":"91252894","name":"Van Leeuwen Maassaete Rotterdam B.V.","address":"Overgoo 6","city":"leidschendam","operatorName":"Van Leeuwen","maxPowerKw":11,"isMegawatt":false,"status":"AVAILABLE","source":"ndw"}},{"type":"Feature","geometry":{"type":"Point","coordinates":[4.386187,52.079089]},"properties":{"type":"charge","layer":"passenger","locationId":"647f34b4a0bf28001cd82ab5","name":"EV CVL","address":"Cornelis voorhoevelaan 4","city":"Voorburg","operatorName":"E-Flux by Road","maxPowerKw":22,"isMegawatt":false,"status":"AVAILABLE","source":"ndw","priceKwh":0.53}},{"type":"Feature","geometry":{"type":"Point","coordinates":[4.347665,52.061037]},"properties":{"type":"charge","layer":"passenger","locationId":"91058724","name":"50five-S NL 07003051","address":"Dominee Veldhoenlaan 8","city":"Voorburg","operatorName":"50five","maxPowerKw":11,"isMegawatt":false,"status":"AVAILABLE","source":"ndw"}},{"type":"Feature","geometry":{"type":"Point","coordinates":[4.375647,52.089355]},"properties":{"type":"charge","layer":"passenger","locationId":"91150032","name":"50five-S NL ICUEVE000187","address":"Charlotte van Pallandtlaan 2","city":"Voorburg","operatorName":"50five","maxPowerKw":11,"isMegawatt":false,"status":"UNAVAILABLE","source":"ndw"}},{"type":"Feature","geometry":{"type":"Point","coordinates":[4.386708,52.077368]},"properties":{"type":"charge","layer":"passenger","locationId":"91055972","name":"50five-S NL 03000635","address":"Park Leeuwensteijn 26","city":"Voorburg","operatorName":"50five","maxPowerKw":11,"isMegawatt":false,"status":"CHARGING","source":"ndw"}},{"type":"Feature","geometry":{"type":"Point","coordinates":[4.37306,52.077107]},"properties":{"type":"charge","layer":"passenger","locationId":"90261005","name":"Van Leeuwen AP de jonge","address":"eennhoornstraat 7","city":"voorburg","operatorName":"Van Leeuwen","maxPowerKw":11,"isMegawatt":false,"status":"CHARGING","source":"ndw"}},{"type":"Feature","geometry":{"type":"Point","coordinates":[4.444386,52.094469]},"properties":{"type":"charge","layer":"passenger","locationId":"63ce6b2fc1642e001240d4e3","name":"Rick Boheemen 's station","address":"Stompwijkseweg 57","city":"Leidschendam","operatorName":"E-Flux by Road","maxPowerKw":22,"isMegawatt":false,"status":"AVAILABLE","source":"ndw","priceKwh":0.58}},{"type":"Feature","geometry":{"type":"Point","coordinates":[4.394399,52.084997]},"properties":{"type":"charge","layer":"passenger","locationId":"679a3611e6b6851e5fdcea44","name":"Parkeerplaats GLV openbaar laadpaal 2","address":"koningin Wilhelminalaan 2","city":"leidschendam","operatorName":"E-Flux by Road","maxPowerKw":6,"isMegawatt":false,"status":"AVAILABLE","source":"ndw","priceKwh":0.45}},{"type":"Feature","geometry":{"type":"Point","coordinates":[4.394509,52.084916]},"properties":{"type":"charge","layer":"passenger","locationId":"679a4b1b6825c6b43883e396","name":"Parkeerplaats GLV  Openbaar Laadpaal 4","address":"koningin Wilhelminalaan  2","city":"Leidschendam","operatorName":"E-Flux by Road","maxPowerKw":6,"isMegawatt":false,"status":"AVAILABLE","source":"ndw","priceKwh":0.45}},{"type":"Feature","geometry":{"type":"Point","coordinates":[4.41143,52.105885]},"properties":{"type":"charge","layer":"passenger","locationId":"67b7112350dbede8d7d8294e","name":"Camping Noorthey","address":"Noortheylaan  27a","city":"Leidschendam","operatorName":"E-Flux by Road","maxPowerKw":22,"isMegawatt":false,"status":"AVAILABLE","source":"ndw","priceKwh":0.38}},{"type":"Feature","geometry":{"type":"Point","coordinates":[4.385842,52.089355]},"properties":{"type":"charge","layer":"passenger","locationId":"34D8CB56-C80F-4EAB-8468-1F0E1AEF78CB","name":"Eneco eMobility Westfield Mall of the Netherlands - Liguster P4","address":"Liguster 202 - P4","city":"Leidschendam","operatorName":"Eneco","maxPowerKw":11,"isMegawatt":false,"status":"UNAVAILABLE","source":"ndw","priceKwh":0.54}},{"type":"Feature","geometry":{"type":"Point","coordinates":[4.403987,52.095448]},"properties":{"type":"charge","layer":"passenger","locationId":"2656062","name":"Laadnet Fugro Vastgoed - Leidschendam","address":"Veurse Achterweg 10","city":"Leidschendam","operatorName":"Laadnet","maxPowerKw":22,"isMegawatt":false,"status":"AVAILABLE","source":"ndw"}},{"type":"Feature","geometry":{"type":"Point","coordinates":[4.444472,52.0945]},"properties":{"type":"charge","layer":"passenger","locationId":"63ce6a72db9af30012a17a26","name":"Rick Boheemen 's station","address":"Stompwijkseweg 57","city":"Leidschendam","operatorName":"E-Flux by Road","maxPowerKw":22,"isMegawatt":false,"status":"AVAILABLE","source":"ndw","priceKwh":0.58}},{"type":"Feature","geometry":{"type":"Point","coordinates":[4.358182,52.066238]},"properties":{"type":"charge","layer":"passenger","locationId":"NLENV550","name":"Voorburg, Stationsplein 6","address":"Stationsplein 6","city":"Voorburg","operatorName":"","maxPowerKw":11,"isMegawatt":false,"status":"AVAILABLE","source":"ndw","priceKwh":0.5}},{"type":"Feature","geometry":{"type":"Point","coordinates":[4.3863,52.081543]},"properties":{"type":"charge","layer":"passenger","locationId":"91069282","name":"50five-S NL 17B20841","address":"Damsigtstraat 27","city":"Voorburg","operatorName":"50five","maxPowerKw":11,"isMegawatt":false,"status":"AVAILABLE","source":"ndw"}},{"type":"Feature","geometry":{"type":"MultiPolygon","coordinates":[[[[4.466845096767409,52.12898035309882],[4.467481047865191,52.12832366102242],[4.468149315853901,52.12855127279018],[4.472941478304252,52.123703615570356],[4.472321181585652,52.12345903673258],[4.472289051768598,52.1196350632398],[4.472975436909095,52.118952018446336],[4.470825802615474,52.117708508579625],[4.484646826096243,52.10358842709298],[4.490413549599428,52.097858664330445],[4.492218752462413,52.090010007027146],[4.4930178817829205,52.0877521471186],[4.474274515102215,52.08526091444929],[4.475659615422319,52.08129653481025],[4.456751807542848,52.07881507645577],[4.4567783201492475,52.07867518958598],[4.4555043718003615,52.078326148026875],[4.44324666255918,52.07291094919842],[4.437630066666424,52.070403573446804],[4.421403900178064,52.063303693986164],[4.42168493230608,52.06288612846993],[4.420832214633236,52.06258028305132],[4.4206904093641475,52.06345547734105],[4.417243299201454,52.06622190295073],[4.411881122907818,52.07213478181767],[4.405928390933802,52.07659344411582],[4.403923628566715,52.077845342531944],[4.3970933649340695,52.074763879887875],[4.394621328478827,52.07590725422086],[4.391921291006517,52.07472529703753],[4.388650767552274,52.07297412333023],[4.384582536454932,52.076234594649065],[4.384360618102322,52.07616143707429],[4.379995680542963,52.07474537506564],[4.371428640467598,52.069582656705904],[4.364012295646732,52.06532172508413],[4.363822515182045,52.065174260339234],[4.356021910672922,52.06157241145745],[4.360826018282051,52.05846868397692],[4.360451755063307,52.05826540587258],[4.3601228953796705,52.05850152261885],[4.359576889946435,52.058199144744506],[4.359968536035982,52.0579282423857],[4.359437245224517,52.05763121443907],[4.359822631497664,52.05736667600516],[4.3594748895986735,52.05718060548913],[4.359228799438222,52.057348722775046],[4.357349709013748,52.056255056555145],[4.357249886571792,52.05633593543851],[4.357574864342121,52.056553958344054],[4.353977301236406,52.058987268688945],[4.353316200125735,52.05866870580671],[4.3522814004436565,52.05939445746574],[4.3480035468266225,52.05649847101567],[4.344478863610643,52.05961790053934],[4.344244015934937,52.05977395065662],[4.344127302942603,52.05972094174894],[4.342195689183966,52.0611349360073],[4.355518608240824,52.06804018165715],[4.354932142778218,52.06825075063242],[4.33521313438158,52.07500081670239],[4.338851750398135,52.07661435118136],[4.338958360117538,52.07666161675328],[4.345394795488987,52.07911195988536],[4.3451031255007555,52.07948120942511],[4.3524894804632615,52.08269134297722],[4.353202049585905,52.083006623160216],[4.356776928933347,52.08460481087038],[4.3588971816799,52.08555962398059],[4.3677783853121985,52.08958336829149],[4.368029832918139,52.08969763060485],[4.37305110009993,52.09205934359781],[4.373436209126022,52.09234730661837],[4.371466611269489,52.09383507904672],[4.372709157151179,52.09477302274582],[4.375769299765377,52.09646350673964],[4.377038623923218,52.09703873299487],[4.387776009750046,52.10301631310289],[4.389135134454835,52.10384325771863],[4.391753250631412,52.10559148252896],[4.396925092607743,52.10904436049437],[4.401158957079359,52.111870450593486],[4.412047994116559,52.107971651560554],[4.411378012508883,52.10728701041813],[4.413074247230509,52.106633535481755],[4.414157814442221,52.10750875973511],[4.4212151845914365,52.104983676484025],[4.420816566433912,52.104622845162375],[4.423703873451842,52.10359023005913],[4.427902476903376,52.10147063128196],[4.433578693059462,52.10415838284103],[4.435744452048829,52.10740193666681],[4.43899393974359,52.10992966225364],[4.44314292272025,52.11158014137282],[4.4464420252023364,52.11337748984823],[4.451074987855695,52.117512553859015],[4.455982148621576,52.12117772889876],[4.463211911423647,52.126326305556084],[4.464492322718992,52.12731162628933],[4.465191960275669,52.12661380978113],[4.466420287798108,52.127333848550016],[4.465981626284318,52.12789075769076],[4.466845096767409,52.12898035309882]]]]},"properties":{"type":"boundary","gemeente":"Leidschendam-Voorburg","code":"GM1916"}}]}