{"type":"FeatureCollection","metadata":{"gemeente":"Leusden","slug":"leusden","code":"GM0327","generated_at":"2026-08-08T12:05:52.020Z","total_passenger":158,"total_freight":0,"bounds":[5.310919545927075,52.08933380252247,5.514079533020569,52.16144866486507],"operators":["50five","Allego","DAEN Mobility","E-Flux by Road","Eneco","Laadnet","Lanova Laadpalen","NRG Accounting","NXT50Five","Pluq","Porsche Sales & Marketplace","Shell Recharge","Smappee","Spirii","Tesla","TotalEnergies","Ubitricity","Van Leeuwen","Vattenfall InCharge","e-VOLTT"]},"features":[{"type":"Feature","geometry":{"type":"Point","coordinates":[5.414946,52.116078]},"properties":{"type":"charge","layer":"passenger","locationId":"91086063","name":"50five-S NL 07002926","address":"Anna Aleidalaan 48","city":"Leusden","operatorName":"50five","maxPowerKw":11,"isMegawatt":false,"status":"CHARGING","source":"ndw"}},{"type":"Feature","geometry":{"type":"Point","coordinates":[5.41734,52.14364]},"properties":{"type":"charge","layer":"passenger","locationId":"23080764-74A4-433E-B504-1D00AD96837E","name":"Eneco eMobility Van der Valk Leusden","address":"Philipsstraat 18","city":"Leusden","operatorName":"Eneco","maxPowerKw":22,"isMegawatt":false,"status":"AVAILABLE","source":"ndw","priceKwh":0.49}},{"type":"Feature","geometry":{"type":"Point","coordinates":[5.440021,52.134953]},"properties":{"type":"charge","layer":"passenger","locationId":"923155","name":"DAE_NL_2001002","address":"Azuriet 12","city":"Leusden","operatorName":"DAEN Mobility","maxPowerKw":11,"isMegawatt":false,"status":"AVAILABLE","source":"ndw","priceKwh":0.28}},{"type":"Feature","geometry":{"type":"Point","coordinates":[5.418365,52.125923]},"properties":{"type":"charge","layer":"passenger","locationId":"AD40E9E3-2CFF-42B8-AE8A-FBC23C0DAED8","name":"PP005538 - Kuperssingel 93, Leusden","address":"93 Kuperssingel","city":"Leusden","operatorName":"TotalEnergies","maxPowerKw":11,"isMegawatt":false,"status":"AVAILABLE","source":"ndw"}},{"type":"Feature","geometry":{"type":"Point","coordinates":[5.428298,52.136192]},"properties":{"type":"charge","layer":"passenger","locationId":"67A6484E-28BC-4644-9BCA-E7DA3D3DDF73","name":"PP001175 - Tolplaats 3, Leusden","address":"3 Tolplaats","city":"Leusden","operatorName":"TotalEnergies","maxPowerKw":11,"isMegawatt":false,"status":"AVAILABLE","source":"ndw"}},{"type":"Feature","geometry":{"type":"Point","coordinates":[5.435485,52.137573]},"properties":{"type":"charge","layer":"passenger","locationId":"114D0DE5-8266-41C9-B4CE-99F9ECB26746","name":"PP005433 - Esdoornhof 13, Leusden","address":"13 Esdoornhof","city":"Leusden","operatorName":"TotalEnergies","maxPowerKw":11,"isMegawatt":false,"status":"AVAILABLE","source":"ndw"}},{"type":"Feature","geometry":{"type":"Point","coordinates":[5.421509,52.125065]},"properties":{"type":"charge","layer":"passenger","locationId":"07AED1AE-7139-44FB-AC60-F058E4F61E78","name":"TNLP006323 - Kuperssingel 158, Leusden","address":"158 Kuperssingel","city":"Leusden","operatorName":"TotalEnergies","maxPowerKw":17,"isMegawatt":false,"status":"AVAILABLE","source":"ndw"}},{"type":"Feature","geometry":{"type":"Point","coordinates":[5.415517,52.10107]},"properties":{"type":"charge","layer":"passenger","locationId":"91064909","name":"50five-S NL 07109887","address":"Arnhemseweg 105","city":"Leusden","operatorName":"50five","maxPowerKw":11,"isMegawatt":false,"status":"AVAILABLE","source":"ndw"}},{"type":"Feature","geometry":{"type":"Point","coordinates":[5.426021,52.126637]},"properties":{"type":"charge","layer":"passenger","locationId":"FA5C4B42-24EB-4896-A859-5F3D227E5E11","name":"TNLP009862 - De Zeilmakerij 48, Leusden","address":"48 De Zeilmakerij","city":"Leusden","operatorName":"TotalEnergies","maxPowerKw":17,"isMegawatt":false,"status":"CHARGING","source":"ndw"}},{"type":"Feature","geometry":{"type":"Point","coordinates":[5.421735,52.140641]},"properties":{"type":"charge","layer":"passenger","locationId":"91147076","name":"50five-S NL 09102222","address":"Moerbeilaan 2","city":"Leusden","operatorName":"50five","maxPowerKw":22,"isMegawatt":false,"status":"AVAILABLE","source":"ndw"}},{"type":"Feature","geometry":{"type":"Point","coordinates":[5.415638,52.126495]},"properties":{"type":"charge","layer":"passenger","locationId":"CB7951E9-3210-4D96-AC16-734BBE6303D5","name":"TNLP006087 - Kuperssingel 1, Leusden","address":"1 Kuperssingel","city":"Leusden","operatorName":"TotalEnergies","maxPowerKw":17,"isMegawatt":false,"status":"AVAILABLE","source":"ndw"}},{"type":"Feature","geometry":{"type":"Point","coordinates":[5.427876,52.137897]},"properties":{"type":"charge","layer":"passenger","locationId":"E3918411-7ACE-49B2-B8D3-FE1F75AA5832","name":"TNLP008949 - Lijsterbeslaan 16, Leusden","address":"16 Lijsterbeslaan","city":"Leusden","operatorName":"TotalEnergies","maxPowerKw":13,"isMegawatt":false,"status":"AVAILABLE","source":"ndw"}},{"type":"Feature","geometry":{"type":"Point","coordinates":[5.416908,52.143955]},"properties":{"type":"charge","layer":"passenger","locationId":"NLLOC025306","name":"Allego - Van der Valk Leusden","address":"Philipsstraat 18","city":"Leusden","operatorName":"Allego","maxPowerKw":300,"isMegawatt":false,"status":"AVAILABLE","source":"ndw","priceKwh":0.655}},{"type":"Feature","geometry":{"type":"Point","coordinates":[5.418342,52.143146]},"properties":{"type":"charge","layer":"passenger","locationId":"32376","name":"Circle K Leusden inz De Horst","address":"Randweg 4","city":"Leusden","operatorName":"Spirii","maxPowerKw":175,"isMegawatt":false,"status":"AVAILABLE","source":"ndw","priceKwh":0.65}},{"type":"Feature","geometry":{"type":"Point","coordinates":[5.42487,52.13997]},"properties":{"type":"charge","layer":"passenger","locationId":"B2EF9428-DD3E-410F-945E-13EFD74359AE","name":"Eneco eMobility SamenThuis Investment B.V. - Larikslaan 1 F - Leusden","address":"Larikslaan 1","city":"Leusden","operatorName":"Eneco","maxPowerKw":11,"isMegawatt":false,"status":"AVAILABLE","source":"ndw","priceKwh":0.5}},{"type":"Feature","geometry":{"type":"Point","coordinates":[5.420515,52.121462]},"properties":{"type":"charge","layer":"passenger","locationId":"5D5FD08A-AA59-4721-8D61-8AA4B265E14E","name":"Eneco eMobility Zuiderinslag 12 Leusden","address":"Zuiderinslag 12","city":"Leusden","operatorName":"Eneco","maxPowerKw":22,"isMegawatt":false,"status":"UNAVAILABLE","source":"ndw","priceKwh":0.32}},{"type":"Feature","geometry":{"type":"Point","coordinates":[5.4121644,52.1155823]},"properties":{"type":"charge","layer":"passenger","locationId":"2566","name":"Shell Recharge NL Karel van Ginkelstraat 43","address":"Karel van Ginkelstraat 43","city":"Leusden","operatorName":"Ubitricity","maxPowerKw":22,"isMegawatt":false,"status":"AVAILABLE","source":"ndw","priceKwh":0.267}},{"type":"Feature","geometry":{"type":"Point","coordinates":[5.408422,52.111627]},"properties":{"type":"charge","layer":"passenger","locationId":"ACE0261599","name":"ACE0261599","address":"Arnhemseweg 87","city":"Leusden","operatorName":"e-VOLTT","maxPowerKw":4,"isMegawatt":false,"status":"UNAVAILABLE","source":"ndw","priceKwh":0.6}},{"type":"Feature","geometry":{"type":"Point","coordinates":[5.408422,52.111627]},"properties":{"type":"charge","layer":"passenger","locationId":"ACE0261517","name":"ACE0261517","address":"Arnhemseweg 87","city":"Leusden","operatorName":"e-VOLTT","maxPowerKw":4,"isMegawatt":false,"status":"AVAILABLE","source":"ndw","priceKwh":0.6}},{"type":"Feature","geometry":{"type":"Point","coordinates":[5.416907,52.144054]},"properties":{"type":"charge","layer":"passenger","locationId":"b1ac2ec8-b855-4efe-9651-9f1e6fc894d2","name":"Leusden, Netherlands","address":"18, Philipsstraat","city":"Leusden","operatorName":"Tesla","maxPowerKw":250,"isMegawatt":false,"status":"AVAILABLE","source":"ndw","priceKwh":0.54}},{"type":"Feature","geometry":{"type":"Point","coordinates":[5.42956,52.14617]},"properties":{"type":"charge","layer":"passenger","locationId":"620984f275b6e66e13bdcac0e9b121b8","name":"Arsenaal 26","address":"Arsenaal 26","city":"Leusden","operatorName":"Vattenfall InCharge","maxPowerKw":11,"isMegawatt":false,"status":"AVAILABLE","source":"ndw","priceKwh":0.2805}},{"type":"Feature","geometry":{"type":"Point","coordinates":[5.431635,52.137157]},"properties":{"type":"charge","layer":"passenger","locationId":"E73C26DD-A813-4DA7-87CF-CC7B73F78907","name":"TNLP005780 - Asschatterweg 21, Leusden","address":"21 Asschatterweg","city":"Leusden","operatorName":"TotalEnergies","maxPowerKw":11,"isMegawatt":false,"status":"AVAILABLE","source":"ndw"}},{"type":"Feature","geometry":{"type":"Point","coordinates":[5.49742,52.13599]},"properties":{"type":"charge","layer":"passenger","locationId":"1617","name":"Shell Recharge NL Rentinckstraat 18","address":"Rentinckstraat 18","city":"Leusden","operatorName":"Ubitricity","maxPowerKw":11,"isMegawatt":false,"status":"AVAILABLE","source":"ndw","priceKwh":0.392}},{"type":"Feature","geometry":{"type":"Point","coordinates":[5.50886,52.13581]},"properties":{"type":"charge","layer":"passenger","locationId":"222B8B31-DD4F-427E-9B32-35C8280F215C","name":"TNLP007003 - De Fliert 3, Achterveld","address":"3 De Fliert","city":"Achterveld","operatorName":"TotalEnergies","maxPowerKw":17,"isMegawatt":false,"status":"AVAILABLE","source":"ndw"}},{"type":"Feature","geometry":{"type":"Point","coordinates":[5.44842,52.13873]},"properties":{"type":"charge","layer":"passenger","locationId":"98D1A4F8-ACCF-428F-9572-454047992EBD","name":"TNLP005781 - Breckelenkamp 1, Leusden","address":"1 Breckelenkamp","city":"Leusden","operatorName":"TotalEnergies","maxPowerKw":11,"isMegawatt":false,"status":"AVAILABLE","source":"ndw"}},{"type":"Feature","geometry":{"type":"Point","coordinates":[5.409985,52.141708]},"properties":{"type":"charge","layer":"passenger","locationId":"928059","name":"Eurofleur Leusden","address":"ursulineweg 44","city":"leusden","operatorName":"Smappee","maxPowerKw":120,"isMegawatt":false,"status":"AVAILABLE","source":"ndw","priceKwh":0.407}},{"type":"Feature","geometry":{"type":"Point","coordinates":[5.422233,52.141922]},"properties":{"type":"charge","layer":"passenger","locationId":"88943211","name":"Van Leeuwen AFAS","address":"Inspiratielaan 1","city":"Leusden","operatorName":"Van Leeuwen","maxPowerKw":22,"isMegawatt":false,"status":"AVAILABLE","source":"ndw"}},{"type":"Feature","geometry":{"type":"Point","coordinates":[5.438402,52.12667]},"properties":{"type":"charge","layer":"passenger","locationId":"5C672D45-6D0D-42BE-B553-1C2E92F69310","name":"TNLP007902 - Benedictijnenhove 58, Leusden","address":"58 Benedictijnenhove","city":"Leusden","operatorName":"TotalEnergies","maxPowerKw":17,"isMegawatt":false,"status":"AVAILABLE","source":"ndw"}},{"type":"Feature","geometry":{"type":"Point","coordinates":[5.41439,52.11842]},"properties":{"type":"charge","layer":"passenger","locationId":"0B56560B-1273-4EA9-94D3-C81663AA3DD8","name":"TNLP005663 - Genthoek 31, Leusden","address":"31 Genthoek","city":"Leusden","operatorName":"TotalEnergies","maxPowerKw":11,"isMegawatt":false,"status":"AVAILABLE","source":"ndw"}},{"type":"Feature","geometry":{"type":"Point","coordinates":[5.430237,52.129173]},"properties":{"type":"charge","layer":"passenger","locationId":"9BC2EB93-1514-4395-9E4C-B5F38E4C7A76","name":"TNLP034372 - Gildenburg 50, Leusden","address":"50 Gildenburg","city":"Leusden","operatorName":"TotalEnergies","maxPowerKw":13,"isMegawatt":false,"status":"AVAILABLE","source":"ndw"}},{"type":"Feature","geometry":{"type":"Point","coordinates":[5.4375578,52.1406024]},"properties":{"type":"charge","layer":"passenger","locationId":"1216","name":"Shell Recharge NL De Start 10","address":"De Start 10","city":"Leusden","operatorName":"Ubitricity","maxPowerKw":22,"isMegawatt":false,"status":"AVAILABLE","source":"ndw","priceKwh":0.267}},{"type":"Feature","geometry":{"type":"Point","coordinates":[5.4198069,52.1340091]},"properties":{"type":"charge","layer":"passenger","locationId":"1287","name":"Shell Recharge NL Ravenhorst 11","address":"Ravenhorst 11","city":"Leusden","operatorName":"Ubitricity","maxPowerKw":22,"isMegawatt":false,"status":"AVAILABLE","source":"ndw","priceKwh":0.267}},{"type":"Feature","geometry":{"type":"Point","coordinates":[5.41517,52.114902]},"properties":{"type":"charge","layer":"passenger","locationId":"68bacf22c865eb011ac58301","name":"RdV8","address":"Rita de Voogdstraat 8","city":"Leusden","operatorName":"E-Flux by Road","maxPowerKw":14,"isMegawatt":false,"status":"AVAILABLE","source":"ndw","priceKwh":0.28}},{"type":"Feature","geometry":{"type":"Point","coordinates":[5.405505,52.120987]},"properties":{"type":"charge","layer":"passenger","locationId":"84D11611-07EA-4423-B164-2A9D9366EC66","name":"TNLP006934 - Van Hardenbroeklaan 66, Leusden","address":"66 Van Hardenbroeklaan","city":"Leusden","operatorName":"TotalEnergies","maxPowerKw":17,"isMegawatt":false,"status":"AVAILABLE","source":"ndw"}},{"type":"Feature","geometry":{"type":"Point","coordinates":[5.498416,52.136646]},"properties":{"type":"charge","layer":"passenger","locationId":"E33BE748-13A5-460B-AAF4-7AFF94D27FDD","name":"PP005532 - Van Geijnstraat 20, Achterveld","address":"20 Van Geijnstraat","city":"Achterveld","operatorName":"TotalEnergies","maxPowerKw":11,"isMegawatt":false,"status":"AVAILABLE","source":"ndw"}},{"type":"Feature","geometry":{"type":"Point","coordinates":[5.422496,52.121161]},"properties":{"type":"charge","layer":"passenger","locationId":"91150261","name":"50five-S NL 07104479","address":"Klokhoek 14","city":"Leusden","operatorName":"50five","maxPowerKw":11,"isMegawatt":false,"status":"AVAILABLE","source":"ndw"}},{"type":"Feature","geometry":{"type":"Point","coordinates":[5.428261,52.14297]},"properties":{"type":"charge","layer":"passenger","locationId":"16A0E59D-82A2-41D5-A769-64495B9CA5AC","name":"TNLP007904 - Waterlinie 17, Leusden","address":"17 Waterlinie","city":"Leusden","operatorName":"TotalEnergies","maxPowerKw":17,"isMegawatt":false,"status":"CHARGING","source":"ndw"}},{"type":"Feature","geometry":{"type":"Point","coordinates":[5.41999,52.138305]},"properties":{"type":"charge","layer":"passenger","locationId":"91197412","name":"50five-S NL 04002281","address":"Kastanjelaan 6","city":"Leusden","operatorName":"50five","maxPowerKw":7,"isMegawatt":false,"status":"UNAVAILABLE","source":"ndw"}},{"type":"Feature","geometry":{"type":"Point","coordinates":[5.423554,52.112788]},"properties":{"type":"charge","layer":"passenger","locationId":"91150401","name":"50five-S NL 07103246","address":"Ambachtsweg 5","city":"Leusden","operatorName":"50five","maxPowerKw":8,"isMegawatt":false,"status":"AVAILABLE","source":"ndw"}},{"type":"Feature","geometry":{"type":"Point","coordinates":[5.44317,52.12647]},"properties":{"type":"charge","layer":"passenger","locationId":"6F5EB265-0D43-4900-95C4-4E60165527E6","name":"PP005644 - Landjonker 38, Leusden","address":"38 Landjonker","city":"Leusden","operatorName":"TotalEnergies","maxPowerKw":11,"isMegawatt":false,"status":"AVAILABLE","source":"ndw"}},{"type":"Feature","geometry":{"type":"Point","coordinates":[5.44138,52.13172]},"properties":{"type":"charge","layer":"passenger","locationId":"1558","name":"Shell Recharge NL Lepelaar 6","address":"Lepelaar 6","city":"Leusden","operatorName":"Ubitricity","maxPowerKw":11,"isMegawatt":false,"status":"AVAILABLE","source":"ndw","priceKwh":0.392}},{"type":"Feature","geometry":{"type":"Point","coordinates":[5.433238,52.130116]},"properties":{"type":"charge","layer":"passenger","locationId":"C328327E-EBE9-4DBD-A225-D3ED720402B0","name":"TNLP006545 - Pauwenhoeve 41, Leusden","address":"41 Pauwenhoeve","city":"Leusden","operatorName":"TotalEnergies","maxPowerKw":17,"isMegawatt":false,"status":"UNAVAILABLE","source":"ndw"}},{"type":"Feature","geometry":{"type":"Point","coordinates":[5.440476,52.1406814]},"properties":{"type":"charge","layer":"passenger","locationId":"1998","name":"Shell Recharge NL Valleilaan 3","address":"Valleilaan 3","city":"Leusden","operatorName":"Ubitricity","maxPowerKw":22,"isMegawatt":false,"status":"AVAILABLE","source":"ndw","priceKwh":0.267}},{"type":"Feature","geometry":{"type":"Point","coordinates":[5.42069,52.14068]},"properties":{"type":"charge","layer":"passenger","locationId":"E4B29E31-4050-4B61-9C98-65088B51D307","name":"Eneco eMobility Larikslaan 14, Leusden","address":"Larikslaan 14","city":"Leusden","operatorName":"Eneco","maxPowerKw":22,"isMegawatt":false,"status":"AVAILABLE","source":"ndw","priceKwh":0.51}},{"type":"Feature","geometry":{"type":"Point","coordinates":[5.494676,52.136337]},"properties":{"type":"charge","layer":"passenger","locationId":"F94BAC8D-09C9-4601-BAD1-5DCB482E945F","name":"TNLP009710 - Walter van Amersfoortstraat 40, Achterveld","address":"40 Walter van Amersfoortstraat","city":"Achterveld","operatorName":"TotalEnergies","maxPowerKw":17,"isMegawatt":false,"status":"AVAILABLE","source":"ndw"}},{"type":"Feature","geometry":{"type":"Point","coordinates":[5.460716,52.138745]},"properties":{"type":"charge","layer":"passenger","locationId":"91066839","name":"50five-S NL 07102389","address":"Ruurd Visserstraat 65","city":"Achterveld","operatorName":"50five","maxPowerKw":11,"isMegawatt":false,"status":"AVAILABLE","source":"ndw"}},{"type":"Feature","geometry":{"type":"Point","coordinates":[5.43107,52.12715]},"properties":{"type":"charge","layer":"passenger","locationId":"8B147AFF-9FC8-4138-89C6-B5BA92414832","name":"PP005099 - Leeuwenburg 4, Leusden","address":"4 Leeuwenburg","city":"Leusden","operatorName":"TotalEnergies","maxPowerKw":11,"isMegawatt":false,"status":"AVAILABLE","source":"ndw"}},{"type":"Feature","geometry":{"type":"Point","coordinates":[5.419786,52.137123]},"properties":{"type":"charge","layer":"passenger","locationId":"88EDA813-0687-4CDA-9221-83A8B719098E","name":"TNLP008559 - Madelagehof 14, Leusden","address":"14 Madelagehof","city":"Leusden","operatorName":"TotalEnergies","maxPowerKw":13,"isMegawatt":false,"status":"UNAVAILABLE","source":"ndw"}},{"type":"Feature","geometry":{"type":"Point","coordinates":[5.409602,52.117954]},"properties":{"type":"charge","layer":"passenger","locationId":"31707050-8BE4-45E7-81CB-44AAE3CC4C6E","name":"PP005116 - Pieter van Vollenhovenstraat 33, Leusden","address":"33 Pieter van Vollenhovenstraat","city":"Leusden","operatorName":"TotalEnergies","maxPowerKw":11,"isMegawatt":false,"status":"UNAVAILABLE","source":"ndw"}},{"type":"Feature","geometry":{"type":"Point","coordinates":[5.40494,52.11758]},"properties":{"type":"charge","layer":"passenger","locationId":"77","name":"Shell Recharge NL Maria Stuartlaan 2a","address":"Maria Stuartlaan 2a","city":"Leusden","operatorName":"Ubitricity","maxPowerKw":11,"isMegawatt":false,"status":"AVAILABLE","source":"ndw","priceKwh":0.392}},{"type":"Feature","geometry":{"type":"Point","coordinates":[5.425447,52.143833]},"properties":{"type":"charge","layer":"passenger","locationId":"C0B54666-B774-4D3B-B6EA-FE48834D5C9D","name":"TNLP008029 - Keerkade 22, Leusden","address":"22 Keerkade","city":"Leusden","operatorName":"TotalEnergies","maxPowerKw":17,"isMegawatt":false,"status":"AVAILABLE","source":"ndw"}},{"type":"Feature","geometry":{"type":"Point","coordinates":[5.43089,52.1441]},"properties":{"type":"charge","layer":"passenger","locationId":"1554","name":"Shell Recharge NL Lambalgerkom 63","address":"Lambalgerkom 63","city":"Leusden","operatorName":"Ubitricity","maxPowerKw":11,"isMegawatt":false,"status":"CHARGING","source":"ndw","priceKwh":0.392}},{"type":"Feature","geometry":{"type":"Point","coordinates":[5.420743,52.137333]},"properties":{"type":"charge","layer":"passenger","locationId":"91283344","name":"Van Leeuwen ROC 3","address":"Burgemeester de Beaufortweg 18","city":"Leusden","operatorName":"Van Leeuwen","maxPowerKw":11,"isMegawatt":false,"status":"AVAILABLE","source":"ndw"}},{"type":"Feature","geometry":{"type":"Point","coordinates":[5.420472,52.13055]},"properties":{"type":"charge","layer":"passenger","locationId":"A58E75EA-2891-4F13-A213-135B8268A547","name":"TNLP009545 - Vlasland 48, Leusden","address":"48 Vlasland","city":"Leusden","operatorName":"TotalEnergies","maxPowerKw":17,"isMegawatt":false,"status":"UNAVAILABLE","source":"ndw"}},{"type":"Feature","geometry":{"type":"Point","coordinates":[5.411858,52.1175]},"properties":{"type":"charge","layer":"passenger","locationId":"E78A1940-B275-48C4-8746-FC11D0F4792E","name":"TNLP009318 - Damreesche spoor 27, Leusden","address":"27 Damreesche spoor","city":"Leusden","operatorName":"TotalEnergies","maxPowerKw":17,"isMegawatt":false,"status":"UNAVAILABLE","source":"ndw"}},{"type":"Feature","geometry":{"type":"Point","coordinates":[5.492091,52.13482]},"properties":{"type":"charge","layer":"passenger","locationId":"3E703829-F809-4F10-A2FA-F72DFD8A2C42","name":"TNLP007262 - Groot Agteveldlaan 99, Achterveld","address":"99 Groot Agteveldlaan","city":"Achterveld","operatorName":"TotalEnergies","maxPowerKw":17,"isMegawatt":false,"status":"AVAILABLE","source":"ndw"}},{"type":"Feature","geometry":{"type":"Point","coordinates":[5.42213,52.119572]},"properties":{"type":"charge","layer":"passenger","locationId":"5194","name":"Shell Recharge NL9289 - Karwei Leusden","address":"Storkstraat 2","city":"Leusden","operatorName":"Shell Recharge","maxPowerKw":150,"isMegawatt":false,"status":"AVAILABLE","source":"ndw","priceKwh":0.7025}},{"type":"Feature","geometry":{"type":"Point","coordinates":[5.498888,52.137977]},"properties":{"type":"charge","layer":"passenger","locationId":"e329b215e7da410d930af79c42eeb3d9","name":"Koopmans Bouw B.V. Mastenbroek II","address":"Ruurd Visserstraat 49 tegen over","city":"Achterveld","operatorName":"","maxPowerKw":11,"isMegawatt":false,"status":"AVAILABLE","source":"ndw","priceKwh":0.53}},{"type":"Feature","geometry":{"type":"Point","coordinates":[5.430827,52.133495]},"properties":{"type":"charge","layer":"passenger","locationId":"7580CE1D-F546-47C2-A3FA-EA4F7916FFF1","name":"TNLP006664 - Viltroos 2, Leusden","address":"2 Viltroos","city":"Leusden","operatorName":"TotalEnergies","maxPowerKw":17,"isMegawatt":false,"status":"UNAVAILABLE","source":"ndw"}},{"type":"Feature","geometry":{"type":"Point","coordinates":[5.409513,52.12268]},"properties":{"type":"charge","layer":"passenger","locationId":"F91BF176-C7A1-486F-B6A4-1E74499A7A78","name":"TNLP006936 - Hof van Galileo 9, Leusden","address":"9 Hof van Galileo","city":"Leusden","operatorName":"TotalEnergies","maxPowerKw":17,"isMegawatt":false,"status":"AVAILABLE","source":"ndw"}},{"type":"Feature","geometry":{"type":"Point","coordinates":[5.436194,52.13984]},"properties":{"type":"charge","layer":"passenger","locationId":"5D5B7EE9-BCDF-4799-AA75-F6AF85B8AE1E","name":"TNLP006607 - Ruige Velddreef 37, Leusden","address":"37 Ruige Velddreef","city":"Leusden","operatorName":"TotalEnergies","maxPowerKw":17,"isMegawatt":false,"status":"AVAILABLE","source":"ndw"}},{"type":"Feature","geometry":{"type":"Point","coordinates":[5.44464,52.1371]},"properties":{"type":"charge","layer":"passenger","locationId":"40DBF0F4-9B12-40CB-B410-B9DBB87340A5","name":"TNLP003519 - Ereprijshof 35, Leusden","address":"35 Ereprijshof","city":"Leusden","operatorName":"TotalEnergies","maxPowerKw":17,"isMegawatt":false,"status":"AVAILABLE","source":"ndw"}},{"type":"Feature","geometry":{"type":"Point","coordinates":[5.419099,52.140975]},"properties":{"type":"charge","layer":"passenger","locationId":"67af0905fd5f0a97069b8cc4","name":"DK 's station 1","address":"Plantageweg 4","city":"Leusden","operatorName":"E-Flux by Road","maxPowerKw":11,"isMegawatt":false,"status":"AVAILABLE","source":"ndw","priceKwh":0.53}},{"type":"Feature","geometry":{"type":"Point","coordinates":[5.443001,52.130566]},"properties":{"type":"charge","layer":"passenger","locationId":"C28AAC4B-D9F0-43B8-A450-FE74BD3A06F4","name":"TNLP007167 - Grondel 2, Leusden","address":"2 Grondel","city":"Leusden","operatorName":"TotalEnergies","maxPowerKw":17,"isMegawatt":false,"status":"AVAILABLE","source":"ndw"}},{"type":"Feature","geometry":{"type":"Point","coordinates":[5.444775,52.151595]},"properties":{"type":"charge","layer":"passenger","locationId":"91058206","name":"50five-S NL 03007212","address":"Stoutenburgerlaan 2a","city":"Leusden","operatorName":"50five","maxPowerKw":4,"isMegawatt":false,"status":"AVAILABLE","source":"ndw"}},{"type":"Feature","geometry":{"type":"Point","coordinates":[5.496937,52.143212]},"properties":{"type":"charge","layer":"passenger","locationId":"91065775","name":"50five-S NL 07118157","address":"Jan van Arkelweg 45","city":"Achterveld","operatorName":"50five","maxPowerKw":11,"isMegawatt":false,"status":"CHARGING","source":"ndw"}},{"type":"Feature","geometry":{"type":"Point","coordinates":[5.408422,52.111627]},"properties":{"type":"charge","layer":"passenger","locationId":"ACE0261535","name":"ACE0261535","address":"Arnhemseweg 87","city":"Leusden","operatorName":"e-VOLTT","maxPowerKw":4,"isMegawatt":false,"status":"AVAILABLE","source":"ndw","priceKwh":0.6}},{"type":"Feature","geometry":{"type":"Point","coordinates":[5.430646,52.137314]},"properties":{"type":"charge","layer":"passenger","locationId":"21f258bdeb042a27811801c9a435f6a8","name":"Asschatterweg 3","address":"Asschatterweg 3","city":"Leusden","operatorName":"Vattenfall InCharge","maxPowerKw":11,"isMegawatt":false,"status":"CHARGING","source":"ndw","priceKwh":0.2805}},{"type":"Feature","geometry":{"type":"Point","coordinates":[5.420887,52.137078]},"properties":{"type":"charge","layer":"passenger","locationId":"91204432","name":"Van Leeuwen Roc","address":"Burgemeester de Beaufortweg 16","city":"Leusden","operatorName":"Van Leeuwen","maxPowerKw":11,"isMegawatt":false,"status":"AVAILABLE","source":"ndw"}},{"type":"Feature","geometry":{"type":"Point","coordinates":[5.4219474,52.1269784]},"properties":{"type":"charge","layer":"passenger","locationId":"777","name":"Shell Recharge NL Hoefijzer 42","address":"Hoefijzer 42","city":"Leusden","operatorName":"Ubitricity","maxPowerKw":22,"isMegawatt":false,"status":"AVAILABLE","source":"ndw","priceKwh":0.267}},{"type":"Feature","geometry":{"type":"Point","coordinates":[5.42113,52.15006]},"properties":{"type":"charge","layer":"passenger","locationId":"79","name":"Shell Recharge NL Schammersteeg 2","address":"Schammersteeg 2","city":"Stoutenburg","operatorName":"Ubitricity","maxPowerKw":11,"isMegawatt":false,"status":"AVAILABLE","source":"ndw","priceKwh":0.392}},{"type":"Feature","geometry":{"type":"Point","coordinates":[5.4261226,52.1342187]},"properties":{"type":"charge","layer":"passenger","locationId":"687","name":"Shell Recharge NL Lisidunalaan 4","address":"Lisidunalaan 4","city":"Leusden","operatorName":"Ubitricity","maxPowerKw":22,"isMegawatt":false,"status":"AVAILABLE","source":"ndw","priceKwh":0.267}},{"type":"Feature","geometry":{"type":"Point","coordinates":[5.44122,52.134778]},"properties":{"type":"charge","layer":"passenger","locationId":"923482","name":"EVB-P20252110","address":"Krooneend 22","city":"LEUSDEN","operatorName":"DAEN Mobility","maxPowerKw":11,"isMegawatt":false,"status":"AVAILABLE","source":"ndw","priceKwh":0.25}},{"type":"Feature","geometry":{"type":"Point","coordinates":[5.423596,52.140293]},"properties":{"type":"charge","layer":"passenger","locationId":"F7928E81-35E6-4AAA-B06F-FDA686BBE902","name":"TNLP008025 - Larikslaan 3, Leusden","address":"3 Larikslaan","city":"Leusden","operatorName":"TotalEnergies","maxPowerKw":17,"isMegawatt":false,"status":"AVAILABLE","source":"ndw"}},{"type":"Feature","geometry":{"type":"Point","coordinates":[5.419099,52.140975]},"properties":{"type":"charge","layer":"passenger","locationId":"67af09eaf4e1bc9c98e6e470","name":"DK 's station 2","address":"Plantageweg 4","city":"Leusden","operatorName":"E-Flux by Road","maxPowerKw":11,"isMegawatt":false,"status":"AVAILABLE","source":"ndw","priceKwh":0.53}},{"type":"Feature","geometry":{"type":"Point","coordinates":[5.384264,52.131316]},"properties":{"type":"charge","layer":"passenger","locationId":"666af8e8e4a25a001c827bb5","name":"Instituut voor Wijsbegeerte B.V","address":"Dodeweg 8","city":"Leusden","operatorName":"Pluq","maxPowerKw":22,"isMegawatt":false,"status":"AVAILABLE","source":"ndw","priceKwh":0.42}},{"type":"Feature","geometry":{"type":"Point","coordinates":[5.413056,52.126758]},"properties":{"type":"charge","layer":"passenger","locationId":"685955469da2e63930e730ec","name":"NXT 50five - Leusden - Bavoortseweg 9 - DC","address":"Bavoortseweg 9","city":"Leusden","operatorName":"NXT50Five","maxPowerKw":50,"isMegawatt":false,"status":"AVAILABLE","source":"ndw","priceKwh":0.63}},{"type":"Feature","geometry":{"type":"Point","coordinates":[5.494708,52.138571]},"properties":{"type":"charge","layer":"passenger","locationId":"552b1bf336d4cc2cc4dff2644cbd1d40","name":"Van Oldenbarneveltstraat 13","address":"Van Oldenbarneveltstraat 13","city":"Achterveld","operatorName":"Vattenfall InCharge","maxPowerKw":11,"isMegawatt":false,"status":"AVAILABLE","source":"ndw","priceKwh":0.2805}},{"type":"Feature","geometry":{"type":"Point","coordinates":[5.427139,52.141629]},"properties":{"type":"charge","layer":"passenger","locationId":"e69ceb9a0de6ba3a3f0d739271ed1def","name":"Speelkamp 55","address":"Speelkamp 55","city":"Leusden","operatorName":"Vattenfall InCharge","maxPowerKw":11,"isMegawatt":false,"status":"AVAILABLE","source":"ndw","priceKwh":0.2805}},{"type":"Feature","geometry":{"type":"Point","coordinates":[5.41117,52.12002]},"properties":{"type":"charge","layer":"passenger","locationId":"B1DE1F68-4148-4341-AFB6-F3E255523B30","name":"TNLP003529 - Het Spul 20, Leusden","address":"20 Het Spul","city":"Leusden","operatorName":"TotalEnergies","maxPowerKw":17,"isMegawatt":false,"status":"AVAILABLE","source":"ndw"}},{"type":"Feature","geometry":{"type":"Point","coordinates":[5.435036,52.127598]},"properties":{"type":"charge","layer":"passenger","locationId":"7D5EE60C-91D3-414A-848B-51A9D563641C","name":"TNLP005813 - Benedictijnenhove 8, Leusden","address":"8 Benedictijnenhove","city":"Leusden","operatorName":"TotalEnergies","maxPowerKw":17,"isMegawatt":false,"status":"AVAILABLE","source":"ndw"}},{"type":"Feature","geometry":{"type":"Point","coordinates":[5.416856,52.11487]},"properties":{"type":"charge","layer":"passenger","locationId":"76491624-8FB9-4230-BD4D-97C3C59AA364","name":"TNLP007077 - Rita de Voogdstraat 33, Leusden","address":"33 Rita de Voogdstraat","city":"Leusden","operatorName":"TotalEnergies","maxPowerKw":17,"isMegawatt":false,"status":"UNAVAILABLE","source":"ndw"}},{"type":"Feature","geometry":{"type":"Point","coordinates":[5.418877,52.143953]},"properties":{"type":"charge","layer":"passenger","locationId":"411722","name":"50five Exploitatie 411722","address":"Philipsstraat 3","city":"Leusden","operatorName":"50five","maxPowerKw":22,"isMegawatt":false,"status":"AVAILABLE","source":"ndw"}},{"type":"Feature","geometry":{"type":"Point","coordinates":[5.399717,52.122995]},"properties":{"type":"charge","layer":"passenger","locationId":"91069721","name":"50five-S NL 07102461","address":"Treekerweg 8","city":"Leusden","operatorName":"50five","maxPowerKw":11,"isMegawatt":false,"status":"AVAILABLE","source":"ndw"}},{"type":"Feature","geometry":{"type":"Point","coordinates":[5.424856,52.131966]},"properties":{"type":"charge","layer":"passenger","locationId":"35808085-3319-406F-AB3E-E4959294D74B","name":"TNLP007246 - Zaaier 168, Leusden","address":"168 Zaaier","city":"Leusden","operatorName":"TotalEnergies","maxPowerKw":17,"isMegawatt":false,"status":"AVAILABLE","source":"ndw"}},{"type":"Feature","geometry":{"type":"Point","coordinates":[5.439443,52.140465]},"properties":{"type":"charge","layer":"passenger","locationId":"91170515","name":"50five-S NL 07101271","address":"Sleedoornhof 26","city":"Leusden","operatorName":"50five","maxPowerKw":22,"isMegawatt":false,"status":"UNAVAILABLE","source":"ndw"}},{"type":"Feature","geometry":{"type":"Point","coordinates":[5.424559,52.140915]},"properties":{"type":"charge","layer":"passenger","locationId":"0B89648E-6289-4B41-8005-9BD2E51664F3","name":"Eneco eMobility SamenThuis Investment B.V. - Olmenlaan 6 - Leusden","address":"Olmenlaan 6","city":"Leusden","operatorName":"Eneco","maxPowerKw":11,"isMegawatt":false,"status":"AVAILABLE","source":"ndw","priceKwh":0.5}},{"type":"Feature","geometry":{"type":"Point","coordinates":[5.425407,52.145361]},"properties":{"type":"charge","layer":"passenger","locationId":"80","name":"Shell Recharge NL Vlietsingel 8","address":"Vlietsingel 8","city":"Leusden","operatorName":"Ubitricity","maxPowerKw":11,"isMegawatt":false,"status":"AVAILABLE","source":"ndw","priceKwh":0.392}},{"type":"Feature","geometry":{"type":"Point","coordinates":[5.366753,52.1266]},"properties":{"type":"charge","layer":"passenger","locationId":"4251418","name":"Laadnet Doornseweg 12","address":"Doornseweg 12","city":"Leusden","operatorName":"Laadnet","maxPowerKw":22,"isMegawatt":false,"status":"AVAILABLE","source":"ndw"}},{"type":"Feature","geometry":{"type":"Point","coordinates":[5.4077,52.11933]},"properties":{"type":"charge","layer":"passenger","locationId":"1483","name":"Shell Recharge NL De Roo van Alderwereltlaan 7","address":"De Roo van Alderwereltlaan 7","city":"Leusden","operatorName":"Ubitricity","maxPowerKw":11,"isMegawatt":false,"status":"AVAILABLE","source":"ndw","priceKwh":0.392}},{"type":"Feature","geometry":{"type":"Point","coordinates":[5.417745,52.127956]},"properties":{"type":"charge","layer":"passenger","locationId":"33EDED3B-A351-403D-A383-C8EC38705DDE","name":"TNLP009400 - Van den Hengelplein 12, Leusden","address":"12 Van den Hengelplein","city":"Leusden","operatorName":"TotalEnergies","maxPowerKw":17,"isMegawatt":false,"status":"AVAILABLE","source":"ndw"}},{"type":"Feature","geometry":{"type":"Point","coordinates":[5.43827,52.13661]},"properties":{"type":"charge","layer":"passenger","locationId":"195","name":"Shell Recharge NL Asschatterweg 36","address":"Asschatterweg 36","city":"Leusden","operatorName":"Ubitricity","maxPowerKw":11,"isMegawatt":false,"status":"AVAILABLE","source":"ndw","priceKwh":0.392}},{"type":"Feature","geometry":{"type":"Point","coordinates":[5.4270563,52.1301574]},"properties":{"type":"charge","layer":"passenger","locationId":"860","name":"Shell Recharge NL De Kevershilt 25a","address":"De Kevershilt 25a","city":"Leusden","operatorName":"Ubitricity","maxPowerKw":22,"isMegawatt":false,"status":"AVAILABLE","source":"ndw","priceKwh":0.267}},{"type":"Feature","geometry":{"type":"Point","coordinates":[5.506453,52.136786]},"properties":{"type":"charge","layer":"passenger","locationId":"91106524","name":"50five-S NL 09102212","address":"De Fliert 16","city":"Achterveld","operatorName":"50five","maxPowerKw":11,"isMegawatt":false,"status":"AVAILABLE","source":"ndw"}},{"type":"Feature","geometry":{"type":"Point","coordinates":[5.41729,52.1232]},"properties":{"type":"charge","layer":"passenger","locationId":"NL9110000314_CPN02","name":"Porsche Sales & Marketplace PC Leusden Charge Point 2","address":"Zuiderinslag 8","city":"Leusden","operatorName":"Porsche Sales & Marketplace","maxPowerKw":320,"isMegawatt":false,"status":"AVAILABLE","source":"ndw","priceKwh":0.82}},{"type":"Feature","geometry":{"type":"Point","coordinates":[5.43363,52.12809]},"properties":{"type":"charge","layer":"passenger","locationId":"453","name":"Shell Recharge NL Zuylenburg 2","address":"Zuylenburg 2","city":"Leusden","operatorName":"Ubitricity","maxPowerKw":11,"isMegawatt":false,"status":"AVAILABLE","source":"ndw","priceKwh":0.392}},{"type":"Feature","geometry":{"type":"Point","coordinates":[5.405416,52.123158]},"properties":{"type":"charge","layer":"passenger","locationId":"01F024B7-9FCA-4E64-9D31-C59E1FA13358","name":"TNLP008513 - Apollolaan 4, Leusden","address":"4 Apollolaan","city":"Leusden","operatorName":"TotalEnergies","maxPowerKw":13,"isMegawatt":false,"status":"AVAILABLE","source":"ndw"}},{"type":"Feature","geometry":{"type":"Point","coordinates":[5.421748,52.118721]},"properties":{"type":"charge","layer":"passenger","locationId":"653a50c2018b95001b3b2275","name":"Osinga Brilmode","address":"Kapelhoek  10-12","city":"Leusden","operatorName":"Lanova Laadpalen","maxPowerKw":6,"isMegawatt":false,"status":"AVAILABLE","source":"ndw","priceKwh":0.73}},{"type":"Feature","geometry":{"type":"Point","coordinates":[5.414356,52.115543]},"properties":{"type":"charge","layer":"passenger","locationId":"91088678","name":"50five-S NL 07102672","address":"Reinier Roeststraat 12","city":"Leusden","operatorName":"50five","maxPowerKw":22,"isMegawatt":false,"status":"AVAILABLE","source":"ndw"}},{"type":"Feature","geometry":{"type":"Point","coordinates":[5.405749,52.117212]},"properties":{"type":"charge","layer":"passenger","locationId":"91095548","name":"50five-S NL 07140815","address":"Pr. Irenelaan 49","city":"Leusden","operatorName":"50five","maxPowerKw":11,"isMegawatt":false,"status":"AVAILABLE","source":"ndw"}},{"type":"Feature","geometry":{"type":"Point","coordinates":[5.4237,52.113756]},"properties":{"type":"charge","layer":"passenger","locationId":"91107245","name":"50five-S NL 04004185","address":"Bedrijfsweg 16","city":"Leusden","operatorName":"50five","maxPowerKw":7,"isMegawatt":false,"status":"AVAILABLE","source":"ndw"}},{"type":"Feature","geometry":{"type":"Point","coordinates":[5.37336,52.13119]},"properties":{"type":"charge","layer":"passenger","locationId":"CD0CD3E0-E99A-4FC1-86A0-36EF9992DE31","name":"Eneco eMobility Brothers Horeca Groep - Zuiver Amersfoort","address":"Vlooswijkseweg 1","city":"Leusden","operatorName":"Eneco","maxPowerKw":22,"isMegawatt":false,"status":"AVAILABLE","source":"ndw","priceKwh":0.3}},{"type":"Feature","geometry":{"type":"Point","coordinates":[5.40578,52.11579]},"properties":{"type":"charge","layer":"passenger","locationId":"78","name":"Shell Recharge NL Prinses Irenelaan 27","address":"Prinses Irenelaan 27","city":"Leusden","operatorName":"Ubitricity","maxPowerKw":11,"isMegawatt":false,"status":"AVAILABLE","source":"ndw","priceKwh":0.392}},{"type":"Feature","geometry":{"type":"Point","coordinates":[5.41414,52.122752]},"properties":{"type":"charge","layer":"passenger","locationId":"F0008A25-C6E9-438C-B4AD-29BF305ACF71","name":"Eneco eMobility Zuiderinslag 2 Leusden","address":"Zuiderinslag 2","city":"Leusden","operatorName":"Eneco","maxPowerKw":22,"isMegawatt":false,"status":"UNAVAILABLE","source":"ndw","priceKwh":0.32}},{"type":"Feature","geometry":{"type":"Point","coordinates":[5.44122,52.134778]},"properties":{"type":"charge","layer":"passenger","locationId":"923483","name":"EVB-P20252289","address":"Krooneend 22","city":"LEUSDEN","operatorName":"DAEN Mobility","maxPowerKw":11,"isMegawatt":false,"status":"AVAILABLE","source":"ndw","priceKwh":0.36}},{"type":"Feature","geometry":{"type":"Point","coordinates":[5.420036,52.137096]},"properties":{"type":"charge","layer":"passenger","locationId":"425","name":"Shell Recharge NL Madelagehof 8","address":"Madelagehof 8","city":"Leusden","operatorName":"Ubitricity","maxPowerKw":11,"isMegawatt":false,"status":"AVAILABLE","source":"ndw","priceKwh":0.392}},{"type":"Feature","geometry":{"type":"Point","coordinates":[5.439076,52.140501]},"properties":{"type":"charge","layer":"passenger","locationId":"91229247","name":"50five-S NL 17B05496","address":"Sleedoornhof 16","city":"Leusden","operatorName":"50five","maxPowerKw":11,"isMegawatt":false,"status":"UNAVAILABLE","source":"ndw"}},{"type":"Feature","geometry":{"type":"Point","coordinates":[5.443567,52.129063]},"properties":{"type":"charge","layer":"passenger","locationId":"91065912","name":"50five-S NL 07118284","address":"Libel 8","city":"Leusden","operatorName":"50five","maxPowerKw":6,"isMegawatt":false,"status":"AVAILABLE","source":"ndw"}},{"type":"Feature","geometry":{"type":"Point","coordinates":[5.427888,52.140794]},"properties":{"type":"charge","layer":"passenger","locationId":"91086984","name":"50five-S NL 07143528","address":"Bouwdriest 12","city":"Leusden","operatorName":"50five","maxPowerKw":10,"isMegawatt":false,"status":"UNAVAILABLE","source":"ndw"}},{"type":"Feature","geometry":{"type":"Point","coordinates":[5.406236,52.11887]},"properties":{"type":"charge","layer":"passenger","locationId":"F3E37A25-9EDF-4E00-AFFA-6BF3E4EEC955","name":"TNLP006560 - Willem de Zwijgerlaan 43, Leusden","address":"43 Willem de Zwijgerlaan","city":"Leusden","operatorName":"TotalEnergies","maxPowerKw":17,"isMegawatt":false,"status":"UNAVAILABLE","source":"ndw"}},{"type":"Feature","geometry":{"type":"Point","coordinates":[5.407819,52.11893]},"properties":{"type":"charge","layer":"passenger","locationId":"45FD001F-C4AA-490C-B533-ABB4397D9257","name":"TNLP034378 - Charlotte van Bourbonlaan 13, Leusden","address":"13 Charlotte van Bourbonlaan","city":"Leusden","operatorName":"TotalEnergies","maxPowerKw":13,"isMegawatt":false,"status":"AVAILABLE","source":"ndw"}},{"type":"Feature","geometry":{"type":"Point","coordinates":[5.437977,52.141556]},"properties":{"type":"charge","layer":"passenger","locationId":"F057B99C-2487-4AC3-AC9B-AE7D7AE46379","name":"TNLP006912 - Linieweg 1, Leusden","address":"1 Linieweg","city":"Leusden","operatorName":"TotalEnergies","maxPowerKw":17,"isMegawatt":false,"status":"AVAILABLE","source":"ndw"}},{"type":"Feature","geometry":{"type":"Point","coordinates":[5.490326,52.137267]},"properties":{"type":"charge","layer":"passenger","locationId":"91109045","name":"50five-S NL 04001331","address":"Hessenweg 164","city":"Achterveld","operatorName":"50five","maxPowerKw":7,"isMegawatt":false,"status":"AVAILABLE","source":"ndw"}},{"type":"Feature","geometry":{"type":"Point","coordinates":[5.417394,52.129579]},"properties":{"type":"charge","layer":"passenger","locationId":"91091504","name":"50five-S NL 17B20050","address":"Roggeland 27","city":"Leusden","operatorName":"50five","maxPowerKw":5,"isMegawatt":false,"status":"AVAILABLE","source":"ndw"}},{"type":"Feature","geometry":{"type":"Point","coordinates":[5.443087,52.13762]},"properties":{"type":"charge","layer":"passenger","locationId":"86db2f56-7ec0-40b8-ad71-dfc525d75e19","name":"TNLP006902 - Gagelhof 35, Leusden","address":"35 Gagelhof","city":"Leusden","operatorName":"TotalEnergies","maxPowerKw":17,"isMegawatt":false,"status":"AVAILABLE","source":"ndw"}},{"type":"Feature","geometry":{"type":"Point","coordinates":[5.409334,52.11646]},"properties":{"type":"charge","layer":"passenger","locationId":"2F4F6DF5-3CD5-471F-89E5-9B94AEF8C233","name":"TNLP006850 - Zuster Prinsstraat 1, Leusden","address":"1 Zuster Prinsstraat","city":"Leusden","operatorName":"TotalEnergies","maxPowerKw":17,"isMegawatt":false,"status":"AVAILABLE","source":"ndw"}},{"type":"Feature","geometry":{"type":"Point","coordinates":[5.443176,52.127686]},"properties":{"type":"charge","layer":"passenger","locationId":"7F2290A8-E1DD-4882-8D41-9DD2BE2C80A2","name":"TNLP034116 - Pachter 13, Leusden","address":"13 Pachter","city":"Leusden","operatorName":"TotalEnergies","maxPowerKw":13,"isMegawatt":false,"status":"AVAILABLE","source":"ndw"}},{"type":"Feature","geometry":{"type":"Point","coordinates":[5.43693,52.12932]},"properties":{"type":"charge","layer":"passenger","locationId":"681","name":"Shell Recharge NL Geulwijk 5","address":"Geulwijk 5","city":"Leusden","operatorName":"Ubitricity","maxPowerKw":11,"isMegawatt":false,"status":"AVAILABLE","source":"ndw","priceKwh":0.392}},{"type":"Feature","geometry":{"type":"Point","coordinates":[5.441113,52.13185]},"properties":{"type":"charge","layer":"passenger","locationId":"2A4CE714-7108-45A7-8197-81A5F563EA73","name":"TNLP006759 - Lepelaar 6, Leusden","address":"6 Lepelaar","city":"Leusden","operatorName":"TotalEnergies","maxPowerKw":17,"isMegawatt":false,"status":"AVAILABLE","source":"ndw"}},{"type":"Feature","geometry":{"type":"Point","coordinates":[5.442067,52.13859]},"properties":{"type":"charge","layer":"passenger","locationId":"0B6ACEEF-0567-4C3C-8E4E-BB3AE915A996","name":"TNLP005812 - Kornoelje 69, Leusden","address":"69 Kornoelje","city":"Leusden","operatorName":"TotalEnergies","maxPowerKw":11,"isMegawatt":false,"status":"AVAILABLE","source":"ndw"}},{"type":"Feature","geometry":{"type":"Point","coordinates":[5.420853,52.139088]},"properties":{"type":"charge","layer":"passenger","locationId":"7a2d3cdf-dbd6-47e3-a288-17b5b5162228","name":"TNLP034384","address":"Kastanjelaan 7","city":"Leusden","operatorName":"TotalEnergies","maxPowerKw":14,"isMegawatt":false,"status":"AVAILABLE","source":"ndw"}},{"type":"Feature","geometry":{"type":"Point","coordinates":[5.445169,52.133304]},"properties":{"type":"charge","layer":"passenger","locationId":"91089117","name":"50five-S NL 03010788","address":"Grienden 25","city":"Leusden","operatorName":"50five","maxPowerKw":4,"isMegawatt":false,"status":"AVAILABLE","source":"ndw"}},{"type":"Feature","geometry":{"type":"Point","coordinates":[5.421031,52.12339]},"properties":{"type":"charge","layer":"passenger","locationId":"6F60B8E6-4F20-4827-A8C8-0005AA97486E","name":"TNLP007327 - Rosmolenstraat 71, Leusden","address":"71 Rosmolenstraat","city":"Leusden","operatorName":"TotalEnergies","maxPowerKw":17,"isMegawatt":false,"status":"AVAILABLE","source":"ndw"}},{"type":"Feature","geometry":{"type":"Point","coordinates":[5.428479,52.141193]},"properties":{"type":"charge","layer":"passenger","locationId":"7BE07BF9-8E1E-4F87-88F9-B770DD598701","name":"TNLP007336 - Ruige Velddreef 103, Leusden","address":"103 Ruige Velddreef","city":"Leusden","operatorName":"TotalEnergies","maxPowerKw":17,"isMegawatt":false,"status":"UNAVAILABLE","source":"ndw"}},{"type":"Feature","geometry":{"type":"Point","coordinates":[5.42056,52.13826]},"properties":{"type":"charge","layer":"passenger","locationId":"7013e4457a1da7c6ab976094639db742","name":"Kastanjelaan 43","address":"Kastanjelaan 43","city":"Leusden","operatorName":"Vattenfall InCharge","maxPowerKw":11,"isMegawatt":false,"status":"AVAILABLE","source":"ndw","priceKwh":0.2805}},{"type":"Feature","geometry":{"type":"Point","coordinates":[5.419701,52.145647]},"properties":{"type":"charge","layer":"passenger","locationId":"6231ef71d034e653f6e23948","name":"CareConnections B.V. 1","address":"Fokkerstraat 2","city":"Leusden","operatorName":"E-Flux by Road","maxPowerKw":11,"isMegawatt":false,"status":"AVAILABLE","source":"ndw","priceKwh":0.38}},{"type":"Feature","geometry":{"type":"Point","coordinates":[5.423848,52.141228]},"properties":{"type":"charge","layer":"passenger","locationId":"7333C782-CA2D-4A84-B6DC-E8299AAC1496","name":"Eneco eMobility SamenThuis Investment B.V. - Olmenlaan 28 - Leusden","address":"Olmenlaan 28","city":"Leusden","operatorName":"Eneco","maxPowerKw":11,"isMegawatt":false,"status":"AVAILABLE","source":"ndw","priceKwh":0.5}},{"type":"Feature","geometry":{"type":"Point","coordinates":[5.426306,52.1284]},"properties":{"type":"charge","layer":"passenger","locationId":"68CE8E9A-CBDC-4AD3-B761-931EBE2BECEA","name":"PP005180 - De Smidse 27, Leusden","address":"27 De Smidse","city":"Leusden","operatorName":"TotalEnergies","maxPowerKw":11,"isMegawatt":false,"status":"AVAILABLE","source":"ndw"}},{"type":"Feature","geometry":{"type":"Point","coordinates":[5.410665,52.121872]},"properties":{"type":"charge","layer":"passenger","locationId":"CECFD8FE-A18B-4580-920C-140A88E35FB3","name":"TNLP006184 - Hekkerdreef 62, Leusden","address":"62 Hekkerdreef","city":"Leusden","operatorName":"TotalEnergies","maxPowerKw":17,"isMegawatt":false,"status":"AVAILABLE","source":"ndw"}},{"type":"Feature","geometry":{"type":"Point","coordinates":[5.498888,52.137977]},"properties":{"type":"charge","layer":"passenger","locationId":"4e2ad05075ec417992a66c41ab9c03ab","name":"Koopmans Bouw B.V. Mastenbroek II","address":"Ruurd Visserstraat 49 tegen over","city":"Achterveld","operatorName":"NRG Accounting","maxPowerKw":11,"isMegawatt":false,"status":"UNAVAILABLE","source":"ndw","priceKwh":0.53}},{"type":"Feature","geometry":{"type":"Point","coordinates":[5.4461,52.13858]},"properties":{"type":"charge","layer":"passenger","locationId":"0EA95EA5-5B1F-4C19-8B9E-51411525204F","name":"TNLP003574 - Walstro 35, Leusden","address":"35 Walstro","city":"Leusden","operatorName":"TotalEnergies","maxPowerKw":17,"isMegawatt":false,"status":"AVAILABLE","source":"ndw"}},{"type":"Feature","geometry":{"type":"Point","coordinates":[5.425924,52.130608]},"properties":{"type":"charge","layer":"passenger","locationId":"A878418A-6EC9-4A24-A455-E41F4F027E06","name":"TNLP003681 - Landweg 347, Leusden","address":"347 Landweg","city":"Leusden","operatorName":"TotalEnergies","maxPowerKw":17,"isMegawatt":false,"status":"AVAILABLE","source":"ndw"}},{"type":"Feature","geometry":{"type":"Point","coordinates":[5.41278,52.14315]},"properties":{"type":"charge","layer":"passenger","locationId":"BE96333C-ACAD-4D43-BE2B-27C39AB35220","name":"TNLP003554 - Spieghelweg 2, Leusden","address":"2 Spieghelweg","city":"Leusden","operatorName":"TotalEnergies","maxPowerKw":17,"isMegawatt":false,"status":"UNAVAILABLE","source":"ndw"}},{"type":"Feature","geometry":{"type":"Point","coordinates":[5.43054,52.13061]},"properties":{"type":"charge","layer":"passenger","locationId":"bd211b4a-859b-48e5-9aa8-e5c230457e00","name":"PP001715 - Hertenhoeve 3, Leusden","address":"3 Hertenhoeve","city":"Leusden","operatorName":"TotalEnergies","maxPowerKw":11,"isMegawatt":false,"status":"AVAILABLE","source":"ndw"}},{"type":"Feature","geometry":{"type":"Point","coordinates":[5.444413,52.131824]},"properties":{"type":"charge","layer":"passenger","locationId":"8418C749-F398-4F34-AEFD-31E2A91134F0","name":"TNLP007514 - Snoekbaars 6, Leusden","address":"6 Snoekbaars","city":"Leusden","operatorName":"TotalEnergies","maxPowerKw":17,"isMegawatt":false,"status":"UNAVAILABLE","source":"ndw"}},{"type":"Feature","geometry":{"type":"Point","coordinates":[5.44766,52.138345]},"properties":{"type":"charge","layer":"passenger","locationId":"e803cb5443f91267e0349c1d302998ef","name":"Weldamhof 1","address":"Weldamhof 1","city":"Leusden","operatorName":"Vattenfall InCharge","maxPowerKw":11,"isMegawatt":false,"status":"AVAILABLE","source":"ndw","priceKwh":0.2805}},{"type":"Feature","geometry":{"type":"Point","coordinates":[5.438937,52.134148]},"properties":{"type":"charge","layer":"passenger","locationId":"94DB85D6-26BB-4852-B502-465CF1455643","name":"TNLP008306 - Amiant 2, Leusden","address":"2 Amiant","city":"Leusden","operatorName":"TotalEnergies","maxPowerKw":13,"isMegawatt":false,"status":"AVAILABLE","source":"ndw"}},{"type":"Feature","geometry":{"type":"Point","coordinates":[5.416183,52.12482]},"properties":{"type":"charge","layer":"passenger","locationId":"89052E81-1B15-4D44-907E-76D982D65521","name":"TNLP007611 - Wildenburgstraat 63a, Leusden","address":"63a Wildenburgstraat","city":"Leusden","operatorName":"TotalEnergies","maxPowerKw":17,"isMegawatt":false,"status":"AVAILABLE","source":"ndw"}},{"type":"Feature","geometry":{"type":"Point","coordinates":[5.363908,52.131938]},"properties":{"type":"charge","layer":"passenger","locationId":"5000","name":"50five Exploitatie Golfbaan de Hoge Kleij","address":"Loes van Overeemlaan 21","city":"Leusden","operatorName":"50five","maxPowerKw":19,"isMegawatt":false,"status":"AVAILABLE","source":"ndw"}},{"type":"Feature","geometry":{"type":"Point","coordinates":[5.493886,52.134163]},"properties":{"type":"charge","layer":"passenger","locationId":"A840A3DC-D5E4-4912-A196-BAAF7E6BE9F4","name":"TNLP005697 - Groot Agteveldlaan 91, Achterveld","address":"91 Groot Agteveldlaan","city":"Achterveld","operatorName":"TotalEnergies","maxPowerKw":11,"isMegawatt":false,"status":"AVAILABLE","source":"ndw"}},{"type":"Feature","geometry":{"type":"Point","coordinates":[5.429042,52.129658]},"properties":{"type":"charge","layer":"passenger","locationId":"C5779D68-44DB-4FE3-BC0E-BD67C12D15DF","name":"TNLP007341 - Kooikersgracht 11, Leusden","address":"11 Kooikersgracht","city":"Leusden","operatorName":"TotalEnergies","maxPowerKw":13,"isMegawatt":false,"status":"AVAILABLE","source":"ndw"}},{"type":"Feature","geometry":{"type":"Point","coordinates":[5.44344,52.13096]},"properties":{"type":"charge","layer":"passenger","locationId":"84169aac5392c5a44bfc8d311d73686c","name":"Barbeel 2","address":"Barbeel 2","city":"Leusden","operatorName":"Vattenfall InCharge","maxPowerKw":11,"isMegawatt":false,"status":"AVAILABLE","source":"ndw","priceKwh":0.2805}},{"type":"Feature","geometry":{"type":"Point","coordinates":[5.427912,52.13102]},"properties":{"type":"charge","layer":"passenger","locationId":"129f76e081ea963e6fb48906661345b8","name":"'t Erf 9","address":"'t Erf 9","city":"Leusden","operatorName":"Vattenfall InCharge","maxPowerKw":11,"isMegawatt":false,"status":"AVAILABLE","source":"ndw","priceKwh":0.2805}},{"type":"Feature","geometry":{"type":"Point","coordinates":[5.414306,52.117243]},"properties":{"type":"charge","layer":"passenger","locationId":"dae36aa4972e61e73a4227ce6eec1612","name":"Genthoek 2","address":"Genthoek 2","city":"Leusden","operatorName":"Vattenfall InCharge","maxPowerKw":11,"isMegawatt":false,"status":"AVAILABLE","source":"ndw","priceKwh":0.2805}},{"type":"Feature","geometry":{"type":"Point","coordinates":[5.435365,52.130962]},"properties":{"type":"charge","layer":"passenger","locationId":"B6E852B9-FE92-4C93-8DB4-AB94FCDBC40E","name":"TNLP006296 - Wierickewijk 16, Leusden","address":"16 Wierickewijk","city":"Leusden","operatorName":"TotalEnergies","maxPowerKw":17,"isMegawatt":false,"status":"AVAILABLE","source":"ndw"}},{"type":"Feature","geometry":{"type":"Point","coordinates":[5.499501,52.138503]},"properties":{"type":"charge","layer":"passenger","locationId":"b73f2ddbcd9ab5effd2eb164e151dc30","name":"Lange Streek 72","address":"Lange Streek 72","city":"Achterveld","operatorName":"Vattenfall InCharge","maxPowerKw":11,"isMegawatt":false,"status":"AVAILABLE","source":"ndw","priceKwh":0.2805}},{"type":"Feature","geometry":{"type":"Point","coordinates":[5.425127,52.140421]},"properties":{"type":"charge","layer":"passenger","locationId":"91109229","name":"50five-S NL 09001661","address":"Larikslaan 2","city":"Leusden","operatorName":"50five","maxPowerKw":11,"isMegawatt":false,"status":"AVAILABLE","source":"ndw"}},{"type":"Feature","geometry":{"type":"Point","coordinates":[5.41255,52.11571]},"properties":{"type":"charge","layer":"passenger","locationId":"58F68294-C7D5-40EE-A451-287C8F2302F6","name":"PP004152 - Petri Markensteinstraat 3, Leusden","address":"3 Petri Markensteinstraat","city":"Leusden","operatorName":"TotalEnergies","maxPowerKw":11,"isMegawatt":false,"status":"CHARGING","source":"ndw"}},{"type":"Feature","geometry":{"type":"Point","coordinates":[5.428365,52.13499]},"properties":{"type":"charge","layer":"passenger","locationId":"702DEA10-E824-4061-A228-D70A77EE48A2","name":"TNLP005750 - Rozengaarde 22, Leusden","address":"22 Rozengaarde","city":"Leusden","operatorName":"TotalEnergies","maxPowerKw":17,"isMegawatt":false,"status":"AVAILABLE","source":"ndw"}},{"type":"Feature","geometry":{"type":"Point","coordinates":[5.407472,52.122395]},"properties":{"type":"charge","layer":"passenger","locationId":"89242DDE-7B4D-404B-8CA0-FFFB4AE9EAA9","name":"TNLP009805 - Van Diepenheim Scheltuslaan 5, Leusden","address":"5 Van Diepenheim Scheltuslaan","city":"Leusden","operatorName":"TotalEnergies","maxPowerKw":17,"isMegawatt":false,"status":"AVAILABLE","source":"ndw"}},{"type":"Feature","geometry":{"type":"Point","coordinates":[5.4148,52.11525]},"properties":{"type":"charge","layer":"passenger","locationId":"c249bd9625a00a5959bc020c8c48cb15","name":"Rita de Voogdstraat 1","address":"Rita de Voogdstraat 1","city":"Leusden","operatorName":"Vattenfall InCharge","maxPowerKw":11,"isMegawatt":false,"status":"CHARGING","source":"ndw","priceKwh":0.2805}},{"type":"Feature","geometry":{"type":"Point","coordinates":[5.42562,52.14573]},"properties":{"type":"charge","layer":"passenger","locationId":"6D91269B-D21B-4084-AA46-81B523E7788A","name":"TNLP007120 - Vlietsingel 15, Leusden","address":"15 Vlietsingel","city":"Leusden","operatorName":"TotalEnergies","maxPowerKw":17,"isMegawatt":false,"status":"UNAVAILABLE","source":"ndw"}},{"type":"Feature","geometry":{"type":"Point","coordinates":[5.425126,52.14332]},"properties":{"type":"charge","layer":"passenger","locationId":"91057708","name":"50five-S NL 07105708","address":"Rondeel 6a","city":"Leusden","operatorName":"50five","maxPowerKw":11,"isMegawatt":false,"status":"AVAILABLE","source":"ndw"}},{"type":"Feature","geometry":{"type":"Point","coordinates":[5.426654,52.13853]},"properties":{"type":"charge","layer":"passenger","locationId":"91228063","name":"50five-S NL 17B01626","address":"Zwarteweg 12","city":"Leusden","operatorName":"50five","maxPowerKw":11,"isMegawatt":false,"status":"UNAVAILABLE","source":"ndw"}},{"type":"Feature","geometry":{"type":"Point","coordinates":[5.500449,52.135863]},"properties":{"type":"charge","layer":"passenger","locationId":"12122d94bf91aec9f63f57646289286a","name":"Ruurd Visserstraat 24","address":"Ruurd Visserstraat 24","city":"Achterveld","operatorName":"Vattenfall InCharge","maxPowerKw":11,"isMegawatt":false,"status":"AVAILABLE","source":"ndw","priceKwh":0.2805}},{"type":"Feature","geometry":{"type":"Point","coordinates":[5.41437,52.11559]},"properties":{"type":"charge","layer":"passenger","locationId":"DDE26001-71C7-429F-ADEE-AA35D82F17F4","name":"TNLP009924 - Reinier Roeststraat 12, Leusden","address":"12 Reinier Roeststraat","city":"Leusden","operatorName":"TotalEnergies","maxPowerKw":17,"isMegawatt":false,"status":"UNAVAILABLE","source":"ndw"}},{"type":"Feature","geometry":{"type":"Point","coordinates":[5.427948,52.131413]},"properties":{"type":"charge","layer":"passenger","locationId":"4DB8C9CB-427A-4FDC-A390-6E1B43DEE0DA","name":"TNLP006752 - De Mulderij 12, Leusden","address":"12 De Mulderij","city":"Leusden","operatorName":"TotalEnergies","maxPowerKw":17,"isMegawatt":false,"status":"AVAILABLE","source":"ndw"}},{"type":"Feature","geometry":{"type":"Point","coordinates":[5.423317,52.144192]},"properties":{"type":"charge","layer":"passenger","locationId":"90248683","name":"Van Leeuwen Parkeergarage Storkstraat 14","address":"Storkstraat 14","city":"Leusden","operatorName":"Van Leeuwen","maxPowerKw":31,"isMegawatt":false,"status":"AVAILABLE","source":"ndw"}},{"type":"Feature","geometry":{"type":"MultiPolygon","coordinates":[[[[5.500002657536093,52.14104340280572],[5.502603248230138,52.13953602830474],[5.507592024712466,52.13886620567069],[5.5074503955706176,52.13853204140047],[5.51169037496942,52.13749397571213],[5.514079533020569,52.13592344729774],[5.512444000936229,52.134330111758565],[5.512366811070428,52.134224217944066],[5.511881025792466,52.13411538534044],[5.511998861083008,52.13399843148145],[5.512039579334745,52.13363714991269],[5.511667706637336,52.132050874104664],[5.5092032124208945,52.13194563454698],[5.507676974515847,52.131125171460354],[5.504988480385323,52.13108796849264],[5.501488444792106,52.12993925449162],[5.499098031175177,52.13054193415322],[5.497913163819817,52.130283256510445],[5.496759151242772,52.1248146199379],[5.494704774903013,52.124717970940324],[5.495060099212273,52.121993786759354],[5.496917730391166,52.11955779384936],[5.5000423479460965,52.119200313227786],[5.503371697214758,52.11965949436096],[5.5053540014752995,52.11975074763375],[5.50375603100909,52.11658591796284],[5.507551463440748,52.11561628580865],[5.507702095646344,52.113897230655056],[5.506301570556734,52.11431073202146],[5.50386782741284,52.11374560289883],[5.502610325291005,52.11509269548169],[5.49891655122315,52.11601792289468],[5.4956259465158865,52.11558608059392],[5.4880822474406905,52.116101419351516],[5.486447107643111,52.115360030389645],[5.482161128681832,52.116162499699364],[5.479089174164497,52.11742301059913],[5.47680160221962,52.114152567209715],[5.475825480142564,52.11207139090646],[5.475130629226098,52.1068911845419],[5.4760370911043506,52.10501240405504],[5.4735628209051095,52.10456322864899],[5.47198725412109,52.10145592021187],[5.468412197147759,52.10059864022893],[5.46751642205643,52.10040049440247],[5.457865908379407,52.10536952663092],[5.445789132975528,52.10685063127523],[5.443806612695269,52.10707486105677],[5.44213462057007,52.104214886474146],[5.439180713779847,52.1018762664597],[5.437983142635096,52.099791437050534],[5.4357263402095795,52.098912705702894],[5.434097976735669,52.09778020019557],[5.43220660927742,52.09787377126917],[5.432406206821704,52.096897977090315],[5.429652273136061,52.09591432741435],[5.428660851973836,52.09643499712537],[5.4260366060089655,52.09639685397909],[5.424769297258983,52.09704395873302],[5.4244602263938,52.09663593705467],[5.421980755052603,52.096655046074886],[5.4205783303637745,52.09714744344945],[5.420258646898756,52.09810954371103],[5.415001074516321,52.10011638270559],[5.410158408418434,52.10326357873462],[5.407384572409194,52.1030171195809],[5.40452076077213,52.10410672677592],[5.400781241359348,52.09187931435947],[5.401331917279094,52.08933380252247],[5.401207110956837,52.089337891141845],[5.40120662508028,52.08933791007581],[5.378009715716927,52.090471901793244],[5.340567484547771,52.09503185649791],[5.334297215147231,52.09633355442377],[5.32246213276577,52.10190123079748],[5.310919545927075,52.1083846963651],[5.325000785071667,52.11680600848991],[5.334036312502822,52.12041525714749],[5.355635189916803,52.136830073614185],[5.370457636442151,52.13157057895324],[5.372222128937177,52.13236475141708],[5.374388774552413,52.13099328103961],[5.384335040253296,52.131739005213134],[5.397127457955648,52.1339474553135],[5.398074738541999,52.13354828468715],[5.400082197443322,52.13571260282919],[5.40009692154133,52.13572092677398],[5.405404941371494,52.13981197368976],[5.407563346442978,52.141960322724294],[5.409391068248621,52.14038792621795],[5.408339629905056,52.14264669626059],[5.413771963336865,52.14802737249733],[5.414011050833438,52.14831134174946],[5.416208627635398,52.15091706252339],[5.417843757168308,52.15478524957594],[5.4235475727298,52.157620697220466],[5.431941401777051,52.158756515568435],[5.438951900376297,52.1613892195116],[5.442464395702753,52.16144866486507],[5.444963524608925,52.15989836813712],[5.4469847281397605,52.159537289635594],[5.4559506009002385,52.154347993331236],[5.459582255249188,52.15287683782285],[5.469863327842298,52.15284979872209],[5.476747689862079,52.15221806156254],[5.481341966940463,52.150501462842],[5.483794871580782,52.1494656219523],[5.489475826267696,52.14821968661295],[5.498984856887718,52.14736188719654],[5.497306403233095,52.14144392768265],[5.500002657536093,52.14104340280572]]]]},"properties":{"type":"boundary","gemeente":"Leusden","code":"GM0327"}}]}