{"type":"FeatureCollection","metadata":{"gemeente":"Maassluis","slug":"maassluis","code":"GM0556","generated_at":"2026-08-08T12:05:52.020Z","total_passenger":53,"total_freight":0,"bounds":[4.212717672623121,51.905335091012304,4.292610636796516,51.94799079452291],"operators":["50five","Allego","E-Flux by Road","Eneco","Laadnet","Tango electric","Van Leeuwen"]},"features":[{"type":"Feature","geometry":{"type":"Point","coordinates":[4.24358,51.9198]},"properties":{"type":"charge","layer":"passenger","locationId":"756C6277-C636-45BD-AF26-8E46A75423C8","name":"Eneco eMobility Zwarte Zee 54 Maassluis","address":"Zwarte Zee 54","city":"Maassluis","operatorName":"Eneco","maxPowerKw":22,"isMegawatt":false,"status":"AVAILABLE","source":"ndw","priceKwh":0.32}},{"type":"Feature","geometry":{"type":"Point","coordinates":[4.260832,51.918818]},"properties":{"type":"charge","layer":"passenger","locationId":"8372271F-7C7D-4019-8C9C-C8F02F330E36","name":"Eneco eMobility Albert Heijn - Mesdaglaan 199","address":"Mesdaglaan 199","city":"Maassluis","operatorName":"Eneco","maxPowerKw":150,"isMegawatt":false,"status":"AVAILABLE","source":"ndw","priceKwh":0.62}},{"type":"Feature","geometry":{"type":"Point","coordinates":[4.241351,51.920925]},"properties":{"type":"charge","layer":"passenger","locationId":"NLLOC012520","name":"NL, Jacob van Heemskercklaan 2, 3144DK, Maassluis","address":"Jacob van Heemskercklaan 2","city":"Maassluis","operatorName":"Allego","maxPowerKw":11,"isMegawatt":false,"status":"AVAILABLE","source":"ndw","priceKwh":0.511}},{"type":"Feature","geometry":{"type":"Point","coordinates":[4.251626,51.927678]},"properties":{"type":"charge","layer":"passenger","locationId":"NLLOC008147","name":"NL, Dennendal 48, 3142AC, Maassluis","address":"Dennendal 48","city":"Maassluis","operatorName":"Allego","maxPowerKw":11,"isMegawatt":false,"status":"AVAILABLE","source":"ndw","priceKwh":0.511}},{"type":"Feature","geometry":{"type":"Point","coordinates":[4.238923,51.921999]},"properties":{"type":"charge","layer":"passenger","locationId":"NLLOC016579","name":"NL, Vuurbaak 1, 3144DP, Maassluis","address":"Vuurbaak 1","city":"Maassluis","operatorName":"Allego","maxPowerKw":11,"isMegawatt":false,"status":"AVAILABLE","source":"ndw","priceKwh":0.511}},{"type":"Feature","geometry":{"type":"Point","coordinates":[4.227683,51.939454]},"properties":{"type":"charge","layer":"passenger","locationId":"626bcae61f1ec2a641098628","name":"DrieMaasHave - Maassluis","address":"Stadsmolen 101","city":"Maassluis","operatorName":"E-Flux by Road","maxPowerKw":10,"isMegawatt":false,"status":"AVAILABLE","source":"ndw","priceKwh":0.38}},{"type":"Feature","geometry":{"type":"Point","coordinates":[4.241404,51.92401]},"properties":{"type":"charge","layer":"passenger","locationId":"07d08b7d-2196-415c-8f12-88cf5c12e5ce","name":"Tango Maassluis 1-2","address":"Mozartlaan 332","city":"Maassluis","operatorName":"Tango electric","maxPowerKw":300,"isMegawatt":false,"status":"AVAILABLE","source":"ndw","priceKwh":0.6}},{"type":"Feature","geometry":{"type":"Point","coordinates":[4.251853,51.923787]},"properties":{"type":"charge","layer":"passenger","locationId":"NLLOC004883","name":"NLD Scheerderij 1 3142 JB Maassluis","address":"Scheerderij 1","city":"Maassluis","operatorName":"Allego","maxPowerKw":11,"isMegawatt":false,"status":"AVAILABLE","source":"ndw","priceKwh":0.511}},{"type":"Feature","geometry":{"type":"Point","coordinates":[4.240668,51.92471]},"properties":{"type":"charge","layer":"passenger","locationId":"NLLOC007688","name":"NL, Verdistraat 11, 3144KH, Maassluis","address":"Verdistraat 11","city":"Maassluis","operatorName":"Allego","maxPowerKw":11,"isMegawatt":false,"status":"AVAILABLE","source":"ndw","priceKwh":0.511}},{"type":"Feature","geometry":{"type":"Point","coordinates":[4.252433,51.920005]},"properties":{"type":"charge","layer":"passenger","locationId":"NLLOC004581","name":"NLD Zandpad 26 3143 BL, Maassluis","address":"Zandpad 26","city":"Maassluis","operatorName":"Allego","maxPowerKw":11,"isMegawatt":false,"status":"AVAILABLE","source":"ndw","priceKwh":0.511}},{"type":"Feature","geometry":{"type":"Point","coordinates":[4.235867,51.924353]},"properties":{"type":"charge","layer":"passenger","locationId":"NLLOC007676","name":"NL, Jacob van Heemskercklaan 120, 3144 DK, Maassluis","address":"Jacob van Heemskercklaan 120","city":"Maassluis","operatorName":"Allego","maxPowerKw":11,"isMegawatt":false,"status":"AVAILABLE","source":"ndw","priceKwh":0.511}},{"type":"Feature","geometry":{"type":"Point","coordinates":[4.243,51.91863]},"properties":{"type":"charge","layer":"passenger","locationId":"EC0B1152-9DFC-416F-91DF-BEA59A06B6D4","name":"Eneco eMobility Noordzee 10 Maassluis","address":"Noordzee 10","city":"Maassluis","operatorName":"Eneco","maxPowerKw":22,"isMegawatt":false,"status":"AVAILABLE","source":"ndw","priceKwh":0.8}},{"type":"Feature","geometry":{"type":"Point","coordinates":[4.240479,51.929883]},"properties":{"type":"charge","layer":"passenger","locationId":"NLLOC007998","name":"NL, Boeier 21, 3144GA Maassluis","address":"Boeier 21","city":"Maassluis","operatorName":"Allego","maxPowerKw":11,"isMegawatt":false,"status":"AVAILABLE","source":"ndw","priceKwh":0.511}},{"type":"Feature","geometry":{"type":"Point","coordinates":[4.234888,51.928357]},"properties":{"type":"charge","layer":"passenger","locationId":"2786767","name":"Laadnet P. de Bruijn (Agriko International B.V.)","address":"Goudvinkstraat 1","city":"Maassluis","operatorName":"Laadnet","maxPowerKw":22,"isMegawatt":false,"status":"UNAVAILABLE","source":"ndw"}},{"type":"Feature","geometry":{"type":"Point","coordinates":[4.252717,51.926201]},"properties":{"type":"charge","layer":"passenger","locationId":"NLLOC004859","name":"NLD, Seringenstraat 2 3142NW Maassluis","address":"Seringenstraat 2","city":"Maassluis","operatorName":"Allego","maxPowerKw":11,"isMegawatt":false,"status":"AVAILABLE","source":"ndw","priceKwh":0.511}},{"type":"Feature","geometry":{"type":"Point","coordinates":[4.251798,51.929005]},"properties":{"type":"charge","layer":"passenger","locationId":"NLLOC001871","name":"NLD, Maassluis, Berkendal 58","address":"Berkendal 58","city":"Maassluis","operatorName":"Allego","maxPowerKw":11,"isMegawatt":false,"status":"AVAILABLE","source":"ndw","priceKwh":0.511}},{"type":"Feature","geometry":{"type":"Point","coordinates":[4.264922,51.922392]},"properties":{"type":"charge","layer":"passenger","locationId":"NLLOC002249","name":"NLD, Maassluis, Wipperspark 70","address":"Wipperspark 70","city":"Maassluis","operatorName":"Allego","maxPowerKw":11,"isMegawatt":false,"status":"AVAILABLE","source":"ndw","priceKwh":0.511}},{"type":"Feature","geometry":{"type":"Point","coordinates":[4.257318,51.922838]},"properties":{"type":"charge","layer":"passenger","locationId":"NLLOC004178","name":"NLD, Groen van Prinstererkade 2 3142GD Maassluis","address":"Groen van Prinstererkade 2","city":"Maassluis","operatorName":"Allego","maxPowerKw":11,"isMegawatt":false,"status":"AVAILABLE","source":"ndw","priceKwh":0.511}},{"type":"Feature","geometry":{"type":"Point","coordinates":[4.255306,51.924095]},"properties":{"type":"charge","layer":"passenger","locationId":"NLLOC002594","name":"NLD, Maassluis, Marelstraat 69","address":"Marelstraat 69","city":"Maassluis","operatorName":"Allego","maxPowerKw":11,"isMegawatt":false,"status":"CHARGING","source":"ndw","priceKwh":0.511}},{"type":"Feature","geometry":{"type":"Point","coordinates":[4.239092,51.921382]},"properties":{"type":"charge","layer":"passenger","locationId":"66e2d8b44f1df6001d97d77c","name":"Praepes Charge","address":"Het Hoge Licht 46","city":"Maassluis","operatorName":"E-Flux by Road","maxPowerKw":22,"isMegawatt":false,"status":"CHARGING","source":"ndw","priceKwh":0.36}},{"type":"Feature","geometry":{"type":"Point","coordinates":[4.245937,51.922894]},"properties":{"type":"charge","layer":"passenger","locationId":"NLLOC007764","name":"NL, Talmastraat 50, 3144 CV, Maassluis","address":"Talmastraat 50","city":"Maassluis","operatorName":"Allego","maxPowerKw":11,"isMegawatt":false,"status":"AVAILABLE","source":"ndw","priceKwh":0.511}},{"type":"Feature","geometry":{"type":"Point","coordinates":[4.241999,51.935952]},"properties":{"type":"charge","layer":"passenger","locationId":"91045755","name":"50five-S NL 17B18874","address":"Zomerbries 17","city":"Maassluis","operatorName":"50five","maxPowerKw":11,"isMegawatt":false,"status":"UNAVAILABLE","source":"ndw"}},{"type":"Feature","geometry":{"type":"Point","coordinates":[4.246477,51.928577]},"properties":{"type":"charge","layer":"passenger","locationId":"NLLOC003906","name":"NLD, Willem Pijperplein 89 3144BP Maassluis","address":"Willem Pijperplein 89","city":"Maassluis","operatorName":"Allego","maxPowerKw":11,"isMegawatt":false,"status":"AVAILABLE","source":"ndw","priceKwh":0.511}},{"type":"Feature","geometry":{"type":"Point","coordinates":[4.241931,51.922746]},"properties":{"type":"charge","layer":"passenger","locationId":"NLLOC002136","name":"NLD, Maassluis, Industrieweg 100","address":"Industrieweg 100","city":"Maassluis","operatorName":"Allego","maxPowerKw":11,"isMegawatt":false,"status":"AVAILABLE","source":"ndw","priceKwh":0.511}},{"type":"Feature","geometry":{"type":"Point","coordinates":[4.231515,51.930783]},"properties":{"type":"charge","layer":"passenger","locationId":"NLLOC002333","name":"NLD, Maassluis, Reigerstraat 63","address":"Reigerstraat 63","city":"Maassluis","operatorName":"Allego","maxPowerKw":11,"isMegawatt":false,"status":"AVAILABLE","source":"ndw","priceKwh":0.511}},{"type":"Feature","geometry":{"type":"Point","coordinates":[4.251386,51.920903]},"properties":{"type":"charge","layer":"passenger","locationId":"NLLOC010184","name":"NL, De Schans 29, 3144 ET Maassluis","address":"De Schans 29","city":"Maassluis","operatorName":"Allego","maxPowerKw":11,"isMegawatt":false,"status":"AVAILABLE","source":"ndw","priceKwh":0.511}},{"type":"Feature","geometry":{"type":"Point","coordinates":[4.26612,51.920771]},"properties":{"type":"charge","layer":"passenger","locationId":"NLLOC003731","name":"NLD, Maassluis, Vermeerlaan 2","address":"Vermeerlaan 2","city":"Maassluis","operatorName":"Allego","maxPowerKw":11,"isMegawatt":false,"status":"AVAILABLE","source":"ndw","priceKwh":0.511}},{"type":"Feature","geometry":{"type":"Point","coordinates":[4.238749,51.936915]},"properties":{"type":"charge","layer":"passenger","locationId":"91065892","name":"50five-S NL 17B16651","address":"Kreek 11","city":"Maassluis","operatorName":"50five","maxPowerKw":11,"isMegawatt":false,"status":"AVAILABLE","source":"ndw"}},{"type":"Feature","geometry":{"type":"Point","coordinates":[4.24131,51.939685]},"properties":{"type":"charge","layer":"passenger","locationId":"3781362","name":"Laadnet Maassluis","address":"Verreweg 226","city":"Maassluis","operatorName":"Laadnet","maxPowerKw":11,"isMegawatt":false,"status":"CHARGING","source":"ndw"}},{"type":"Feature","geometry":{"type":"Point","coordinates":[4.24588,51.922]},"properties":{"type":"charge","layer":"passenger","locationId":"91088223","name":"50five-S NL 07142991","address":"Pieter Jelle Troelstraweg 101","city":"Maassluis","operatorName":"50five","maxPowerKw":11,"isMegawatt":false,"status":"AVAILABLE","source":"ndw"}},{"type":"Feature","geometry":{"type":"Point","coordinates":[4.261465,51.917323]},"properties":{"type":"charge","layer":"passenger","locationId":"NLLOC001869","name":"NLD, Maassluis, Rembrandtlaan 2","address":"Rembrandtlaan 2","city":"Maassluis","operatorName":"Allego","maxPowerKw":11,"isMegawatt":false,"status":"AVAILABLE","source":"ndw","priceKwh":0.511}},{"type":"Feature","geometry":{"type":"Point","coordinates":[4.247953,51.928183]},"properties":{"type":"charge","layer":"passenger","locationId":"91155752","name":"Van Leeuwen prive","address":"Johan Wagenaarlaan 39","city":"Maassluis","operatorName":"Van Leeuwen","maxPowerKw":11,"isMegawatt":false,"status":"AVAILABLE","source":"ndw"}},{"type":"Feature","geometry":{"type":"Point","coordinates":[4.262461,51.92562]},"properties":{"type":"charge","layer":"passenger","locationId":"NLLOC005095","name":"NLD Lijnbaan 122 3142 BM Maassluis","address":"Lijnbaan 124","city":"Maassluis","operatorName":"Allego","maxPowerKw":11,"isMegawatt":false,"status":"AVAILABLE","source":"ndw","priceKwh":0.511}},{"type":"Feature","geometry":{"type":"Point","coordinates":[4.22579,51.939835]},"properties":{"type":"charge","layer":"passenger","locationId":"NLLOC004684","name":"NLD Trasmolen 15 3146 TE Maassluis","address":"Trasmolen 15","city":"Maassluis","operatorName":"Allego","maxPowerKw":11,"isMegawatt":false,"status":"AVAILABLE","source":"ndw","priceKwh":0.511}},{"type":"Feature","geometry":{"type":"Point","coordinates":[4.233842,51.933124]},"properties":{"type":"charge","layer":"passenger","locationId":"NLLOC003686","name":"NLD, Maassluis, Bosuilstraat 8","address":"Bosuilstraat 8","city":"Maassluis","operatorName":"Allego","maxPowerKw":11,"isMegawatt":false,"status":"AVAILABLE","source":"ndw","priceKwh":0.511}},{"type":"Feature","geometry":{"type":"Point","coordinates":[4.229082,51.931088]},"properties":{"type":"charge","layer":"passenger","locationId":"NLLOC005646","name":"NLD Merellaan 168 3145 XH Maassluis","address":"Merellaan 168","city":"Maassluis","operatorName":"Allego","maxPowerKw":11,"isMegawatt":false,"status":"AVAILABLE","source":"ndw","priceKwh":0.511}},{"type":"Feature","geometry":{"type":"Point","coordinates":[4.251503,51.921632]},"properties":{"type":"charge","layer":"passenger","locationId":"NLLOC001420","name":"NLD, Maassluis, Ankerstraat 2","address":"Ankerstraat 2","city":"Maassluis","operatorName":"Allego","maxPowerKw":11,"isMegawatt":false,"status":"AVAILABLE","source":"ndw","priceKwh":0.511}},{"type":"Feature","geometry":{"type":"Point","coordinates":[4.23914,51.920512]},"properties":{"type":"charge","layer":"passenger","locationId":"2807","name":"50five Equites B.V.","address":"Het Hoge Licht","city":"Maassluis","operatorName":"50five","maxPowerKw":11,"isMegawatt":false,"status":"UNAVAILABLE","source":"ndw"}},{"type":"Feature","geometry":{"type":"Point","coordinates":[4.247437,51.927077]},"properties":{"type":"charge","layer":"passenger","locationId":"NLLOC002518","name":"NLD, Maassluis, Peter van Anrooylaan 2","address":"Peter van Anrooylaan 2","city":"Maassluis","operatorName":"Allego","maxPowerKw":11,"isMegawatt":false,"status":"AVAILABLE","source":"ndw","priceKwh":0.511}},{"type":"Feature","geometry":{"type":"Point","coordinates":[4.233935,51.931205]},"properties":{"type":"charge","layer":"passenger","locationId":"NLLOC004583","name":"NLD Nachtegaallaan 40 3145 CL Maassluis","address":"Nachtegaallaan 40","city":"Maassluis","operatorName":"Allego","maxPowerKw":11,"isMegawatt":false,"status":"AVAILABLE","source":"ndw","priceKwh":0.511}},{"type":"Feature","geometry":{"type":"Point","coordinates":[4.238369,51.931387]},"properties":{"type":"charge","layer":"passenger","locationId":"NLLOC003575","name":"NLD, Maassluis, Zwaluwstraat 15","address":"Zwaluwstraat 15","city":"Maassluis","operatorName":"Allego","maxPowerKw":11,"isMegawatt":false,"status":"AVAILABLE","source":"ndw","priceKwh":0.511}},{"type":"Feature","geometry":{"type":"Point","coordinates":[4.234559,51.938316]},"properties":{"type":"charge","layer":"passenger","locationId":"91149554","name":"50five-S NL 08104403","address":"Weverskade 110","city":"Maassluis","operatorName":"50five","maxPowerKw":11,"isMegawatt":false,"status":"AVAILABLE","source":"ndw"}},{"type":"Feature","geometry":{"type":"Point","coordinates":[4.237069,51.923571]},"properties":{"type":"charge","layer":"passenger","locationId":"NLLOC012238","name":"NL, Jacob van Heemskercklaan 72, 3144 DK, Maassluis","address":"Jacob van Heemskercklaan 72","city":"Maassluis","operatorName":"Allego","maxPowerKw":11,"isMegawatt":false,"status":"AVAILABLE","source":"ndw","priceKwh":0.511}},{"type":"Feature","geometry":{"type":"Point","coordinates":[4.238566,51.922089]},"properties":{"type":"charge","layer":"passenger","locationId":"NLLOC003528","name":"NLD, Maassluis, Vuurbaak 2","address":"Vuurbaak 2","city":"Maassluis","operatorName":"Allego","maxPowerKw":11,"isMegawatt":false,"status":"AVAILABLE","source":"ndw","priceKwh":0.511}},{"type":"Feature","geometry":{"type":"Point","coordinates":[4.231683,51.929079]},"properties":{"type":"charge","layer":"passenger","locationId":"NLLOC013579","name":"NL, Merellaan 447, 3145 ER Maassluis","address":"Merellaan 447","city":"Maassluis","operatorName":"Allego","maxPowerKw":11,"isMegawatt":false,"status":"AVAILABLE","source":"ndw","priceKwh":0.511}},{"type":"Feature","geometry":{"type":"Point","coordinates":[4.228891,51.938094]},"properties":{"type":"charge","layer":"passenger","locationId":"NLLOC002591","name":"NLD, Maassluis, Getijmolen 26","address":"Getijmolen 26","city":"Maassluis","operatorName":"Allego","maxPowerKw":11,"isMegawatt":false,"status":"AVAILABLE","source":"ndw","priceKwh":0.511}},{"type":"Feature","geometry":{"type":"Point","coordinates":[4.259838,51.921472]},"properties":{"type":"charge","layer":"passenger","locationId":"NLLOC013721","name":"NL, Guido Gezellestraat 12, 3141BG, Maassluis","address":"Guido Gezellestraat 12","city":"Maassluis","operatorName":"Allego","maxPowerKw":11,"isMegawatt":false,"status":"AVAILABLE","source":"ndw","priceKwh":0.511}},{"type":"Feature","geometry":{"type":"Point","coordinates":[4.230901,51.941828]},"properties":{"type":"charge","layer":"passenger","locationId":"NLLOC008841","name":"Kalandermolen 52, 3146 SL Maassluis","address":"Kalandermolen 52","city":"Maassluis","operatorName":"Allego","maxPowerKw":11,"isMegawatt":false,"status":"AVAILABLE","source":"ndw","priceKwh":0.511}},{"type":"Feature","geometry":{"type":"Point","coordinates":[4.260794,51.925829]},"properties":{"type":"charge","layer":"passenger","locationId":"NLLOC007723","name":"NL, Carderie 9, 3142 BA, Maassluis","address":"Carderie 9","city":"Maassluis","operatorName":"Allego","maxPowerKw":11,"isMegawatt":false,"status":"AVAILABLE","source":"ndw","priceKwh":0.511}},{"type":"Feature","geometry":{"type":"Point","coordinates":[4.250019,51.919898]},"properties":{"type":"charge","layer":"passenger","locationId":"NLLOC004522","name":"NLD Keucheniusstraat 2 3144 EN Maassluis","address":"Keucheniusstraat 5","city":"Maassluis","operatorName":"Allego","maxPowerKw":11,"isMegawatt":false,"status":"AVAILABLE","source":"ndw","priceKwh":0.511}},{"type":"Feature","geometry":{"type":"Point","coordinates":[4.238151,51.920508]},"properties":{"type":"charge","layer":"passenger","locationId":"NLLOC014754","name":"NL, Het Hoge Licht 135, 3144DN, Maassluis","address":"Het Hoge Licht 135","city":"Maassluis","operatorName":"Allego","maxPowerKw":11,"isMegawatt":false,"status":"AVAILABLE","source":"ndw","priceKwh":0.511}},{"type":"Feature","geometry":{"type":"Point","coordinates":[4.255693,51.928935]},"properties":{"type":"charge","layer":"passenger","locationId":"NLLOC002607","name":"NLD, Maassluis, Rozenlaan 2","address":"Rozenlaan 2","city":"Maassluis","operatorName":"Allego","maxPowerKw":11,"isMegawatt":false,"status":"CHARGING","source":"ndw","priceKwh":0.511}},{"type":"Feature","geometry":{"type":"Point","coordinates":[4.227313,51.93483]},"properties":{"type":"charge","layer":"passenger","locationId":"NLLOC003403","name":"NLD, Maassluis, Doctor Jan Schoutenlaan 256","address":"Doctor Jan Schoutenlaan 256","city":"Maassluis","operatorName":"Allego","maxPowerKw":11,"isMegawatt":false,"status":"AVAILABLE","source":"ndw","priceKwh":0.511}},{"type":"Feature","geometry":{"type":"MultiPolygon","coordinates":[[[[4.228291163979707,51.94799079452291],[4.231766872918141,51.94292220517024],[4.2319195328515615,51.94295446576849],[4.236940861194598,51.94392952259624],[4.240316972343405,51.9428719699857],[4.241775123070154,51.94179587964055],[4.25309445744538,51.9327328809188],[4.259401787126688,51.92800387368342],[4.260521822675725,51.92730673812082],[4.261419805621255,51.92678067812356],[4.264272108320574,51.92546816582],[4.266128105145643,51.92530206338748],[4.270682548770266,51.92353312490446],[4.272695679512082,51.92354096898305],[4.292610636796516,51.92123636929449],[4.277121774329803,51.91128492172653],[4.277052689739485,51.91124027973714],[4.267571096943434,51.905335091012304],[4.266183296979632,51.90590408273476],[4.2554286968889965,51.91017059153848],[4.244198114353909,51.913742747500045],[4.236464798297042,51.91730319957821],[4.2321666400016555,51.9207093345952],[4.229389728605219,51.92330538330131],[4.222905221076261,51.928763959426306],[4.219932458373851,51.93046800272083],[4.212717672623121,51.933727317557384],[4.219528688476147,51.94139952601654],[4.2214533800512,51.94266846212473],[4.228291163979707,51.94799079452291]]]]},"properties":{"type":"boundary","gemeente":"Maassluis","code":"GM0556"}}]}