{"type":"FeatureCollection","metadata":{"gemeente":"Midden-Delfland","slug":"midden-delfland","code":"GM1842","generated_at":"2026-08-08T12:05:52.020Z","total_passenger":19,"total_freight":2,"bounds":[4.233532395726511,51.92123636929449,4.402933291367906,52.01998809931153],"operators":["50five","Allego","E-Flux by Road","Eneco","Fastned","Laadnet","Shell Recharge","Van Leeuwen"]},"features":[{"type":"Feature","geometry":{"type":"Point","coordinates":[4.31637,52.013456]},"properties":{"type":"charge","layer":"passenger","locationId":"NLLOC027668","name":"Allego - Van der Valk Delft A4","address":"Peuldreef 3","city":"Den Hoorn","operatorName":"Allego","maxPowerKw":300,"isMegawatt":false,"status":"AVAILABLE","source":"ndw","priceKwh":0.511}},{"type":"Feature","geometry":{"type":"Point","coordinates":[4.31899,52.00754]},"properties":{"type":"charge","layer":"passenger","locationId":"6E4DBFF4-2842-47B3-8D97-CB84FCB6A338","name":"Eneco eMobility Werkse - Gantel 23 - Den Hoorn","address":"Gantel 23","city":"Den Hoorn","operatorName":"Eneco","maxPowerKw":11,"isMegawatt":false,"status":"AVAILABLE","source":"ndw","priceKwh":0.28}},{"type":"Feature","geometry":{"type":"Point","coordinates":[4.312084,52.009034]},"properties":{"type":"charge","layer":"passenger","locationId":"50430","name":"Fastned Peulwijk-Oost","address":"Peulwijk-Oost A4","city":"Den Hoorn","operatorName":"Fastned","maxPowerKw":300,"isMegawatt":false,"status":"AVAILABLE","source":"ndw","priceKwh":0.6364}},{"type":"Feature","geometry":{"type":"Point","coordinates":[4.3212,52.01199]},"properties":{"type":"charge","layer":"passenger","locationId":"DFAEDF13-0CE8-4DCA-B28A-444F525947C5","name":"Eneco eMobility Bauhaus Nederland C.V. - Den Hoorn EHC","address":"Sionsdreef 2","city":"Den Hoorn","operatorName":"Eneco","maxPowerKw":22,"isMegawatt":false,"status":"AVAILABLE","source":"ndw","priceKwh":0.32}},{"type":"Feature","geometry":{"type":"Point","coordinates":[4.266636,51.93813]},"properties":{"type":"charge","layer":"passenger","locationId":"91087318","name":"50five-S NL 07100214","address":"Koningin Julianaweg 23","city":"Maasland","operatorName":"50five","maxPowerKw":5,"isMegawatt":false,"status":"AVAILABLE","source":"ndw"}},{"type":"Feature","geometry":{"type":"Point","coordinates":[4.293344,51.995424]},"properties":{"type":"charge","layer":"passenger","locationId":"6790c95f6cc2fd5f51a81f66","name":"B&B de Hooiberg-","address":"'t Woudt 15","city":"Schipluiden","operatorName":"E-Flux by Road","maxPowerKw":22,"isMegawatt":false,"status":"AVAILABLE","source":"ndw","priceKwh":0.43}},{"type":"Feature","geometry":{"type":"Point","coordinates":[4.330103,51.999581]},"properties":{"type":"charge","layer":"passenger","locationId":"6787e245938200ac8d9cd7df","name":"logicall Installation Services BV","address":"Hoge-Harnasch 1","city":"Den Hoorn","operatorName":"E-Flux by Road","maxPowerKw":22,"isMegawatt":false,"status":"AVAILABLE","source":"ndw","priceKwh":0.42}},{"type":"Feature","geometry":{"type":"Point","coordinates":[4.32041,51.998933]},"properties":{"type":"charge","layer":"passenger","locationId":"67c6d0fe325d2b063a506104","name":"EDA de Heus 2","address":"Harnaschdreef 9","city":"Den Hoorn","operatorName":"E-Flux by Road","maxPowerKw":22,"isMegawatt":false,"status":"AVAILABLE","source":"ndw","priceKwh":0.43}},{"type":"Feature","geometry":{"type":"Point","coordinates":[4.317426,52.013448]},"properties":{"type":"charge","layer":"passenger","locationId":"2654495","name":"Laadnet Delfluent Services B.V. - Peuldreef 4 Den Hoorn","address":"Peuldreef 4","city":"Den Hoorn","operatorName":"Laadnet","maxPowerKw":22,"isMegawatt":false,"status":"AVAILABLE","source":"ndw"}},{"type":"Feature","geometry":{"type":"Point","coordinates":[4.322452,51.987473]},"properties":{"type":"charge","layer":"passenger","locationId":"91053530","name":"50five-S NL 07113785","address":"Tramkade 22","city":"Den Hoorn","operatorName":"50five","maxPowerKw":10,"isMegawatt":false,"status":"AVAILABLE","source":"ndw"}},{"type":"Feature","geometry":{"type":"Point","coordinates":[4.317477,52.010049]},"properties":{"type":"charge","layer":"passenger","locationId":"4174638","name":"Laadnet PCO infra b.v","address":"Vrij-Harnasch 20","city":"Den Hoorn","operatorName":"Laadnet","maxPowerKw":11,"isMegawatt":false,"status":"AVAILABLE","source":"ndw"}},{"type":"Feature","geometry":{"type":"Point","coordinates":[4.292717,51.995704]},"properties":{"type":"charge","layer":"passenger","locationId":"6790cae13f33d214c4a96d2b","name":"B&B de Hooiberg","address":"'t Woudt 15","city":"Schipluiden","operatorName":"E-Flux by Road","maxPowerKw":22,"isMegawatt":false,"status":"AVAILABLE","source":"ndw","priceKwh":0.43}},{"type":"Feature","geometry":{"type":"Point","coordinates":[4.251948,51.948649]},"properties":{"type":"charge","layer":"passenger","locationId":"4174687","name":"Laadnet Lans Westland b.v.","address":"Herenwerf 47","city":"Maasland","operatorName":"Laadnet","maxPowerKw":22,"isMegawatt":false,"status":"AVAILABLE","source":"ndw"}},{"type":"Feature","geometry":{"type":"Point","coordinates":[4.251287,51.953514]},"properties":{"type":"charge","layer":"passenger","locationId":"3636021","name":"Laadnet Herenwerf 34","address":"Herenwerf 34","city":"Maasland","operatorName":"Laadnet","maxPowerKw":22,"isMegawatt":false,"status":"AVAILABLE","source":"ndw"}},{"type":"Feature","geometry":{"type":"Point","coordinates":[4.292681,51.995741]},"properties":{"type":"charge","layer":"passenger","locationId":"6790cc3e4da718b3affde9f3","name":"Koffiehuis de Hooiberg","address":"'t Woudt 15","city":"Schipluiden","operatorName":"E-Flux by Road","maxPowerKw":22,"isMegawatt":false,"status":"AVAILABLE","source":"ndw","priceKwh":0.43}},{"type":"Feature","geometry":{"type":"Point","coordinates":[4.276843,51.936606]},"properties":{"type":"charge","layer":"passenger","locationId":"89356593","name":"Van Leeuwen Het Ambacht 5","address":"Het Ambacht 5","city":"Maasland","operatorName":"Van Leeuwen","maxPowerKw":11,"isMegawatt":false,"status":"AVAILABLE","source":"ndw"}},{"type":"Feature","geometry":{"type":"Point","coordinates":[4.32041,51.998933]},"properties":{"type":"charge","layer":"passenger","locationId":"67c6d33a069cea3dbeda40a0","name":"EDA de Heus 1","address":"Harnaschdreef 9","city":"Den Hoorn","operatorName":"E-Flux by Road","maxPowerKw":22,"isMegawatt":false,"status":"AVAILABLE","source":"ndw","priceKwh":0.43}},{"type":"Feature","geometry":{"type":"Point","coordinates":[4.311337,52.009288]},"properties":{"type":"charge","layer":"passenger","locationId":"454","name":"Shell Recharge NL8530 - Shell Peulwijk Oost","address":"Rijksweg A4 OZ 1","city":"Denhoorn","operatorName":"Shell Recharge","maxPowerKw":300,"isMegawatt":false,"status":"AVAILABLE","source":"ndw","priceKwh":0.7025}},{"type":"Feature","geometry":{"type":"Point","coordinates":[4.327827,51.979208]},"properties":{"type":"charge","layer":"passenger","locationId":"67adfa7fb45606d2e0bbe857","name":"Golfbaan Delfland","address":"Abtsrechtseweg 1","city":"Schipluiden","operatorName":"E-Flux by Road","maxPowerKw":22,"isMegawatt":false,"status":"CHARGING","source":"ndw","priceKwh":0.53}},{"type":"Feature","geometry":{"type":"Point","coordinates":[4.315493,52.011913]},"properties":{"type":"charge","layer":"freight","locationId":"50639","name":"Fastned Hogenhoorn","address":"Hogenhoorn","city":"Den Hoorn","operatorName":"Fastned","maxPowerKw":400,"isMegawatt":false,"status":"AVAILABLE","source":"ndw","priceKwh":0.6364,"freightKind":"hpc","freightReason":"power"}},{"type":"Feature","geometry":{"type":"Point","coordinates":[4.31109,52.012552]},"properties":{"type":"charge","layer":"freight","locationId":"51129","name":"Fastned Peulwijk West","address":"Peulwijk-West","city":"Den Hoorn","operatorName":"Fastned","maxPowerKw":400,"isMegawatt":false,"status":"AVAILABLE","source":"ndw","priceKwh":0.6364,"freightKind":"hpc","freightReason":"power"}},{"type":"Feature","geometry":{"type":"MultiPolygon","coordinates":[[[[4.319389382120227,52.01998809931153],[4.325765933623224,52.012766395951836],[4.325956264367408,52.012793464372024],[4.3260593509228755,52.012500215394425],[4.32562422232951,52.012322598142],[4.32532188380576,52.01219922420091],[4.325995412149416,52.01162119359535],[4.325329448127633,52.011315489698916],[4.325397131376942,52.011101781651455],[4.325470736922871,52.010869370833504],[4.325268176594162,52.01077518288313],[4.324374505304105,52.01058342898],[4.3243715475402364,52.01053062687119],[4.3243663386705755,52.01043760984313],[4.320635752786708,52.00932216046296],[4.321490072502596,52.00846361520028],[4.3202177544235685,52.00806556614099],[4.323244423528893,52.00433570950482],[4.326346276429767,52.00529289951186],[4.326236850151059,52.00542803685128],[4.325759746127107,52.00601723716745],[4.326504521863285,52.00624343306161],[4.326547902842762,52.006146519584185],[4.3277403114138835,52.00640490305987],[4.328069950331629,52.006097110735965],[4.328259562781736,52.00592006088598],[4.331311807460293,52.007280256277774],[4.332655707314968,52.00788296047655],[4.336370864868438,52.00475328352637],[4.3384532396062285,52.00569084264493],[4.339037636621174,52.00504802397415],[4.341097259270231,52.00278283287249],[4.3411425073066185,52.002710451450554],[4.335834292343651,52.001055393094695],[4.3377168664432775,51.99880260581651],[4.334746292821659,51.99834670683016],[4.333348305988675,51.99792129510199],[4.33324441621573,51.998116178625445],[4.331524988833107,51.99785223212006],[4.332813919071069,51.99555337320594],[4.333109511595602,51.99317183773607],[4.325732299762128,51.99195125639651],[4.324111870943417,51.98985862496764],[4.328487579091593,51.9857020240002],[4.332042062709165,51.98406791106442],[4.332723543449973,51.98045664855098],[4.338227196876602,51.97417770819421],[4.343134258683704,51.975674800539934],[4.345068790958476,51.97541935138147],[4.356625799536718,51.977296268525386],[4.357376289640864,51.97549263264772],[4.358571584744188,51.97565791116014],[4.358831554801547,51.97502015387154],[4.35765639916411,51.97481941437662],[4.3582037473423,51.97350384837444],[4.359306916298726,51.973693363362344],[4.359478902272548,51.973280402239325],[4.358368688366023,51.97310739168876],[4.358536030756339,51.97270515800783],[4.359700941680244,51.97287295679967],[4.359880492472041,51.97245729264102],[4.35872082568867,51.972260964222656],[4.3595401124574655,51.97013541818933],[4.368173737358888,51.9715817856054],[4.36917534735723,51.96887050099066],[4.375752230630558,51.97014764634031],[4.386302788912985,51.97221409677293],[4.383622409304474,51.97581590127994],[4.393809735633668,51.977503519830364],[4.394217190152928,51.97632688096338],[4.396173867667967,51.97608021040813],[4.396745672950724,51.97418083204202],[4.397722956840255,51.974333704548876],[4.402933291367906,51.966316407299715],[4.393987366959174,51.96263159638778],[4.393563992261816,51.96247172786832],[4.391751832251182,51.964921124805116],[4.389947288185281,51.964601791247276],[4.389779289426364,51.965126477906885],[4.379309330057914,51.96340669222389],[4.363537763788516,51.96087429093925],[4.367070975404517,51.95521999252136],[4.350671096582289,51.951506587983225],[4.336556106235368,51.9473970557042],[4.335529694259674,51.94699401406601],[4.336460162592798,51.94643451106876],[4.323873106677894,51.94164005328588],[4.322905661853869,51.94269824210076],[4.3148427108805585,51.93681017496568],[4.313746700189804,51.934933182931644],[4.295073026145008,51.922878426031154],[4.292953380423265,51.921467858432635],[4.292610636796516,51.92123636929449],[4.272695679512082,51.92354096898305],[4.270682548770266,51.92353312490446],[4.266128105145643,51.92530206338748],[4.264272108320574,51.92546816582],[4.261419805621255,51.92678067812356],[4.260521822675725,51.92730673812082],[4.259401787126688,51.92800387368342],[4.25309445744538,51.9327328809188],[4.241775123070154,51.94179587964055],[4.240316972343405,51.9428719699857],[4.241257749824488,51.943674386732354],[4.239722051255553,51.944469128165125],[4.2393982838339905,51.94463667590046],[4.234099109360206,51.94973520305448],[4.233532395726511,51.95267089212827],[4.233957256603943,51.95333124748656],[4.25362881032055,51.95886661058322],[4.258267722440922,51.95896517166479],[4.26344832352563,51.96009346930786],[4.276537185765977,51.965053873709905],[4.271455564993897,51.969859795428704],[4.272464463474527,51.97025588680765],[4.271949278976702,51.971614308835136],[4.273224499754828,51.973642925668514],[4.274686078889043,51.97339608121877],[4.278160848735613,51.97043307933906],[4.2803148257638295,51.97145131284509],[4.282317001121137,51.969787992294236],[4.284127255910035,51.97062653394267],[4.28509133833502,51.969889492659256],[4.289302869372222,51.971910408838234],[4.2875532672085495,51.97335529075722],[4.295980622465757,51.97753272578677],[4.298253001861422,51.97746389703575],[4.302690570320483,51.979695524727624],[4.302900676468968,51.98009159964658],[4.301816137848162,51.98120025738491],[4.30070277002779,51.98116245669262],[4.299270755063675,51.98111382075835],[4.298781391333726,51.98216120070096],[4.29632446234137,51.98176473699249],[4.295986555999019,51.982655477214365],[4.295629338111882,51.98359708520659],[4.293313621650692,51.98320774270499],[4.291913221694413,51.98297226739506],[4.290489268267319,51.98663366047653],[4.290192542628428,51.98739654752788],[4.288683686035513,51.98882523390381],[4.287536977803531,51.98901590806778],[4.284089855376077,51.98564093260247],[4.280355313892041,51.98853980244497],[4.280332866021488,51.989741372491316],[4.2803215420588465,51.990347428054015],[4.271894169105843,51.992891612860625],[4.271116531874446,51.99224676064152],[4.269815034327767,51.99289359800151],[4.267252395025639,51.993583826280606],[4.2652451319543125,51.99583616671158],[4.273117202503955,51.999249886011135],[4.281464449639767,52.002916041982544],[4.307588840812188,52.014693289735554],[4.309819285230901,52.01563419619695],[4.316913743363545,52.018785254688765],[4.317584542665666,52.0190870044175],[4.319389382120227,52.01998809931153]]]]},"properties":{"type":"boundary","gemeente":"Midden-Delfland","code":"GM1842"}}]}