{"type":"FeatureCollection","metadata":{"gemeente":"Nissewaard","slug":"nissewaard","code":"GM1930","generated_at":"2026-08-08T12:05:52.020Z","total_passenger":41,"total_freight":0,"bounds":[4.185273211414263,51.78533953790294,4.432482634340814,51.872986004523504],"operators":["50five","Alva Charging Services","ChargePoint","E-Flux by Road","E.ON Drive","Eneco","Fleet Charge Services","Laadnet","Laadpaal24","Opcharge","Pluq","Shell Recharge","Van Leeuwen","Vattenfall InCharge","bp pulse"]},"features":[{"type":"Feature","geometry":{"type":"Point","coordinates":[4.307842,51.849578]},"properties":{"type":"charge","layer":"passenger","locationId":"9f59e0248824431b9b2d559b51059a63","name":"Spijkenisse Bravast B.V.","address":"Pascalweg 1, ","city":"Spijkenisse","operatorName":"Opcharge","maxPowerKw":22,"isMegawatt":false,"status":"AVAILABLE","source":"ndw","priceKwh":0.45}},{"type":"Feature","geometry":{"type":"Point","coordinates":[4.293156,51.85963]},"properties":{"type":"charge","layer":"passenger","locationId":"a9796f9e-2267-403a-81eb-14d4b3d96efa","name":"Borgtweg","address":"Borgtweg 2","city":"Spijkenisse","operatorName":"Vattenfall InCharge","maxPowerKw":50,"isMegawatt":false,"status":"UNAVAILABLE","source":"ndw","priceKwh":0.46}},{"type":"Feature","geometry":{"type":"Point","coordinates":[4.35212,51.841427]},"properties":{"type":"charge","layer":"passenger","locationId":"4250","name":"E.ON Drive Public Netherlands Tankstation DCB, Maaswijkweg 23, Spijkenisse","address":"Maaswijkweg 23","city":"Spijkenisse","operatorName":"E.ON Drive","maxPowerKw":200,"isMegawatt":false,"status":"AVAILABLE","source":"ndw","priceKwh":0.5703}},{"type":"Feature","geometry":{"type":"Point","coordinates":[4.30839,51.848657]},"properties":{"type":"charge","layer":"passenger","locationId":"6a42192d756322c7a6706f86","name":"RSM Vastgoed Beheer","address":"Stevinweg 5 - 7","city":"Spijkenisse","operatorName":"E-Flux by Road","maxPowerKw":11,"isMegawatt":false,"status":"AVAILABLE","source":"ndw","priceKwh":0.48}},{"type":"Feature","geometry":{"type":"Point","coordinates":[4.308688,51.850716]},"properties":{"type":"charge","layer":"passenger","locationId":"91107395","name":"50five-S NL 18B10643","address":"Curieweg 19","city":"Spijkenisse","operatorName":"50five","maxPowerKw":11,"isMegawatt":false,"status":"AVAILABLE","source":"ndw"}},{"type":"Feature","geometry":{"type":"Point","coordinates":[4.302993,51.85299]},"properties":{"type":"charge","layer":"passenger","locationId":"NLCPIL7418085","name":"FOURCE BV SPIJKENISSE 3","address":"1 Kelvinweg Kelvinweg","city":"Spijkenisse","operatorName":"ChargePoint","maxPowerKw":22,"isMegawatt":false,"status":"AVAILABLE","source":"ndw","priceKwh":0.5}},{"type":"Feature","geometry":{"type":"Point","coordinates":[4.306206,51.854285]},"properties":{"type":"charge","layer":"passenger","locationId":"5102","name":"Shell Recharge NL9342 - Shell Retail Spijkenisse","address":"Lucebertstraat 48","city":"Spijkenisse","operatorName":"Shell Recharge","maxPowerKw":150,"isMegawatt":false,"status":"AVAILABLE","source":"ndw","priceKwh":0.4545}},{"type":"Feature","geometry":{"type":"Point","coordinates":[4.246834,51.849041]},"properties":{"type":"charge","layer":"passenger","locationId":"e9d9ce23-58f8-4616-8005-9eb1960b5083","name":"bp pulse Express Abbenbroek","address":"Rondweg 2","city":"Abbenbroek","operatorName":"bp pulse","maxPowerKw":150,"isMegawatt":false,"status":"AVAILABLE","source":"ndw","priceKwh":0.7}},{"type":"Feature","geometry":{"type":"Point","coordinates":[4.30462,51.85037]},"properties":{"type":"charge","layer":"passenger","locationId":"6807844bcff2fc9256d75e2a","name":"Praxis Spijkenisse","address":"Morseweg 2","city":"Spijkenisse","operatorName":"Alva Charging Services","maxPowerKw":74,"isMegawatt":false,"status":"AVAILABLE","source":"ndw","priceKwh":0.668}},{"type":"Feature","geometry":{"type":"Point","coordinates":[4.268633,51.82671]},"properties":{"type":"charge","layer":"passenger","locationId":"91089900","name":"50five-S NL 03003035","address":"Oude Veerdam 4","city":"Simonshaven","operatorName":"50five","maxPowerKw":11,"isMegawatt":false,"status":"AVAILABLE","source":"ndw"}},{"type":"Feature","geometry":{"type":"Point","coordinates":[4.303154,51.852778]},"properties":{"type":"charge","layer":"passenger","locationId":"NLCPIL7418045","name":"FOURCE BV SPIJKENISSE 2","address":"1 Kelvinweg Kelvinweg","city":"Spijkenisse","operatorName":"ChargePoint","maxPowerKw":22,"isMegawatt":false,"status":"AVAILABLE","source":"ndw","priceKwh":0.5}},{"type":"Feature","geometry":{"type":"Point","coordinates":[4.30159,51.852211]},"properties":{"type":"charge","layer":"passenger","locationId":"372A9E01-9EB1-4DE7-AB53-16FDA27F0C40","name":"Eneco eMobility Kongsberg Maritime Netherlands B.V. - Spijkenisse","address":"Edisonweg 10","city":"Spijkenisse","operatorName":"Eneco","maxPowerKw":11,"isMegawatt":false,"status":"AVAILABLE","source":"ndw","priceKwh":0.35}},{"type":"Feature","geometry":{"type":"Point","coordinates":[4.306099,51.851592]},"properties":{"type":"charge","layer":"passenger","locationId":"6686954b27aefa001dacc660","name":"Vastgoed de zaak","address":"Curieweg 5","city":"Spijkenisse","operatorName":"Pluq","maxPowerKw":22,"isMegawatt":false,"status":"AVAILABLE","source":"ndw","priceKwh":0.35}},{"type":"Feature","geometry":{"type":"Point","coordinates":[4.296783,51.855848]},"properties":{"type":"charge","layer":"passenger","locationId":"91109079","name":"50five-S NL 17B01884","address":"Puntweg 18","city":"Spijkenisse","operatorName":"50five","maxPowerKw":11,"isMegawatt":false,"status":"AVAILABLE","source":"ndw"}},{"type":"Feature","geometry":{"type":"Point","coordinates":[4.265776,51.839058]},"properties":{"type":"charge","layer":"passenger","locationId":"0bae312e66e94084a916818db8302863","name":"SC&MII Tennet Simonshaven te Geervliet","address":"Oud Hoenderhoekseweg 10","city":"Geervliet","operatorName":"","maxPowerKw":11,"isMegawatt":false,"status":"AVAILABLE","source":"ndw","priceKwh":0.45}},{"type":"Feature","geometry":{"type":"Point","coordinates":[4.265776,51.839058]},"properties":{"type":"charge","layer":"passenger","locationId":"7d82d431689e455a807c0d2303a9dc97","name":"SC&MII Tennet Simonshaven te Geervliet","address":"Oud Hoenderhoekseweg 10","city":"Geervliet","operatorName":"","maxPowerKw":11,"isMegawatt":false,"status":"UNAVAILABLE","source":"ndw","priceKwh":0.45}},{"type":"Feature","geometry":{"type":"Point","coordinates":[4.238163,51.862081]},"properties":{"type":"charge","layer":"passenger","locationId":"7126060A-3281-45CA-BC3B-DA70BB5751EB","name":"Eneco eMobility Albert Heijn - Nico de Regtplein 5","address":"Nico de Regtplein 5","city":"Heenvliet","operatorName":"Eneco","maxPowerKw":50,"isMegawatt":false,"status":"AVAILABLE","source":"ndw","priceKwh":0.62}},{"type":"Feature","geometry":{"type":"Point","coordinates":[4.336695,51.848194]},"properties":{"type":"charge","layer":"passenger","locationId":"4282A4DA-EAC1-40CF-9E4B-46623DBAA0E9","name":"Eneco eMobility Hogendorpstraat 50 Spijkenisse","address":"Hogendorpstraat 50","city":"Spijkenisse","operatorName":"Eneco","maxPowerKw":22,"isMegawatt":false,"status":"UNAVAILABLE","source":"ndw","priceKwh":0.32}},{"type":"Feature","geometry":{"type":"Point","coordinates":[4.29816,51.85398]},"properties":{"type":"charge","layer":"passenger","locationId":"115F7C39-E530-4AC5-9964-E5FF93E580E7","name":"Eneco eMobility Wattweg 22 Spijkenisse","address":"Wattweg 22","city":"Spijkenisse","operatorName":"Eneco","maxPowerKw":22,"isMegawatt":false,"status":"AVAILABLE","source":"ndw","priceKwh":0.32}},{"type":"Feature","geometry":{"type":"Point","coordinates":[4.251606,51.820873]},"properties":{"type":"charge","layer":"passenger","locationId":"67e128ce78bd20657edb72c7","name":"Kerkweg 15_Kantoor_zijde","address":"Kerkweg 15","city":"Zuidland","operatorName":"E-Flux by Road","maxPowerKw":19,"isMegawatt":false,"status":"AVAILABLE","source":"ndw","priceKwh":0.72}},{"type":"Feature","geometry":{"type":"Point","coordinates":[4.336876,51.837214]},"properties":{"type":"charge","layer":"passenger","locationId":"694bc1755fa4c8a48b2029ef","name":"Beverveen 125","address":"Beverveen 125","city":"Spijkenisse","operatorName":"E-Flux by Road","maxPowerKw":11,"isMegawatt":false,"status":"AVAILABLE","source":"ndw","priceKwh":0.33}},{"type":"Feature","geometry":{"type":"Point","coordinates":[4.349973,51.825404]},"properties":{"type":"charge","layer":"passenger","locationId":"91091429","name":"50five-S NL 03010840","address":"Petrus Steyaertlaan 1","city":"Hekelingen","operatorName":"50five","maxPowerKw":4,"isMegawatt":false,"status":"AVAILABLE","source":"ndw"}},{"type":"Feature","geometry":{"type":"Point","coordinates":[4.332109,51.852159]},"properties":{"type":"charge","layer":"passenger","locationId":"3967944","name":"Laadnet VVE Schieman","address":"Waterzeil 2 CVZ","city":"Spijkenisse","operatorName":"Laadnet","maxPowerKw":22,"isMegawatt":false,"status":"AVAILABLE","source":"ndw"}},{"type":"Feature","geometry":{"type":"Point","coordinates":[4.300581,51.850098]},"properties":{"type":"charge","layer":"passenger","locationId":"91106164","name":"50five-S NL 09100703","address":"Malledijk 18","city":"Spijkenisse","operatorName":"50five","maxPowerKw":11,"isMegawatt":false,"status":"AVAILABLE","source":"ndw"}},{"type":"Feature","geometry":{"type":"Point","coordinates":[4.370404,51.827843]},"properties":{"type":"charge","layer":"passenger","locationId":"91229177","name":"50five-S NL 07141108","address":"Nienoordlaan 42","city":"Spijkenisse","operatorName":"50five","maxPowerKw":11,"isMegawatt":false,"status":"AVAILABLE","source":"ndw"}},{"type":"Feature","geometry":{"type":"Point","coordinates":[4.250423,51.823416]},"properties":{"type":"charge","layer":"passenger","locationId":"91122026","name":"50five-S NL 03010401","address":"Speerpunt 16","city":"Zuidland","operatorName":"50five","maxPowerKw":4,"isMegawatt":false,"status":"AVAILABLE","source":"ndw"}},{"type":"Feature","geometry":{"type":"Point","coordinates":[4.350173,51.825133]},"properties":{"type":"charge","layer":"passenger","locationId":"91008989","name":"50five-S NL 33862","address":"Petrus Steyaertlaan 7","city":"Hekelingen","operatorName":"50five","maxPowerKw":11,"isMegawatt":false,"status":"AVAILABLE","source":"ndw"}},{"type":"Feature","geometry":{"type":"Point","coordinates":[4.334871,51.847278]},"properties":{"type":"charge","layer":"passenger","locationId":"71E12B38-45B1-4C55-BB03-AA993C97B5A4","name":"Eneco eMobility Maasdelta Groep - Spijkenisse","address":"Thorbeckelaan 80","city":"Spijkenisse","operatorName":"Eneco","maxPowerKw":22,"isMegawatt":false,"status":"AVAILABLE","source":"ndw","priceKwh":0.32}},{"type":"Feature","geometry":{"type":"Point","coordinates":[4.361996,51.830701]},"properties":{"type":"charge","layer":"passenger","locationId":"69529da069fe5f7c343f4abb","name":"Cas Van Ree 's station","address":"Staverdenlaan 20","city":"spijkenisse","operatorName":"E-Flux by Road","maxPowerKw":7,"isMegawatt":false,"status":"CHARGING","source":"ndw","priceKwh":0.48}},{"type":"Feature","geometry":{"type":"Point","coordinates":[4.300796,51.853274]},"properties":{"type":"charge","layer":"passenger","locationId":"4262193","name":"Laadnet Facta Spijkenisse","address":"Röntgenweg 6","city":"Spijkenisse","operatorName":"Laadnet","maxPowerKw":22,"isMegawatt":false,"status":"AVAILABLE","source":"ndw"}},{"type":"Feature","geometry":{"type":"Point","coordinates":[4.350627,51.832949]},"properties":{"type":"charge","layer":"passenger","locationId":"662b93aebfe712001c1ef350","name":"M. Point Life Style Center","address":"Gaddijk 43","city":"Spijkenisse","operatorName":"Pluq","maxPowerKw":22,"isMegawatt":false,"status":"AVAILABLE","source":"ndw","priceKwh":0.36}},{"type":"Feature","geometry":{"type":"Point","coordinates":[4.324501,51.85286]},"properties":{"type":"charge","layer":"passenger","locationId":"91108655","name":"50five-S NL ICUEVE000624","address":"Jan Campertlaan 6","city":"Spijkenisse","operatorName":"50five","maxPowerKw":22,"isMegawatt":false,"status":"UNAVAILABLE","source":"ndw"}},{"type":"Feature","geometry":{"type":"Point","coordinates":[4.236732,51.857195]},"properties":{"type":"charge","layer":"passenger","locationId":"2664178","name":"Laadnet Dick Klok Cultuurtechniek BV","address":"Drieëndijk 1a","city":"Heenvliet","operatorName":"Laadnet","maxPowerKw":22,"isMegawatt":false,"status":"AVAILABLE","source":"ndw"}},{"type":"Feature","geometry":{"type":"Point","coordinates":[4.301876,51.854299]},"properties":{"type":"charge","layer":"passenger","locationId":"4226389","name":"Laadnet Forum Catering","address":"Kelvinweg 11","city":"Spijkenisse","operatorName":"Laadnet","maxPowerKw":22,"isMegawatt":false,"status":"AVAILABLE","source":"ndw"}},{"type":"Feature","geometry":{"type":"Point","coordinates":[4.251507,51.825972]},"properties":{"type":"charge","layer":"passenger","locationId":"66014025","name":"Laadpaal24 Van der Wal Zuidland Beheer B.V.","address":"Beeldsweg 6A","city":"Zuidland","operatorName":"Laadpaal24","maxPowerKw":11,"isMegawatt":false,"status":"AVAILABLE","source":"ndw"}},{"type":"Feature","geometry":{"type":"Point","coordinates":[4.316275,51.847434]},"properties":{"type":"charge","layer":"passenger","locationId":"89286185","name":"Van Leeuwen J de Baanlaan 57-107","address":"J de Baanlaan 57","city":"Barendrecht","operatorName":"Van Leeuwen","maxPowerKw":22,"isMegawatt":false,"status":"AVAILABLE","source":"ndw"}},{"type":"Feature","geometry":{"type":"Point","coordinates":[4.31973,51.853359]},"properties":{"type":"charge","layer":"passenger","locationId":"66868cdac22fb5001ccc6ac5","name":"Atlas Holiday Spijkenisse B.V.","address":"Groene Kruisweg 11","city":"Spijkenisse","operatorName":"Pluq","maxPowerKw":22,"isMegawatt":false,"status":"AVAILABLE","source":"ndw","priceKwh":0.53}},{"type":"Feature","geometry":{"type":"Point","coordinates":[4.332997,51.842992]},"properties":{"type":"charge","layer":"passenger","locationId":"62277544","name":"Laadpaal24 VvE “De Marckensteijn”","address":"Goudenregenplein 150-254","city":"Spijkenisse","operatorName":"Laadpaal24","maxPowerKw":22,"isMegawatt":false,"status":"AVAILABLE","source":"ndw"}},{"type":"Feature","geometry":{"type":"Point","coordinates":[4.303517,51.854063]},"properties":{"type":"charge","layer":"passenger","locationId":"90920366","name":"50five Exploitatie LOADS BV Spijkenisse","address":"Boyleweg 10","city":"Spijkenisse","operatorName":"50five","maxPowerKw":11,"isMegawatt":false,"status":"AVAILABLE","source":"ndw"}},{"type":"Feature","geometry":{"type":"Point","coordinates":[4.228301,51.813943]},"properties":{"type":"charge","layer":"passenger","locationId":"6486ca1f83fd19001c044ef0","name":"Van Hennik B.V. - Zuidland","address":"Dwarsweg  3","city":"Zuidland","operatorName":"Fleet Charge Services","maxPowerKw":22,"isMegawatt":false,"status":"AVAILABLE","source":"ndw","priceKwh":0.38}},{"type":"Feature","geometry":{"type":"Point","coordinates":[4.360917,51.835358]},"properties":{"type":"charge","layer":"passenger","locationId":"91039964","name":"50five-S NL 17B23114","address":"Drogendijk 14","city":"Spijkenisse","operatorName":"50five","maxPowerKw":11,"isMegawatt":false,"status":"AVAILABLE","source":"ndw"}},{"type":"Feature","geometry":{"type":"MultiPolygon","coordinates":[[[[4.3536304074429415,51.84905351434719],[4.360779080813316,51.84646010888396],[4.372089234946692,51.84334862395596],[4.383664756537604,51.84211868651875],[4.392382062378253,51.84205136071112],[4.409744323333456,51.843219346634505],[4.4141726877602405,51.842789317050496],[4.423753080688052,51.84007329361674],[4.432482634340814,51.83704631992339],[4.428452198719497,51.83421114922068],[4.422274331203867,51.83022672427289],[4.419013370239977,51.82959054025218],[4.415597956767391,51.829668901657485],[4.412553316403236,51.829922618647245],[4.399136932566628,51.831420435657556],[4.3966299184544,51.83103480779886],[4.382132142273691,51.82407939389738],[4.379195304374284,51.82249770722885],[4.3690826439600166,51.816981639712544],[4.3542985889016,51.81916529383182],[4.3471084195264895,51.817887636656216],[4.33983471973668,51.81682936221385],[4.337085379283255,51.816439071283774],[4.330791658095778,51.812974887001005],[4.3172642428084185,51.81128770753161],[4.305858568157312,51.808595632643396],[4.299039853773897,51.80406122400631],[4.295792181231208,51.802111161707224],[4.2844973586068695,51.8036647518735],[4.271604796422915,51.80515568135392],[4.26859661196503,51.80483938194363],[4.264369516370401,51.803396691798895],[4.246628489731889,51.78533953790294],[4.239869711282223,51.785368415985225],[4.230054162065038,51.78804614768357],[4.221891838351638,51.79437283577531],[4.221746928484955,51.79627162907662],[4.2175839513339515,51.79673330640949],[4.211630439040914,51.80013161903384],[4.204332446926663,51.80157187114365],[4.201103562069475,51.80319597914032],[4.194243193352254,51.80430499261635],[4.194577047158803,51.807083558203516],[4.199183263825898,51.80988151034397],[4.21235232571808,51.81402553581456],[4.213505436692583,51.81617164495561],[4.212981264841921,51.82058161013622],[4.2197089143992885,51.8245596981456],[4.217774745333578,51.82611349707278],[4.218134273501793,51.82634666251161],[4.219111104917284,51.82572292396423],[4.2196676334530805,51.825968226602974],[4.220110966511673,51.826163633528815],[4.220683191728799,51.825811272634446],[4.221970346237279,51.825018648175785],[4.2222156969022775,51.826537555178895],[4.220602259363683,51.827202542191614],[4.220255477444816,51.828212980480764],[4.209153945629477,51.83477975115814],[4.207084197248687,51.835557554478015],[4.197122606978838,51.83494584624245],[4.195545622070912,51.836724537063304],[4.195610207866619,51.83918678718119],[4.19570997169709,51.83968328276818],[4.198245264411562,51.83969478416236],[4.198528875446704,51.843393011300094],[4.196524771272322,51.843149915482705],[4.196448581512169,51.843509913847726],[4.194751042938452,51.843306701025526],[4.193474469514653,51.84294656349294],[4.192735594435079,51.84342958812474],[4.194727357247423,51.84421741978523],[4.196395635769099,51.84647813752251],[4.197610677122437,51.8470017582697],[4.198174422089927,51.849430137872666],[4.198104039216948,51.84997371609301],[4.196541061301038,51.85028741871855],[4.1941792330129015,51.850039434438344],[4.191417470749136,51.84893632650513],[4.185273211414263,51.849707692989185],[4.239383602268581,51.872986004523504],[4.2525781807535,51.8682597238343],[4.259758798267438,51.86580353654354],[4.26503150663831,51.86476750418421],[4.283792610542193,51.86447668232582],[4.335539839751615,51.8643023920246],[4.339652117795998,51.85946123143465],[4.339718996223002,51.85938411565684],[4.341555376186319,51.85709770020571],[4.346272081380048,51.85328949029814],[4.3536304074429415,51.84905351434719]],[[4.220126949663983,51.826084238474444],[4.219791743863612,51.82594229082556],[4.220085087988994,51.82574573984181],[4.220379713650156,51.82591416067444],[4.220126949663983,51.826084238474444]]]]},"properties":{"type":"boundary","gemeente":"Nissewaard","code":"GM1930"}}]}