{"type":"FeatureCollection","metadata":{"gemeente":"Noordoostpolder","slug":"noordoostpolder","code":"GM0171","generated_at":"2026-08-08T12:05:52.020Z","total_passenger":161,"total_freight":3,"bounds":[5.5933210224447905,52.61074444069204,6.013874469523464,52.843982677243154],"operators":["50five","E-Flux by Road","Eneco","Fastned","Heijmans","Laadnet","Laadpaal24","Lanova Laadpalen","Opcharge","Pluq","Tesla","TotalEnergies","Ubitricity","Vattenfall InCharge"]},"features":[{"type":"Feature","geometry":{"type":"Point","coordinates":[5.734347,52.719433]},"properties":{"type":"charge","layer":"passenger","locationId":"FDA6E0EE-7570-427E-B7DC-6DD2400A9579","name":"TNLP015342 - Veluwelaan 45, Emmeloord","address":"45 Veluwelaan","city":"Emmeloord","operatorName":"TotalEnergies","maxPowerKw":13,"isMegawatt":false,"status":"UNAVAILABLE","source":"ndw"}},{"type":"Feature","geometry":{"type":"Point","coordinates":[5.74809,52.709225]},"properties":{"type":"charge","layer":"passenger","locationId":"861","name":"Shell Recharge NL Harmen Visserplein 1","address":"Harmen Visserplein 1","city":"Emmeloord","operatorName":"Ubitricity","maxPowerKw":22,"isMegawatt":false,"status":"CHARGING","source":"ndw","priceKwh":0.267}},{"type":"Feature","geometry":{"type":"Point","coordinates":[5.660201,52.768708]},"properties":{"type":"charge","layer":"passenger","locationId":"3289978","name":"Laadnet MK Administratie / Zilveruitjestheater","address":"Floraweg 5","city":"Creil","operatorName":"Laadnet","maxPowerKw":22,"isMegawatt":false,"status":"AVAILABLE","source":"ndw"}},{"type":"Feature","geometry":{"type":"Point","coordinates":[5.746982,52.726643]},"properties":{"type":"charge","layer":"passenger","locationId":"2127A5D0-788F-40EB-A6C4-B53AB46CE1B8","name":"PP005183 - Jeanne d'Arclaan 55, Emmeloord","address":"55 Jeanne d'Arclaan","city":"Emmeloord","operatorName":"TotalEnergies","maxPowerKw":13,"isMegawatt":false,"status":"UNAVAILABLE","source":"ndw"}},{"type":"Feature","geometry":{"type":"Point","coordinates":[5.745693,52.729774]},"properties":{"type":"charge","layer":"passenger","locationId":"3D3FA68E-913D-4A20-9F21-74F4A72A12A3","name":"TNLP008116 - Niels Bohrhage 16, Emmeloord","address":"16 Niels Bohrhage","city":"Emmeloord","operatorName":"TotalEnergies","maxPowerKw":13,"isMegawatt":false,"status":"UNAVAILABLE","source":"ndw"}},{"type":"Feature","geometry":{"type":"Point","coordinates":[5.729117,52.709328]},"properties":{"type":"charge","layer":"passenger","locationId":"C6372E04-3025-4E57-B92E-87DA9486AFD8","name":"PP005185 - Krammer 14, Emmeloord","address":"14 Krammer","city":"Emmeloord","operatorName":"TotalEnergies","maxPowerKw":15,"isMegawatt":false,"status":"AVAILABLE","source":"ndw"}},{"type":"Feature","geometry":{"type":"Point","coordinates":[5.773355,52.787231]},"properties":{"type":"charge","layer":"passenger","locationId":"3809261","name":"Laadnet Vakantiewoningen","address":"Schoterpad 1","city":"Bant","operatorName":"Laadnet","maxPowerKw":22,"isMegawatt":false,"status":"AVAILABLE","source":"ndw"}},{"type":"Feature","geometry":{"type":"Point","coordinates":[5.69767,52.80473]},"properties":{"type":"charge","layer":"passenger","locationId":"57e786d7bf5fea2ba4c2e69ef0d1c05c","name":"Plaats 1","address":"Plaats 1","city":"Rutten","operatorName":"Vattenfall InCharge","maxPowerKw":11,"isMegawatt":false,"status":"AVAILABLE","source":"ndw","priceKwh":0.2805}},{"type":"Feature","geometry":{"type":"Point","coordinates":[5.764057,52.708588]},"properties":{"type":"charge","layer":"passenger","locationId":"3612B38B-DFE8-438E-925A-076D4192D91C","name":"TNLP009323 - Bossulaan 34, Emmeloord","address":"34 Bossulaan","city":"Emmeloord","operatorName":"TotalEnergies","maxPowerKw":13,"isMegawatt":false,"status":"CHARGING","source":"ndw"}},{"type":"Feature","geometry":{"type":"Point","coordinates":[5.934481,52.730717]},"properties":{"type":"charge","layer":"passenger","locationId":"c0e2290999074f328fb9","name":"Markenesse - Groepsaccommodatie SuyderZee","address":"Uiterdijkenweg 58","city":"Markenesse","operatorName":"Opcharge","maxPowerKw":22,"isMegawatt":false,"status":"AVAILABLE","source":"ndw","priceKwh":0.49}},{"type":"Feature","geometry":{"type":"Point","coordinates":[5.765982,52.703685]},"properties":{"type":"charge","layer":"passenger","locationId":"a9656390e2234982b495","name":"Emmeloord - ZONL - Genemuidenstraat","address":"Genemuidenstraat 19","city":"Emmeloord","operatorName":"Opcharge","maxPowerKw":22,"isMegawatt":false,"status":"AVAILABLE","source":"ndw","priceKwh":0.49}},{"type":"Feature","geometry":{"type":"Point","coordinates":[5.826874,52.636173]},"properties":{"type":"charge","layer":"passenger","locationId":"32D7E51F-AEA2-442C-B926-E7834421E17B","name":"TNLP006378 - Baan 36, Ens","address":"36 Baan","city":"Ens","operatorName":"TotalEnergies","maxPowerKw":15,"isMegawatt":false,"status":"AVAILABLE","source":"ndw"}},{"type":"Feature","geometry":{"type":"Point","coordinates":[5.764666,52.727427]},"properties":{"type":"charge","layer":"passenger","locationId":"84096472-03b7-4658-83c1-dded834e3066","name":"Emmeloord, Netherlands","address":"9, Het Hooiveld","city":"Emmeloord","operatorName":"Tesla","maxPowerKw":150,"isMegawatt":false,"status":"AVAILABLE","source":"ndw","priceKwh":0.53}},{"type":"Feature","geometry":{"type":"Point","coordinates":[5.852527,52.744324]},"properties":{"type":"charge","layer":"passenger","locationId":"0CCEAA89-5B43-4EF0-9AD4-75A63984B614","name":"TNLP008842 - Kamplaan 16, Luttelgeest","address":"16 Kamplaan","city":"Luttelgeest","operatorName":"TotalEnergies","maxPowerKw":14,"isMegawatt":false,"status":"AVAILABLE","source":"ndw"}},{"type":"Feature","geometry":{"type":"Point","coordinates":[5.860779,52.706084]},"properties":{"type":"charge","layer":"passenger","locationId":"6723f16017564939aaec","name":"Markenesse - ZONL - Walcherselaan","address":"Markezijde 4","city":"Markenesse","operatorName":"Opcharge","maxPowerKw":22,"isMegawatt":false,"status":"AVAILABLE","source":"ndw","priceKwh":0.49}},{"type":"Feature","geometry":{"type":"Point","coordinates":[5.778118,52.709403]},"properties":{"type":"charge","layer":"passenger","locationId":"4175080","name":"Laadnet Haller Benelux","address":"Betonweg 8","city":"Emmeloord","operatorName":"Laadnet","maxPowerKw":22,"isMegawatt":false,"status":"AVAILABLE","source":"ndw"}},{"type":"Feature","geometry":{"type":"Point","coordinates":[5.750857,52.707283]},"properties":{"type":"charge","layer":"passenger","locationId":"91230321","name":"50five-S NL 08000584","address":"Houttuinen 5","city":"Emmeloord","operatorName":"50five","maxPowerKw":11,"isMegawatt":false,"status":"AVAILABLE","source":"ndw"}},{"type":"Feature","geometry":{"type":"Point","coordinates":[5.7345556,52.7142826]},"properties":{"type":"charge","layer":"passenger","locationId":"1423","name":"Shell Recharge NL De Fjord 13","address":"De Fjord 13","city":"Emmeloord","operatorName":"Ubitricity","maxPowerKw":22,"isMegawatt":false,"status":"AVAILABLE","source":"ndw","priceKwh":0.267}},{"type":"Feature","geometry":{"type":"Point","coordinates":[5.7418926,52.7298074]},"properties":{"type":"charge","layer":"passenger","locationId":"1865","name":"Shell Recharge NL John Daltonhage 27","address":"John Daltonhage 27","city":"Emmeloord","operatorName":"Ubitricity","maxPowerKw":22,"isMegawatt":false,"status":"AVAILABLE","source":"ndw","priceKwh":0.267}},{"type":"Feature","geometry":{"type":"Point","coordinates":[5.746791,52.710182]},"properties":{"type":"charge","layer":"passenger","locationId":"e0801ae8-a362-404a-806f-68e77128cbcb","name":"TNLP006699 - Harmen Visserplein 3, Emmeloord","address":"3 Harmen Visserplein","city":"Emmeloord","operatorName":"TotalEnergies","maxPowerKw":13,"isMegawatt":false,"status":"UNAVAILABLE","source":"ndw"}},{"type":"Feature","geometry":{"type":"Point","coordinates":[5.790172,52.710925]},"properties":{"type":"charge","layer":"passenger","locationId":"4237212","name":"Laadnet ENERCON Services Netherlands B.V.","address":"Escudo 32","city":"Emmeloord","operatorName":"Laadnet","maxPowerKw":22,"isMegawatt":false,"status":"AVAILABLE","source":"ndw"}},{"type":"Feature","geometry":{"type":"Point","coordinates":[5.751027,52.71291]},"properties":{"type":"charge","layer":"passenger","locationId":"9CBF4B29-81F6-4665-89A8-0CF57E10024B","name":"TNLP015210 - Jasmijnstraat 9, Emmeloord","address":"9 Jasmijnstraat","city":"Emmeloord","operatorName":"TotalEnergies","maxPowerKw":17,"isMegawatt":false,"status":"UNAVAILABLE","source":"ndw"}},{"type":"Feature","geometry":{"type":"Point","coordinates":[5.751784,52.70365]},"properties":{"type":"charge","layer":"passenger","locationId":"694548b62be87a51003db5e8","name":"TRITEX - laadpaal buiten hek","address":"Havenstraat 19","city":"Emmeloord","operatorName":"E-Flux by Road","maxPowerKw":11,"isMegawatt":false,"status":"AVAILABLE","source":"ndw","priceKwh":0.38}},{"type":"Feature","geometry":{"type":"Point","coordinates":[5.7437095,52.7048285]},"properties":{"type":"charge","layer":"passenger","locationId":"1968","name":"Shell Recharge NL Capellastraat 2","address":"Capellastraat 2","city":"Emmeloord","operatorName":"Ubitricity","maxPowerKw":22,"isMegawatt":false,"status":"AVAILABLE","source":"ndw","priceKwh":0.267}},{"type":"Feature","geometry":{"type":"Point","coordinates":[5.754563,52.689548]},"properties":{"type":"charge","layer":"passenger","locationId":"69a9569e9f60359022ab4bf5","name":"Willem de Boer - Emmeloord","address":"Distributieweg 12","city":"Emmeloord","operatorName":"Pluq","maxPowerKw":22,"isMegawatt":false,"status":"AVAILABLE","source":"ndw","priceKwh":0.4}},{"type":"Feature","geometry":{"type":"Point","coordinates":[5.639909,52.709858]},"properties":{"type":"charge","layer":"passenger","locationId":"660be6ba03b816001c5c2fff","name":"Triade Vitree Ankerpad","address":"Ankerpad  4","city":"Espel","operatorName":"E-Flux by Road","maxPowerKw":22,"isMegawatt":false,"status":"AVAILABLE","source":"ndw","priceKwh":0.38}},{"type":"Feature","geometry":{"type":"Point","coordinates":[5.914456,52.664568]},"properties":{"type":"charge","layer":"passenger","locationId":"672237276c264f2c8bbce956","name":"Flevoland 62105 - Parkeerplaats Kantoor","address":"Kraggenburgerweg 21","city":"Kraggenburg","operatorName":"E-Flux by Road","maxPowerKw":22,"isMegawatt":false,"status":"AVAILABLE","source":"ndw","priceKwh":0.43}},{"type":"Feature","geometry":{"type":"Point","coordinates":[5.647297,52.63579]},"properties":{"type":"charge","layer":"passenger","locationId":"3778818","name":"Laadnet Zuidermeerweg 43","address":"Zuidermeerweg 43","city":"Nagele","operatorName":"Laadnet","maxPowerKw":11,"isMegawatt":false,"status":"AVAILABLE","source":"ndw"}},{"type":"Feature","geometry":{"type":"Point","coordinates":[5.84915,52.739864]},"properties":{"type":"charge","layer":"passenger","locationId":"4CFFDA43-A0F6-4F7D-9B0A-C583964A331A","name":"TNLP034646 - Akkerwinde 1, Luttelgeest","address":"1 Akkerwinde","city":"Luttelgeest","operatorName":"TotalEnergies","maxPowerKw":13,"isMegawatt":false,"status":"CHARGING","source":"ndw"}},{"type":"Feature","geometry":{"type":"Point","coordinates":[5.733403,52.710953]},"properties":{"type":"charge","layer":"passenger","locationId":"C13A15B1-6FE3-41CB-8296-972CC5A1C347","name":"TNLP008796 - Europalaan 12, Emmeloord","address":"12 Europalaan","city":"Emmeloord","operatorName":"TotalEnergies","maxPowerKw":14,"isMegawatt":false,"status":"AVAILABLE","source":"ndw"}},{"type":"Feature","geometry":{"type":"Point","coordinates":[5.740644,52.713093]},"properties":{"type":"charge","layer":"passenger","locationId":"3501A91F-AD54-45ED-A11E-DE2C71B7F4CE","name":"TNLP008875 - Rijnstraat 8, Emmeloord","address":"8 Rijnstraat","city":"Emmeloord","operatorName":"TotalEnergies","maxPowerKw":14,"isMegawatt":false,"status":"AVAILABLE","source":"ndw"}},{"type":"Feature","geometry":{"type":"Point","coordinates":[5.748658,52.706563]},"properties":{"type":"charge","layer":"passenger","locationId":"4320581","name":"Laadnet Kazerne Emmeloord","address":"Nijverheidstraat 34","city":"Emmeloord","operatorName":"Laadnet","maxPowerKw":22,"isMegawatt":false,"status":"AVAILABLE","source":"ndw"}},{"type":"Feature","geometry":{"type":"Point","coordinates":[5.751148,52.71292]},"properties":{"type":"charge","layer":"passenger","locationId":"A0B5C0E2-502D-41A1-B5BD-117E8957A39F","name":"TNLP006331 - Lijsterbesstraat 24, Emmeloord","address":"24 Lijsterbesstraat","city":"Emmeloord","operatorName":"TotalEnergies","maxPowerKw":13,"isMegawatt":false,"status":"AVAILABLE","source":"ndw"}},{"type":"Feature","geometry":{"type":"Point","coordinates":[5.755247,52.765452]},"properties":{"type":"charge","layer":"passenger","locationId":"64478778f1bed2001247dd17","name":"Bliksem Laadstation","address":"Oosterringweg 68","city":"Bant","operatorName":"E-Flux by Road","maxPowerKw":240,"isMegawatt":false,"status":"AVAILABLE","source":"ndw","priceKwh":0.45}},{"type":"Feature","geometry":{"type":"Point","coordinates":[5.738882,52.708035]},"properties":{"type":"charge","layer":"passenger","locationId":"C7A166AF-BE91-4F92-907E-B4B6F4B4E132","name":"TNLP009666 - Toutenburgh 3, Emmeloord","address":"3 Toutenburgh","city":"Emmeloord","operatorName":"TotalEnergies","maxPowerKw":15,"isMegawatt":false,"status":"CHARGING","source":"ndw"}},{"type":"Feature","geometry":{"type":"Point","coordinates":[5.774412,52.714882]},"properties":{"type":"charge","layer":"passenger","locationId":"65e9fe3309a01b001c203504","name":"Heftruckcentrum Post bv","address":"Schelling  1","city":"Emmeloord","operatorName":"E-Flux by Road","maxPowerKw":19,"isMegawatt":false,"status":"AVAILABLE","source":"ndw","priceKwh":0.44}},{"type":"Feature","geometry":{"type":"Point","coordinates":[5.760204,52.76702]},"properties":{"type":"charge","layer":"passenger","locationId":"67655bfc0a10825225ec05e4","name":"Slump","address":"Het Rister 11","city":"Bant","operatorName":"Lanova Laadpalen","maxPowerKw":22,"isMegawatt":false,"status":"AVAILABLE","source":"ndw","priceKwh":0.63}},{"type":"Feature","geometry":{"type":"Point","coordinates":[5.836708,52.755721]},"properties":{"type":"charge","layer":"passenger","locationId":"91107666","name":"50five-S NL 04002937","address":"Oosterringweg 33","city":"Luttelgeest","operatorName":"50five","maxPowerKw":7,"isMegawatt":false,"status":"UNAVAILABLE","source":"ndw"}},{"type":"Feature","geometry":{"type":"Point","coordinates":[5.747707,52.712597]},"properties":{"type":"charge","layer":"passenger","locationId":"6D261E8D-FF3E-4C69-A68F-073CEB542AB0","name":"TNLP034140 - Duizendknoopstraat 50, Emmeloord","address":"50 Duizendknoopstraat","city":"Emmeloord","operatorName":"TotalEnergies","maxPowerKw":13,"isMegawatt":false,"status":"UNAVAILABLE","source":"ndw"}},{"type":"Feature","geometry":{"type":"Point","coordinates":[5.85012,52.7427]},"properties":{"type":"charge","layer":"passenger","locationId":"07204EE7-CC61-4B8C-AA12-001FDE4DA35A","name":"TNLP007159 - Sportstraat 26, Luttelgeest","address":"26 Sportstraat","city":"Luttelgeest","operatorName":"TotalEnergies","maxPowerKw":13,"isMegawatt":false,"status":"UNAVAILABLE","source":"ndw"}},{"type":"Feature","geometry":{"type":"Point","coordinates":[5.655202,52.802147]},"properties":{"type":"charge","layer":"passenger","locationId":"91169874","name":"50five-S NL 03013486","address":"IJzerpad 17","city":"Noordoostpolder","operatorName":"50five","maxPowerKw":4,"isMegawatt":false,"status":"CHARGING","source":"ndw"}},{"type":"Feature","geometry":{"type":"Point","coordinates":[5.736791,52.718735]},"properties":{"type":"charge","layer":"passenger","locationId":"142C120B-A4FE-4BB9-90E8-ACA7DB037B4A","name":"TNLP006982 - Dr. W.M. Verhaarlaan 113, Emmeloord","address":"113 Dr. W.M. Verhaarlaan","city":"Emmeloord","operatorName":"TotalEnergies","maxPowerKw":13,"isMegawatt":false,"status":"UNAVAILABLE","source":"ndw"}},{"type":"Feature","geometry":{"type":"Point","coordinates":[5.862631,52.70782]},"properties":{"type":"charge","layer":"passenger","locationId":"BE9BA620-444F-43A8-AAB1-2F1093DA89C8","name":"TNLP005702 - Breestraat 28, Marknesse","address":"28 Breestraat","city":"Marknesse","operatorName":"TotalEnergies","maxPowerKw":13,"isMegawatt":false,"status":"AVAILABLE","source":"ndw"}},{"type":"Feature","geometry":{"type":"Point","coordinates":[5.74921,52.76837]},"properties":{"type":"charge","layer":"passenger","locationId":"2CFFC005-4D3A-492F-82DC-2AA758C8B682","name":"TNLP005800 - Het Midden 21, Bant","address":"21 Het Midden","city":"Bant","operatorName":"TotalEnergies","maxPowerKw":13,"isMegawatt":false,"status":"UNAVAILABLE","source":"ndw"}},{"type":"Feature","geometry":{"type":"Point","coordinates":[5.723885,52.716921]},"properties":{"type":"charge","layer":"passenger","locationId":"91056783","name":"50five-S NL 03007891","address":"Zeeuws-Vlaanderen 40","city":"Emmeloord","operatorName":"50five","maxPowerKw":4,"isMegawatt":false,"status":"AVAILABLE","source":"ndw"}},{"type":"Feature","geometry":{"type":"Point","coordinates":[5.72497,52.7104]},"properties":{"type":"charge","layer":"passenger","locationId":"318F2CF0-7042-430D-BBD4-D633A25AF201","name":"TNLP015068 - Texelstroom 12, Emmeloord","address":"12 Texelstroom","city":"Emmeloord","operatorName":"TotalEnergies","maxPowerKw":13,"isMegawatt":false,"status":"UNAVAILABLE","source":"ndw"}},{"type":"Feature","geometry":{"type":"Point","coordinates":[5.7519043,52.7665814]},"properties":{"type":"charge","layer":"passenger","locationId":"1973","name":"Shell Recharge NL Zuidwend 10","address":"Zuidwend 10","city":"Bant","operatorName":"Ubitricity","maxPowerKw":22,"isMegawatt":false,"status":"AVAILABLE","source":"ndw","priceKwh":0.267}},{"type":"Feature","geometry":{"type":"Point","coordinates":[5.85451,52.70462]},"properties":{"type":"charge","layer":"passenger","locationId":"225FD73B-E321-48CA-9541-E15822398855","name":"TNLP007915 - Oeverkruid 10, Marknesse","address":"10 Oeverkruid","city":"Marknesse","operatorName":"TotalEnergies","maxPowerKw":15,"isMegawatt":false,"status":"AVAILABLE","source":"ndw"}},{"type":"Feature","geometry":{"type":"Point","coordinates":[5.645087,52.720166]},"properties":{"type":"charge","layer":"passenger","locationId":"C8051B23-4665-4D6C-A11D-C7F510E637AD","name":"Eneco eMobility Vaartweg 44 Espel","address":"Vaartweg 44","city":"Espel","operatorName":"Eneco","maxPowerKw":22,"isMegawatt":false,"status":"AVAILABLE","source":"ndw","priceKwh":0.5}},{"type":"Feature","geometry":{"type":"Point","coordinates":[5.73868,52.725153]},"properties":{"type":"charge","layer":"passenger","locationId":"66d8085ff8e74c001c26b219","name":"W Meints's station","address":"theodoor karel van lohuizensingel 1","city":"Emmeloord","operatorName":"E-Flux by Road","maxPowerKw":11,"isMegawatt":false,"status":"AVAILABLE","source":"ndw","priceKwh":0.48}},{"type":"Feature","geometry":{"type":"Point","coordinates":[5.729743,52.714485]},"properties":{"type":"charge","layer":"passenger","locationId":"5317B634-29F0-4F4C-9E56-D98372E11041","name":"TNLP006343 - Reggestraat 2, Emmeloord","address":"2 Reggestraat","city":"Emmeloord","operatorName":"TotalEnergies","maxPowerKw":15,"isMegawatt":false,"status":"UNAVAILABLE","source":"ndw"}},{"type":"Feature","geometry":{"type":"Point","coordinates":[5.7380903,52.7016764]},"properties":{"type":"charge","layer":"passenger","locationId":"1102","name":"Shell Recharge NL Zuiderkroon 12","address":"Zuiderkroon 12","city":"Emmeloord","operatorName":"Ubitricity","maxPowerKw":22,"isMegawatt":false,"status":"AVAILABLE","source":"ndw","priceKwh":0.267}},{"type":"Feature","geometry":{"type":"Point","coordinates":[5.915497,52.645025]},"properties":{"type":"charge","layer":"passenger","locationId":"67c844d0e37ae2bbf749e25a","name":"Frans van Egmond 's station","address":"Zwartemeerpad 6","city":"Kraggenburg","operatorName":"E-Flux by Road","maxPowerKw":22,"isMegawatt":false,"status":"AVAILABLE","source":"ndw","priceKwh":0.43}},{"type":"Feature","geometry":{"type":"Point","coordinates":[5.726462,52.7209]},"properties":{"type":"charge","layer":"passenger","locationId":"2b12b68ee5ea8feb310b9d7b174827af","name":"Beijerland 39","address":"Beijerland 39","city":"Emmeloord","operatorName":"Vattenfall InCharge","maxPowerKw":11,"isMegawatt":false,"status":"AVAILABLE","source":"ndw","priceKwh":0.2805}},{"type":"Feature","geometry":{"type":"Point","coordinates":[5.760178,52.709164]},"properties":{"type":"charge","layer":"passenger","locationId":"7B373529-4BDF-4023-AA8B-6452999EDC69","name":"TNLP015070 - Koggestraat 6, Emmeloord","address":"6 Koggestraat","city":"Emmeloord","operatorName":"TotalEnergies","maxPowerKw":13,"isMegawatt":false,"status":"UNAVAILABLE","source":"ndw"}},{"type":"Feature","geometry":{"type":"Point","coordinates":[5.75485,52.692707]},"properties":{"type":"charge","layer":"passenger","locationId":"3964758","name":"Laadnet Suplacon","address":"Assemblageweg 11","city":"Emmeloord","operatorName":"Laadnet","maxPowerKw":22,"isMegawatt":false,"status":"AVAILABLE","source":"ndw"}},{"type":"Feature","geometry":{"type":"Point","coordinates":[5.774412,52.714882]},"properties":{"type":"charge","layer":"passenger","locationId":"65ea0430deddd2001b72e784","name":"Heftruckcentrum Post b.v","address":"Schelling  1","city":"1","operatorName":"E-Flux by Road","maxPowerKw":19,"isMegawatt":false,"status":"AVAILABLE","source":"ndw","priceKwh":0.44}},{"type":"Feature","geometry":{"type":"Point","coordinates":[5.666694,52.625897]},"properties":{"type":"charge","layer":"passenger","locationId":"50469","name":"Fastned De Abt","address":"De Abt A6","city":"Nagele","operatorName":"Fastned","maxPowerKw":150,"isMegawatt":false,"status":"CHARGING","source":"ndw","priceKwh":0.6364}},{"type":"Feature","geometry":{"type":"Point","coordinates":[5.69582,52.80262]},"properties":{"type":"charge","layer":"passenger","locationId":"a7e485121614a2800e061e0035955147","name":"Sportweg 52","address":"Sportweg 52","city":"Rutten","operatorName":"Vattenfall InCharge","maxPowerKw":11,"isMegawatt":false,"status":"AVAILABLE","source":"ndw","priceKwh":0.2805}},{"type":"Feature","geometry":{"type":"Point","coordinates":[5.758344,52.709873]},"properties":{"type":"charge","layer":"passenger","locationId":"10F25D22-7EBB-414F-A9B9-4A30BDD433DC","name":"TNLP034162 - Cornelis Dirkszplein 41, Emmeloord","address":"41 Cornelis Dirkszplein","city":"Emmeloord","operatorName":"TotalEnergies","maxPowerKw":13,"isMegawatt":false,"status":"AVAILABLE","source":"ndw"}},{"type":"Feature","geometry":{"type":"Point","coordinates":[5.763516,52.700138]},"properties":{"type":"charge","layer":"passenger","locationId":"3705284","name":"Laadnet Emmeloord","address":"Spakenburgstraat 16","city":"Emmeloord","operatorName":"Laadnet","maxPowerKw":22,"isMegawatt":false,"status":"UNAVAILABLE","source":"ndw"}},{"type":"Feature","geometry":{"type":"Point","coordinates":[5.659831,52.751766]},"properties":{"type":"charge","layer":"passenger","locationId":"4351010","name":"Laadnet Fa van der Wal Holding Creil B.V.","address":"Noordermiddenweg 19","city":"Creil","operatorName":"Laadnet","maxPowerKw":22,"isMegawatt":false,"status":"UNAVAILABLE","source":"ndw"}},{"type":"Feature","geometry":{"type":"Point","coordinates":[5.757042,52.712357]},"properties":{"type":"charge","layer":"passenger","locationId":"64be3803c37d85001c15344d","name":"Triade Vitree Noordzijde","address":"Noordzijde  5","city":"Emmeloord","operatorName":"E-Flux by Road","maxPowerKw":22,"isMegawatt":false,"status":"AVAILABLE","source":"ndw","priceKwh":0.53}},{"type":"Feature","geometry":{"type":"Point","coordinates":[5.802822,52.754948]},"properties":{"type":"charge","layer":"passenger","locationId":"91149672","name":"50five-S NL 04000631","address":"Burchtweg 17","city":"Bant","operatorName":"50five","maxPowerKw":7,"isMegawatt":false,"status":"AVAILABLE","source":"ndw"}},{"type":"Feature","geometry":{"type":"Point","coordinates":[5.75054,52.694289]},"properties":{"type":"charge","layer":"passenger","locationId":"6464bc21365e240012709969","name":"Profyto EM-LP2","address":"Revisieweg 3","city":"Emmeloord","operatorName":"E-Flux by Road","maxPowerKw":22,"isMegawatt":false,"status":"AVAILABLE","source":"ndw","priceKwh":0.43}},{"type":"Feature","geometry":{"type":"Point","coordinates":[5.748572,52.676912]},"properties":{"type":"charge","layer":"passenger","locationId":"91107296","name":"50five-S NL 08101874","address":"Hannie Schaftweg 12","city":"Emmeloord","operatorName":"50five","maxPowerKw":11,"isMegawatt":false,"status":"UNAVAILABLE","source":"ndw"}},{"type":"Feature","geometry":{"type":"Point","coordinates":[5.89965,52.66349]},"properties":{"type":"charge","layer":"passenger","locationId":"D4B1B649-D0A0-44AE-8C4C-7AC8FB1D5786","name":"TNLP005906 - Dam 2, Kraggenburg","address":"2 Dam","city":"Kraggenburg","operatorName":"TotalEnergies","maxPowerKw":15,"isMegawatt":false,"status":"AVAILABLE","source":"ndw"}},{"type":"Feature","geometry":{"type":"Point","coordinates":[5.7267139,52.7137817]},"properties":{"type":"charge","layer":"passenger","locationId":"1046","name":"Shell Recharge NL Oosterom 10","address":"Oosterom 10","city":"Emmeloord","operatorName":"Ubitricity","maxPowerKw":22,"isMegawatt":false,"status":"AVAILABLE","source":"ndw","priceKwh":0.267}},{"type":"Feature","geometry":{"type":"Point","coordinates":[5.73557,52.71977]},"properties":{"type":"charge","layer":"passenger","locationId":"A38DCE33-4EB4-44AB-BEB9-FC5F196C53C6","name":"TNLP006182 - Hooglandpad 10, Emmeloord","address":"10 Hooglandpad","city":"Emmeloord","operatorName":"TotalEnergies","maxPowerKw":13,"isMegawatt":false,"status":"UNAVAILABLE","source":"ndw"}},{"type":"Feature","geometry":{"type":"Point","coordinates":[5.901033,52.660715]},"properties":{"type":"charge","layer":"passenger","locationId":"91045913","name":"50five-S NL 17B23242","address":"Zwolse Diep 14","city":"Kraggenburg","operatorName":"50five","maxPowerKw":11,"isMegawatt":false,"status":"UNAVAILABLE","source":"ndw"}},{"type":"Feature","geometry":{"type":"Point","coordinates":[5.735951,52.70219]},"properties":{"type":"charge","layer":"passenger","locationId":"E7DEA3AD-7FBB-4CA0-9B67-5CF684EA7CE5","name":"TNLP008172 - Noorderkroon 1, Emmeloord","address":"1 Noorderkroon","city":"Emmeloord","operatorName":"TotalEnergies","maxPowerKw":13,"isMegawatt":false,"status":"UNAVAILABLE","source":"ndw"}},{"type":"Feature","geometry":{"type":"Point","coordinates":[5.748429,52.711136]},"properties":{"type":"charge","layer":"passenger","locationId":"5071CE05-76C3-4EC8-8770-934562276CFB","name":"TNLP007849 - Duizendknoopstraat 6, Emmeloord","address":"6 Duizendknoopstraat","city":"Emmeloord","operatorName":"TotalEnergies","maxPowerKw":13,"isMegawatt":false,"status":"AVAILABLE","source":"ndw"}},{"type":"Feature","geometry":{"type":"Point","coordinates":[5.745429,52.697403]},"properties":{"type":"charge","layer":"passenger","locationId":"62fb7d552df6228d936bdb0c","name":"Parking bezoekers","address":"Randweg 14","city":"Emmeloord","operatorName":"Heijmans","maxPowerKw":22,"isMegawatt":false,"status":"AVAILABLE","source":"ndw","priceKwh":0.38}},{"type":"Feature","geometry":{"type":"Point","coordinates":[5.790245,52.716322]},"properties":{"type":"charge","layer":"passenger","locationId":"6440fc10444c470012db60cc","name":"Franc 64 P2","address":"Franc 64","city":"Emmeloord","operatorName":"E-Flux by Road","maxPowerKw":22,"isMegawatt":false,"status":"AVAILABLE","source":"ndw","priceKwh":0.542}},{"type":"Feature","geometry":{"type":"Point","coordinates":[5.747268,52.687513]},"properties":{"type":"charge","layer":"passenger","locationId":"91179834","name":"50five-S NL Emmeloord, Verlengde Gildenweg 14","address":"Verlengde Gildenweg 14","city":"Emmeloord","operatorName":"50five","maxPowerKw":11,"isMegawatt":false,"status":"AVAILABLE","source":"ndw"}},{"type":"Feature","geometry":{"type":"Point","coordinates":[5.747988,52.727074]},"properties":{"type":"charge","layer":"passenger","locationId":"91105366","name":"50five-S NL 04001150","address":"Jeanne D'arclaan 185","city":"Emmeloord","operatorName":"50five","maxPowerKw":7,"isMegawatt":false,"status":"AVAILABLE","source":"ndw"}},{"type":"Feature","geometry":{"type":"Point","coordinates":[5.784273,52.713012]},"properties":{"type":"charge","layer":"passenger","locationId":"673cae467c66768866b80973","name":"TVK Instructie BV","address":"Drachme  2","city":"Emmeloord","operatorName":"E-Flux by Road","maxPowerKw":18,"isMegawatt":false,"status":"AVAILABLE","source":"ndw","priceKwh":0.53}},{"type":"Feature","geometry":{"type":"Point","coordinates":[5.739438,52.726249]},"properties":{"type":"charge","layer":"passenger","locationId":"d6d70f5a02b388af40773459ba96089c","name":"Gerrit van der Heidehage 3","address":"Gerrit van der Heidehage 3","city":"Emmeloord","operatorName":"Vattenfall InCharge","maxPowerKw":11,"isMegawatt":false,"status":"AVAILABLE","source":"ndw","priceKwh":0.2805}},{"type":"Feature","geometry":{"type":"Point","coordinates":[5.675102,52.677834]},"properties":{"type":"charge","layer":"passenger","locationId":"BDD15D3E-27D5-4FBC-BDEC-EB1AA37B4925","name":"TNLP009901 - Vossenburcht 1, Tollebeek","address":"1 Vossenburcht","city":"Tollebeek","operatorName":"TotalEnergies","maxPowerKw":13,"isMegawatt":false,"status":"UNAVAILABLE","source":"ndw"}},{"type":"Feature","geometry":{"type":"Point","coordinates":[5.732633,52.713318]},"properties":{"type":"charge","layer":"passenger","locationId":"8CF03E48-DA6E-4340-A433-BE3BB1A5F769","name":"TNLP009202 - Atlantischestraat 18, Emmeloord","address":"18 Atlantischestraat","city":"Emmeloord","operatorName":"TotalEnergies","maxPowerKw":13,"isMegawatt":false,"status":"UNAVAILABLE","source":"ndw"}},{"type":"Feature","geometry":{"type":"Point","coordinates":[5.863811,52.703903]},"properties":{"type":"charge","layer":"passenger","locationId":"ABB0331F-6C57-4CAB-B476-5ABC5055D716","name":"TNLP034600 - Moerasstraat 17, Marknesse","address":"17 Moerasstraat","city":"Marknesse","operatorName":"TotalEnergies","maxPowerKw":13,"isMegawatt":false,"status":"AVAILABLE","source":"ndw"}},{"type":"Feature","geometry":{"type":"Point","coordinates":[5.7409,52.70407]},"properties":{"type":"charge","layer":"passenger","locationId":"B95CFFBA-6F09-4C98-8CD4-E4C101F3B577","name":"TNLP007808 - Pallasstraat 159, Emmeloord","address":"159 Pallasstraat","city":"Emmeloord","operatorName":"TotalEnergies","maxPowerKw":15,"isMegawatt":false,"status":"AVAILABLE","source":"ndw"}},{"type":"Feature","geometry":{"type":"Point","coordinates":[5.756077,52.70615]},"properties":{"type":"charge","layer":"passenger","locationId":"37034E90-B713-4ED0-998C-5E70D88F8263","name":"TNLP008752 - Andijkstraat 25, Emmeloord","address":"25 Andijkstraat","city":"Emmeloord","operatorName":"TotalEnergies","maxPowerKw":14,"isMegawatt":false,"status":"AVAILABLE","source":"ndw"}},{"type":"Feature","geometry":{"type":"Point","coordinates":[5.750722,52.694367]},"properties":{"type":"charge","layer":"passenger","locationId":"6464b05e365e2400126dd5de","name":"Profyto EM-LP1","address":"Revisieweg 3","city":"Emmeloord","operatorName":"E-Flux by Road","maxPowerKw":22,"isMegawatt":false,"status":"AVAILABLE","source":"ndw","priceKwh":0.43}},{"type":"Feature","geometry":{"type":"Point","coordinates":[5.743504,52.709457]},"properties":{"type":"charge","layer":"passenger","locationId":"881D4CFE-98E9-431C-9288-818F72011F3B","name":"TNLP009284 - de Jura 6, Emmeloord","address":"6 de Jura","city":"Emmeloord","operatorName":"TotalEnergies","maxPowerKw":13,"isMegawatt":false,"status":"UNAVAILABLE","source":"ndw"}},{"type":"Feature","geometry":{"type":"Point","coordinates":[5.77928,52.711925]},"properties":{"type":"charge","layer":"passenger","locationId":"66465526","name":"Laadpaal24 Agrico B.V.","address":"Duit 15","city":"Emmeloord","operatorName":"Laadpaal24","maxPowerKw":11,"isMegawatt":false,"status":"AVAILABLE","source":"ndw"}},{"type":"Feature","geometry":{"type":"Point","coordinates":[5.783704,52.710474]},"properties":{"type":"charge","layer":"passenger","locationId":"3290418","name":"Laadnet Tranemo Workwear Benelux","address":"Ecopark 45","city":"Emmeloord","operatorName":"Laadnet","maxPowerKw":22,"isMegawatt":false,"status":"AVAILABLE","source":"ndw"}},{"type":"Feature","geometry":{"type":"Point","coordinates":[5.741945,52.719234]},"properties":{"type":"charge","layer":"passenger","locationId":"D803BB98-5E0D-4877-8276-D08AADA5E727","name":"TNLP034604 - Oostermoer 30, Emmeloord","address":"30 Oostermoer","city":"Emmeloord","operatorName":"TotalEnergies","maxPowerKw":13,"isMegawatt":false,"status":"UNAVAILABLE","source":"ndw"}},{"type":"Feature","geometry":{"type":"Point","coordinates":[5.737289,52.707195]},"properties":{"type":"charge","layer":"passenger","locationId":"DE529F6F-2431-49BA-B9AE-C56F53C0326C","name":"TNLP009146 - Nijenbeek 24, Emmeloord","address":"24 Nijenbeek","city":"Emmeloord","operatorName":"TotalEnergies","maxPowerKw":15,"isMegawatt":false,"status":"AVAILABLE","source":"ndw"}},{"type":"Feature","geometry":{"type":"Point","coordinates":[5.8991495,52.6606956]},"properties":{"type":"charge","layer":"passenger","locationId":"1682","name":"Shell Recharge NL Jacob Bruintjesstraat 5","address":"Jacob Bruintjesstraat 5","city":"Kraggenburg","operatorName":"Ubitricity","maxPowerKw":22,"isMegawatt":false,"status":"AVAILABLE","source":"ndw","priceKwh":0.267}},{"type":"Feature","geometry":{"type":"Point","coordinates":[5.743454,52.711125]},"properties":{"type":"charge","layer":"passenger","locationId":"3641910","name":"Laadnet Stichting Speciaal en Voortgezet Speciaal Onderwijs voor de Noordoostpolder e.o.","address":"Europalaan 148","city":"Emmeloord","operatorName":"Laadnet","maxPowerKw":22,"isMegawatt":false,"status":"AVAILABLE","source":"ndw"}},{"type":"Feature","geometry":{"type":"Point","coordinates":[5.660855,52.7649]},"properties":{"type":"charge","layer":"passenger","locationId":"9C32C98A-EFA8-43B1-820E-640CAC073BCB","name":"PP005499 - Bisschopstraat 5, Creil","address":"5 Bisschopstraat","city":"Creil","operatorName":"TotalEnergies","maxPowerKw":15,"isMegawatt":false,"status":"AVAILABLE","source":"ndw"}},{"type":"Feature","geometry":{"type":"Point","coordinates":[5.85316,52.70529]},"properties":{"type":"charge","layer":"passenger","locationId":"be4ea450858c93cb2bbb23bc241d57cf","name":"Gentiaan 12","address":"Gentiaan 12","city":"Marknesse","operatorName":"Vattenfall InCharge","maxPowerKw":11,"isMegawatt":false,"status":"AVAILABLE","source":"ndw","priceKwh":0.2805}},{"type":"Feature","geometry":{"type":"Point","coordinates":[5.745848,52.72647]},"properties":{"type":"charge","layer":"passenger","locationId":"CE7EE411-D49D-435D-A9F1-BE1A5CC5908F","name":"TNLP009288 - Schweitzersingel 2, Emmeloord","address":"2 Schweitzersingel","city":"Emmeloord","operatorName":"TotalEnergies","maxPowerKw":15,"isMegawatt":false,"status":"AVAILABLE","source":"ndw"}},{"type":"Feature","geometry":{"type":"Point","coordinates":[5.7576395,52.7062571]},"properties":{"type":"charge","layer":"passenger","locationId":"2059","name":"Shell Recharge NL Andijkstraat 66","address":"Andijkstraat 66","city":"Emmeloord","operatorName":"Ubitricity","maxPowerKw":22,"isMegawatt":false,"status":"AVAILABLE","source":"ndw","priceKwh":0.267}},{"type":"Feature","geometry":{"type":"Point","coordinates":[5.749248,52.697585]},"properties":{"type":"charge","layer":"passenger","locationId":"63ca5b870c14040012a76526","name":"Vijvermeester","address":"Transportweg 2","city":"Emmeloord","operatorName":"E-Flux by Road","maxPowerKw":22,"isMegawatt":false,"status":"UNAVAILABLE","source":"ndw","priceKwh":1.03}},{"type":"Feature","geometry":{"type":"Point","coordinates":[5.72377,52.64348]},"properties":{"type":"charge","layer":"passenger","locationId":"95FFC1DB-5AE5-47E7-BBBB-F8D59A89DD1B","name":"TNLP006988 - Ring 98, Nagele","address":"98 Ring","city":"Nagele","operatorName":"TotalEnergies","maxPowerKw":15,"isMegawatt":false,"status":"CHARGING","source":"ndw"}},{"type":"Feature","geometry":{"type":"Point","coordinates":[5.7559,52.7151]},"properties":{"type":"charge","layer":"passenger","locationId":"3828177","name":"Laadnet Thuis","address":"Paltrokmolen 29","city":"Zwolle","operatorName":"Laadnet","maxPowerKw":22,"isMegawatt":false,"status":"AVAILABLE","source":"ndw"}},{"type":"Feature","geometry":{"type":"Point","coordinates":[5.698979,52.80583]},"properties":{"type":"charge","layer":"passenger","locationId":"12aaa99c47cd885fb8d2b13acf904e3a","name":"Buitenom 31","address":"Buitenom 31","city":"Rutten","operatorName":"Vattenfall InCharge","maxPowerKw":11,"isMegawatt":false,"status":"AVAILABLE","source":"ndw","priceKwh":0.2805}},{"type":"Feature","geometry":{"type":"Point","coordinates":[5.7646719,52.7098887]},"properties":{"type":"charge","layer":"passenger","locationId":"1066","name":"Shell Recharge NL Barkstraat 21","address":"Barkstraat 21","city":"Emmeloord","operatorName":"Ubitricity","maxPowerKw":22,"isMegawatt":false,"status":"AVAILABLE","source":"ndw","priceKwh":0.267}},{"type":"Feature","geometry":{"type":"Point","coordinates":[5.754906,52.710321]},"properties":{"type":"charge","layer":"passenger","locationId":"62bb0e0bdf06422c6bfe0628","name":"Shell Lange Dreef - Van Staveren","address":"Lange Dreef 1","city":"Emmeloord","operatorName":"E-Flux by Road","maxPowerKw":22,"isMegawatt":false,"status":"AVAILABLE","source":"ndw","priceKwh":0.68}},{"type":"Feature","geometry":{"type":"Point","coordinates":[5.734275,52.709377]},"properties":{"type":"charge","layer":"passenger","locationId":"814196BF-4705-404F-8076-07142299CB44","name":"TNLP009245 - Egeïschestraat 40, Emmeloord","address":"40 Egeïschestraat","city":"Emmeloord","operatorName":"TotalEnergies","maxPowerKw":15,"isMegawatt":false,"status":"CHARGING","source":"ndw"}},{"type":"Feature","geometry":{"type":"Point","coordinates":[5.73981,52.729935]},"properties":{"type":"charge","layer":"passenger","locationId":"A8A66F52-F978-4B61-90FC-B1CDF7BCC96D","name":"TNLP008237 - Johanna Naberhage 2, Emmeloord","address":"2 Johanna Naberhage","city":"Emmeloord","operatorName":"TotalEnergies","maxPowerKw":13,"isMegawatt":false,"status":"UNAVAILABLE","source":"ndw"}},{"type":"Feature","geometry":{"type":"Point","coordinates":[5.751993,52.708578]},"properties":{"type":"charge","layer":"passenger","locationId":"047b1f15a7f641e69c35","name":"Emmeloord - ZONL - Smeden","address":"Smeden","city":"Emmeloord","operatorName":"Opcharge","maxPowerKw":22,"isMegawatt":false,"status":"AVAILABLE","source":"ndw","priceKwh":0.49}},{"type":"Feature","geometry":{"type":"Point","coordinates":[5.735382,52.705517]},"properties":{"type":"charge","layer":"passenger","locationId":"093728E7-7329-419D-968F-282F86F09F23","name":"TNLP034089 - Old Putten 28, Emmeloord","address":"28 Old Putten","city":"Emmeloord","operatorName":"TotalEnergies","maxPowerKw":13,"isMegawatt":false,"status":"UNAVAILABLE","source":"ndw"}},{"type":"Feature","geometry":{"type":"Point","coordinates":[5.750604,52.694308]},"properties":{"type":"charge","layer":"passenger","locationId":"6698e83836cf41001cc58865","name":"Profyto EM-LP3","address":"Reviseweg 3","city":"Emmeloord","operatorName":"E-Flux by Road","maxPowerKw":11,"isMegawatt":false,"status":"AVAILABLE","source":"ndw","priceKwh":0.43}},{"type":"Feature","geometry":{"type":"Point","coordinates":[5.778389,52.711476]},"properties":{"type":"charge","layer":"passenger","locationId":"4242706","name":"Laadnet Nominé Vastgoed Emmeloord B.V.","address":"Duit 14","city":"Emmeloord","operatorName":"Laadnet","maxPowerKw":22,"isMegawatt":false,"status":"AVAILABLE","source":"ndw"}},{"type":"Feature","geometry":{"type":"Point","coordinates":[5.740142,52.72003]},"properties":{"type":"charge","layer":"passenger","locationId":"1C3F1CF1-0527-49AA-97E9-BECCE7225935","name":"TNLP005899 - Westerwolde 14, Emmeloord","address":"14 Westerwolde","city":"Emmeloord","operatorName":"TotalEnergies","maxPowerKw":13,"isMegawatt":false,"status":"UNAVAILABLE","source":"ndw"}},{"type":"Feature","geometry":{"type":"Point","coordinates":[5.727791,52.720734]},"properties":{"type":"charge","layer":"passenger","locationId":"1992A8F3-4C13-4C77-82BD-21948B7AFC3B","name":"TNLP008113 - Haarlemmermeer 1, Emmeloord","address":"1 Haarlemmermeer","city":"Emmeloord","operatorName":"TotalEnergies","maxPowerKw":13,"isMegawatt":false,"status":"UNAVAILABLE","source":"ndw"}},{"type":"Feature","geometry":{"type":"Point","coordinates":[5.836112,52.638493]},"properties":{"type":"charge","layer":"passenger","locationId":"06771959-E6E4-436F-A180-8EF189831354","name":"TNLP009627 - Anemoon 8, Ens","address":"8 Anemoon","city":"Ens","operatorName":"TotalEnergies","maxPowerKw":15,"isMegawatt":false,"status":"CHARGING","source":"ndw"}},{"type":"Feature","geometry":{"type":"Point","coordinates":[5.725237,52.709557]},"properties":{"type":"charge","layer":"passenger","locationId":"37697F13-6577-4642-95A7-17E56733C231","name":"PP005655 - Texelstroom 43, Emmeloord","address":"43 Texelstroom","city":"Emmeloord","operatorName":"TotalEnergies","maxPowerKw":13,"isMegawatt":false,"status":"UNAVAILABLE","source":"ndw"}},{"type":"Feature","geometry":{"type":"Point","coordinates":[5.790245,52.716322]},"properties":{"type":"charge","layer":"passenger","locationId":"6440fca7b03f5a001278fc9b","name":"Franc 64 P1","address":"Franc 64","city":"Emmeloord","operatorName":"E-Flux by Road","maxPowerKw":22,"isMegawatt":false,"status":"AVAILABLE","source":"ndw","priceKwh":0.542}},{"type":"Feature","geometry":{"type":"Point","coordinates":[5.733489,52.712395]},"properties":{"type":"charge","layer":"passenger","locationId":"6E9F1202-953F-4CAA-956C-1B9200C19A32","name":"TNLP034108 - Noordzeestraat 20, Emmeloord","address":"20 Noordzeestraat","city":"Emmeloord","operatorName":"TotalEnergies","maxPowerKw":13,"isMegawatt":false,"status":"UNAVAILABLE","source":"ndw"}},{"type":"Feature","geometry":{"type":"Point","coordinates":[5.734393,52.70125]},"properties":{"type":"charge","layer":"passenger","locationId":"8B4D4EF5-AD6B-4470-8C6F-25C5ED078E2C","name":"TNLP008755 - Nasakonstraat 2, Emmeloord","address":"2 Nasakonstraat","city":"Emmeloord","operatorName":"TotalEnergies","maxPowerKw":14,"isMegawatt":false,"status":"AVAILABLE","source":"ndw"}},{"type":"Feature","geometry":{"type":"Point","coordinates":[5.757234,52.714123]},"properties":{"type":"charge","layer":"passenger","locationId":"810D48FA-7296-4E1C-BDD0-D5FE0DAA1CF7","name":"TNLP034256 - Van Diggelenstraat 66, Emmeloord","address":"66 Van Diggelenstraat","city":"Emmeloord","operatorName":"TotalEnergies","maxPowerKw":13,"isMegawatt":false,"status":"AVAILABLE","source":"ndw"}},{"type":"Feature","geometry":{"type":"Point","coordinates":[5.659139,52.767736]},"properties":{"type":"charge","layer":"passenger","locationId":"62593c2945eecf54f173f0e3","name":"Ten Brinke bv laadstation nr 1","address":"Floraweg  1","city":"CREIL","operatorName":"E-Flux by Road","maxPowerKw":22,"isMegawatt":false,"status":"AVAILABLE","source":"ndw","priceKwh":0.53}},{"type":"Feature","geometry":{"type":"Point","coordinates":[5.757855,52.712154]},"properties":{"type":"charge","layer":"passenger","locationId":"45253d9a-7c5f-407a-8a88-d04d5b92da69","name":"TNLP009157 - Van Diggelenstraat 2, Emmeloord","address":"2 Van Diggelenstraat","city":"Emmeloord","operatorName":"TotalEnergies","maxPowerKw":13,"isMegawatt":false,"status":"AVAILABLE","source":"ndw"}},{"type":"Feature","geometry":{"type":"Point","coordinates":[5.738225,52.705578]},"properties":{"type":"charge","layer":"passenger","locationId":"326F61D3-7388-4FEF-B487-A3B3A7D8335D","name":"PP005101 - Saturnusstraat 75, Emmeloord","address":"75 Saturnusstraat","city":"Emmeloord","operatorName":"TotalEnergies","maxPowerKw":13,"isMegawatt":false,"status":"UNAVAILABLE","source":"ndw"}},{"type":"Feature","geometry":{"type":"Point","coordinates":[5.749484,52.717448]},"properties":{"type":"charge","layer":"passenger","locationId":"6924658972574f53983d5fa2","name":"Firda Emmeloord","address":"Espelerlaan 74","city":"Emmeloord","operatorName":"E-Flux by Road","maxPowerKw":11,"isMegawatt":false,"status":"AVAILABLE","source":"ndw","priceKwh":0.3}},{"type":"Feature","geometry":{"type":"Point","coordinates":[5.738005,52.727414]},"properties":{"type":"charge","layer":"passenger","locationId":"91084624","name":"50five-S NL 07109426","address":"Wies Kreukniethage 28","city":"Emmeloord","operatorName":"50five","maxPowerKw":11,"isMegawatt":false,"status":"AVAILABLE","source":"ndw"}},{"type":"Feature","geometry":{"type":"Point","coordinates":[5.729759,52.7224]},"properties":{"type":"charge","layer":"passenger","locationId":"A36A40A3-358A-44CB-AE71-4E7B79140F20","name":"TNLP009985 - Schermer 1, Emmeloord","address":"1 Schermer","city":"Emmeloord","operatorName":"TotalEnergies","maxPowerKw":13,"isMegawatt":false,"status":"UNAVAILABLE","source":"ndw"}},{"type":"Feature","geometry":{"type":"Point","coordinates":[5.743304,52.72647]},"properties":{"type":"charge","layer":"passenger","locationId":"D487889A-D8ED-4F57-A476-28B29DE197C0","name":"PP005315 - Jeanne d'Arclaan 117, Emmeloord","address":"117 Jeanne d'Arclaan","city":"Emmeloord","operatorName":"TotalEnergies","maxPowerKw":13,"isMegawatt":false,"status":"UNAVAILABLE","source":"ndw"}},{"type":"Feature","geometry":{"type":"Point","coordinates":[5.727507,52.64276]},"properties":{"type":"charge","layer":"passenger","locationId":"C9CC9FE5-DA3C-49ED-B74C-C648EB4DDDDA","name":"TNLP008886 - Koolzaadhof 6, Nagele","address":"6 Koolzaadhof","city":"Nagele","operatorName":"TotalEnergies","maxPowerKw":13,"isMegawatt":false,"status":"AVAILABLE","source":"ndw"}},{"type":"Feature","geometry":{"type":"Point","coordinates":[5.732621,52.705215]},"properties":{"type":"charge","layer":"passenger","locationId":"FFAF3780-6759-4020-A0CE-F9EE08A1182F","name":"TNLP006984 - Oude Vlie 98, Emmeloord","address":"98 Oude Vlie","city":"Emmeloord","operatorName":"TotalEnergies","maxPowerKw":13,"isMegawatt":false,"status":"UNAVAILABLE","source":"ndw"}},{"type":"Feature","geometry":{"type":"Point","coordinates":[5.86188,52.70587]},"properties":{"type":"charge","layer":"passenger","locationId":"56E1881B-203F-46AA-AC3D-95C9A523D976","name":"TNLP015431 - Walcherselaan 9, Marknesse","address":"9 Walcherselaan","city":"Marknesse","operatorName":"TotalEnergies","maxPowerKw":13,"isMegawatt":false,"status":"AVAILABLE","source":"ndw"}},{"type":"Feature","geometry":{"type":"Point","coordinates":[5.743362,52.71016]},"properties":{"type":"charge","layer":"passenger","locationId":"3C8D31D7-02F3-403A-B669-B2F914246175","name":"TNLP008421 - De Kaukasus 46, Emmeloord","address":"46 De Kaukasus","city":"Emmeloord","operatorName":"TotalEnergies","maxPowerKw":14,"isMegawatt":false,"status":"AVAILABLE","source":"ndw"}},{"type":"Feature","geometry":{"type":"Point","coordinates":[5.669961,52.677547]},"properties":{"type":"charge","layer":"passenger","locationId":"92260388-B7AC-4193-ABCA-9C047015CD81","name":"TNLP009137 - Kampplaats 9, Tollebeek","address":"9 Kampplaats","city":"Tollebeek","operatorName":"TotalEnergies","maxPowerKw":15,"isMegawatt":false,"status":"AVAILABLE","source":"ndw"}},{"type":"Feature","geometry":{"type":"Point","coordinates":[5.85991,52.71184]},"properties":{"type":"charge","layer":"passenger","locationId":"179c4ae2543b2acce5e9a0334829f9d9","name":"Westervoor 23","address":"Westervoor 23","city":"Marknesse","operatorName":"Vattenfall InCharge","maxPowerKw":11,"isMegawatt":false,"status":"AVAILABLE","source":"ndw","priceKwh":0.2805}},{"type":"Feature","geometry":{"type":"Point","coordinates":[5.764,52.70538]},"properties":{"type":"charge","layer":"passenger","locationId":"0537c7e37f9789152eb6516e5fb10ab9","name":"IJsselmeerlaan 185","address":"IJsselmeerlaan 185","city":"Emmeloord","operatorName":"Vattenfall InCharge","maxPowerKw":11,"isMegawatt":false,"status":"AVAILABLE","source":"ndw","priceKwh":0.2805}},{"type":"Feature","geometry":{"type":"Point","coordinates":[5.728949,52.718136]},"properties":{"type":"charge","layer":"passenger","locationId":"846D924B-E623-480C-870B-6006836D4BF8","name":"TNLP006963 - Meijerij 9, Emmeloord","address":"9 Meijerij","city":"Emmeloord","operatorName":"TotalEnergies","maxPowerKw":15,"isMegawatt":false,"status":"AVAILABLE","source":"ndw"}},{"type":"Feature","geometry":{"type":"Point","coordinates":[5.760256,52.701156]},"properties":{"type":"charge","layer":"passenger","locationId":"815","name":"Shell Recharge NL Naardenstraat 1","address":"Naardenstraat 1","city":"Emmeloord","operatorName":"Ubitricity","maxPowerKw":22,"isMegawatt":false,"status":"AVAILABLE","source":"ndw","priceKwh":0.267}},{"type":"Feature","geometry":{"type":"Point","coordinates":[5.762169,52.70367]},"properties":{"type":"charge","layer":"passenger","locationId":"40F7864D-38F6-4FC9-8D97-69AC96DD3C53","name":"TNLP006342 - Sondelstraat 23, Emmeloord","address":"23 Sondelstraat","city":"Emmeloord","operatorName":"TotalEnergies","maxPowerKw":13,"isMegawatt":false,"status":"AVAILABLE","source":"ndw"}},{"type":"Feature","geometry":{"type":"Point","coordinates":[5.860183,52.708794]},"properties":{"type":"charge","layer":"passenger","locationId":"148BBF6B-0C66-406D-9C2A-44A51D3AD870","name":"TNLP034617 - Lange Voor 1, Marknesse","address":"1 Lange Voor","city":"Marknesse","operatorName":"TotalEnergies","maxPowerKw":13,"isMegawatt":false,"status":"AVAILABLE","source":"ndw"}},{"type":"Feature","geometry":{"type":"Point","coordinates":[5.76047,52.7045]},"properties":{"type":"charge","layer":"passenger","locationId":"BC6CD1FF-D1E3-4E4B-9C48-1769BE82DC69","name":"PP005199 - IJsselmeerlaan 45, Emmeloord","address":"45 IJsselmeerlaan","city":"Emmeloord","operatorName":"TotalEnergies","maxPowerKw":13,"isMegawatt":false,"status":"AVAILABLE","source":"ndw"}},{"type":"Feature","geometry":{"type":"Point","coordinates":[5.749854,52.726818]},"properties":{"type":"charge","layer":"passenger","locationId":"AB046BC6-514B-4B76-A504-839A0B548854","name":"TNLP008175 - Jeanne d'Arclaan 19, Emmeloord","address":"19 Jeanne d'Arclaan","city":"Emmeloord","operatorName":"TotalEnergies","maxPowerKw":15,"isMegawatt":false,"status":"AVAILABLE","source":"ndw"}},{"type":"Feature","geometry":{"type":"Point","coordinates":[5.737332,52.728692]},"properties":{"type":"charge","layer":"passenger","locationId":"d7d510efc80bf0b83a4af58d0ffd1447","name":"Van der Molenhage 14","address":"Van der Molenhage 14","city":"Emmeloord","operatorName":"Vattenfall InCharge","maxPowerKw":11,"isMegawatt":false,"status":"AVAILABLE","source":"ndw","priceKwh":0.2805}},{"type":"Feature","geometry":{"type":"Point","coordinates":[5.827835,52.638851]},"properties":{"type":"charge","layer":"passenger","locationId":"f0351be6c1545cbb70eff40f0db1bf63","name":"E.P. Seidelstraat 4","address":"E.P. Seidelstraat 4","city":"Ens","operatorName":"Vattenfall InCharge","maxPowerKw":11,"isMegawatt":false,"status":"AVAILABLE","source":"ndw","priceKwh":0.2805}},{"type":"Feature","geometry":{"type":"Point","coordinates":[5.751793,52.710392]},"properties":{"type":"charge","layer":"passenger","locationId":"3E45C777-AE37-49A6-B744-3C0ED7C6D9E0","name":"Laadplein - TNLP005791 - de Deel 22, Emmeloord","address":"22 de Deel","city":"Emmeloord","operatorName":"TotalEnergies","maxPowerKw":15,"isMegawatt":false,"status":"AVAILABLE","source":"ndw"}},{"type":"Feature","geometry":{"type":"Point","coordinates":[5.643681,52.72498]},"properties":{"type":"charge","layer":"passenger","locationId":"161BE810-0E85-4FC7-9601-9AF6305CE16E","name":"TNLP005801 - Bredehof 2, Espel","address":"2 Bredehof","city":"Espel","operatorName":"TotalEnergies","maxPowerKw":15,"isMegawatt":false,"status":"AVAILABLE","source":"ndw"}},{"type":"Feature","geometry":{"type":"Point","coordinates":[5.678512,52.679919]},"properties":{"type":"charge","layer":"passenger","locationId":"b8345597bac815037f5868a353db901e","name":"Hofjager 11","address":"Hofjager 11","city":"Tollebeek","operatorName":"Vattenfall InCharge","maxPowerKw":11,"isMegawatt":false,"status":"AVAILABLE","source":"ndw","priceKwh":0.2805}},{"type":"Feature","geometry":{"type":"Point","coordinates":[5.73176,52.720671]},"properties":{"type":"charge","layer":"passenger","locationId":"1780c50e6802b8b7728e422b72cc24d9","name":"Westfriesland 22","address":"Westfriesland 22","city":"Emmeloord","operatorName":"Vattenfall InCharge","maxPowerKw":11,"isMegawatt":false,"status":"AVAILABLE","source":"ndw","priceKwh":0.2805}},{"type":"Feature","geometry":{"type":"Point","coordinates":[5.754879,52.710439]},"properties":{"type":"charge","layer":"passenger","locationId":"62bb0f3ff7604f4d23e6fa28","name":"Shell Lange Dreef - Van Staveren","address":"Lange Dreef 1","city":"Emmeloord","operatorName":"E-Flux by Road","maxPowerKw":22,"isMegawatt":false,"status":"AVAILABLE","source":"ndw","priceKwh":0.68}},{"type":"Feature","geometry":{"type":"Point","coordinates":[5.729151,52.71157]},"properties":{"type":"charge","layer":"passenger","locationId":"DA2D6A7C-B40B-43D4-A458-0A09FD97B492","name":"TNLP015076 - Merwede 16, Emmeloord","address":"16 Merwede","city":"Emmeloord","operatorName":"TotalEnergies","maxPowerKw":13,"isMegawatt":false,"status":"UNAVAILABLE","source":"ndw"}},{"type":"Feature","geometry":{"type":"Point","coordinates":[5.731393,52.712322]},"properties":{"type":"charge","layer":"passenger","locationId":"742160D5-07E5-4F38-A280-06D7D33512E5","name":"TNLP006336 - Waalstraat 48, Emmeloord","address":"48 Waalstraat","city":"Emmeloord","operatorName":"TotalEnergies","maxPowerKw":13,"isMegawatt":false,"status":"UNAVAILABLE","source":"ndw"}},{"type":"Feature","geometry":{"type":"Point","coordinates":[5.722115,52.713661]},"properties":{"type":"charge","layer":"passenger","locationId":"e7f55390fbf4ff442215d5fcf4e7e752","name":"Waarden 2","address":"Waarden 2","city":"Emmeloord","operatorName":"Vattenfall InCharge","maxPowerKw":11,"isMegawatt":false,"status":"AVAILABLE","source":"ndw","priceKwh":0.2805}},{"type":"Feature","geometry":{"type":"Point","coordinates":[5.853323,52.741146]},"properties":{"type":"charge","layer":"passenger","locationId":"9A17D31D-1434-436D-83B9-04D63B2B965C","name":"TNLP034618 - Zonnebloemstraat 1, Luttelgeest","address":"1 Zonnebloemstraat","city":"Luttelgeest","operatorName":"TotalEnergies","maxPowerKw":13,"isMegawatt":false,"status":"UNAVAILABLE","source":"ndw"}},{"type":"Feature","geometry":{"type":"Point","coordinates":[5.824247,52.640694]},"properties":{"type":"charge","layer":"passenger","locationId":"13C2D7A3-9924-415F-AE71-6AEBD986AB9E","name":"TNLP008200 - Noorderbocht 35, Ens","address":"35 Noorderbocht","city":"Ens","operatorName":"TotalEnergies","maxPowerKw":15,"isMegawatt":false,"status":"UNAVAILABLE","source":"ndw"}},{"type":"Feature","geometry":{"type":"Point","coordinates":[5.822976,52.638657]},"properties":{"type":"charge","layer":"passenger","locationId":"96615A6E-74B6-4975-828F-C4A28C79978A","name":"PP005178 - Het Noord 20, Ens","address":"20 Het Noord","city":"Ens","operatorName":"TotalEnergies","maxPowerKw":15,"isMegawatt":false,"status":"AVAILABLE","source":"ndw"}},{"type":"Feature","geometry":{"type":"Point","coordinates":[5.745614,52.711542]},"properties":{"type":"charge","layer":"passenger","locationId":"74aed1ee12b8ea375e5693a0992230cc","name":"Zeebiesstraat 14","address":"Zeebiesstraat 14","city":"Emmeloord","operatorName":"Vattenfall InCharge","maxPowerKw":11,"isMegawatt":false,"status":"AVAILABLE","source":"ndw","priceKwh":0.2805}},{"type":"Feature","geometry":{"type":"Point","coordinates":[5.671591,52.67571]},"properties":{"type":"charge","layer":"passenger","locationId":"F63A7BB2-68C2-41DD-A0D2-A872584B6F0B","name":"TNLP006384 - Bosuil 9, Tollebeek","address":"9 Bosuil","city":"Tollebeek","operatorName":"TotalEnergies","maxPowerKw":13,"isMegawatt":false,"status":"UNAVAILABLE","source":"ndw"}},{"type":"Feature","geometry":{"type":"Point","coordinates":[5.865127,52.709812]},"properties":{"type":"charge","layer":"passenger","locationId":"4446122E-9BDA-47C0-B32E-748412ACD350","name":"TNLP009391 - Groene Zoom 36, Marknesse","address":"36 Groene Zoom","city":"Marknesse","operatorName":"TotalEnergies","maxPowerKw":15,"isMegawatt":false,"status":"CHARGING","source":"ndw"}},{"type":"Feature","geometry":{"type":"Point","coordinates":[5.752772,52.703644]},"properties":{"type":"charge","layer":"passenger","locationId":"65b8ebf531ec41001c80529e","name":"Blade Havenstraat","address":"Havenstraat 21","city":"Emmeloord","operatorName":"E-Flux by Road","maxPowerKw":11,"isMegawatt":false,"status":"AVAILABLE","source":"ndw","priceKwh":0.31}},{"type":"Feature","geometry":{"type":"Point","coordinates":[5.747854,52.72974]},"properties":{"type":"charge","layer":"passenger","locationId":"1086763D-6F02-40D3-BEC7-2355A85C2C23","name":"TNLP015351 - Niels Bohrhage 52 52, Emmeloord","address":"52 52 Niels Bohrhage","city":"Emmeloord","operatorName":"TotalEnergies","maxPowerKw":13,"isMegawatt":false,"status":"UNAVAILABLE","source":"ndw"}},{"type":"Feature","geometry":{"type":"Point","coordinates":[5.637832,52.721535]},"properties":{"type":"charge","layer":"passenger","locationId":"BAA3500F-770C-441A-9B29-1E570226C854","name":"TNLP006916 - Poldermolen 24, Espel","address":"24 Poldermolen","city":"Espel","operatorName":"TotalEnergies","maxPowerKw":15,"isMegawatt":false,"status":"UNAVAILABLE","source":"ndw"}},{"type":"Feature","geometry":{"type":"Point","coordinates":[5.738003,52.71233]},"properties":{"type":"charge","layer":"passenger","locationId":"C3467BA5-3C3B-405A-B4EB-0A5059BBB533","name":"TNLP009689 - Deltastraat 104, Emmeloord","address":"104 Deltastraat","city":"Emmeloord","operatorName":"TotalEnergies","maxPowerKw":13,"isMegawatt":false,"status":"UNAVAILABLE","source":"ndw"}},{"type":"Feature","geometry":{"type":"Point","coordinates":[5.732387,52.707184]},"properties":{"type":"charge","layer":"passenger","locationId":"B0B3219E-930F-4541-8254-E505D2C47BB7","name":"TNLP008114 - Reijdersant 10, Emmeloord","address":"10 Reijdersant","city":"Emmeloord","operatorName":"TotalEnergies","maxPowerKw":15,"isMegawatt":false,"status":"UNAVAILABLE","source":"ndw"}},{"type":"Feature","geometry":{"type":"Point","coordinates":[5.854129,52.73965]},"properties":{"type":"charge","layer":"passenger","locationId":"FAA039EB-BC6E-4CEC-835E-CADF1EC70EBD","name":"PP005152 - Rozenstraat 13, Luttelgeest","address":"13 Rozenstraat","city":"Luttelgeest","operatorName":"TotalEnergies","maxPowerKw":13,"isMegawatt":false,"status":"UNAVAILABLE","source":"ndw"}},{"type":"Feature","geometry":{"type":"Point","coordinates":[5.675436,52.739436]},"properties":{"type":"charge","layer":"passenger","locationId":"91057828","name":"50five-S NL 17B10603","address":"Onderduikersweg 42a","city":"Espel","operatorName":"50five","maxPowerKw":11,"isMegawatt":false,"status":"CHARGING","source":"ndw"}},{"type":"Feature","geometry":{"type":"Point","coordinates":[5.724407,52.721573]},"properties":{"type":"charge","layer":"passenger","locationId":"A4CE4543-7014-4330-A8D7-6A67B7478D62","name":"TNLP015349 - Rozenburg 34 34, Emmeloord","address":"34 34 Rozenburg","city":"Emmeloord","operatorName":"TotalEnergies","maxPowerKw":13,"isMegawatt":false,"status":"UNAVAILABLE","source":"ndw"}},{"type":"Feature","geometry":{"type":"Point","coordinates":[5.747167,52.726856]},"properties":{"type":"charge","layer":"passenger","locationId":"91105932","name":"50five-S NL 04002645","address":"Jeanne D'arclaan 185","city":"Emmeloord","operatorName":"50five","maxPowerKw":7,"isMegawatt":false,"status":"UNAVAILABLE","source":"ndw"}},{"type":"Feature","geometry":{"type":"Point","coordinates":[5.74873,52.77007]},"properties":{"type":"charge","layer":"passenger","locationId":"aa86bac2169da5b271ea28f526c1538f","name":"Noordakker 44","address":"Noordakker 44","city":"Bant","operatorName":"Vattenfall InCharge","maxPowerKw":11,"isMegawatt":false,"status":"AVAILABLE","source":"ndw","priceKwh":0.2805}},{"type":"Feature","geometry":{"type":"Point","coordinates":[5.74235,52.818501]},"properties":{"type":"charge","layer":"freight","locationId":"31219","name":"Fastned Lemsterhop","address":"Lemsterhop A6","city":"Rutten","operatorName":"Fastned","maxPowerKw":400,"isMegawatt":false,"status":"AVAILABLE","source":"ndw","priceKwh":0.6364,"freightKind":"hpc","freightReason":"power"}},{"type":"Feature","geometry":{"type":"Point","coordinates":[5.68918,52.66085]},"properties":{"type":"charge","layer":"freight","locationId":"50464","name":"Fastned Han Stijkel","address":"Han Stijkel A6","city":"Nagele","operatorName":"Fastned","maxPowerKw":400,"isMegawatt":false,"status":"AVAILABLE","source":"ndw","priceKwh":0.6364,"freightKind":"hpc","freightReason":"power"}},{"type":"Feature","geometry":{"type":"Point","coordinates":[5.759275,52.78436]},"properties":{"type":"charge","layer":"freight","locationId":"31145","name":"Fastned Wellerzand","address":"Wellerzand A6","city":"Bant","operatorName":"Fastned","maxPowerKw":400,"isMegawatt":false,"status":"AVAILABLE","source":"ndw","priceKwh":0.6364,"freightKind":"hpc","freightReason":"power"}},{"type":"Feature","geometry":{"type":"MultiPolygon","coordinates":[[[[5.843010284635768,52.61075057893892],[5.864965213077127,52.615615410255],[5.867834904094372,52.6160699267714],[5.869965357252081,52.61562429886953],[5.870433043410373,52.616421379429426],[5.886482709166121,52.61983973609856],[5.88790908354676,52.62037130734907],[5.892889937521583,52.61968974387242],[5.893979350741152,52.618504804531774],[5.8963000214558745,52.61797460749212],[5.888086045574046,52.61686284170869],[5.843010284635768,52.61075057893892]]],[[[6.003913376085744,52.64353887176809],[5.999269568584293,52.6457012570715],[5.999152338269278,52.64777282637655],[6.002669691368864,52.648711626707154],[6.007987906564013,52.647970158314514],[6.012316762890987,52.646555893932835],[6.013874469523464,52.645685566525415],[6.010563857027036,52.64244015781465],[6.008764927745179,52.642274479028586],[6.003913376085744,52.64353887176809]]],[[[5.787376440938092,52.80896935439919],[5.789807612116147,52.80369180900809],[5.7951779748440355,52.80652216357268],[5.803475323616073,52.79685898638535],[5.8127263678473815,52.79118666480671],[5.81865736185522,52.787635964044526],[5.81879262610316,52.78469686665616],[5.8281473668277215,52.78554555342984],[5.8360551411589405,52.78563530335277],[5.837311402879043,52.785024092272],[5.8416192437105945,52.78513858262481],[5.843390759197985,52.78446381821401],[5.850297296841418,52.784530999423914],[5.862084077219453,52.78102274328877],[5.879939288214304,52.773091749150424],[5.885137308760179,52.769301036900764],[5.892551099056486,52.76595989213154],[5.894383588225555,52.76513390118101],[5.896086186527629,52.762822215591214],[5.8977626396547675,52.76213507205382],[5.900054902273369,52.7611954611106],[5.906010233348628,52.761325786348905],[5.921830342269252,52.75116997907598],[5.930151467013704,52.73958643242578],[5.9355604213486135,52.730252043732534],[5.94117084263705,52.71755097827726],[5.941886316725408,52.71594936331611],[5.942556137097061,52.71500233059238],[5.951162507305849,52.711919572428016],[5.952092881558459,52.71087657338843],[5.95531667708957,52.707262124335905],[5.954840193878023,52.7037679677289],[5.959012855891362,52.70386377533281],[5.964826243802291,52.69810476922117],[5.965156666254969,52.69357005278782],[5.962106052389956,52.69035098889481],[5.959401404791061,52.689950619397216],[5.952741557179863,52.685240305060844],[5.951510084256007,52.68495218299622],[5.9495203881891765,52.68571373932621],[5.946849162900491,52.68400304265421],[5.94470885643311,52.6827128372099],[5.945378262871438,52.68230168124117],[5.940161850100538,52.679223452006994],[5.93387162960321,52.675510677242464],[5.932751933941659,52.67318913041378],[5.933085370579875,52.67126371551407],[5.9345948292647295,52.6697818108257],[5.935149217870707,52.66923399651229],[5.939727232638657,52.66883544497538],[5.940102491069888,52.670426770181315],[5.941594876251098,52.670516884223744],[5.954018686155441,52.66767426437577],[5.95817386449606,52.667809685652855],[5.961796309594967,52.66729669738441],[5.96305564583147,52.66639851903808],[5.9649697328092035,52.6661545775928],[5.966853013738493,52.666580393141096],[5.970815344222739,52.66518902186373],[5.974668613783446,52.66271410501001],[5.979547762177914,52.66049575348272],[5.982653160616871,52.65794391541507],[5.981865802630094,52.65831424050568],[5.981239405815181,52.658091606102964],[5.983829351249908,52.65632602704284],[5.983738059337977,52.65560810687858],[5.968257069503872,52.64122130205594],[5.9637327565173965,52.6387402418447],[5.884885901295322,52.62280409143508],[5.8317875576699025,52.6125388011174],[5.7715637094973316,52.61276177219078],[5.750120694348428,52.61280803113347],[5.748595385855708,52.61226417799792],[5.745705916946758,52.612344309135196],[5.745765557965382,52.61122842368875],[5.749890137026109,52.61113075147685],[5.750201582248033,52.61074444069204],[5.745436316431822,52.61083286078399],[5.743303366323722,52.612410262095956],[5.7415990154279255,52.61211873557157],[5.73990827969562,52.61284666252979],[5.663327526564694,52.61304608405597],[5.658304006056418,52.6137204035614],[5.653562310317705,52.61546007825074],[5.651210509978936,52.614766508587195],[5.650038280067937,52.61559391502993],[5.6516458305001995,52.61697348907465],[5.629892402275229,52.63771675583927],[5.630443836590485,52.638402800864895],[5.6411020263256395,52.64254777864014],[5.636279924313008,52.647219676310556],[5.636132191081871,52.64961182406028],[5.648866700536067,52.64955091005975],[5.650016571957805,52.6543108048746],[5.642832573224403,52.66055109248486],[5.6553805522898815,52.665950374446],[5.641589937837176,52.678014752723165],[5.643718203150466,52.682614379625754],[5.6258042852748025,52.68260674725657],[5.6126247410621595,52.681345931655855],[5.609530101488371,52.680420092908435],[5.606930628905352,52.68241643859928],[5.604311638425822,52.682310066149974],[5.604311250877701,52.68323686464255],[5.594552055095608,52.68329991542994],[5.594313256178982,52.67627446159449],[5.5933210224447905,52.67628052199948],[5.593847882781646,52.70218256487006],[5.594878909862215,52.74800068003455],[5.595172901538701,52.76262603769782],[5.59658378259057,52.76605833736457],[5.633593685593979,52.802222476222255],[5.659722019575419,52.8276686235066],[5.663405816181137,52.83008710121739],[5.669587883641572,52.8317343000422],[5.709815772221746,52.83466487756623],[5.712029357481831,52.8356941889001],[5.713082180328173,52.83802768780208],[5.722699921539784,52.836075073309324],[5.728664311746872,52.83339844338408],[5.729574869293127,52.83372698909852],[5.727248153763831,52.8369166321707],[5.724824725917864,52.84362374253412],[5.724682830981626,52.843982677243154],[5.74571982999059,52.8402366492978],[5.7488082744242535,52.83968000184113],[5.784383102659829,52.81747611070471],[5.787376440938092,52.80896935439919]]]]},"properties":{"type":"boundary","gemeente":"Noordoostpolder","code":"GM0171"}}]}