{"type":"FeatureCollection","metadata":{"gemeente":"Ooststellingwerf","slug":"ooststellingwerf","code":"GM0085","generated_at":"2026-08-08T12:05:52.020Z","total_passenger":53,"total_freight":0,"bounds":[6.084847805142265,52.90635648304339,6.427615228741218,53.075279961784084],"operators":["50five","Allego","Alva Charging Services","DAEN Mobility","E-Flux by Road","Eneco","Heijmans","Laadnet","Opcharge","Pluq","TotalEnergies"]},"features":[{"type":"Feature","geometry":{"type":"Point","coordinates":[6.342187,52.950276]},"properties":{"type":"charge","layer":"passenger","locationId":"922887","name":"DAE-NL-2000634","address":"Bosberg 3a","city":"Appelscha","operatorName":"DAEN Mobility","maxPowerKw":11,"isMegawatt":false,"status":"AVAILABLE","source":"ndw","priceKwh":0.63}},{"type":"Feature","geometry":{"type":"Point","coordinates":[6.336758,53.06814]},"properties":{"type":"charge","layer":"passenger","locationId":"023C28EF-BAF8-47B0-89FF-A5A4B2C37165","name":"TNLP013302 - Meester Voortmanstraat 70, Haulerwijk","address":"70 Meester Voortmanstraat","city":"Haulerwijk","operatorName":"TotalEnergies","maxPowerKw":17,"isMegawatt":false,"status":"AVAILABLE","source":"ndw"}},{"type":"Feature","geometry":{"type":"Point","coordinates":[6.298071,52.974648]},"properties":{"type":"charge","layer":"passenger","locationId":"77203c20fafd4e78adbbc76c05ab3ad7","name":"Oosterwolde- Ecomunitypark locatie 1","address":"Ecomunitypark 1","city":"Oosterwolde","operatorName":"Opcharge","maxPowerKw":22,"isMegawatt":false,"status":"AVAILABLE","source":"ndw","priceKwh":0.41}},{"type":"Feature","geometry":{"type":"Point","coordinates":[6.126521,52.94012]},"properties":{"type":"charge","layer":"passenger","locationId":"5F0468F1-1799-4A7F-9E24-D9C3D9BB9F04","name":"TNLP012243 - Willinge Prinsstraat 24, Oldeberkoop","address":"24 Willinge Prinsstraat","city":"Oldeberkoop","operatorName":"TotalEnergies","maxPowerKw":17,"isMegawatt":false,"status":"UNAVAILABLE","source":"ndw"}},{"type":"Feature","geometry":{"type":"Point","coordinates":[6.358648,52.9521]},"properties":{"type":"charge","layer":"passenger","locationId":"DC7A6029-29A3-481D-BD5D-281A2534A788","name":"TNLP013250 - Riemsoord 118, Appelscha","address":"118 Riemsoord","city":"Appelscha","operatorName":"TotalEnergies","maxPowerKw":17,"isMegawatt":false,"status":"UNAVAILABLE","source":"ndw"}},{"type":"Feature","geometry":{"type":"Point","coordinates":[6.301525,52.979608]},"properties":{"type":"charge","layer":"passenger","locationId":"68d0fc0b814e3e618643d327","name":"Transportbedrijf Hatzmann B.V.","address":"Buurstede 7","city":"Oosterwolde","operatorName":"Alva Charging Services","maxPowerKw":22,"isMegawatt":false,"status":"AVAILABLE","source":"ndw","priceKwh":0.34}},{"type":"Feature","geometry":{"type":"Point","coordinates":[6.295116,52.995197]},"properties":{"type":"charge","layer":"passenger","locationId":"D1D4AB54-DE70-4DB7-9243-2050ADF732DD","name":"Laadplein - Kuipenstreek 17, Oosterwolde","address":"17 Kuipenstreek","city":"Oosterwolde","operatorName":"TotalEnergies","maxPowerKw":17,"isMegawatt":false,"status":"AVAILABLE","source":"ndw"}},{"type":"Feature","geometry":{"type":"Point","coordinates":[6.341359,52.937419]},"properties":{"type":"charge","layer":"passenger","locationId":"fc22d2ae4b5745c69478","name":"Resort Brinckerduyn - Appelscha, De Roggeberg","address":"De Roggeberg 1","city":"Appelscha","operatorName":"Opcharge","maxPowerKw":22,"isMegawatt":false,"status":"AVAILABLE","source":"ndw","priceKwh":0.65}},{"type":"Feature","geometry":{"type":"Point","coordinates":[6.341921,52.956071]},"properties":{"type":"charge","layer":"passenger","locationId":"NLLOC016934","name":"NL, Nijesteegde 50c, 8426GV, Appelscha","address":"Nijesteegde 50c","city":"Appelscha","operatorName":"Allego","maxPowerKw":11,"isMegawatt":false,"status":"CHARGING","source":"ndw","priceKwh":0.511}},{"type":"Feature","geometry":{"type":"Point","coordinates":[6.296512,52.981965]},"properties":{"type":"charge","layer":"passenger","locationId":"3966653","name":"Laadnet Concordia Oosterwolde","address":"Venekoterweg 19","city":"Oosterwolde","operatorName":"Laadnet","maxPowerKw":22,"isMegawatt":false,"status":"AVAILABLE","source":"ndw"}},{"type":"Feature","geometry":{"type":"Point","coordinates":[6.36611,52.927222]},"properties":{"type":"charge","layer":"passenger","locationId":"69ab04f6f11e6affdbe52005","name":"Nijsingh rechts","address":"Tilgrupsweg 5","city":"Appelscha","operatorName":"E-Flux by Road","maxPowerKw":11,"isMegawatt":false,"status":"AVAILABLE","source":"ndw","priceKwh":0.58}},{"type":"Feature","geometry":{"type":"Point","coordinates":[6.289188,52.98319]},"properties":{"type":"charge","layer":"passenger","locationId":"1E561556-34F5-45AE-811A-23C8ED81294D","name":"TNLP012212 - Assessorlaan 21, Oosterwolde","address":"21 Assessorlaan","city":"Oosterwolde","operatorName":"TotalEnergies","maxPowerKw":17,"isMegawatt":false,"status":"AVAILABLE","source":"ndw"}},{"type":"Feature","geometry":{"type":"Point","coordinates":[6.342187,52.950276]},"properties":{"type":"charge","layer":"passenger","locationId":"922888","name":"DAE-NL-2000635","address":"Bosberg 3a","city":"Appelscha","operatorName":"DAEN Mobility","maxPowerKw":11,"isMegawatt":false,"status":"AVAILABLE","source":"ndw","priceKwh":0.63}},{"type":"Feature","geometry":{"type":"Point","coordinates":[6.342095,52.961584]},"properties":{"type":"charge","layer":"passenger","locationId":"69f9edf5c58e1d08b7ee39e7","name":"Industrieweg Appelscha","address":"Industrieweg  8B","city":"Appelscha","operatorName":"E-Flux by Road","maxPowerKw":8,"isMegawatt":false,"status":"AVAILABLE","source":"ndw","priceKwh":0.58}},{"type":"Feature","geometry":{"type":"Point","coordinates":[6.23701,52.94309]},"properties":{"type":"charge","layer":"passenger","locationId":"CA29BCB4-F0E1-4EC4-BDE6-74C326227514","name":"Eneco eMobility Postbus 518 ELSLOO","address":"Postbus 518","city":"Elsloo","operatorName":"Eneco","maxPowerKw":22,"isMegawatt":false,"status":"AVAILABLE","source":"ndw","priceKwh":0.32}},{"type":"Feature","geometry":{"type":"Point","coordinates":[6.2979,52.973847]},"properties":{"type":"charge","layer":"passenger","locationId":"5d4a6fc43d0a429ab777","name":"Oosterwolde-Ecomunitypark locatie 3","address":"Ecomunitypark 9","city":"Oosterwolde","operatorName":"Opcharge","maxPowerKw":22,"isMegawatt":false,"status":"AVAILABLE","source":"ndw","priceKwh":0.42}},{"type":"Feature","geometry":{"type":"Point","coordinates":[6.276359,53.055622]},"properties":{"type":"charge","layer":"passenger","locationId":"BC506896-59DE-49E3-8E56-331EF8EFF00A","name":"TNLP013420 - Leidijk 42C, Waskermeer","address":"42C Leidijk","city":"Waskermeer","operatorName":"TotalEnergies","maxPowerKw":17,"isMegawatt":false,"status":"AVAILABLE","source":"ndw"}},{"type":"Feature","geometry":{"type":"Point","coordinates":[6.30139,52.974168]},"properties":{"type":"charge","layer":"passenger","locationId":"5ba0a8e42b2f4ad8b40733c7680f22a2","name":"Oosterwolde- Ecomunitypark locatie 2","address":"Ecomunitypark 5","city":"Oosterwolde","operatorName":"Opcharge","maxPowerKw":22,"isMegawatt":false,"status":"AVAILABLE","source":"ndw","priceKwh":0.45}},{"type":"Feature","geometry":{"type":"Point","coordinates":[6.293085,52.99478]},"properties":{"type":"charge","layer":"passenger","locationId":"F78826E7-2ED1-46AE-8C63-E1BAF68A4D5E","name":"TNLP012041 - 't Oost 11, Oosterwolde","address":"11 't Oost","city":"Oosterwolde","operatorName":"TotalEnergies","maxPowerKw":17,"isMegawatt":false,"status":"AVAILABLE","source":"ndw"}},{"type":"Feature","geometry":{"type":"Point","coordinates":[6.295421,52.989831]},"properties":{"type":"charge","layer":"passenger","locationId":"91276241","name":"50five-S NL 18B01466","address":"Moskampweg 3","city":"Oosterwolde","operatorName":"50five","maxPowerKw":11,"isMegawatt":false,"status":"AVAILABLE","source":"ndw"}},{"type":"Feature","geometry":{"type":"Point","coordinates":[6.309863,52.952968]},"properties":{"type":"charge","layer":"passenger","locationId":"62d027900ed56c075dbed878","name":"Parkeerplaats Buitencentrum Drents-Friese Wold","address":"Terwisscha 6a","city":"Appelscha","operatorName":"Heijmans","maxPowerKw":11,"isMegawatt":false,"status":"CHARGING","source":"ndw","priceKwh":0.42}},{"type":"Feature","geometry":{"type":"Point","coordinates":[6.330491,53.06555]},"properties":{"type":"charge","layer":"passenger","locationId":"E6824B98-8762-4B8B-AAAA-926B687BAA32","name":"TNLP013248 - Hoofdweg Boven 4, Haulerwijk","address":"4 Hoofdweg Boven","city":"Haulerwijk","operatorName":"TotalEnergies","maxPowerKw":17,"isMegawatt":false,"status":"AVAILABLE","source":"ndw"}},{"type":"Feature","geometry":{"type":"Point","coordinates":[6.302848,52.984362]},"properties":{"type":"charge","layer":"passenger","locationId":"91274841","name":"50five-S NL 17B01181","address":"Zadelmakerstraat 27","city":"Assen","operatorName":"50five","maxPowerKw":11,"isMegawatt":false,"status":"AVAILABLE","source":"ndw"}},{"type":"Feature","geometry":{"type":"Point","coordinates":[6.368993,52.960992]},"properties":{"type":"charge","layer":"passenger","locationId":"91051876","name":"50five-S NL 07103354","address":"Bokslootsweg 2","city":"Ravenswoud","operatorName":"50five","maxPowerKw":11,"isMegawatt":false,"status":"AVAILABLE","source":"ndw"}},{"type":"Feature","geometry":{"type":"Point","coordinates":[6.2931,52.989273]},"properties":{"type":"charge","layer":"passenger","locationId":"NLLOC000153","name":"NLD, Oosterwolde, Stationsplein 3","address":"Stationsplein 3-D","city":"Oosterwolde","operatorName":"Allego","maxPowerKw":11,"isMegawatt":false,"status":"AVAILABLE","source":"ndw","priceKwh":0.511}},{"type":"Feature","geometry":{"type":"Point","coordinates":[6.140582,52.935799]},"properties":{"type":"charge","layer":"passenger","locationId":"68f88ccbfef62128d1da9e35","name":"Gastenverblijf de Lindevallei- Coulant Touring","address":"De Weeme 12A","city":"Oldeberkoop","operatorName":"E-Flux by Road","maxPowerKw":22,"isMegawatt":false,"status":"AVAILABLE","source":"ndw","priceKwh":0.53}},{"type":"Feature","geometry":{"type":"Point","coordinates":[6.281981,52.992189]},"properties":{"type":"charge","layer":"passenger","locationId":"91055009","name":"50five-S NL 03006828","address":"Nanningaweg 37","city":"Oosterwolde","operatorName":"50five","maxPowerKw":11,"isMegawatt":false,"status":"UNAVAILABLE","source":"ndw"}},{"type":"Feature","geometry":{"type":"Point","coordinates":[6.331455,53.074712]},"properties":{"type":"charge","layer":"passenger","locationId":"646b1faa251fa100126d6dca","name":"Wagenaar Dairy","address":"Leeksterweg 71 71","city":"Haulerwijk","operatorName":"E-Flux by Road","maxPowerKw":22,"isMegawatt":false,"status":"AVAILABLE","source":"ndw","priceKwh":0.48}},{"type":"Feature","geometry":{"type":"Point","coordinates":[6.343869,52.920809]},"properties":{"type":"charge","layer":"passenger","locationId":"692567a7b5213949cb6a4fec","name":"Boscamping Achter de Specht","address":"Oude Willem 3","city":"Appelscha","operatorName":"E-Flux by Road","maxPowerKw":11,"isMegawatt":false,"status":"AVAILABLE","source":"ndw","priceKwh":0.58}},{"type":"Feature","geometry":{"type":"Point","coordinates":[6.290164,52.99062]},"properties":{"type":"charge","layer":"passenger","locationId":"NLLOC000156","name":"NLD, Oosterwolde, Stipeplein 1","address":"Stipeplein 1-A","city":"Oosterwolde","operatorName":"Allego","maxPowerKw":11,"isMegawatt":false,"status":"AVAILABLE","source":"ndw","priceKwh":0.511}},{"type":"Feature","geometry":{"type":"Point","coordinates":[6.287531,52.99258]},"properties":{"type":"charge","layer":"passenger","locationId":"66a22f15c11b18001c8b6cf8","name":"Stellingwerf College","address":"Quadoelenweg 29","city":"Oosterwolde","operatorName":"Pluq","maxPowerKw":22,"isMegawatt":false,"status":"AVAILABLE","source":"ndw","priceKwh":0.42}},{"type":"Feature","geometry":{"type":"Point","coordinates":[6.282036,52.991954]},"properties":{"type":"charge","layer":"passenger","locationId":"91057125","name":"50five-S NL 03006950","address":"Nanningaweg 37","city":"Oosterwolde","operatorName":"50five","maxPowerKw":11,"isMegawatt":false,"status":"UNAVAILABLE","source":"ndw"}},{"type":"Feature","geometry":{"type":"Point","coordinates":[6.36611,52.927222]},"properties":{"type":"charge","layer":"passenger","locationId":"69ab037bc74a311a6ad764ed","name":"Nijsingh links","address":"Tilgrupsweg 5","city":"Appelscha","operatorName":"E-Flux by Road","maxPowerKw":11,"isMegawatt":false,"status":"AVAILABLE","source":"ndw","priceKwh":0.58}},{"type":"Feature","geometry":{"type":"Point","coordinates":[6.269621,52.942625]},"properties":{"type":"charge","layer":"passenger","locationId":"91231459","name":"50five-S NL 18B02568","address":"Kloosterweg 4","city":"Elsloo","operatorName":"50five","maxPowerKw":11,"isMegawatt":false,"status":"AVAILABLE","source":"ndw"}},{"type":"Feature","geometry":{"type":"Point","coordinates":[6.288653,52.98211]},"properties":{"type":"charge","layer":"passenger","locationId":"B316AF5F-F9C3-455C-BD41-5A8FE7B86D4E","name":"TNLP012130 - Kringgreppelstraat 124, Oosterwolde","address":"124 Kringgreppelstraat","city":"Oosterwolde","operatorName":"TotalEnergies","maxPowerKw":17,"isMegawatt":false,"status":"AVAILABLE","source":"ndw"}},{"type":"Feature","geometry":{"type":"Point","coordinates":[6.294301,52.994951]},"properties":{"type":"charge","layer":"passenger","locationId":"91109794","name":"50five-S NL 18B06662","address":"Kuipenstreek 8","city":"Oosterwolde","operatorName":"50five","maxPowerKw":11,"isMegawatt":false,"status":"UNAVAILABLE","source":"ndw"}},{"type":"Feature","geometry":{"type":"Point","coordinates":[6.29781,52.99388]},"properties":{"type":"charge","layer":"passenger","locationId":"0B14C4F1-220D-487E-88FE-5BA7557BB332","name":"TNLP013069 - Elsjeshof 2, Oosterwolde","address":"2 Elsjeshof","city":"Oosterwolde","operatorName":"TotalEnergies","maxPowerKw":17,"isMegawatt":false,"status":"UNAVAILABLE","source":"ndw"}},{"type":"Feature","geometry":{"type":"Point","coordinates":[6.125841,52.938997]},"properties":{"type":"charge","layer":"passenger","locationId":"1294","name":"50five Exploitatie Hotel Lunia","address":"Molenhoek 2","city":"Oldeberkoop","operatorName":"50five","maxPowerKw":22,"isMegawatt":false,"status":"AVAILABLE","source":"ndw"}},{"type":"Feature","geometry":{"type":"Point","coordinates":[6.295709,52.989887]},"properties":{"type":"charge","layer":"passenger","locationId":"91275485","name":"50five-S NL 19B05086","address":"Moskampweg 5","city":"Oosterwolde","operatorName":"50five","maxPowerKw":11,"isMegawatt":false,"status":"AVAILABLE","source":"ndw"}},{"type":"Feature","geometry":{"type":"Point","coordinates":[6.33153,53.067146]},"properties":{"type":"charge","layer":"passenger","locationId":"BB023C39-9F8E-49F0-8BD7-C4FB266A861F","name":"TNLP012019 - Leeksterweg 23, Haulerwijk","address":"23 Leeksterweg","city":"Haulerwijk","operatorName":"TotalEnergies","maxPowerKw":17,"isMegawatt":false,"status":"UNAVAILABLE","source":"ndw"}},{"type":"Feature","geometry":{"type":"Point","coordinates":[6.29476,52.982266]},"properties":{"type":"charge","layer":"passenger","locationId":"668e3547251c06001c0175d1","name":"T Zong Don","address":"Venekoterweg 38 A","city":"Oosterwolde","operatorName":"Pluq","maxPowerKw":11,"isMegawatt":false,"status":"AVAILABLE","source":"ndw","priceKwh":0.4}},{"type":"Feature","geometry":{"type":"Point","coordinates":[6.337802,52.986473]},"properties":{"type":"charge","layer":"passenger","locationId":"D4A890CF-1388-44C9-B0AC-4352C515AC3F","name":"TNLP013289 - Zuideinde 28, Fochteloo","address":"28 Zuideinde","city":"Fochteloo","operatorName":"TotalEnergies","maxPowerKw":17,"isMegawatt":false,"status":"UNAVAILABLE","source":"ndw"}},{"type":"Feature","geometry":{"type":"Point","coordinates":[6.131309,52.938576]},"properties":{"type":"charge","layer":"passenger","locationId":"087D3233-487F-4A76-B754-A58BE86A9BCD","name":"TNLP012033 - Oosterwoldseweg 14, Oldeberkoop","address":"14 Oosterwoldseweg","city":"Oldeberkoop","operatorName":"TotalEnergies","maxPowerKw":17,"isMegawatt":false,"status":"UNAVAILABLE","source":"ndw"}},{"type":"Feature","geometry":{"type":"Point","coordinates":[6.296969,52.978584]},"properties":{"type":"charge","layer":"passenger","locationId":"91106847","name":"50five-S NL 18B14521","address":"Veengang 21","city":"Oosterwolde","operatorName":"50five","maxPowerKw":11,"isMegawatt":false,"status":"AVAILABLE","source":"ndw"}},{"type":"Feature","geometry":{"type":"Point","coordinates":[6.231417,53.01736]},"properties":{"type":"charge","layer":"passenger","locationId":"03478C02-FED3-40CC-A9F2-B75A6E5E959E","name":"TNLP012018 - Geert Wolter Smitweg 20, Donkerbroek","address":"20 Geert Wolter Smitweg","city":"Donkerbroek","operatorName":"TotalEnergies","maxPowerKw":17,"isMegawatt":false,"status":"UNAVAILABLE","source":"ndw"}},{"type":"Feature","geometry":{"type":"Point","coordinates":[6.281476,52.99396]},"properties":{"type":"charge","layer":"passenger","locationId":"F0E9D36D-A8F5-4420-9953-F2EBC2F34A0C","name":"TNLP012009 - Lange Akker 23, Oosterwolde","address":"23 Lange Akker","city":"Oosterwolde","operatorName":"TotalEnergies","maxPowerKw":17,"isMegawatt":false,"status":"UNAVAILABLE","source":"ndw"}},{"type":"Feature","geometry":{"type":"Point","coordinates":[6.285822,52.997334]},"properties":{"type":"charge","layer":"passenger","locationId":"3D8D0605-2336-42CA-AF9F-31A0EFD3A9F8","name":"TNLP012004 - Weidemaad 33, Oosterwolde","address":"33 Weidemaad","city":"Oosterwolde","operatorName":"TotalEnergies","maxPowerKw":17,"isMegawatt":false,"status":"UNAVAILABLE","source":"ndw"}},{"type":"Feature","geometry":{"type":"Point","coordinates":[6.286901,52.998028]},"properties":{"type":"charge","layer":"passenger","locationId":"9FD19D30-92C7-4090-9B0E-6A52E4FC8EDF","name":"TNLP013380 - Oldemaad 7, Oosterwolde","address":"7 Oldemaad","city":"Oosterwolde","operatorName":"TotalEnergies","maxPowerKw":17,"isMegawatt":false,"status":"UNAVAILABLE","source":"ndw"}},{"type":"Feature","geometry":{"type":"Point","coordinates":[6.343741,52.95298]},"properties":{"type":"charge","layer":"passenger","locationId":"NLLOC000154","name":"NLD, Appelscha, Boerestreek 19","address":"Boerestreek 19","city":"Appelscha","operatorName":"Allego","maxPowerKw":11,"isMegawatt":false,"status":"AVAILABLE","source":"ndw","priceKwh":0.511}},{"type":"Feature","geometry":{"type":"Point","coordinates":[6.29563,52.9929]},"properties":{"type":"charge","layer":"passenger","locationId":"NLLOC000155","name":"NLD, Oosterwolde, Rijweg 18","address":"Rijweg 18","city":"Oosterwolde","operatorName":"Allego","maxPowerKw":11,"isMegawatt":false,"status":"AVAILABLE","source":"ndw","priceKwh":0.511}},{"type":"Feature","geometry":{"type":"Point","coordinates":[6.276759,53.00063]},"properties":{"type":"charge","layer":"passenger","locationId":"91054790","name":"50five-S NL 07118262","address":"Prandinga 42A","city":"Oosterwolde","operatorName":"50five","maxPowerKw":11,"isMegawatt":false,"status":"AVAILABLE","source":"ndw"}},{"type":"Feature","geometry":{"type":"Point","coordinates":[6.296076,52.979005]},"properties":{"type":"charge","layer":"passenger","locationId":"91107958","name":"50five-S NL 19B08053","address":"Veengang 21","city":"Oosterwolde","operatorName":"50five","maxPowerKw":11,"isMegawatt":false,"status":"AVAILABLE","source":"ndw"}},{"type":"Feature","geometry":{"type":"Point","coordinates":[6.344887,52.921198]},"properties":{"type":"charge","layer":"passenger","locationId":"692566e1b5213949cb689dd5","name":"Boscamping Ingang","address":"Oude Willem 3","city":"Appelscha","operatorName":"E-Flux by Road","maxPowerKw":11,"isMegawatt":false,"status":"AVAILABLE","source":"ndw","priceKwh":0.58}},{"type":"Feature","geometry":{"type":"MultiPolygon","coordinates":[[[[6.363219533338122,53.039263136583855],[6.362522063818645,53.033969709685984],[6.374072622011984,53.02295706123754],[6.402687097939609,52.99565412684133],[6.413280432457868,52.985523726835446],[6.4226235032438925,52.97659393975925],[6.427615228741218,52.97181621141781],[6.402671508200331,52.943382484226724],[6.393436054910238,52.93284407928899],[6.369026391377148,52.92197617450051],[6.3332806305136895,52.90635648304339],[6.302985303643525,52.92497269727977],[6.28315523064023,52.92614801815701],[6.256592989842828,52.92764148316535],[6.24755284760228,52.923691917356855],[6.247258589540392,52.9233476754579],[6.213630007877606,52.92579478209556],[6.210980317657067,52.93151685266444],[6.209184382729377,52.93369608333859],[6.207876513343325,52.93386636762301],[6.200835838242418,52.9390337540092],[6.201135013972321,52.94047891718233],[6.202524697570875,52.941499633077534],[6.200561222989653,52.94301407561774],[6.188346423574242,52.9388743777071],[6.179891008840197,52.937025299320325],[6.172697760419176,52.935663424101726],[6.165460561554088,52.93344897475586],[6.157367887965537,52.93055233293912],[6.144668207282874,52.92809238053074],[6.1393557986376415,52.92406581611002],[6.130055979033183,52.92038753232242],[6.126300948294328,52.91951372953429],[6.12388320572285,52.91789187959616],[6.11681205378817,52.91660549125477],[6.110544738009722,52.91324469086248],[6.086525459614998,52.93634185341641],[6.084847805142265,52.93627512657589],[6.085730535701104,52.9364000661813],[6.0863489144364245,52.93688950895975],[6.086355385311239,52.93693125898738],[6.0925307927269685,52.94209375752513],[6.115859186314513,52.95130343904659],[6.125039567443867,52.95237819413167],[6.127871235350709,52.95339861439739],[6.143866553082717,52.96826906752198],[6.14569326275158,52.969322666881425],[6.1525158300271485,52.97285970887424],[6.158627928699671,52.97584549261959],[6.175457025830034,52.9805566971889],[6.195703496619478,52.986209855889484],[6.2008699053481715,52.98849451696253],[6.200942894603101,52.98969502667969],[6.2022059401255785,52.99031106833302],[6.205423687844217,53.037931611744106],[6.2128517682465425,53.036236314983576],[6.21290116165459,53.037145996569734],[6.215146258280927,53.03826925311236],[6.222837379099677,53.03918743792861],[6.25177125191651,53.04834137022575],[6.254412985147302,53.04918105857925],[6.273062890323489,53.05591015552748],[6.280531220984185,53.05821114737656],[6.280584178948917,53.05856091927319],[6.281430210937018,53.064187064734014],[6.3054084771773296,53.06940965822603],[6.327788913317632,53.07435700615247],[6.3320561236934125,53.075279961784084],[6.332382318730554,53.07520777085459],[6.351725393190421,53.070932152657],[6.3678113344838785,53.06736068828507],[6.364924712307764,53.05197857328932],[6.363219533338122,53.039263136583855]]]]},"properties":{"type":"boundary","gemeente":"Ooststellingwerf","code":"GM0085"}}]}