{"type":"FeatureCollection","metadata":{"gemeente":"Opmeer","slug":"opmeer","code":"GM0432","generated_at":"2026-08-08T12:05:52.020Z","total_passenger":42,"total_freight":0,"bounds":[4.898668108015667,52.67176567892668,5.011162976639576,52.75529650344132],"operators":["50five","E-Flux by Road","NXT Charging Solutions","TotalEnergies","Ubitricity","Vattenfall InCharge"]},"features":[{"type":"Feature","geometry":{"type":"Point","coordinates":[4.933228,52.714674]},"properties":{"type":"charge","layer":"passenger","locationId":"6242c5549c7a3825aec8164eed68b34f","name":"Albrecht van Beierenstraat 11","address":"Albrecht van Beierenstraat 11","city":"Hoogwoud","operatorName":"Vattenfall InCharge","maxPowerKw":11,"isMegawatt":false,"status":"AVAILABLE","source":"ndw","priceKwh":0.2805}},{"type":"Feature","geometry":{"type":"Point","coordinates":[4.958668,52.711341]},"properties":{"type":"charge","layer":"passenger","locationId":"91169527","name":"50five-S NL 03009707","address":"De Veken 229","city":"Opmeer","operatorName":"50five","maxPowerKw":11,"isMegawatt":false,"status":"AVAILABLE","source":"ndw"}},{"type":"Feature","geometry":{"type":"Point","coordinates":[4.959508,52.701627]},"properties":{"type":"charge","layer":"passenger","locationId":"91053590","name":"50five-S NL 17B08374","address":"A Commandeurlaan 40","city":"Spanbroek","operatorName":"50five","maxPowerKw":12,"isMegawatt":false,"status":"AVAILABLE","source":"ndw"}},{"type":"Feature","geometry":{"type":"Point","coordinates":[4.959009,52.70279]},"properties":{"type":"charge","layer":"passenger","locationId":"37FBD788-C4CE-4076-9496-C4C59694E24A","name":"TNLP034695 - Floris van Noordwijklaan 5, Spanbroek","address":"5 Floris van Noordwijklaan","city":"Spanbroek","operatorName":"TotalEnergies","maxPowerKw":13,"isMegawatt":false,"status":"UNAVAILABLE","source":"ndw"}},{"type":"Feature","geometry":{"type":"Point","coordinates":[4.93829,52.71672]},"properties":{"type":"charge","layer":"passenger","locationId":"582","name":"Shell Recharge NL Louisa Hedwig van Catzstraat 39","address":"Louisa Hedwig van Catzstraat 39","city":"Hoogwoud","operatorName":"Ubitricity","maxPowerKw":11,"isMegawatt":false,"status":"AVAILABLE","source":"ndw","priceKwh":0.392}},{"type":"Feature","geometry":{"type":"Point","coordinates":[4.948914,52.702927]},"properties":{"type":"charge","layer":"passenger","locationId":"2DE3D438-3DD2-441D-9629-478F0AF9CD9E","name":"TNLP005983 - Capellehof 1, Spanbroek","address":"1 Capellehof","city":"Spanbroek","operatorName":"TotalEnergies","maxPowerKw":15,"isMegawatt":false,"status":"UNAVAILABLE","source":"ndw"}},{"type":"Feature","geometry":{"type":"Point","coordinates":[4.943941,52.685983]},"properties":{"type":"charge","layer":"passenger","locationId":"91043231","name":"50five-S NL 17B20743","address":"Zandwerven 11","city":"Opmeer","operatorName":"50five","maxPowerKw":11,"isMegawatt":false,"status":"AVAILABLE","source":"ndw"}},{"type":"Feature","geometry":{"type":"Point","coordinates":[4.943886,52.697746]},"properties":{"type":"charge","layer":"passenger","locationId":"ABFF0DCF-409C-4870-92E0-7C87CC991B0F","name":"TNLP009926 - Spanbroekerweg 35, Spanbroek","address":"35 Spanbroekerweg","city":"Spanbroek","operatorName":"TotalEnergies","maxPowerKw":17,"isMegawatt":false,"status":"UNAVAILABLE","source":"ndw"}},{"type":"Feature","geometry":{"type":"Point","coordinates":[4.947302,52.701256]},"properties":{"type":"charge","layer":"passenger","locationId":"B6F3DCA0-A688-4E55-A1C9-7AA20519C35B","name":"TNLP006439 - Herenweg 38, Spanbroek","address":"38 Herenweg","city":"Spanbroek","operatorName":"TotalEnergies","maxPowerKw":15,"isMegawatt":false,"status":"AVAILABLE","source":"ndw"}},{"type":"Feature","geometry":{"type":"Point","coordinates":[4.943529,52.717969]},"properties":{"type":"charge","layer":"passenger","locationId":"ecbc6dc10cfbdffc506549305e8cc0b3","name":"Oeverwal 14","address":"Oeverwal 14","city":"Hoogwoud","operatorName":"Vattenfall InCharge","maxPowerKw":11,"isMegawatt":false,"status":"AVAILABLE","source":"ndw","priceKwh":0.2805}},{"type":"Feature","geometry":{"type":"Point","coordinates":[4.9454474,52.7019289]},"properties":{"type":"charge","layer":"passenger","locationId":"1986","name":"Shell Recharge NL Van Roozendaalstraat 32","address":"Van Roozendaalstraat 32","city":"Spanbroek","operatorName":"Ubitricity","maxPowerKw":22,"isMegawatt":false,"status":"AVAILABLE","source":"ndw","priceKwh":0.267}},{"type":"Feature","geometry":{"type":"Point","coordinates":[4.959868,52.711756]},"properties":{"type":"charge","layer":"passenger","locationId":"91231731","name":"50five-S NL 19B05224","address":"De Veken 229","city":"Opmeer","operatorName":"50five","maxPowerKw":11,"isMegawatt":false,"status":"AVAILABLE","source":"ndw"}},{"type":"Feature","geometry":{"type":"Point","coordinates":[4.962291,52.702377]},"properties":{"type":"charge","layer":"passenger","locationId":"2f34e2b9192de7c98a8e7ce7b3f6b98e","name":"Floris van Noordwijklaan 43","address":"Floris van Noordwijklaan 43","city":"Spanbroek","operatorName":"Vattenfall InCharge","maxPowerKw":11,"isMegawatt":false,"status":"AVAILABLE","source":"ndw","priceKwh":0.2805}},{"type":"Feature","geometry":{"type":"Point","coordinates":[4.95628,52.7027]},"properties":{"type":"charge","layer":"passenger","locationId":"20FD8F5A-2DF4-42CD-BF52-80DBFD6A3A34","name":"TNLP006315 - Lijster 58, Spanbroek","address":"58 Lijster","city":"Spanbroek","operatorName":"TotalEnergies","maxPowerKw":17,"isMegawatt":false,"status":"UNAVAILABLE","source":"ndw"}},{"type":"Feature","geometry":{"type":"Point","coordinates":[4.94458,52.706318]},"properties":{"type":"charge","layer":"passenger","locationId":"43a92b4f-fd43-4eac-ad21-2152ff4966d5","name":"Klaproos","address":"Klaproos 1","city":"Opmeer","operatorName":"Vattenfall InCharge","maxPowerKw":11,"isMegawatt":false,"status":"AVAILABLE","source":"ndw","priceKwh":0.4316}},{"type":"Feature","geometry":{"type":"Point","coordinates":[4.946702,52.69926]},"properties":{"type":"charge","layer":"passenger","locationId":"71333073-F7DD-4FF5-A2E3-062EF1690DDA","name":"TNLP034007 - Veldstralaan 1, Spanbroek","address":"1 Veldstralaan","city":"Spanbroek","operatorName":"TotalEnergies","maxPowerKw":13,"isMegawatt":false,"status":"UNAVAILABLE","source":"ndw"}},{"type":"Feature","geometry":{"type":"Point","coordinates":[4.953066,52.704933]},"properties":{"type":"charge","layer":"passenger","locationId":"6672eaad325fd5001caea186","name":"NXT Charge - Opmeer - Lindengracht 28 - DC","address":"Lindengracht 28","city":"Opmeer","operatorName":"NXT Charging Solutions","maxPowerKw":270,"isMegawatt":false,"status":"AVAILABLE","source":"ndw","priceKwh":0.63}},{"type":"Feature","geometry":{"type":"Point","coordinates":[4.961672,52.725163]},"properties":{"type":"charge","layer":"passenger","locationId":"645091ca37972500113b751f","name":"Lou Schilder 's station","address":"Gouwe 5","city":"Hoogwoud","operatorName":"E-Flux by Road","maxPowerKw":22,"isMegawatt":false,"status":"AVAILABLE","source":"ndw","priceKwh":0.43}},{"type":"Feature","geometry":{"type":"Point","coordinates":[4.943459,52.717934]},"properties":{"type":"charge","layer":"passenger","locationId":"91109924","name":"50five-S NL 09001652","address":"Kreekrug 15","city":"Hoogwoud","operatorName":"50five","maxPowerKw":11,"isMegawatt":false,"status":"AVAILABLE","source":"ndw"}},{"type":"Feature","geometry":{"type":"Point","coordinates":[4.986597,52.733456]},"properties":{"type":"charge","layer":"passenger","locationId":"1788752B-AEA9-45EA-92AC-5AF61513F645","name":"TNLP009509 - Driestedenweg 126, De Weere","address":"126 Driestedenweg","city":"De Weere","operatorName":"TotalEnergies","maxPowerKw":15,"isMegawatt":false,"status":"AVAILABLE","source":"ndw"}},{"type":"Feature","geometry":{"type":"Point","coordinates":[4.959908,52.703316]},"properties":{"type":"charge","layer":"passenger","locationId":"CC709722-6AFD-43A0-A5C9-57AFB4560072","name":"TNLP015227 - K. Komensingel 45, Spanbroek","address":"45 K. Komensingel","city":"Spanbroek","operatorName":"TotalEnergies","maxPowerKw":17,"isMegawatt":false,"status":"UNAVAILABLE","source":"ndw"}},{"type":"Feature","geometry":{"type":"Point","coordinates":[4.950848,52.70149]},"properties":{"type":"charge","layer":"passenger","locationId":"44B69636-4DA7-46AE-BB0D-FD6F29847CB6","name":"TNLP007243 - Wijde Klaver 8, Spanbroek","address":"8 Wijde Klaver","city":"Spanbroek","operatorName":"TotalEnergies","maxPowerKw":15,"isMegawatt":false,"status":"AVAILABLE","source":"ndw"}},{"type":"Feature","geometry":{"type":"Point","coordinates":[4.938245,52.714684]},"properties":{"type":"charge","layer":"passenger","locationId":"30F8ACF4-291D-47B8-9B82-BDAEE41887D2","name":"TNLP006313 - Burgemeester Heymansstraat 39, Hoogwoud","address":"39 Burgemeester Heymansstraat","city":"Hoogwoud","operatorName":"TotalEnergies","maxPowerKw":17,"isMegawatt":false,"status":"UNAVAILABLE","source":"ndw"}},{"type":"Feature","geometry":{"type":"Point","coordinates":[4.9447,52.718636]},"properties":{"type":"charge","layer":"passenger","locationId":"71A45B95-086B-4C19-863D-5AB5960E82A8","name":"TNLP034498 - Oeverwal 67, Hoogwoud","address":"67 Oeverwal","city":"Hoogwoud","operatorName":"TotalEnergies","maxPowerKw":13,"isMegawatt":false,"status":"UNAVAILABLE","source":"ndw"}},{"type":"Feature","geometry":{"type":"Point","coordinates":[4.9490713,52.7001834]},"properties":{"type":"charge","layer":"passenger","locationId":"2036","name":"Shell Recharge NL Veldstralaan 33","address":"Veldstralaan 33","city":"Spanbroek","operatorName":"Ubitricity","maxPowerKw":22,"isMegawatt":false,"status":"AVAILABLE","source":"ndw","priceKwh":0.267}},{"type":"Feature","geometry":{"type":"Point","coordinates":[4.93553,52.71738]},"properties":{"type":"charge","layer":"passenger","locationId":"688","name":"Shell Recharge NL Raadhuisstraat 1","address":"Raadhuisstraat 1","city":"Hoogwoud","operatorName":"Ubitricity","maxPowerKw":11,"isMegawatt":false,"status":"AVAILABLE","source":"ndw","priceKwh":0.392}},{"type":"Feature","geometry":{"type":"Point","coordinates":[4.961776,52.70148]},"properties":{"type":"charge","layer":"passenger","locationId":"B384C13E-9A6A-416F-B0A9-1513FE647490","name":"TNLP007626 - Arent van Gentlaan 18, Spanbroek","address":"18 Arent van Gentlaan","city":"Spanbroek","operatorName":"TotalEnergies","maxPowerKw":17,"isMegawatt":false,"status":"UNAVAILABLE","source":"ndw"}},{"type":"Feature","geometry":{"type":"Point","coordinates":[4.94136,52.70463]},"properties":{"type":"charge","layer":"passenger","locationId":"682b45ad056737411f6581fbbebf4fb2","name":"Pinksterbloem 24","address":"Pinksterbloem 24","city":"Opmeer","operatorName":"Vattenfall InCharge","maxPowerKw":11,"isMegawatt":false,"status":"AVAILABLE","source":"ndw","priceKwh":0.2805}},{"type":"Feature","geometry":{"type":"Point","coordinates":[4.944269,52.70626]},"properties":{"type":"charge","layer":"passenger","locationId":"2E0BA969-4573-431F-8730-7914F080557B","name":"TNLP008802 - Klaproos 4, Opmeer","address":"4 Klaproos","city":"Opmeer","operatorName":"TotalEnergies","maxPowerKw":14,"isMegawatt":false,"status":"UNAVAILABLE","source":"ndw"}},{"type":"Feature","geometry":{"type":"Point","coordinates":[4.960127,52.701344]},"properties":{"type":"charge","layer":"passenger","locationId":"6FEE4A77-7306-464A-8E4D-D7F8C1F48FA0","name":"TNLP009312 - A. Commandeurlaan 39, Spanbroek","address":"39 A. Commandeurlaan","city":"Spanbroek","operatorName":"TotalEnergies","maxPowerKw":17,"isMegawatt":false,"status":"UNAVAILABLE","source":"ndw"}},{"type":"Feature","geometry":{"type":"Point","coordinates":[4.937842,52.70682]},"properties":{"type":"charge","layer":"passenger","locationId":"C6F2058F-DFCC-48F1-AC1E-DFD0331B0BE4","name":"TNLP007012 - Koekoeksbloem 36, Opmeer","address":"36 Koekoeksbloem","city":"Opmeer","operatorName":"TotalEnergies","maxPowerKw":15,"isMegawatt":false,"status":"UNAVAILABLE","source":"ndw"}},{"type":"Feature","geometry":{"type":"Point","coordinates":[4.941328,52.705395]},"properties":{"type":"charge","layer":"passenger","locationId":"C6D2C65C-0060-48CA-AB82-8296C1A6810B","name":"TNLP009895 - Pinksterbloem 74, Opmeer","address":"74 Pinksterbloem","city":"Opmeer","operatorName":"TotalEnergies","maxPowerKw":17,"isMegawatt":false,"status":"UNAVAILABLE","source":"ndw"}},{"type":"Feature","geometry":{"type":"Point","coordinates":[4.938997,52.70407]},"properties":{"type":"charge","layer":"passenger","locationId":"48ad44239042b01029aadbf53f1a9f62","name":"Boterbloem 14","address":"Boterbloem 14","city":"Opmeer","operatorName":"Vattenfall InCharge","maxPowerKw":11,"isMegawatt":false,"status":"CHARGING","source":"ndw","priceKwh":0.2805}},{"type":"Feature","geometry":{"type":"Point","coordinates":[4.958826,52.699757]},"properties":{"type":"charge","layer":"passenger","locationId":"13E43D8D-11D5-4CC7-A290-B715A29ED09E","name":"TNLP015100 - A. Commandeurlaan 92, Spanbroek","address":"92 A. Commandeurlaan","city":"Spanbroek","operatorName":"TotalEnergies","maxPowerKw":17,"isMegawatt":false,"status":"UNAVAILABLE","source":"ndw"}},{"type":"Feature","geometry":{"type":"Point","coordinates":[4.96017,52.70215]},"properties":{"type":"charge","layer":"passenger","locationId":"D1640E19-F682-4E45-8285-0806AC286466","name":"PP004112 - A. Commandeurlaan 7, Spanbroek","address":"7 A. Commandeurlaan","city":"Spanbroek","operatorName":"TotalEnergies","maxPowerKw":11,"isMegawatt":false,"status":"UNAVAILABLE","source":"ndw"}},{"type":"Feature","geometry":{"type":"Point","coordinates":[4.997697,52.722293]},"properties":{"type":"charge","layer":"passenger","locationId":"2f67a641264728274bbe296e9c30ee70","name":"Pastoor Tetterodestraat 23","address":"Pastoor Tetterodestraat 23","city":"De Weere","operatorName":"Vattenfall InCharge","maxPowerKw":11,"isMegawatt":false,"status":"AVAILABLE","source":"ndw","priceKwh":0.2805}},{"type":"Feature","geometry":{"type":"Point","coordinates":[4.936223,52.709347]},"properties":{"type":"charge","layer":"passenger","locationId":"0BC77AEE-C0F3-466F-AFA4-0AD519694DA8","name":"TNLP008087 - De Weijver 6a, Hoogwoud","address":"6a De Weijver","city":"Hoogwoud","operatorName":"TotalEnergies","maxPowerKw":15,"isMegawatt":false,"status":"AVAILABLE","source":"ndw"}},{"type":"Feature","geometry":{"type":"Point","coordinates":[4.93326,52.71245]},"properties":{"type":"charge","layer":"passenger","locationId":"3FDD0E42-5D55-4A18-BFD4-2414CA8EDFDA","name":"PP004119 - De Kroft 2, Hoogwoud","address":"2 De Kroft","city":"Hoogwoud","operatorName":"TotalEnergies","maxPowerKw":15,"isMegawatt":false,"status":"AVAILABLE","source":"ndw"}},{"type":"Feature","geometry":{"type":"Point","coordinates":[4.94948,52.74215]},"properties":{"type":"charge","layer":"passenger","locationId":"F40B176F-C199-4083-BCF7-42B3F84D4952","name":"TNLP003649 - Schoolstraat 32, Aartswoud","address":"32 Schoolstraat","city":"Aartswoud","operatorName":"TotalEnergies","maxPowerKw":17,"isMegawatt":false,"status":"AVAILABLE","source":"ndw"}},{"type":"Feature","geometry":{"type":"Point","coordinates":[4.955833,52.70015]},"properties":{"type":"charge","layer":"passenger","locationId":"80C39862-88BF-4573-8B71-F2D2B6F4DFB9","name":"TNLP007625 - Zomertaling 1, Spanbroek","address":"1 Zomertaling","city":"Spanbroek","operatorName":"TotalEnergies","maxPowerKw":17,"isMegawatt":false,"status":"UNAVAILABLE","source":"ndw"}},{"type":"Feature","geometry":{"type":"Point","coordinates":[4.95832,52.700745]},"properties":{"type":"charge","layer":"passenger","locationId":"8A1F5666-667F-446A-B5A0-7A4CBE324FD7","name":"PP004282 - H.J.M.Keijzerlaan 52, Spanbroek","address":"52 H.J.M.Keijzerlaan","city":"Spanbroek","operatorName":"TotalEnergies","maxPowerKw":11,"isMegawatt":false,"status":"UNAVAILABLE","source":"ndw"}},{"type":"Feature","geometry":{"type":"Point","coordinates":[4.947018,52.70299]},"properties":{"type":"charge","layer":"passenger","locationId":"E64A167F-C96D-49C1-A5E4-A3F007A50355","name":"TNLP006440 - Wuiver 6, Spanbroek","address":"6 Wuiver","city":"Spanbroek","operatorName":"TotalEnergies","maxPowerKw":17,"isMegawatt":false,"status":"UNAVAILABLE","source":"ndw"}},{"type":"Feature","geometry":{"type":"MultiPolygon","coordinates":[[[[4.9543413524791795,52.75529650344132],[4.955820750724094,52.75327876941038],[4.958433203557465,52.75328962496664],[4.996859927046855,52.75206544854026],[4.996544994645385,52.74742983643191],[4.996143364883858,52.74715090587601],[4.99682113591799,52.746455917306875],[4.998392565514624,52.74506175297509],[4.998403395572567,52.74464321558108],[4.99521480282388,52.743695780849826],[4.998382032549054,52.740288714315234],[4.996557824130542,52.7396478608782],[4.99742019351802,52.73898568179131],[4.996385943325812,52.73861976330078],[4.9969428595341325,52.73804145760392],[4.998601873979515,52.73550436081761],[4.999021776446614,52.7348582503503],[5.001146320003828,52.73353519013777],[5.002843798222501,52.73154225116508],[5.004695969388254,52.72810939790846],[5.007492969902799,52.72558678819767],[5.007579301378554,52.72485492248398],[5.011046687370976,52.72624160103571],[5.011047822621861,52.72621706585111],[5.011162976639576,52.72290748901389],[4.988270492243981,52.713382417817755],[4.985564536920947,52.716349812532215],[4.984522636303921,52.71691822456781],[4.983804178409027,52.71664434298034],[4.971887219142093,52.71213832749063],[4.976587307267653,52.70821414214485],[4.977650736677,52.706874371228274],[4.977809645649766,52.705191715801895],[4.98444852080686,52.700951556484846],[4.985769627259868,52.699780986482565],[4.986105908535467,52.69892582130791],[4.983817883994591,52.6976452744959],[4.984468338722492,52.697523410670215],[4.984332377191954,52.6973263603218],[4.981156393663446,52.69275987446371],[4.981573795473487,52.691017710074874],[4.981581137034636,52.69093694188109],[4.981586519782289,52.69093705907536],[4.981513479659724,52.69034092659594],[4.980454641878405,52.69035030933744],[4.980374746754083,52.68939372848402],[4.979595959592318,52.68413355893935],[4.979320425202487,52.6822332705645],[4.9792035816936195,52.67967934241497],[4.976758280919733,52.67742022237233],[4.971577798409063,52.679158843394546],[4.970621350505343,52.679631543297376],[4.969574104840978,52.678916268087896],[4.9664175636212,52.67855017455831],[4.966319282359136,52.67719551532658],[4.964736682540714,52.67705048346238],[4.964740781056587,52.67628480144279],[4.963409594059111,52.67559762824289],[4.962129534162799,52.676027533497944],[4.96166936095284,52.67461208980923],[4.961764608596098,52.6737090973505],[4.960786611815448,52.67352317806643],[4.960563333585952,52.673739415220005],[4.952888201169509,52.67213046957165],[4.95274137129283,52.67176567892668],[4.950783084949762,52.67286625904351],[4.949410698432314,52.67448310482456],[4.933852326349203,52.67865028951254],[4.928141887829643,52.680265498669286],[4.9251805384568845,52.68119042781221],[4.923953425138559,52.68158122427064],[4.92271910846543,52.681837075103275],[4.91876650579147,52.68256907670469],[4.918099507323907,52.68280368102546],[4.905616794033945,52.68641935167076],[4.904977961259459,52.687268749001774],[4.914126907600567,52.691498835714135],[4.917103558217669,52.69286905337005],[4.91732337671225,52.69295727516641],[4.91751678298902,52.69396166676604],[4.91811127564471,52.696918886995995],[4.915860635102181,52.699341379539355],[4.9108455228241406,52.69990970549247],[4.8998587554032875,52.69758687029418],[4.899879617009194,52.69948531824561],[4.899852556087029,52.70014471969098],[4.899385143599561,52.70327716978508],[4.899065343958279,52.70665455116968],[4.898668108015667,52.70683222254856],[4.903919113012311,52.71163433721201],[4.910939760716766,52.71894033782485],[4.92736212402365,52.737348673165144],[4.9314234862739506,52.741999396395784],[4.93279172133373,52.74892774620893],[4.937814801276978,52.749829451212996],[4.940326871546997,52.75042154207342],[4.944320085276789,52.75260120818823],[4.944474453818413,52.75366816474445],[4.946418356444463,52.75395248895944],[4.9543413524791795,52.75529650344132]]]]},"properties":{"type":"boundary","gemeente":"Opmeer","code":"GM0432"}}]}