{"type":"FeatureCollection","metadata":{"gemeente":"Pijnacker-Nootdorp","slug":"pijnacker-nootdorp","code":"GM1926","generated_at":"2026-08-08T12:05:52.020Z","total_passenger":49,"total_freight":0,"bounds":[4.372657763817612,51.96819869979017,4.47670566534651,52.054054162649976],"operators":["50five","E-Flux by Road","Eneco","Fastned","Laadnet","Lidl","Shell Recharge","Tesla","Valk Energy","Van Leeuwen","Vattenfall InCharge"]},"features":[{"type":"Feature","geometry":{"type":"Point","coordinates":[4.391521,52.052061]},"properties":{"type":"charge","layer":"passenger","locationId":"4233719","name":"Laadnet TS Driehuys","address":"Gooland 6","city":"Nootdorp","operatorName":"Laadnet","maxPowerKw":22,"isMegawatt":false,"status":"AVAILABLE","source":"ndw"}},{"type":"Feature","geometry":{"type":"Point","coordinates":[4.395698,51.997146]},"properties":{"type":"charge","layer":"passenger","locationId":"5295","name":"Shell Recharge NL9232 - Karwei Delfgauw","address":"Importweg 2","city":"Delfgauw","operatorName":"Shell Recharge","maxPowerKw":150,"isMegawatt":false,"status":"AVAILABLE","source":"ndw","priceKwh":0.7025}},{"type":"Feature","geometry":{"type":"Point","coordinates":[4.430677,52.016077]},"properties":{"type":"charge","layer":"passenger","locationId":"3fbc463d-e783-4a3b-81ca-61dea3bfd6d1","name":"Lidl Pijnacker","address":"Korteweg","city":"Pijnacker","operatorName":"Lidl","maxPowerKw":11,"isMegawatt":false,"status":"AVAILABLE","source":"ndw"}},{"type":"Feature","geometry":{"type":"Point","coordinates":[4.39509,51.98441]},"properties":{"type":"charge","layer":"passenger","locationId":"822","name":"Shell Recharge NL9036 - Shell Ruyven","address":"A13","city":"Delfgauw","operatorName":"Shell Recharge","maxPowerKw":300,"isMegawatt":false,"status":"AVAILABLE","source":"ndw","priceKwh":0.7025}},{"type":"Feature","geometry":{"type":"Point","coordinates":[4.39625,51.983419]},"properties":{"type":"charge","layer":"passenger","locationId":"50546","name":"Fastned Ruyven","address":"Rijksweg A13","city":"Delfgauw","operatorName":"Fastned","maxPowerKw":300,"isMegawatt":false,"status":"AVAILABLE","source":"ndw","priceKwh":0.6364}},{"type":"Feature","geometry":{"type":"Point","coordinates":[4.397353,52.00358]},"properties":{"type":"charge","layer":"passenger","locationId":"6696800f01684a001c58b08f","name":"Rijswijk [Dijkgraafstraat 21]","address":"Dijkgraafstraat 21","city":"Rijswijk","operatorName":"E-Flux by Road","maxPowerKw":140,"isMegawatt":false,"status":"AVAILABLE","source":"ndw","priceKwh":0.7}},{"type":"Feature","geometry":{"type":"Point","coordinates":[4.394897,52.007629]},"properties":{"type":"charge","layer":"passenger","locationId":"91043737","name":"50five-S NL 17B13167","address":"Tijdemanhove 23","city":"Delfgauw","operatorName":"50five","maxPowerKw":14,"isMegawatt":false,"status":"AVAILABLE","source":"ndw"}},{"type":"Feature","geometry":{"type":"Point","coordinates":[4.440701,52.028191]},"properties":{"type":"charge","layer":"passenger","locationId":"4748862","name":"Laadnet GKP B.V.","address":"Heulweg 20","city":"Pijnacker","operatorName":"Laadnet","maxPowerKw":22,"isMegawatt":false,"status":"AVAILABLE","source":"ndw"}},{"type":"Feature","geometry":{"type":"Point","coordinates":[4.398268,52.051381]},"properties":{"type":"charge","layer":"passenger","locationId":"66a08002bec080e57a5a781730f15da6","name":"Pr. Alexialaan 80","address":"Pr. Alexialaan 80","city":"Den Haag","operatorName":"Vattenfall InCharge","maxPowerKw":11,"isMegawatt":false,"status":"CHARGING","source":"ndw","priceKwh":0.3405}},{"type":"Feature","geometry":{"type":"Point","coordinates":[4.400488,52.00985]},"properties":{"type":"charge","layer":"passenger","locationId":"91086391","name":"50five-S NL 17B26450","address":"Reginastraat 6","city":"Delfgauw","operatorName":"50five","maxPowerKw":8,"isMegawatt":false,"status":"AVAILABLE","source":"ndw"}},{"type":"Feature","geometry":{"type":"Point","coordinates":[4.449344,52.009327]},"properties":{"type":"charge","layer":"passenger","locationId":"91090598","name":"50five-S NL 07005641","address":"Gaaghof 4","city":"Pijnacker","operatorName":"50five","maxPowerKw":11,"isMegawatt":false,"status":"AVAILABLE","source":"ndw"}},{"type":"Feature","geometry":{"type":"Point","coordinates":[4.439906,52.025826]},"properties":{"type":"charge","layer":"passenger","locationId":"90310405","name":"Van Leeuwen Direct Healthcare Group","address":"Weteringweg 5-9","city":"Pijnacker","operatorName":"Van Leeuwen","maxPowerKw":22,"isMegawatt":false,"status":"AVAILABLE","source":"ndw"}},{"type":"Feature","geometry":{"type":"Point","coordinates":[4.425698,52.038637]},"properties":{"type":"charge","layer":"passenger","locationId":"88988065","name":"Van Leeuwen 88988065","address":"Nieuwkoopseweg 59","city":"Nootdorp","operatorName":"Van Leeuwen","maxPowerKw":22,"isMegawatt":false,"status":"AVAILABLE","source":"ndw"}},{"type":"Feature","geometry":{"type":"Point","coordinates":[4.440914,52.013225]},"properties":{"type":"charge","layer":"passenger","locationId":"89187259","name":"Van Leeuwen Industrieweg 2","address":"Industrieweg 2","city":"Pijnacker","operatorName":"Van Leeuwen","maxPowerKw":22,"isMegawatt":false,"status":"AVAILABLE","source":"ndw"}},{"type":"Feature","geometry":{"type":"Point","coordinates":[4.448124,52.030931]},"properties":{"type":"charge","layer":"passenger","locationId":"89163030","name":"Van Leeuwen Schouweg 4","address":"Schouweg 4","city":"Pijnacker","operatorName":"Van Leeuwen","maxPowerKw":22,"isMegawatt":false,"status":"AVAILABLE","source":"ndw"}},{"type":"Feature","geometry":{"type":"Point","coordinates":[4.4013,52.052374]},"properties":{"type":"charge","layer":"passenger","locationId":"69afbdd5a59b7c858b2efed7","name":"Van der Valk - Den Haag - Charging Stations","address":"Gildeweg 1","city":"Nootdorp","operatorName":"Valk Energy","maxPowerKw":11,"isMegawatt":false,"status":"AVAILABLE","source":"ndw","priceKwh":0.59}},{"type":"Feature","geometry":{"type":"Point","coordinates":[4.41831,52.05072]},"properties":{"type":"charge","layer":"passenger","locationId":"C4E11F15-F02F-42EC-A1B6-7CAA3146BB93","name":"Eneco eMobility Reflectiestraat 19, Nootdorp","address":"Reflectiestraat 19","city":"Nootdorp","operatorName":"Eneco","maxPowerKw":22,"isMegawatt":false,"status":"AVAILABLE","source":"ndw","priceKwh":0.5}},{"type":"Feature","geometry":{"type":"Point","coordinates":[4.431529,52.020045]},"properties":{"type":"charge","layer":"passenger","locationId":"91114930","name":"Van Leeuwen Acacialaan 2","address":"Acacialaan 2","city":"Pijnacker","operatorName":"Van Leeuwen","maxPowerKw":11,"isMegawatt":false,"status":"AVAILABLE","source":"ndw"}},{"type":"Feature","geometry":{"type":"Point","coordinates":[4.436896,52.026793]},"properties":{"type":"charge","layer":"passenger","locationId":"64942cd198b024001c14fa5e","name":"Vliet van Vorkheftrucks (Boezemweg)","address":"Boezemweg 41","city":"Pijnacker","operatorName":"E-Flux by Road","maxPowerKw":11,"isMegawatt":false,"status":"AVAILABLE","source":"ndw","priceKwh":0.42}},{"type":"Feature","geometry":{"type":"Point","coordinates":[4.407796,52.044921]},"properties":{"type":"charge","layer":"passenger","locationId":"91068845","name":"50five-S NL 07004570","address":"Hof van Koningsveld 11","city":"Nootdorp","operatorName":"50five","maxPowerKw":4,"isMegawatt":false,"status":"AVAILABLE","source":"ndw"}},{"type":"Feature","geometry":{"type":"Point","coordinates":[4.447326,52.031494]},"properties":{"type":"charge","layer":"passenger","locationId":"645cdc97f88e3d001280b8ea","name":"Kentie 's station","address":"hankweg 100","city":"Pijnacker","operatorName":"E-Flux by Road","maxPowerKw":11,"isMegawatt":false,"status":"AVAILABLE","source":"ndw","priceKwh":0.43}},{"type":"Feature","geometry":{"type":"Point","coordinates":[4.411833,52.045225]},"properties":{"type":"charge","layer":"passenger","locationId":"6126F937-AB0F-4B5B-8F3B-A5247B90325E","name":"Eneco eMobility BerGGer Consultancy B.V. - Nootdorp","address":"Laan van 's-Gravenhout 1","city":"Nootdorp","operatorName":"Eneco","maxPowerKw":22,"isMegawatt":false,"status":"AVAILABLE","source":"ndw","priceKwh":0.35}},{"type":"Feature","geometry":{"type":"Point","coordinates":[4.418971,52.00751]},"properties":{"type":"charge","layer":"passenger","locationId":"4235703","name":"Laadnet Duijvestijn Tomaten","address":"Komkommerweg 25","city":"Pijnacker","operatorName":"Laadnet","maxPowerKw":22,"isMegawatt":false,"status":"AVAILABLE","source":"ndw"}},{"type":"Feature","geometry":{"type":"Point","coordinates":[4.458493,52.036525]},"properties":{"type":"charge","layer":"passenger","locationId":"90440413","name":"Van Leeuwen Burg","address":"Katwijkerlaan 75","city":"Pijnacker","operatorName":"Van Leeuwen","maxPowerKw":11,"isMegawatt":false,"status":"AVAILABLE","source":"ndw"}},{"type":"Feature","geometry":{"type":"Point","coordinates":[4.402069,52.052649]},"properties":{"type":"charge","layer":"passenger","locationId":"91cea1ac-b521-418d-b885-afa5fe1b5f4a","name":"Nootdorp, Netherlands","address":"1, Gildeweg","city":"Nootdorp","operatorName":"Tesla","maxPowerKw":250,"isMegawatt":false,"status":"AVAILABLE","source":"ndw","priceKwh":0.53}},{"type":"Feature","geometry":{"type":"Point","coordinates":[4.439334,52.0129]},"properties":{"type":"charge","layer":"passenger","locationId":"91169147","name":"50five-S NL ICUEVE900587","address":"Oranjeplein 2","city":"Pijnacker","operatorName":"50five","maxPowerKw":22,"isMegawatt":false,"status":"AVAILABLE","source":"ndw"}},{"type":"Feature","geometry":{"type":"Point","coordinates":[4.400547,51.993805]},"properties":{"type":"charge","layer":"passenger","locationId":"B80BBDF3-D758-475F-BA6A-6545D2C4EF4F","name":"Eneco eMobility Normec Groen Agro Control","address":"Distributieweg 1","city":"Delfgauw","operatorName":"Eneco","maxPowerKw":11,"isMegawatt":false,"status":"AVAILABLE","source":"ndw","priceKwh":0.35}},{"type":"Feature","geometry":{"type":"Point","coordinates":[4.431589,52.01051]},"properties":{"type":"charge","layer":"passenger","locationId":"68147b667a33fed8894d5ce7","name":"Jeroen Kraan 's station","address":"Dahliahof 2","city":"Pijnacker","operatorName":"E-Flux by Road","maxPowerKw":11,"isMegawatt":false,"status":"CHARGING","source":"ndw","priceKwh":0.52}},{"type":"Feature","geometry":{"type":"Point","coordinates":[4.418933,52.017164]},"properties":{"type":"charge","layer":"passenger","locationId":"90278886","name":"Van Leeuwen Intratuin Pijnacker","address":"Rijskade 1A","city":"Pijnacker","operatorName":"Van Leeuwen","maxPowerKw":22,"isMegawatt":false,"status":"UNAVAILABLE","source":"ndw"}},{"type":"Feature","geometry":{"type":"Point","coordinates":[4.402359,52.051971]},"properties":{"type":"charge","layer":"passenger","locationId":"68d52181452a3e46b4aff38d","name":"Eskra Bouw","address":"Gildeweg  34","city":"Nootdorp","operatorName":"E-Flux by Road","maxPowerKw":11,"isMegawatt":false,"status":"AVAILABLE","source":"ndw","priceKwh":0.82}},{"type":"Feature","geometry":{"type":"Point","coordinates":[4.379123,52.043564]},"properties":{"type":"charge","layer":"passenger","locationId":"91052794","name":"50five-S NL 07106874","address":"Friendshipring 29","city":"Nootdorp","operatorName":"50five","maxPowerKw":7,"isMegawatt":false,"status":"CHARGING","source":"ndw"}},{"type":"Feature","geometry":{"type":"Point","coordinates":[4.396884,52.049324]},"properties":{"type":"charge","layer":"passenger","locationId":"91200087","name":"50five-S NL 07115752","address":"Magnoliadreef 2","city":"Nootdorp","operatorName":"50five","maxPowerKw":11,"isMegawatt":false,"status":"AVAILABLE","source":"ndw"}},{"type":"Feature","geometry":{"type":"Point","coordinates":[4.386411,52.040241]},"properties":{"type":"charge","layer":"passenger","locationId":"91067847","name":"50five-S NL 07108711","address":"Kooikerlaan 1","city":"Nootdorp","operatorName":"50five","maxPowerKw":11,"isMegawatt":false,"status":"AVAILABLE","source":"ndw"}},{"type":"Feature","geometry":{"type":"Point","coordinates":[4.449646,52.028814]},"properties":{"type":"charge","layer":"passenger","locationId":"90272002","name":"Van Leeuwen prive wo vastgoed","address":"tochtweg 13","city":"Pijnacker","operatorName":"Van Leeuwen","maxPowerKw":11,"isMegawatt":false,"status":"AVAILABLE","source":"ndw"}},{"type":"Feature","geometry":{"type":"Point","coordinates":[4.43413,52.0415]},"properties":{"type":"charge","layer":"passenger","locationId":"02F28798-3861-4DDF-8D9B-0D83FB2F3533","name":"Eneco eMobility Harry Wubben Flowers","address":"Langelandseweg 57","city":"Nootdorp","operatorName":"Eneco","maxPowerKw":22,"isMegawatt":false,"status":"AVAILABLE","source":"ndw","priceKwh":0.32}},{"type":"Feature","geometry":{"type":"Point","coordinates":[4.43777,52.027239]},"properties":{"type":"charge","layer":"passenger","locationId":"64942d312414f9001c6a5fa2","name":"Vliet van Vorkheftrucks (Heulweg)","address":"Heulweg 4","city":"Pijnacker","operatorName":"E-Flux by Road","maxPowerKw":22,"isMegawatt":false,"status":"AVAILABLE","source":"ndw","priceKwh":0.42}},{"type":"Feature","geometry":{"type":"Point","coordinates":[4.456891,52.025453]},"properties":{"type":"charge","layer":"passenger","locationId":"5A31C9A6-605F-4688-8AB6-ACD1443E6BBB","name":"Eneco eMobility Sierplantenkwekerij Bregman","address":"Blokweg 12","city":"Pijnacker","operatorName":"Eneco","maxPowerKw":22,"isMegawatt":false,"status":"AVAILABLE","source":"ndw","priceKwh":0.32}},{"type":"Feature","geometry":{"type":"Point","coordinates":[4.44457,52.019609]},"properties":{"type":"charge","layer":"passenger","locationId":"91090290","name":"50five-S NL 17B05225","address":"Kerkuillande 21","city":"Pijnacker","operatorName":"50five","maxPowerKw":11,"isMegawatt":false,"status":"AVAILABLE","source":"ndw"}},{"type":"Feature","geometry":{"type":"Point","coordinates":[4.41864,52.049198]},"properties":{"type":"charge","layer":"passenger","locationId":"E0772B8F-2D93-4A0E-A157-29B5F586D7F2","name":"Eneco eMobility Hiemstra Onroerend Goed B.V.","address":"Stoomweg 13","city":"Nootdorp","operatorName":"Eneco","maxPowerKw":11,"isMegawatt":false,"status":"AVAILABLE","source":"ndw","priceKwh":0.58}},{"type":"Feature","geometry":{"type":"Point","coordinates":[4.390394,52.0192]},"properties":{"type":"charge","layer":"passenger","locationId":"91171584","name":"50five-S NL ICUEVEMINI900203","address":"Noordeindseweg 70","city":"Delfgauw","operatorName":"50five","maxPowerKw":4,"isMegawatt":false,"status":"AVAILABLE","source":"ndw"}},{"type":"Feature","geometry":{"type":"Point","coordinates":[4.395841,52.041562]},"properties":{"type":"charge","layer":"passenger","locationId":"91055014","name":"50five-S NL 03000899","address":"Tormentil 19","city":"Nootdorp","operatorName":"50five","maxPowerKw":11,"isMegawatt":false,"status":"AVAILABLE","source":"ndw"}},{"type":"Feature","geometry":{"type":"Point","coordinates":[4.403856,52.051398]},"properties":{"type":"charge","layer":"passenger","locationId":"A1CBC61B-EDFF-48ED-B1AA-022ECC125390","name":"Eneco eMobility MKP Parts Gildeweg 22, Nootdorp","address":"Gildeweg 22","city":"Nootdorp","operatorName":"Eneco","maxPowerKw":22,"isMegawatt":false,"status":"AVAILABLE","source":"ndw","priceKwh":0.32}},{"type":"Feature","geometry":{"type":"Point","coordinates":[4.439567,52.014498]},"properties":{"type":"charge","layer":"passenger","locationId":"91168723","name":"50five-S NL ICUEVEMINI900228","address":"Geelgorslande 9","city":"Pijnacker","operatorName":"50five","maxPowerKw":5,"isMegawatt":false,"status":"CHARGING","source":"ndw"}},{"type":"Feature","geometry":{"type":"Point","coordinates":[4.41338,51.973654]},"properties":{"type":"charge","layer":"passenger","locationId":"67b4a8953fac387ff8a3dc90","name":"Rotterdam en Nieuwkoop 65101 - Kantoor Ackerdijkse plassen","address":"Rijksstraatweg 127","city":"Delfgauw","operatorName":"E-Flux by Road","maxPowerKw":11,"isMegawatt":false,"status":"AVAILABLE","source":"ndw","priceKwh":0.43}},{"type":"Feature","geometry":{"type":"Point","coordinates":[4.402674,52.052142]},"properties":{"type":"charge","layer":"passenger","locationId":"2652178","name":"Laadnet Het Witte Paard","address":"Gildeweg 2","city":"Nootdorp","operatorName":"Laadnet","maxPowerKw":22,"isMegawatt":false,"status":"AVAILABLE","source":"ndw"}},{"type":"Feature","geometry":{"type":"Point","coordinates":[4.447326,52.031494]},"properties":{"type":"charge","layer":"passenger","locationId":"645cdb0d9ba2e100123c4bdb","name":"Kentie 's station","address":"Hankweg 100","city":"Pijnacker","operatorName":"E-Flux by Road","maxPowerKw":11,"isMegawatt":false,"status":"AVAILABLE","source":"ndw","priceKwh":0.43}},{"type":"Feature","geometry":{"type":"Point","coordinates":[4.464272,52.037633]},"properties":{"type":"charge","layer":"passenger","locationId":"89887002","name":"Van Leeuwen 89887002","address":"katwijkerlaan 105","city":"Pijnacker","operatorName":"Van Leeuwen","maxPowerKw":22,"isMegawatt":false,"status":"AVAILABLE","source":"ndw"}},{"type":"Feature","geometry":{"type":"Point","coordinates":[4.438984,52.02229]},"properties":{"type":"charge","layer":"passenger","locationId":"91063514","name":"50five-S NL 07106588","address":"Lange Campen 38","city":"Pijnacker","operatorName":"50five","maxPowerKw":11,"isMegawatt":false,"status":"CHARGING","source":"ndw"}},{"type":"Feature","geometry":{"type":"Point","coordinates":[4.392966,52.014826]},"properties":{"type":"charge","layer":"passenger","locationId":"1793180","name":"Laadnet Hoeve BuytenHout","address":"Noordeindseweg 46B","city":"Delfgauw","operatorName":"Laadnet","maxPowerKw":22,"isMegawatt":false,"status":"AVAILABLE","source":"ndw"}},{"type":"Feature","geometry":{"type":"MultiPolygon","coordinates":[[[[4.394444789009837,52.054054162649976],[4.398549314351025,52.0512181134718],[4.400073263653098,52.05236781324765],[4.400073407066818,52.05236792141469],[4.401357908418374,52.05333576729952],[4.422072091072306,52.05167328695675],[4.425830931871776,52.05146963845622],[4.438043496568908,52.05028390757092],[4.438043879258564,52.05028387380102],[4.450563745942039,52.049210367095476],[4.456437608678369,52.03954192540743],[4.456994327729628,52.039672363595756],[4.457643400231124,52.03861879909935],[4.458931694488895,52.03885397708957],[4.47074324551968,52.0404778548626],[4.471618734456444,52.038996890132246],[4.471955301698003,52.039030831887274],[4.472372605604619,52.03827907808891],[4.472530737237233,52.03797257189538],[4.472803991967499,52.0380246438407],[4.475993353741011,52.032775568944245],[4.47670566534651,52.03164228809198],[4.468107684656428,52.026490227303704],[4.46799212297161,52.025787008294444],[4.467174954426925,52.02535375505717],[4.464489360400375,52.02463142924785],[4.463470010739859,52.02422277119184],[4.463040575529778,52.0242147714345],[4.461303765258959,52.023888687555356],[4.460568446845187,52.02320835892835],[4.457960274110472,52.02235419815516],[4.457353980692241,52.022260700926736],[4.457198875220818,52.022169001449065],[4.458110542537678,52.01852783866482],[4.459437753374193,52.0170455909587],[4.458392563956949,52.01602315064376],[4.461561326991186,52.01265154099952],[4.456390392454662,52.008512976010756],[4.455350680868819,52.00642498111052],[4.4570422315837614,52.00494388338702],[4.4588681445316265,52.00466565871348],[4.458727811235974,52.002209336790266],[4.451930065225678,52.00083792848867],[4.449775638660381,52.000502877995416],[4.451386969886555,51.998138330683176],[4.452812884900917,51.99722675786668],[4.450800999490684,51.995880331404884],[4.450569037200377,51.99569730310259],[4.447247686140568,51.99240916561931],[4.424446158418727,51.97961110917914],[4.4278982104631135,51.976466563295354],[4.407910755307138,51.96819869979017],[4.40727328989474,51.968986858146124],[4.4015375907761625,51.978046476363474],[4.397030053142832,51.97897406692729],[4.393526910836741,51.98717589929079],[4.39177010532152,51.99128928844089],[4.389577318461612,51.99651986977875],[4.3891643054430345,51.9973808048738],[4.388281251390318,51.99945434282566],[4.388142414043754,51.99977595926261],[4.385915690618993,52.0048353306398],[4.38617332222301,52.00489419002462],[4.388622948333802,52.005453790955315],[4.388180388801812,52.00663819661808],[4.389025175617903,52.00783097822318],[4.388497717301928,52.00866692194133],[4.388345855849841,52.00944720625308],[4.393686716331619,52.01093324020499],[4.39368744939673,52.01102173165304],[4.3945158607227714,52.011255740410675],[4.393319829101208,52.01306966635625],[4.3907892506646675,52.01682899487864],[4.387848259507412,52.02137099626975],[4.3862448078595895,52.02330834911099],[4.379808575931623,52.02666376209716],[4.3797352101454186,52.026732865608416],[4.393928484085037,52.03305345503304],[4.387850746494486,52.03844307082447],[4.3867679904606955,52.03844442541453],[4.381179969960938,52.03638666616153],[4.379858088079086,52.03595251008011],[4.372657763817612,52.04092818978463],[4.378103157639828,52.044645080643875],[4.38584039494803,52.04979598842024],[4.386098226788171,52.04996760515257],[4.387904338538213,52.0511697556069],[4.38967599034533,52.04996160574471],[4.39143972384707,52.05176167342664],[4.391130788982105,52.05195194127441],[4.392586565317638,52.05315338207679],[4.393123926847668,52.052843699709875],[4.393763900425032,52.05333066717214],[4.393570575653097,52.053478716532375],[4.394444789009837,52.054054162649976]]]]},"properties":{"type":"boundary","gemeente":"Pijnacker-Nootdorp","code":"GM1926"}}]}