{"type":"FeatureCollection","metadata":{"gemeente":"Ridderkerk","slug":"ridderkerk","code":"GM0597","generated_at":"2026-08-08T12:05:52.020Z","total_passenger":91,"total_freight":2,"bounds":[4.549253854319848,51.838730096357104,4.647294449782674,51.9030314707402],"operators":["50five","Allego","DAEN Mobility","E-Flux by Road","Eneco","Fastned","Laadnet","Mick-e","Opcharge","PowerGo","Tanx","Tesla","Van Leeuwen","Vattenfall InCharge","bp pulse"]},"features":[{"type":"Feature","geometry":{"type":"Point","coordinates":[4.564896,51.863279]},"properties":{"type":"charge","layer":"passenger","locationId":"90886577","name":"Van Leeuwen Van der Heiden","address":"Laurierweg 51","city":"Ridderkerk","operatorName":"Van Leeuwen","maxPowerKw":11,"isMegawatt":false,"status":"AVAILABLE","source":"ndw"}},{"type":"Feature","geometry":{"type":"Point","coordinates":[4.625702,51.860618]},"properties":{"type":"charge","layer":"passenger","locationId":"67a3194e8a606cf6295569b4","name":"Sutter Charge station","address":"Tarbot 63","city":"Ridderkerk","operatorName":"E-Flux by Road","maxPowerKw":11,"isMegawatt":false,"status":"AVAILABLE","source":"ndw","priceKwh":0.53}},{"type":"Feature","geometry":{"type":"Point","coordinates":[4.61053,51.87367]},"properties":{"type":"charge","layer":"passenger","locationId":"1F125506-1010-4B27-8FA1-F2FC6E5A31CD","name":"Eneco eMobility Lethe Nieuwburg - Ridderkerk","address":"Nikkelstraat 5A","city":"Ridderkerk","operatorName":"Eneco","maxPowerKw":22,"isMegawatt":false,"status":"AVAILABLE","source":"ndw","priceKwh":0.32}},{"type":"Feature","geometry":{"type":"Point","coordinates":[4.612031,51.877318]},"properties":{"type":"charge","layer":"passenger","locationId":"65cdde59e62ac2001c5619a8","name":"Graphorn's station","address":"Mandenmakerstraat 20","city":"Ridderkerk","operatorName":"E-Flux by Road","maxPowerKw":22,"isMegawatt":false,"status":"AVAILABLE","source":"ndw","priceKwh":0.33}},{"type":"Feature","geometry":{"type":"Point","coordinates":[4.584765,51.87023]},"properties":{"type":"charge","layer":"passenger","locationId":"NLLOC012590","name":"NL, Seringenplantsoen 197, 2982 BL Ridderkerk","address":"Seringenplantsoen 197","city":"Ridderkerk","operatorName":"Allego","maxPowerKw":11,"isMegawatt":false,"status":"AVAILABLE","source":"ndw","priceKwh":0.511}},{"type":"Feature","geometry":{"type":"Point","coordinates":[4.620061,51.874462]},"properties":{"type":"charge","layer":"passenger","locationId":"90987968","name":"Van Leeuwen Martinu","address":"wagenmakerstraat 17","city":"Ridderkerk","operatorName":"Van Leeuwen","maxPowerKw":11,"isMegawatt":false,"status":"AVAILABLE","source":"ndw"}},{"type":"Feature","geometry":{"type":"Point","coordinates":[4.61611,51.879964]},"properties":{"type":"charge","layer":"passenger","locationId":"7fe44b54c748438ba4ff","name":"InterDam","address":"Klompenmakerstraat 12","city":"Ridderkerk","operatorName":"Mick-e","maxPowerKw":22,"isMegawatt":false,"status":"AVAILABLE","source":"ndw","priceKwh":0.25}},{"type":"Feature","geometry":{"type":"Point","coordinates":[4.602682,51.862597]},"properties":{"type":"charge","layer":"passenger","locationId":"NLLOC013774","name":"NL, De Genestetstraat 23, 2985CE, Ridderkerk","address":"De Genestetstraat 23","city":"Ridderkerk","operatorName":"Allego","maxPowerKw":11,"isMegawatt":false,"status":"AVAILABLE","source":"ndw","priceKwh":0.511}},{"type":"Feature","geometry":{"type":"Point","coordinates":[4.619356,51.885071]},"properties":{"type":"charge","layer":"passenger","locationId":"3581415","name":"Laadnet Millennium Print Group Europe","address":"Ringdijk 388","city":"Ridderkerk","operatorName":"Laadnet","maxPowerKw":22,"isMegawatt":false,"status":"AVAILABLE","source":"ndw"}},{"type":"Feature","geometry":{"type":"Point","coordinates":[4.557909,51.868049]},"properties":{"type":"charge","layer":"passenger","locationId":"NLLOC000969","name":"Allego - Van der Valk Ridderkerk A15","address":"Krommeweg 1","city":"Ridderkerk","operatorName":"Allego","maxPowerKw":300,"isMegawatt":false,"status":"AVAILABLE","source":"ndw","priceKwh":0.655}},{"type":"Feature","geometry":{"type":"Point","coordinates":[4.601349,51.864841]},"properties":{"type":"charge","layer":"passenger","locationId":"NLLOC011848","name":"NL, Nicolaas Beetslaan 66, 2985 VH, Ridderkerk","address":"Nicolaas Beetslaan 66","city":"Ridderkerk","operatorName":"Allego","maxPowerKw":11,"isMegawatt":false,"status":"AVAILABLE","source":"ndw","priceKwh":0.511}},{"type":"Feature","geometry":{"type":"Point","coordinates":[4.604413,51.875323]},"properties":{"type":"charge","layer":"passenger","locationId":"2ac6931c-fd49-4613-adc7-1a472da8111f","name":"Rotterdamseweg 17","address":"Rotterdamseweg 17","city":"Ridderkerk","operatorName":"Vattenfall InCharge","maxPowerKw":50,"isMegawatt":false,"status":"AVAILABLE","source":"ndw","priceKwh":0.46}},{"type":"Feature","geometry":{"type":"Point","coordinates":[4.618,51.861676]},"properties":{"type":"charge","layer":"passenger","locationId":"NLLOC001633","name":"NLD, Ridderkerk, Paltrokmolen 126","address":"Paltrokmolen 126","city":"Ridderkerk","operatorName":"Allego","maxPowerKw":11,"isMegawatt":false,"status":"AVAILABLE","source":"ndw","priceKwh":0.511}},{"type":"Feature","geometry":{"type":"Point","coordinates":[4.577833,51.900132]},"properties":{"type":"charge","layer":"passenger","locationId":"636e4e54abde69243bbce4a6","name":"3tec BV","address":"Boelewerf  1m","city":"Ridderkerk","operatorName":"E-Flux by Road","maxPowerKw":11,"isMegawatt":false,"status":"UNAVAILABLE","source":"ndw"}},{"type":"Feature","geometry":{"type":"Point","coordinates":[4.588825,51.876833]},"properties":{"type":"charge","layer":"passenger","locationId":"NLLOC014304","name":"NL, Kastanjelaan 50, 2982CM, Ridderkerk","address":"Kastanjelaan 50","city":"Ridderkerk","operatorName":"Allego","maxPowerKw":11,"isMegawatt":false,"status":"AVAILABLE","source":"ndw","priceKwh":0.511}},{"type":"Feature","geometry":{"type":"Point","coordinates":[4.605565,51.871075]},"properties":{"type":"charge","layer":"passenger","locationId":"53b67e5eac8a4ddb9c4f31dfbc503216","name":"Ridderkerk Gieterijstraat ","address":"Gieterijstraat 131 ","city":"Ridderkerk","operatorName":"Opcharge","maxPowerKw":22,"isMegawatt":false,"status":"AVAILABLE","source":"ndw","priceKwh":0.44}},{"type":"Feature","geometry":{"type":"Point","coordinates":[4.617382,51.865833]},"properties":{"type":"charge","layer":"passenger","locationId":"NLLOC001872","name":"NLD, Ridderkerk, Rosmolen 8","address":"Rosmolen 8","city":"Ridderkerk","operatorName":"Allego","maxPowerKw":11,"isMegawatt":false,"status":"AVAILABLE","source":"ndw","priceKwh":0.511}},{"type":"Feature","geometry":{"type":"Point","coordinates":[4.628916,51.856197]},"properties":{"type":"charge","layer":"passenger","locationId":"3af4c32c-d639-4fd0-bb18-0d1c2af99e00","name":"bp pulse Ridderkerk #1","address":"A15","city":"Ridderkerk","operatorName":"bp pulse","maxPowerKw":150,"isMegawatt":false,"status":"AVAILABLE","source":"ndw","priceKwh":0.7}},{"type":"Feature","geometry":{"type":"Point","coordinates":[4.55778,51.867874]},"properties":{"type":"charge","layer":"passenger","locationId":"0133ea4b-b21c-4796-8755-1e3ec81399dc","name":"Ridderkerk, Netherlands","address":"1, Krommeweg","city":"Ridderkerk","operatorName":"Tesla","maxPowerKw":250,"isMegawatt":false,"status":"AVAILABLE","source":"ndw","priceKwh":0.53}},{"type":"Feature","geometry":{"type":"Point","coordinates":[4.6061101,51.8706016]},"properties":{"type":"charge","layer":"passenger","locationId":"53502","name":"Basic-Fit 1139 Ridderkerk (PowerGo)","address":"Gieterijstraat 30","city":"Ridderkerk","operatorName":"PowerGo","maxPowerKw":30,"isMegawatt":false,"status":"AVAILABLE","source":"ndw","priceKwh":0.5}},{"type":"Feature","geometry":{"type":"Point","coordinates":[4.623519,51.880853]},"properties":{"type":"charge","layer":"passenger","locationId":"91108900","name":"50five-S NL 18B02551","address":"Ringdijk 372","city":"Ridderkerk","operatorName":"50five","maxPowerKw":17,"isMegawatt":false,"status":"AVAILABLE","source":"ndw"}},{"type":"Feature","geometry":{"type":"Point","coordinates":[4.601474,51.873251]},"properties":{"type":"charge","layer":"passenger","locationId":"NLLOC012780","name":"NL, Dr Kuyperstraat 7, 2982 XC Ridderkerk","address":"Dr Kuyperstraat 7","city":"Ridderkerk","operatorName":"Allego","maxPowerKw":11,"isMegawatt":false,"status":"AVAILABLE","source":"ndw","priceKwh":0.511}},{"type":"Feature","geometry":{"type":"Point","coordinates":[4.599498,51.875483]},"properties":{"type":"charge","layer":"passenger","locationId":"NLLOC009436","name":"NL, Hovystraat 26, 2982PE, Ridderkerk","address":"Hovystraat 26","city":"Ridderkerk","operatorName":"Allego","maxPowerKw":11,"isMegawatt":false,"status":"AVAILABLE","source":"ndw","priceKwh":0.511}},{"type":"Feature","geometry":{"type":"Point","coordinates":[4.608654,51.872316]},"properties":{"type":"charge","layer":"passenger","locationId":"21B146BA-F373-46BA-A8EA-2A8975ED069F","name":"Eneco eMobility Havenkade 1 Ridderkerk","address":"Havenkade 1","city":"Ridderkerk","operatorName":"Eneco","maxPowerKw":22,"isMegawatt":false,"status":"AVAILABLE","source":"ndw","priceKwh":0.32}},{"type":"Feature","geometry":{"type":"Point","coordinates":[4.598607,51.848121]},"properties":{"type":"charge","layer":"passenger","locationId":"NLLOC008947","name":"Rijksstraatweg 43 2988BA Ridderkerk","address":"Rijksstraatweg 43","city":"Ridderkerk","operatorName":"Allego","maxPowerKw":11,"isMegawatt":false,"status":"AVAILABLE","source":"ndw","priceKwh":0.511}},{"type":"Feature","geometry":{"type":"Point","coordinates":[4.61777,51.87666]},"properties":{"type":"charge","layer":"passenger","locationId":"9961D852-E277-4D1B-9262-3FAE59485296","name":"Eneco eMobility Rietdekkerstraat 6 Ridderkerk","address":"Rietdekkerstraat 6","city":"Ridderkerk","operatorName":"Eneco","maxPowerKw":22,"isMegawatt":false,"status":"AVAILABLE","source":"ndw","priceKwh":0.32}},{"type":"Feature","geometry":{"type":"Point","coordinates":[4.600869,51.862961]},"properties":{"type":"charge","layer":"passenger","locationId":"NLLOC001772","name":"NLD, Ridderkerk, De Genestetstraat 43","address":"De Genestetstraat 43","city":"Ridderkerk","operatorName":"Allego","maxPowerKw":11,"isMegawatt":false,"status":"AVAILABLE","source":"ndw","priceKwh":0.511}},{"type":"Feature","geometry":{"type":"Point","coordinates":[4.592952,51.85291]},"properties":{"type":"charge","layer":"passenger","locationId":"NLLOC008263","name":"NL, Mauritshoek 41, 2988 EB, Ridderkerk","address":"Mauritshoek 41","city":"Ridderkerk","operatorName":"Allego","maxPowerKw":11,"isMegawatt":false,"status":"AVAILABLE","source":"ndw","priceKwh":0.511}},{"type":"Feature","geometry":{"type":"Point","coordinates":[4.606443,51.871437]},"properties":{"type":"charge","layer":"passenger","locationId":"35e133a8-3c1f-4c12-be20-1f40749b101d","name":"Gieterijstraat","address":"Gieterijstraat 89","city":"Ridderkerk","operatorName":"Vattenfall InCharge","maxPowerKw":22,"isMegawatt":false,"status":"AVAILABLE","source":"ndw","priceKwh":0.45}},{"type":"Feature","geometry":{"type":"Point","coordinates":[4.600422,51.874427]},"properties":{"type":"charge","layer":"passenger","locationId":"NLLOC001771","name":"NLD, Ridderkerk, Poesiatstraat 19","address":"Poesiatstraat 19","city":"Ridderkerk","operatorName":"Allego","maxPowerKw":11,"isMegawatt":false,"status":"AVAILABLE","source":"ndw","priceKwh":0.511}},{"type":"Feature","geometry":{"type":"Point","coordinates":[4.623608,51.867518]},"properties":{"type":"charge","layer":"passenger","locationId":"NLLOC008324","name":"NL, Lorentzstraat, 14 2984EK, Ridderkerk","address":"Lorentzstraat 14","city":"Ridderkerk","operatorName":"Allego","maxPowerKw":11,"isMegawatt":false,"status":"AVAILABLE","source":"ndw","priceKwh":0.511}},{"type":"Feature","geometry":{"type":"Point","coordinates":[4.61548,51.887163]},"properties":{"type":"charge","layer":"passenger","locationId":"690b350d7704cf25bb082b06","name":"Abri","address":"Ringdijk 398","city":"Ridderkerk","operatorName":"E-Flux by Road","maxPowerKw":11,"isMegawatt":false,"status":"AVAILABLE","source":"ndw","priceKwh":0.58}},{"type":"Feature","geometry":{"type":"Point","coordinates":[4.606693,51.871124]},"properties":{"type":"charge","layer":"passenger","locationId":"65cb73e7b87ca1001b111f6c","name":"Ton Stam","address":"gieterijstraat  50","city":"ridderkerk","operatorName":"E-Flux by Road","maxPowerKw":22,"isMegawatt":false,"status":"AVAILABLE","source":"ndw","priceKwh":0.28}},{"type":"Feature","geometry":{"type":"Point","coordinates":[4.616354,51.862806]},"properties":{"type":"charge","layer":"passenger","locationId":"NLLOC001874","name":"NLD, Ridderkerk, Paltrokmolen 83","address":"Paltrokmolen 83","city":"Ridderkerk","operatorName":"Allego","maxPowerKw":11,"isMegawatt":false,"status":"AVAILABLE","source":"ndw","priceKwh":0.511}},{"type":"Feature","geometry":{"type":"Point","coordinates":[4.611581,51.867866]},"properties":{"type":"charge","layer":"passenger","locationId":"NLLOC001873","name":"NLD, Ridderkerk, Westerdijkstraat 25","address":"Westerdijkstraat 25","city":"Ridderkerk","operatorName":"Allego","maxPowerKw":11,"isMegawatt":false,"status":"AVAILABLE","source":"ndw","priceKwh":0.511}},{"type":"Feature","geometry":{"type":"Point","coordinates":[4.626053,51.865126]},"properties":{"type":"charge","layer":"passenger","locationId":"91171969","name":"50five-S NL 07117555","address":"Bliek 32","city":"Ridderkerk","operatorName":"50five","maxPowerKw":11,"isMegawatt":false,"status":"AVAILABLE","source":"ndw"}},{"type":"Feature","geometry":{"type":"Point","coordinates":[4.612668,51.882161]},"properties":{"type":"charge","layer":"passenger","locationId":"NLLOC004723","name":"NLD, Amaliastraat 1, 2983 EA, Ridderkerk","address":"Amaliastraat 1","city":"Ridderkerk","operatorName":"Allego","maxPowerKw":11,"isMegawatt":false,"status":"AVAILABLE","source":"ndw","priceKwh":0.511}},{"type":"Feature","geometry":{"type":"Point","coordinates":[4.606169,51.880539]},"properties":{"type":"charge","layer":"passenger","locationId":"91186158","name":"50five-S NL 07111561","address":"Oranjestraat 145","city":"Ridderkerk","operatorName":"50five","maxPowerKw":11,"isMegawatt":false,"status":"AVAILABLE","source":"ndw"}},{"type":"Feature","geometry":{"type":"Point","coordinates":[4.620309,51.882597]},"properties":{"type":"charge","layer":"passenger","locationId":"91106086","name":"50five-S NL 18B12343","address":"Ringdijk 390C","city":"Ridderkerk","operatorName":"50five","maxPowerKw":22,"isMegawatt":false,"status":"AVAILABLE","source":"ndw"}},{"type":"Feature","geometry":{"type":"Point","coordinates":[4.607629,51.880771]},"properties":{"type":"charge","layer":"passenger","locationId":"NLLOC001544","name":"NLD, Ridderkerk, Nassaustraat 168","address":"Nassaustraat 168","city":"Ridderkerk","operatorName":"Allego","maxPowerKw":11,"isMegawatt":false,"status":"AVAILABLE","source":"ndw","priceKwh":0.511}},{"type":"Feature","geometry":{"type":"Point","coordinates":[4.619272,51.870038]},"properties":{"type":"charge","layer":"passenger","locationId":"NLLOC001543","name":"NLD, Ridderkerk, Christina Mohrmannstraat 13","address":"Christina Mohrmannstraat 13","city":"Ridderkerk","operatorName":"Allego","maxPowerKw":11,"isMegawatt":false,"status":"AVAILABLE","source":"ndw","priceKwh":0.511}},{"type":"Feature","geometry":{"type":"Point","coordinates":[4.613915,51.875425]},"properties":{"type":"charge","layer":"passenger","locationId":"6360f46fbae54e703e9689c1","name":"Rufus Flipse 's station","address":"Kolenbranderstraat 20","city":"Ridderkerk","operatorName":"E-Flux by Road","maxPowerKw":22,"isMegawatt":false,"status":"AVAILABLE","source":"ndw","priceKwh":0.51}},{"type":"Feature","geometry":{"type":"Point","coordinates":[4.576627,51.894049]},"properties":{"type":"charge","layer":"passenger","locationId":"NLLOC009289","name":"NL, Maaslaan 1 2987XZ, Ridderkerk","address":"Maaslaan 1","city":"Ridderkerk","operatorName":"Allego","maxPowerKw":11,"isMegawatt":false,"status":"AVAILABLE","source":"ndw","priceKwh":0.511}},{"type":"Feature","geometry":{"type":"Point","coordinates":[4.595093,51.876279]},"properties":{"type":"charge","layer":"passenger","locationId":"NLLOC003568","name":"NLD, Margriete van Comenestraat 8, 2982 PH Ridderkerk","address":"Margriete van Comenestraat 8","city":"Ridderkerk","operatorName":"Allego","maxPowerKw":11,"isMegawatt":false,"status":"AVAILABLE","source":"ndw","priceKwh":0.511}},{"type":"Feature","geometry":{"type":"Point","coordinates":[4.551662,51.872912]},"properties":{"type":"charge","layer":"passenger","locationId":"91418337","name":"Van Leeuwen Bas Boer","address":"Escudostraat 6-g","city":"Ridderkerk","operatorName":"Van Leeuwen","maxPowerKw":11,"isMegawatt":false,"status":"AVAILABLE","source":"ndw"}},{"type":"Feature","geometry":{"type":"Point","coordinates":[4.591457,51.886614]},"properties":{"type":"charge","layer":"passenger","locationId":"NLLOC007754","name":"NL, Donckselaan 10b, 2983 LC, Ridderkerk","address":"Donckselaan 10b","city":"Ridderkerk","operatorName":"Allego","maxPowerKw":11,"isMegawatt":false,"status":"AVAILABLE","source":"ndw","priceKwh":0.511}},{"type":"Feature","geometry":{"type":"Point","coordinates":[4.613868,51.888268]},"properties":{"type":"charge","layer":"passenger","locationId":"90219626","name":"Van Leeuwen Metaal Transport B.V.","address":"Ringdijk 408","city":"Ridderkerk","operatorName":"Van Leeuwen","maxPowerKw":11,"isMegawatt":false,"status":"AVAILABLE","source":"ndw"}},{"type":"Feature","geometry":{"type":"Point","coordinates":[4.560726,51.867677]},"properties":{"type":"charge","layer":"passenger","locationId":"89568295","name":"Van Leeuwen Krommeweg 10","address":"Krommeweg 10","city":"Ridderkerk","operatorName":"Van Leeuwen","maxPowerKw":22,"isMegawatt":false,"status":"AVAILABLE","source":"ndw"}},{"type":"Feature","geometry":{"type":"Point","coordinates":[4.601154,51.881954]},"properties":{"type":"charge","layer":"passenger","locationId":"NLLOC005622","name":"NLD Prinsenstraat 79 2983 CH Ridderkerk","address":"Prinsenstraat 79","city":"Ridderkerk","operatorName":"Allego","maxPowerKw":11,"isMegawatt":false,"status":"AVAILABLE","source":"ndw","priceKwh":0.511}},{"type":"Feature","geometry":{"type":"Point","coordinates":[4.607875,51.875385]},"properties":{"type":"charge","layer":"passenger","locationId":"91314442","name":"50five-S NL Location","address":"Wolweverstraat 10","city":"Ridderkerk","operatorName":"50five","maxPowerKw":11,"isMegawatt":false,"status":"UNAVAILABLE","source":"ndw"}},{"type":"Feature","geometry":{"type":"Point","coordinates":[4.624331,51.865482]},"properties":{"type":"charge","layer":"passenger","locationId":"NLLOC007704","name":"NL, Forel 111, 2986RA, Ridderkerk","address":"Forel 111","city":"Ridderkerk","operatorName":"Allego","maxPowerKw":11,"isMegawatt":false,"status":"AVAILABLE","source":"ndw","priceKwh":0.511}},{"type":"Feature","geometry":{"type":"Point","coordinates":[4.591212,51.8919]},"properties":{"type":"charge","layer":"passenger","locationId":"NLLOC007654","name":"NL, Droogdok 2, 2987 WC, Ridderkerk","address":"Droogdok 2","city":"Ridderkerk","operatorName":"Allego","maxPowerKw":11,"isMegawatt":false,"status":"AVAILABLE","source":"ndw","priceKwh":0.511}},{"type":"Feature","geometry":{"type":"Point","coordinates":[4.596045,51.861323]},"properties":{"type":"charge","layer":"passenger","locationId":"NLLOC002225","name":"NLD, Kerkweg 221, Ridderkerk","address":"Kerkweg 221","city":"Ridderkerk","operatorName":"Allego","maxPowerKw":11,"isMegawatt":false,"status":"AVAILABLE","source":"ndw","priceKwh":0.511}},{"type":"Feature","geometry":{"type":"Point","coordinates":[4.611442,51.872435]},"properties":{"type":"charge","layer":"passenger","locationId":"923437","name":"DAE-NL-2000258","address":"Tinstraat 1","city":"Ridderkerk","operatorName":"DAEN Mobility","maxPowerKw":11,"isMegawatt":false,"status":"AVAILABLE","source":"ndw","priceKwh":0.29}},{"type":"Feature","geometry":{"type":"Point","coordinates":[4.614926,51.86161]},"properties":{"type":"charge","layer":"passenger","locationId":"NLLOC007712","name":"NL, Windmolen 20, 2986TH, Ridderkerk","address":"Windmolen 20","city":"Ridderkerk","operatorName":"Allego","maxPowerKw":11,"isMegawatt":false,"status":"AVAILABLE","source":"ndw","priceKwh":0.511}},{"type":"Feature","geometry":{"type":"Point","coordinates":[4.589512,51.877976]},"properties":{"type":"charge","layer":"passenger","locationId":"4219130","name":"Laadnet Verzuimdata B.V.","address":"Kastanjelaan 4","city":"Ridderkerk","operatorName":"Laadnet","maxPowerKw":22,"isMegawatt":false,"status":"AVAILABLE","source":"ndw"}},{"type":"Feature","geometry":{"type":"Point","coordinates":[4.613443,51.885305]},"properties":{"type":"charge","layer":"passenger","locationId":"NLLOC001632","name":"NLD, Ridderkerk, Oranjestraat 30","address":"Oranjestraat 30","city":"Ridderkerk","operatorName":"Allego","maxPowerKw":22,"isMegawatt":false,"status":"AVAILABLE","source":"ndw","priceKwh":0.511}},{"type":"Feature","geometry":{"type":"Point","coordinates":[4.560444,51.861876]},"properties":{"type":"charge","layer":"passenger","locationId":"69172f1b92e81433cb754f2a","name":"TLR, International Laboratories (Handelsweg 70)","address":"Handelsweg 70","city":"Ridderkerk","operatorName":"E-Flux by Road","maxPowerKw":11,"isMegawatt":false,"status":"AVAILABLE","source":"ndw","priceKwh":0.73}},{"type":"Feature","geometry":{"type":"Point","coordinates":[4.606022,51.886902]},"properties":{"type":"charge","layer":"passenger","locationId":"NLLOC003147","name":"NLD, Van Beethovenstraat 30, 2983 BV Ridderkerk","address":"Van Beethovenstraat 30","city":"Ridderkerk","operatorName":"Allego","maxPowerKw":11,"isMegawatt":false,"status":"AVAILABLE","source":"ndw","priceKwh":0.511}},{"type":"Feature","geometry":{"type":"Point","coordinates":[4.580919,51.891435]},"properties":{"type":"charge","layer":"passenger","locationId":"NLLOC015976","name":"NL, Lingestraat 28, 2987 CG Ridderkerk","address":"Lingestraat 28","city":"Ridderkerk","operatorName":"Allego","maxPowerKw":11,"isMegawatt":false,"status":"AVAILABLE","source":"ndw","priceKwh":0.511}},{"type":"Feature","geometry":{"type":"Point","coordinates":[4.63304,51.852931]},"properties":{"type":"charge","layer":"passenger","locationId":"NLLOC004571","name":"NLD Tarwestraat 1 2989 AW Ridderkerk","address":"Tarwestraat 1","city":"Ridderkerk","operatorName":"Allego","maxPowerKw":11,"isMegawatt":false,"status":"AVAILABLE","source":"ndw","priceKwh":0.511}},{"type":"Feature","geometry":{"type":"Point","coordinates":[4.61711,51.878612]},"properties":{"type":"charge","layer":"passenger","locationId":"1477105","name":"Laadnet Sws1","address":"Schrijnwerkerstraat 1","city":"Ridderkerk","operatorName":"Laadnet","maxPowerKw":22,"isMegawatt":false,"status":"AVAILABLE","source":"ndw"}},{"type":"Feature","geometry":{"type":"Point","coordinates":[4.640597,51.85488]},"properties":{"type":"charge","layer":"passenger","locationId":"NLLOC002865","name":"NLD, Damstraat 3, 2989 AC, Ridderkerk","address":"Damstraat 3","city":"Ridderkerk","operatorName":"Allego","maxPowerKw":11,"isMegawatt":false,"status":"AVAILABLE","source":"ndw","priceKwh":0.511}},{"type":"Feature","geometry":{"type":"Point","coordinates":[4.594663,51.855644]},"properties":{"type":"charge","layer":"passenger","locationId":"NLLOC004259","name":"NLD Mauritsweg 109 2988AH Ridderkerk","address":"Mauritsweg 109","city":"Ridderkerk","operatorName":"Allego","maxPowerKw":11,"isMegawatt":false,"status":"AVAILABLE","source":"ndw","priceKwh":0.511}},{"type":"Feature","geometry":{"type":"Point","coordinates":[4.616217,51.887994]},"properties":{"type":"charge","layer":"passenger","locationId":"NLLOC002837","name":"NLD, Drierivierenlaan 99 2983 GW Ridderkerk","address":"Drierivierenlaan 99","city":"Ridderkerk","operatorName":"Allego","maxPowerKw":11,"isMegawatt":false,"status":"CHARGING","source":"ndw","priceKwh":0.511}},{"type":"Feature","geometry":{"type":"Point","coordinates":[4.56725,51.86304]},"properties":{"type":"charge","layer":"passenger","locationId":"852C3057-D680-42BC-B7A8-C8B16B209C37","name":"Eneco eMobility Bakker Barendrecht B.V. - Laurierweg 80 - Ridderkerk","address":"Laurierweg 80","city":"Ridderkerk","operatorName":"Eneco","maxPowerKw":11,"isMegawatt":false,"status":"AVAILABLE","source":"ndw","priceKwh":0.34}},{"type":"Feature","geometry":{"type":"Point","coordinates":[4.604203,51.873357]},"properties":{"type":"charge","layer":"passenger","locationId":"67b701f9a2a8d857bff7161d","name":"Noordenweg Ridderkerk A","address":"Noordenweg  24","city":"Ridderker","operatorName":"E-Flux by Road","maxPowerKw":11,"isMegawatt":false,"status":"AVAILABLE","source":"ndw","priceKwh":0.57}},{"type":"Feature","geometry":{"type":"Point","coordinates":[4.617728,51.887064]},"properties":{"type":"charge","layer":"passenger","locationId":"NLLOC012206","name":"NL, Drierivierenlaan 56, 2983 GW, Ridderkerk","address":"Drierivierenlaan 56","city":"Ridderkerk","operatorName":"Allego","maxPowerKw":11,"isMegawatt":false,"status":"CHARGING","source":"ndw","priceKwh":0.511}},{"type":"Feature","geometry":{"type":"Point","coordinates":[4.627033,51.862382]},"properties":{"type":"charge","layer":"passenger","locationId":"NLLOC001770","name":"NLD, Ridderkerk, Steur 67","address":"Steur 67","city":"Ridderkerk","operatorName":"Allego","maxPowerKw":11,"isMegawatt":false,"status":"AVAILABLE","source":"ndw","priceKwh":0.511}},{"type":"Feature","geometry":{"type":"Point","coordinates":[4.611007,51.886294]},"properties":{"type":"charge","layer":"passenger","locationId":"NLLOC001634","name":"NLD, Ridderkerk, Willemstraat 39","address":"Willemstraat 39-B","city":"Ridderkerk","operatorName":"Allego","maxPowerKw":11,"isMegawatt":false,"status":"AVAILABLE","source":"ndw","priceKwh":0.511}},{"type":"Feature","geometry":{"type":"Point","coordinates":[4.615506,51.86781]},"properties":{"type":"charge","layer":"passenger","locationId":"NLLOC002962","name":"NLD, Gemeente Ridderkerk, Boerhaavestraat 12 2984GA Ridderkerk","address":"Boerhaavestraat 12","city":"Ridderkerk","operatorName":"Allego","maxPowerKw":11,"isMegawatt":false,"status":"AVAILABLE","source":"ndw","priceKwh":0.511}},{"type":"Feature","geometry":{"type":"Point","coordinates":[4.617727,51.884603]},"properties":{"type":"charge","layer":"passenger","locationId":"91107535","name":"50five-S NL 18B13162","address":"Ringdijk 390","city":"Ridderkerk","operatorName":"50five","maxPowerKw":11,"isMegawatt":false,"status":"AVAILABLE","source":"ndw"}},{"type":"Feature","geometry":{"type":"Point","coordinates":[4.594963,51.871371]},"properties":{"type":"charge","layer":"passenger","locationId":"NLLOC001622","name":"NLD, Ridderkerk, Jonkheer Van Karnebeekweg 8","address":"Jonkheer Van Karnebeekweg 8","city":"Ridderkerk","operatorName":"Allego","maxPowerKw":11,"isMegawatt":false,"status":"AVAILABLE","source":"ndw","priceKwh":0.511}},{"type":"Feature","geometry":{"type":"Point","coordinates":[4.580608,51.887974]},"properties":{"type":"charge","layer":"passenger","locationId":"NLLOC008196","name":"NL, Reggestraat, 52, 2987VV, Ridderkerk","address":"Reggestraat","city":"Ridderkerk","operatorName":"Allego","maxPowerKw":11,"isMegawatt":false,"status":"AVAILABLE","source":"ndw","priceKwh":0.511}},{"type":"Feature","geometry":{"type":"Point","coordinates":[4.637277,51.851513]},"properties":{"type":"charge","layer":"passenger","locationId":"NLLOC003566","name":"NLD, Pruimendijk 296, 2989 AP Ridderkerk","address":"Pruimendijk 296","city":"Ridderkerk","operatorName":"Allego","maxPowerKw":11,"isMegawatt":false,"status":"AVAILABLE","source":"ndw","priceKwh":0.511}},{"type":"Feature","geometry":{"type":"Point","coordinates":[4.614764,51.884187]},"properties":{"type":"charge","layer":"passenger","locationId":"NLLOC002153","name":"NLD, Ridderkerk, Benedenrijweg 333","address":"Benedenrijweg 333","city":"Ridderkerk","operatorName":"Allego","maxPowerKw":11,"isMegawatt":false,"status":"AVAILABLE","source":"ndw","priceKwh":0.511}},{"type":"Feature","geometry":{"type":"Point","coordinates":[4.604563,51.87861]},"properties":{"type":"charge","layer":"passenger","locationId":"NLLOC004582","name":"NLD Prinses Margrietstraat 54 a 2983EJ Ridderkerk","address":"Prinses Margrietstraat 54 a","city":"Ridderkerk","operatorName":"Allego","maxPowerKw":11,"isMegawatt":false,"status":"AVAILABLE","source":"ndw","priceKwh":0.511}},{"type":"Feature","geometry":{"type":"Point","coordinates":[4.594692,51.865337]},"properties":{"type":"charge","layer":"passenger","locationId":"NLLOC004379","name":"NLD Irisstraat 8 2981 BN Ridderkerk","address":"Irisstraat 8","city":"Ridderkerk","operatorName":"Allego","maxPowerKw":22,"isMegawatt":false,"status":"AVAILABLE","source":"ndw","priceKwh":0.511}},{"type":"Feature","geometry":{"type":"Point","coordinates":[4.600823,51.885395]},"properties":{"type":"charge","layer":"passenger","locationId":"NLLOC007731","name":"NL, Verdistraat 24 2983 VN Ridderkerk","address":"Verdistraat 22","city":"Ridderkerk","operatorName":"Allego","maxPowerKw":11,"isMegawatt":false,"status":"AVAILABLE","source":"ndw","priceKwh":0.511}},{"type":"Feature","geometry":{"type":"Point","coordinates":[4.59505,51.874192]},"properties":{"type":"charge","layer":"passenger","locationId":"NLLOC001545","name":"NLD, Ridderkerk, Jonkheer de Savornin Lohmanstraat 42","address":"Jonkheer de Savornin Lohmanstraat 42","city":"Ridderkerk","operatorName":"Allego","maxPowerKw":11,"isMegawatt":false,"status":"AVAILABLE","source":"ndw","priceKwh":0.511}},{"type":"Feature","geometry":{"type":"Point","coordinates":[4.620152,51.8819]},"properties":{"type":"charge","layer":"passenger","locationId":"91106550","name":"50five-S NL 08105768","address":"Ringdijk 390C","city":"Ridderkerk","operatorName":"50five","maxPowerKw":22,"isMegawatt":false,"status":"AVAILABLE","source":"ndw"}},{"type":"Feature","geometry":{"type":"Point","coordinates":[4.60161,51.867136]},"properties":{"type":"charge","layer":"passenger","locationId":"NLLOC002252","name":"NLD, Ridderkerk, Jan Luykenstraat 10","address":"Jan Luykenstraat 10","city":"Ridderkerk","operatorName":"Allego","maxPowerKw":11,"isMegawatt":false,"status":"AVAILABLE","source":"ndw","priceKwh":0.511}},{"type":"Feature","geometry":{"type":"Point","coordinates":[4.608743,51.878203]},"properties":{"type":"charge","layer":"passenger","locationId":"NLLOC009466","name":"NL, Wolweverstraat, 41, 2984 CE, Ridderkerk","address":"Wolweverstraat 41","city":"Ridderkerk","operatorName":"Allego","maxPowerKw":11,"isMegawatt":false,"status":"AVAILABLE","source":"ndw","priceKwh":0.511}},{"type":"Feature","geometry":{"type":"Point","coordinates":[4.625799,51.877111]},"properties":{"type":"charge","layer":"passenger","locationId":"91230166","name":"50five-S NL 08001008","address":"Ridderhaven 1","city":"Ridderkerk","operatorName":"50five","maxPowerKw":11,"isMegawatt":false,"status":"AVAILABLE","source":"ndw"}},{"type":"Feature","geometry":{"type":"Point","coordinates":[4.620026,51.882209]},"properties":{"type":"charge","layer":"passenger","locationId":"91106458","name":"50five-S NL 08105759","address":"Ringdijk 390C","city":"Ridderkerk","operatorName":"50five","maxPowerKw":22,"isMegawatt":false,"status":"AVAILABLE","source":"ndw"}},{"type":"Feature","geometry":{"type":"Point","coordinates":[4.600091,51.84982]},"properties":{"type":"charge","layer":"passenger","locationId":"NLLOC002213","name":"NLD, Ridderkerk, Govert Flohilstraat 2","address":"Govert Flohilstraat 2","city":"Ridderkerk","operatorName":"Allego","maxPowerKw":11,"isMegawatt":false,"status":"AVAILABLE","source":"ndw","priceKwh":0.511}},{"type":"Feature","geometry":{"type":"Point","coordinates":[4.602066,51.887421]},"properties":{"type":"charge","layer":"passenger","locationId":"NLLOC010990","name":"NL, Bernhard Zweersstraat 28, 2983 BB, Ridderkerk","address":"Bernhard Zweerssttraat 28","city":"Ridderkerk","operatorName":"Allego","maxPowerKw":11,"isMegawatt":false,"status":"AVAILABLE","source":"ndw","priceKwh":0.511}},{"type":"Feature","geometry":{"type":"Point","coordinates":[4.578444,51.889019]},"properties":{"type":"charge","layer":"passenger","locationId":"NLLOC007702","name":"NL, Leklaan 18, 2987 EK, Ridderkerk","address":"Leklaan 18","city":"Ridderkerk","operatorName":"Allego","maxPowerKw":11,"isMegawatt":false,"status":"AVAILABLE","source":"ndw","priceKwh":0.511}},{"type":"Feature","geometry":{"type":"Point","coordinates":[4.574904,51.892244]},"properties":{"type":"charge","layer":"passenger","locationId":"NLLOC001769","name":"NLD, Ridderkerk, Waterland 34","address":"Waterland 34","city":"Ridderkerk","operatorName":"Allego","maxPowerKw":11,"isMegawatt":false,"status":"AVAILABLE","source":"ndw","priceKwh":0.511}},{"type":"Feature","geometry":{"type":"Point","coordinates":[4.578163,51.89553]},"properties":{"type":"charge","layer":"passenger","locationId":"NLLOC003456","name":"NLD, Gemeente Ridderkerk, Retiefstraat 50 2987AP Ridderkerk","address":"Retiefstraat 50","city":"Ridderkerk","operatorName":"Allego","maxPowerKw":11,"isMegawatt":false,"status":"CHARGING","source":"ndw","priceKwh":0.511}},{"type":"Feature","geometry":{"type":"Point","coordinates":[4.59439,51.870801]},"properties":{"type":"charge","layer":"passenger","locationId":"NLLOC009790","name":"NL, Hobbemastraat 78, 2981CL, Ridderkerk","address":"Hobbemastraat 78","city":"Ridderkerk","operatorName":"Allego","maxPowerKw":11,"isMegawatt":false,"status":"UNAVAILABLE","source":"ndw","priceKwh":0.511}},{"type":"Feature","geometry":{"type":"Point","coordinates":[4.62782,51.8556]},"properties":{"type":"charge","layer":"freight","locationId":"50475","name":"Fastned Ridderkerk","address":"Rijksweg 15 4","city":"Ridderkerk","operatorName":"Fastned","maxPowerKw":400,"isMegawatt":false,"status":"AVAILABLE","source":"ndw","priceKwh":0.6364,"freightKind":"hpc","freightReason":"power"}},{"type":"Feature","geometry":{"type":"Point","coordinates":[4.606112,51.875068]},"properties":{"type":"charge","layer":"freight","locationId":"68556fc7087db8cbf2efa386","name":"Esso Vissers Ridderkerk","address":"Rotterdamseweg 15","city":"Ridderkerk","operatorName":"Tanx","maxPowerKw":396,"isMegawatt":false,"status":"AVAILABLE","source":"ndw","priceKwh":0.6,"freightKind":"hpc","freightReason":"power"}},{"type":"Feature","geometry":{"type":"MultiPolygon","coordinates":[[[[4.583021079011741,51.90121241698073],[4.590797964417802,51.895848186210024],[4.595029543088747,51.89417239669147],[4.61957288434124,51.88952232367044],[4.619249561341465,51.88844187509565],[4.620301148085491,51.887633476800545],[4.624230326026404,51.88380553389354],[4.626391721700815,51.880657439128605],[4.635261534087181,51.8697109226457],[4.635449699225273,51.86911734350106],[4.640027931791422,51.86252371139663],[4.6437634680853295,51.859303480276104],[4.647294449782674,51.857216108766096],[4.64249302096336,51.85390734142429],[4.636516385869969,51.84966238724264],[4.633441160914581,51.85027546966575],[4.628758321722216,51.85434604021349],[4.626043194104772,51.85451278381305],[4.6234229119754415,51.85373062313993],[4.618715754494831,51.8512378425746],[4.612501272655515,51.85058743152838],[4.608288790892143,51.84941395337839],[4.606996056924106,51.84852477493917],[4.604913337895617,51.84838446186757],[4.600155315133887,51.838730096357104],[4.594684572336033,51.840283111027816],[4.585362522469441,51.84251465513574],[4.571058949048978,51.84711671777207],[4.571386499872645,51.84942728884474],[4.569971232966943,51.852620457197006],[4.565961786177045,51.85208623497773],[4.5641135303047315,51.85348759453772],[4.563524755990294,51.855018043713045],[4.562733121160457,51.85606957959677],[4.560299694842951,51.85933090385111],[4.556371554889425,51.86457177442762],[4.554883806719001,51.866560297644284],[4.553926871816345,51.867857384282786],[4.553842353777014,51.86797223588968],[4.552770060866542,51.86942933312582],[4.549383690218569,51.87402715325783],[4.549253854319848,51.87420081549343],[4.5519127125222525,51.87469059571572],[4.5548732088810295,51.875559797030284],[4.557846234846103,51.876919173311556],[4.561526226734709,51.878218471331394],[4.567738010498152,51.878176818735625],[4.568912379701203,51.878051859887606],[4.569146789394308,51.87818017782455],[4.568906693901433,51.87832499766098],[4.573149323949542,51.89121994391107],[4.5734642577845275,51.89163892996514],[4.573468201219835,51.89208481480341],[4.575408182480495,51.898082462419154],[4.575600064005112,51.89805735111436],[4.5760961747552065,51.899373594470454],[4.575906239773087,51.901252410371875],[4.576329070816476,51.9030314707402],[4.583021079011741,51.90121241698073]]]]},"properties":{"type":"boundary","gemeente":"Ridderkerk","code":"GM0597"}}]}