{"type":"FeatureCollection","metadata":{"gemeente":"Rijswijk (ZH.)","slug":"rijswijk-zh","code":"GM0603","generated_at":"2026-08-08T12:05:52.020Z","total_passenger":54,"total_freight":1,"bounds":[4.290951733694958,52.012766395951836,4.357902176139592,52.061947192708644],"operators":["50five","E-Flux by Road","Electra","Eneco","Laadnet","NXT Charging Solutions","Opcharge","Pluq","Q-Park Netherlands","Shell Recharge","Tesla","Van Leeuwen","Vattenfall InCharge","bp pulse","e-VOLTT"]},"features":[{"type":"Feature","geometry":{"type":"Point","coordinates":[4.356553,52.028532]},"properties":{"type":"charge","layer":"passenger","locationId":"131","name":"Shell Recharge NL8521 - Shell Vrijenbanselaan","address":"Vrijenbanselaan 15","city":"Rijswijk","operatorName":"Shell Recharge","maxPowerKw":175,"isMegawatt":false,"status":"AVAILABLE","source":"ndw","priceKwh":0.7025}},{"type":"Feature","geometry":{"type":"Point","coordinates":[4.32754,52.03965]},"properties":{"type":"charge","layer":"passenger","locationId":"86600f3fd09e4e8a8aafe8e16df89ebd","name":"Rijswijk - TUI Hoofdkantoor","address":" Volmerlaan 3","city":"Rijswijk","operatorName":"Opcharge","maxPowerKw":22,"isMegawatt":false,"status":"AVAILABLE","source":"ndw","priceKwh":0.49}},{"type":"Feature","geometry":{"type":"Point","coordinates":[4.336373,52.043173]},"properties":{"type":"charge","layer":"passenger","locationId":"91107138","name":"50five-S NL 08105544","address":"De Bruyn Kopsstraat 9","city":"Rijswijk","operatorName":"50five","maxPowerKw":11,"isMegawatt":false,"status":"UNAVAILABLE","source":"ndw"}},{"type":"Feature","geometry":{"type":"Point","coordinates":[4.321811,52.028823]},"properties":{"type":"charge","layer":"passenger","locationId":"bec00fe3-d2b0-4360-aad7-557dd8f68683","name":"bp pulse Zoomseweg #05","address":"Prinses Beatrixlaan 1147","city":"Rijswijk","operatorName":"bp pulse","maxPowerKw":150,"isMegawatt":false,"status":"AVAILABLE","source":"ndw","priceKwh":0.7}},{"type":"Feature","geometry":{"type":"Point","coordinates":[4.349303,52.049519]},"properties":{"type":"charge","layer":"passenger","locationId":"FBEE6EB9-C455-4FD2-A8A1-7096983DEED2","name":"Q-Park Rijswijk PR Hoornwijk","address":"Laan van Zuid Hoorn 38","city":"Rijswijk","operatorName":"Q-Park Netherlands","maxPowerKw":11,"isMegawatt":false,"status":"AVAILABLE","source":"ndw"}},{"type":"Feature","geometry":{"type":"Point","coordinates":[4.33272,52.03678]},"properties":{"type":"charge","layer":"passenger","locationId":"7749B728-F91A-4FB8-A78C-EDD1E2001C11","name":"Eneco eMobility Celil Bedrijfsdiensten B.V. - Van Gijnstraat - Rijswijk","address":"Van Gijnstraat 24","city":"Rijswijk","operatorName":"Eneco","maxPowerKw":22,"isMegawatt":false,"status":"AVAILABLE","source":"ndw","priceKwh":0.32}},{"type":"Feature","geometry":{"type":"Point","coordinates":[4.347063,52.048634]},"properties":{"type":"charge","layer":"passenger","locationId":"a96e5480-2818-4402-b7b0-c537e01a1dca","name":"bp pulse Ypenburg #2","address":"Laan van Hoornwijck 70","city":"Rijswijk","operatorName":"bp pulse","maxPowerKw":150,"isMegawatt":false,"status":"AVAILABLE","source":"ndw","priceKwh":0.7}},{"type":"Feature","geometry":{"type":"Point","coordinates":[4.333141,52.018328]},"properties":{"type":"charge","layer":"passenger","locationId":"6867d115a0b5672cbcbabe53","name":"Koningslinde P1 Links","address":"Heemraadstraat  64","city":"Rijswijk","operatorName":"E-Flux by Road","maxPowerKw":22,"isMegawatt":false,"status":"AVAILABLE","source":"ndw","priceKwh":0.36}},{"type":"Feature","geometry":{"type":"Point","coordinates":[4.333141,52.018328]},"properties":{"type":"charge","layer":"passenger","locationId":"6867d4124c813bc6eedcf6d2","name":"Koningslinde P2 Rechts","address":"Heemraadstraat 64","city":"Rijswijk","operatorName":"E-Flux by Road","maxPowerKw":22,"isMegawatt":false,"status":"AVAILABLE","source":"ndw","priceKwh":0.36}},{"type":"Feature","geometry":{"type":"Point","coordinates":[4.320184,52.031314]},"properties":{"type":"charge","layer":"passenger","locationId":"6683bbad952d74001c9c79e6","name":"VvE Ocarinalaan II te Rijswijk","address":"Ocarinalaan 454","city":"Rijswijk","operatorName":"Pluq","maxPowerKw":11,"isMegawatt":false,"status":"AVAILABLE","source":"ndw","priceKwh":0.44}},{"type":"Feature","geometry":{"type":"Point","coordinates":[4.313835,52.036461]},"properties":{"type":"charge","layer":"passenger","locationId":"6a341b3898f2462590a46e1b9ddcd591","name":"Q-Park Rijswijk","address":"Pr. Beatrixlaan 1","city":"Rijswijk","operatorName":"","maxPowerKw":11,"isMegawatt":false,"status":"AVAILABLE","source":"ndw","priceKwh":0.6}},{"type":"Feature","geometry":{"type":"Point","coordinates":[4.34811,52.04953]},"properties":{"type":"charge","layer":"passenger","locationId":"62BD58AE-7380-4D82-99AC-BC9231449671","name":"Eneco eMobility Laan van Oversteen 20 Rijswijk","address":"Laan van Oversteen 20","city":"Rijswijk","operatorName":"Eneco","maxPowerKw":22,"isMegawatt":false,"status":"AVAILABLE","source":"ndw","priceKwh":0.32}},{"type":"Feature","geometry":{"type":"Point","coordinates":[4.356976,52.02791]},"properties":{"type":"charge","layer":"passenger","locationId":"NL_ELD_PRIJKF","name":"Electra Rijswijk - KFC","address":"Vrijenbanselaan 101","city":"Delft","operatorName":"Electra","maxPowerKw":300,"isMegawatt":false,"status":"AVAILABLE","source":"ndw","priceKwh":0.5702}},{"type":"Feature","geometry":{"type":"Point","coordinates":[4.315535,52.03501]},"properties":{"type":"charge","layer":"passenger","locationId":"7CC468FF-3106-4BDB-8B9A-6F81F109338F","name":"Q-Park Rijswijk Boogaardplein P","address":"Prinses Beatrixlaan 969","city":"Rijswijk","operatorName":"Q-Park Netherlands","maxPowerKw":11,"isMegawatt":false,"status":"AVAILABLE","source":"ndw"}},{"type":"Feature","geometry":{"type":"Point","coordinates":[4.335843,52.03692]},"properties":{"type":"charge","layer":"passenger","locationId":"3a8b75b1-4346-48a4-8e39-359dc2e1fa5d","name":"Polakweg","address":"Polakweg 2","city":"Rijswijk","operatorName":"Vattenfall InCharge","maxPowerKw":50,"isMegawatt":false,"status":"AVAILABLE","source":"ndw","priceKwh":0.46}},{"type":"Feature","geometry":{"type":"Point","coordinates":[4.324759,52.036741]},"properties":{"type":"charge","layer":"passenger","locationId":"56c5f83a-a5ee-405d-a3f6-5769680b1a59","name":"Lange Kleiweg 6","address":"Lange Kleiweg 6","city":"Rijswijk","operatorName":"Vattenfall InCharge","maxPowerKw":22,"isMegawatt":false,"status":"UNAVAILABLE","source":"ndw","priceKwh":0.38}},{"type":"Feature","geometry":{"type":"Point","coordinates":[4.311738,52.031835]},"properties":{"type":"charge","layer":"passenger","locationId":"91228187","name":"50five-S NL 03011044","address":"Arnoldsonstraat 55","city":"Rijswijk","operatorName":"50five","maxPowerKw":4,"isMegawatt":false,"status":"UNAVAILABLE","source":"ndw"}},{"type":"Feature","geometry":{"type":"Point","coordinates":[4.342338,52.055769]},"properties":{"type":"charge","layer":"passenger","locationId":"6239e1f25986780aff016b29","name":"Thuislader Sven","address":"Regentesselaan 23","city":"Rijswijk","operatorName":"E-Flux by Road","maxPowerKw":11,"isMegawatt":false,"status":"CHARGING","source":"ndw","priceKwh":0.43}},{"type":"Feature","geometry":{"type":"Point","coordinates":[4.293975,52.042565]},"properties":{"type":"charge","layer":"passenger","locationId":"471","name":"Shell Recharge NL1052 - Shell Schaapweg","address":"Schaapweg 1","city":"Rijswijk","operatorName":"Shell Recharge","maxPowerKw":300,"isMegawatt":false,"status":"AVAILABLE","source":"ndw","priceKwh":0.7025}},{"type":"Feature","geometry":{"type":"Point","coordinates":[4.352235,52.048998]},"properties":{"type":"charge","layer":"passenger","locationId":"1F1C48A5-3D8F-4470-94A9-F30B46EC33C4","name":"Eneco eMobility Tagi Holding - Rijswijk","address":"Laan van Zuid Hoorn 165","city":"Rijswijk","operatorName":"Eneco","maxPowerKw":22,"isMegawatt":false,"status":"AVAILABLE","source":"ndw","priceKwh":0.65}},{"type":"Feature","geometry":{"type":"Point","coordinates":[4.345095,52.047642]},"properties":{"type":"charge","layer":"passenger","locationId":"89216542","name":"Van Leeuwen Amperelaan 4","address":"Amperelaan 4","city":"Rijswijk","operatorName":"Van Leeuwen","maxPowerKw":22,"isMegawatt":false,"status":"AVAILABLE","source":"ndw"}},{"type":"Feature","geometry":{"type":"Point","coordinates":[4.321974,52.037698]},"properties":{"type":"charge","layer":"passenger","locationId":"90278901","name":"Van Leeuwen Atalantaplein","address":"Atalantaplein 1/63","city":"Rijswijk","operatorName":"Van Leeuwen","maxPowerKw":11,"isMegawatt":false,"status":"AVAILABLE","source":"ndw"}},{"type":"Feature","geometry":{"type":"Point","coordinates":[4.330924,52.037882]},"properties":{"type":"charge","layer":"passenger","locationId":"69cb7f6d1787d3f9054911d8","name":"NXT Charge - Rijswijk - Van Gijnstraat 16 - DC","address":"Van Gijnstraat 16","city":"Rijswijk","operatorName":"NXT Charging Solutions","maxPowerKw":150,"isMegawatt":false,"status":"AVAILABLE","source":"ndw","priceKwh":0.63}},{"type":"Feature","geometry":{"type":"Point","coordinates":[4.328527,52.040208]},"properties":{"type":"charge","layer":"passenger","locationId":"91105790","name":"50five-S NL 09100432","address":"Treubstraat 31","city":"Rijswijk","operatorName":"50five","maxPowerKw":11,"isMegawatt":false,"status":"AVAILABLE","source":"ndw"}},{"type":"Feature","geometry":{"type":"Point","coordinates":[4.347462,52.033272]},"properties":{"type":"charge","layer":"passenger","locationId":"91105506","name":"50five-S NL 19B03315","address":"Delftweg 73","city":"Rijswijk","operatorName":"50five","maxPowerKw":11,"isMegawatt":false,"status":"AVAILABLE","source":"ndw"}},{"type":"Feature","geometry":{"type":"Point","coordinates":[4.324186,52.036569]},"properties":{"type":"charge","layer":"passenger","locationId":"9e57d771-12c2-455d-88e8-b92de5efbc6a","name":"Lange Kleiweg 8","address":"Lange Kleiweg 8","city":"Rijswijk","operatorName":"Vattenfall InCharge","maxPowerKw":22,"isMegawatt":false,"status":"UNAVAILABLE","source":"ndw","priceKwh":0.38}},{"type":"Feature","geometry":{"type":"Point","coordinates":[4.349869,52.034187]},"properties":{"type":"charge","layer":"passenger","locationId":"2985","name":"50five Exploitatie Golfbaan Rijswijk","address":"Delftweg 59","city":"Rijswijk","operatorName":"50five","maxPowerKw":7,"isMegawatt":false,"status":"AVAILABLE","source":"ndw"}},{"type":"Feature","geometry":{"type":"Point","coordinates":[4.345513,52.048847]},"properties":{"type":"charge","layer":"passenger","locationId":"0D9C688B-B6D4-46C3-AB47-62D2F744118F","name":"Eneco eMobility Madame Curielaan 8 - Rijswijk","address":"Madame Curielaan 8","city":"Rijswijk","operatorName":"Eneco","maxPowerKw":22,"isMegawatt":false,"status":"AVAILABLE","source":"ndw","priceKwh":0.35}},{"type":"Feature","geometry":{"type":"Point","coordinates":[4.324317,52.03852]},"properties":{"type":"charge","layer":"passenger","locationId":"88925627","name":"Van Leeuwen Sir Winston Churchillaan 299A","address":"Sir Winston Churchillaan 299A","city":"Rijswijk","operatorName":"Van Leeuwen","maxPowerKw":22,"isMegawatt":false,"status":"AVAILABLE","source":"ndw"}},{"type":"Feature","geometry":{"type":"Point","coordinates":[4.347292,52.050983]},"properties":{"type":"charge","layer":"passenger","locationId":"1701","name":"50five Exploitatie Tauro Rijswijk","address":"Laan van Vredenoord 33","city":"Rijswijk","operatorName":"50five","maxPowerKw":22,"isMegawatt":false,"status":"UNAVAILABLE","source":"ndw"}},{"type":"Feature","geometry":{"type":"Point","coordinates":[4.35121,52.04858]},"properties":{"type":"charge","layer":"passenger","locationId":"62FFE37B-DC3D-4434-83EE-CEB3E7A70440","name":"Eneco eMobility JOVI - Laan van Zuid Hoorn - Rijswijk","address":"Laan van Zuid Hoorn 70","city":"Rijswijk","operatorName":"Eneco","maxPowerKw":22,"isMegawatt":false,"status":"AVAILABLE","source":"ndw","priceKwh":0.35}},{"type":"Feature","geometry":{"type":"Point","coordinates":[4.299086,52.032515]},"properties":{"type":"charge","layer":"passenger","locationId":"91098601","name":"50five-S NL 17B18686","address":"Rieteiland 46","city":"Rijswijk","operatorName":"50five","maxPowerKw":11,"isMegawatt":false,"status":"CHARGING","source":"ndw"}},{"type":"Feature","geometry":{"type":"Point","coordinates":[4.324349,52.015219]},"properties":{"type":"charge","layer":"passenger","locationId":"91170548","name":"50five-S NL 07102838","address":"Sionsweg 58","city":"Rijswijk","operatorName":"50five","maxPowerKw":22,"isMegawatt":false,"status":"AVAILABLE","source":"ndw"}},{"type":"Feature","geometry":{"type":"Point","coordinates":[4.34622,52.034285]},"properties":{"type":"charge","layer":"passenger","locationId":"89333934","name":"Van Leeuwen Delftweg 65","address":"Delftweg 65","city":"Rijswijk","operatorName":"Van Leeuwen","maxPowerKw":22,"isMegawatt":false,"status":"AVAILABLE","source":"ndw"}},{"type":"Feature","geometry":{"type":"Point","coordinates":[4.354131,52.028089]},"properties":{"type":"charge","layer":"passenger","locationId":"96AAACE8-FE20-48F3-9D7D-2FF2C02BEA3B","name":"Eneco eMobility Platina Argenta Events & Business Company BV","address":"Patrijsweg 42","city":"Rijswijk","operatorName":"Eneco","maxPowerKw":22,"isMegawatt":false,"status":"CHARGING","source":"ndw","priceKwh":0.35}},{"type":"Feature","geometry":{"type":"Point","coordinates":[4.355514,52.027526]},"properties":{"type":"charge","layer":"passenger","locationId":"91107926","name":"50five-S NL 03004463","address":"Patrijsweg 102","city":"Rijswijk","operatorName":"50five","maxPowerKw":22,"isMegawatt":false,"status":"AVAILABLE","source":"ndw"}},{"type":"Feature","geometry":{"type":"Point","coordinates":[4.351119,52.029168]},"properties":{"type":"charge","layer":"passenger","locationId":"91106267","name":"50five-S NL 09100527","address":"Zuiderweg 30","city":"Rijswijk","operatorName":"50five","maxPowerKw":11,"isMegawatt":false,"status":"AVAILABLE","source":"ndw"}},{"type":"Feature","geometry":{"type":"Point","coordinates":[4.324426,52.038237]},"properties":{"type":"charge","layer":"passenger","locationId":"91107714","name":"50five-S NL 04000717","address":"Generaal Eisenhowerplein 1","city":"Rijswijk","operatorName":"50five","maxPowerKw":7,"isMegawatt":false,"status":"AVAILABLE","source":"ndw"}},{"type":"Feature","geometry":{"type":"Point","coordinates":[4.34704,52.04745]},"properties":{"type":"charge","layer":"passenger","locationId":"15348200-40EC-43FD-83A0-F7AB3A6D5C9A","name":"Eneco eMobility BMW - Group Nederland - Hoofdkantoor bezoekers","address":"Einsteinlaan 5","city":"Rijswijk","operatorName":"Eneco","maxPowerKw":200,"isMegawatt":false,"status":"AVAILABLE","source":"ndw","priceKwh":0.3}},{"type":"Feature","geometry":{"type":"Point","coordinates":[4.336253,52.04325]},"properties":{"type":"charge","layer":"passenger","locationId":"91202578","name":"50five-S NL 08105539","address":"De Bruyn Kopsstraat 9","city":"Rijswijk","operatorName":"50five","maxPowerKw":11,"isMegawatt":false,"status":"UNAVAILABLE","source":"ndw"}},{"type":"Feature","geometry":{"type":"Point","coordinates":[4.324759,52.036741]},"properties":{"type":"charge","layer":"passenger","locationId":"af9e762d-5a8a-491b-b395-2df21dbbfda2","name":"Lange Kleiweg 6","address":"Lange Kleiweg 6","city":"Rijswijk","operatorName":"Vattenfall InCharge","maxPowerKw":22,"isMegawatt":false,"status":"UNAVAILABLE","source":"ndw","priceKwh":0.38}},{"type":"Feature","geometry":{"type":"Point","coordinates":[4.327014,52.039089]},"properties":{"type":"charge","layer":"passenger","locationId":"91148229","name":"50five-S NL 07114940","address":"Volmerlaan 1","city":"Rijswijk","operatorName":"50five","maxPowerKw":4,"isMegawatt":false,"status":"AVAILABLE","source":"ndw"}},{"type":"Feature","geometry":{"type":"Point","coordinates":[4.335648,52.040108]},"properties":{"type":"charge","layer":"passenger","locationId":"119809F4-373F-4D1E-A410-7CD28D992E27","name":"Eneco eMobility NIWO Rijswijk - Veraartlaan","address":"Veraartlaan 10","city":"Rijswijk","operatorName":"Eneco","maxPowerKw":22,"isMegawatt":false,"status":"AVAILABLE","source":"ndw","priceKwh":0.18}},{"type":"Feature","geometry":{"type":"Point","coordinates":[4.326253,52.039424]},"properties":{"type":"charge","layer":"passenger","locationId":"91107413","name":"50five-S NL 03004327","address":"Volmerlaan 1","city":"Rijswijk","operatorName":"50five","maxPowerKw":4,"isMegawatt":false,"status":"AVAILABLE","source":"ndw"}},{"type":"Feature","geometry":{"type":"Point","coordinates":[4.326214,52.041646]},"properties":{"type":"charge","layer":"passenger","locationId":"4308742","name":"Laadnet KD267","address":"Karel Doormanlaan 267","city":"Rijswijk","operatorName":"Laadnet","maxPowerKw":11,"isMegawatt":false,"status":"UNAVAILABLE","source":"ndw"}},{"type":"Feature","geometry":{"type":"Point","coordinates":[4.333687,52.036062]},"properties":{"type":"charge","layer":"passenger","locationId":"158888EA-E53A-4CCC-9930-2E74A177C629","name":"Eneco eMobility AGFA Healthcare - Rijswijk","address":"Polakweg 10-11","city":"Rijswijk","operatorName":"Eneco","maxPowerKw":22,"isMegawatt":false,"status":"AVAILABLE","source":"ndw","priceKwh":0.35}},{"type":"Feature","geometry":{"type":"Point","coordinates":[4.332952,52.04354]},"properties":{"type":"charge","layer":"passenger","locationId":"2484332","name":"Laadnet Rexel Rijswijk","address":"Treubstraat 5","city":"Rijswijk","operatorName":"Laadnet","maxPowerKw":22,"isMegawatt":false,"status":"AVAILABLE","source":"ndw"}},{"type":"Feature","geometry":{"type":"Point","coordinates":[4.344068,52.046671]},"properties":{"type":"charge","layer":"passenger","locationId":"91187071","name":"50five-S NL 07101992","address":"Delftweg 34","city":"Rijswijk","operatorName":"50five","maxPowerKw":11,"isMegawatt":false,"status":"AVAILABLE","source":"ndw"}},{"type":"Feature","geometry":{"type":"Point","coordinates":[4.332971,52.03517]},"properties":{"type":"charge","layer":"passenger","locationId":"91230176","name":"50five-S NL 18B09166","address":"Polakweg 12","city":"Rijswijk","operatorName":"50five","maxPowerKw":11,"isMegawatt":false,"status":"AVAILABLE","source":"ndw"}},{"type":"Feature","geometry":{"type":"Point","coordinates":[4.349131,52.048267]},"properties":{"type":"charge","layer":"passenger","locationId":"2c5ba77d-d0e1-4d95-8fa7-31e5623da5e2","name":"Rijswijk, Netherlands","address":"29, Laan van Hoornwijck","city":"Rijswijk","operatorName":"Tesla","maxPowerKw":250,"isMegawatt":false,"status":"AVAILABLE","source":"ndw","priceKwh":0.53}},{"type":"Feature","geometry":{"type":"Point","coordinates":[4.356192,52.0272]},"properties":{"type":"charge","layer":"passenger","locationId":"91169399","name":"50five-S NL 03004468","address":"Patrijsweg 102","city":"Rijswijk","operatorName":"50five","maxPowerKw":4,"isMegawatt":false,"status":"AVAILABLE","source":"ndw"}},{"type":"Feature","geometry":{"type":"Point","coordinates":[4.346881,52.046605]},"properties":{"type":"charge","layer":"passenger","locationId":"NLENV534","name":"Rijswijk, Einsteinlaan 2-30","address":"Einsteinlaan 2-30","city":"Rijswijk","operatorName":"","maxPowerKw":11,"isMegawatt":false,"status":"AVAILABLE","source":"ndw","priceKwh":0.5}},{"type":"Feature","geometry":{"type":"Point","coordinates":[4.329227,52.014376]},"properties":{"type":"charge","layer":"passenger","locationId":"91066033","name":"50five-S NL 17B09212","address":"Sionsweg 52","city":"Rijswijk","operatorName":"50five","maxPowerKw":11,"isMegawatt":false,"status":"CHARGING","source":"ndw"}},{"type":"Feature","geometry":{"type":"Point","coordinates":[4.302958,52.045207]},"properties":{"type":"charge","layer":"passenger","locationId":"OST22P0059_0001_0","name":"OST22P0059_0001_0","address":"van Vredenburchweg 170","city":"Rijswijk","operatorName":"e-VOLTT","maxPowerKw":12,"isMegawatt":false,"status":"AVAILABLE","source":"ndw","priceKwh":0.5455}},{"type":"Feature","geometry":{"type":"Point","coordinates":[4.348843,52.04837]},"properties":{"type":"charge","layer":"freight","locationId":"NL_ELD_PRIJHS","name":"Electra Rijswijk - Hotel Savarin","address":"Laan van Hoornwijck 29","city":"Rijswijk","operatorName":"Electra","maxPowerKw":400,"isMegawatt":false,"status":"AVAILABLE","source":"ndw","priceKwh":0.5702,"freightKind":"hpc","freightReason":"power"}},{"type":"Feature","geometry":{"type":"MultiPolygon","coordinates":[[[[4.346904934129129,52.057054950926585],[4.347256515673281,52.05630471514582],[4.3446912643473095,52.053939835181694],[4.352638657206237,52.04909550495675],[4.35231244569715,52.04818280848369],[4.349132151005686,52.0468862666981],[4.3468774656477684,52.045517877848816],[4.346062682229949,52.044018489079235],[4.346836788630859,52.043573338181716],[4.346883988176048,52.04246695270404],[4.350364129135919,52.039313295592436],[4.353777841617522,52.03067622895628],[4.354833882653312,52.030438570145165],[4.357902176139592,52.02776568737795],[4.357531837343994,52.02737773924428],[4.357790268060775,52.02686341860571],[4.357693149975473,52.026821029612584],[4.355477303249321,52.02585235795553],[4.355426793731289,52.02571339805766],[4.355034436923696,52.02553039909008],[4.354950325894957,52.02558060122033],[4.351418457183246,52.02400334556387],[4.34801195256351,52.02245684989573],[4.348001873287155,52.022453815296686],[4.347670303040843,52.022351645405344],[4.343695465358787,52.020616973480266],[4.334426352577611,52.0164813726538],[4.33428729204129,52.01641822627134],[4.330246018521032,52.01466622137696],[4.325956264367408,52.012793464372024],[4.325765933623224,52.012766395951836],[4.319389382120227,52.01998809931153],[4.317584542665666,52.0190870044175],[4.316913743363545,52.018785254688765],[4.309819285230901,52.01563419619695],[4.307638612434026,52.01815153083072],[4.304312939950155,52.02200211915601],[4.304188786783604,52.02214782539812],[4.30093148253174,52.02593223142609],[4.297905049004085,52.02944758848],[4.297890781448809,52.02946895960008],[4.298616726097045,52.02982158240644],[4.2917073199007,52.04037857437497],[4.290951733694958,52.041573247927424],[4.2938656851542785,52.04254069558537],[4.29345293753887,52.04306290661624],[4.295508948074936,52.0435833060866],[4.296767251504078,52.043727912202826],[4.2975630341777284,52.04406791188079],[4.297246981070801,52.044570311522364],[4.298737126472772,52.04500954799317],[4.298366764909033,52.04555740831346],[4.303226189110237,52.04695660102036],[4.304409669888944,52.0466601332893],[4.309812380909147,52.04857479361361],[4.310041771335123,52.04866953715548],[4.31308060788506,52.05013293039581],[4.316445680725599,52.05087091600353],[4.321907990612944,52.053052103840145],[4.321353466922484,52.05461677892702],[4.324122349304174,52.055647827580486],[4.325487390424294,52.055441583429136],[4.327628249054511,52.05645311522258],[4.3276430809152755,52.05694328008708],[4.328650951581421,52.05654897133889],[4.330332650916968,52.05733573348859],[4.334891969644629,52.05952377638079],[4.3351506555486,52.0596314451206],[4.340306892142686,52.061947192708644],[4.341880771314075,52.0609780787801],[4.34415462323508,52.05938226591603],[4.346904934129129,52.057054950926585]]]]},"properties":{"type":"boundary","gemeente":"Rijswijk (ZH.)","code":"GM0603"}}]}