{"type":"FeatureCollection","metadata":{"gemeente":"Schiedam","slug":"schiedam","code":"GM0606","generated_at":"2026-08-08T12:05:52.020Z","total_passenger":30,"total_freight":1,"bounds":[4.350671096582289,51.89673643065699,4.4177127259399835,51.96340669222389],"operators":["50five","Alva Charging Services","ChargePoint","E-Flux by Road","Eneco","Laadnet","Lanova Laadpalen","Pluq","Shell Recharge","Spirii","Tesla","Valk Energy","Van Leeuwen"]},"features":[{"type":"Feature","geometry":{"type":"Point","coordinates":[4.392539,51.942749]},"properties":{"type":"charge","layer":"passenger","locationId":"91149106","name":"50five-S NL 07118234","address":"Polderweg 258","city":"Schiedam","operatorName":"50five","maxPowerKw":4,"isMegawatt":false,"status":"AVAILABLE","source":"ndw"}},{"type":"Feature","geometry":{"type":"Point","coordinates":[4.39838,51.936521]},"properties":{"type":"charge","layer":"passenger","locationId":"5212","name":"Shell Recharge NL9169 - Gamma Schiedam Noord","address":"'s-Gravelandseweg 363","city":"Schiedam","operatorName":"Shell Recharge","maxPowerKw":150,"isMegawatt":false,"status":"AVAILABLE","source":"ndw","priceKwh":0.7025}},{"type":"Feature","geometry":{"type":"Point","coordinates":[4.372769,51.946308]},"properties":{"type":"charge","layer":"passenger","locationId":"91199011","name":"50five-S NL PD22300006472","address":"Aletta Jacobsstraat 35","city":"Schiedam","operatorName":"50five","maxPowerKw":4,"isMegawatt":false,"status":"AVAILABLE","source":"ndw"}},{"type":"Feature","geometry":{"type":"Point","coordinates":[4.377141,51.909124]},"properties":{"type":"charge","layer":"passenger","locationId":"6915ab3f0bf85e86b9e596e1","name":"Karel Doornmanweg 7 Schiedam","address":"Karel Doormanweg 7","city":"Schiedam","operatorName":"Pluq","maxPowerKw":22,"isMegawatt":false,"status":"AVAILABLE","source":"ndw","priceKwh":0.45}},{"type":"Feature","geometry":{"type":"Point","coordinates":[4.411714,51.925961]},"properties":{"type":"charge","layer":"passenger","locationId":"99295096-10F3-4787-8755-A71D6E1925B3","name":"Eneco eMobility BME Bouwmaten Nederland BV - Schiedam","address":"Philippusweg 3-5","city":"Schiedam","operatorName":"Eneco","maxPowerKw":22,"isMegawatt":false,"status":"AVAILABLE","source":"ndw","priceKwh":0.32}},{"type":"Feature","geometry":{"type":"Point","coordinates":[4.380152,51.92258]},"properties":{"type":"charge","layer":"passenger","locationId":"80F27264-3803-4061-97C9-0295A9AC1B35","name":"Eneco eMobility Vlietlandplein 2 Schiedam","address":"Vlietlandplein 2","city":"Schiedam","operatorName":"Eneco","maxPowerKw":22,"isMegawatt":false,"status":"CHARGING","source":"ndw","priceKwh":0.32}},{"type":"Feature","geometry":{"type":"Point","coordinates":[4.37217,51.924842]},"properties":{"type":"charge","layer":"passenger","locationId":"bad579e2-4f9c-4e2f-ac68-d21989ddc6b6","name":"Schiedam, Netherlands","address":"6, Hargalaan","city":"Schiedam","operatorName":"Tesla","maxPowerKw":250,"isMegawatt":false,"status":"AVAILABLE","source":"ndw","priceKwh":0.53}},{"type":"Feature","geometry":{"type":"Point","coordinates":[4.38526,51.90363]},"properties":{"type":"charge","layer":"passenger","locationId":"612DEBB1-F551-4761-92A9-0B7A14A07CC2","name":"Eneco eMobility Nieuwe Waterwegstraat 1 Schiedam","address":"Nieuwe Waterwegstraat 1","city":"Schiedam","operatorName":"Eneco","maxPowerKw":22,"isMegawatt":false,"status":"UNAVAILABLE","source":"ndw","priceKwh":0.32}},{"type":"Feature","geometry":{"type":"Point","coordinates":[4.409668,51.922871]},"properties":{"type":"charge","layer":"passenger","locationId":"3966770","name":"Laadnet DCMR Milieudienst Rijnmond","address":"Parallelweg 1","city":"Schiedam","operatorName":"Laadnet","maxPowerKw":22,"isMegawatt":false,"status":"AVAILABLE","source":"ndw"}},{"type":"Feature","geometry":{"type":"Point","coordinates":[4.373948,51.920099]},"properties":{"type":"charge","layer":"passenger","locationId":"6a26d62bf4065b278f789ed0","name":"M Tuncer 's station","address":"Olympiaweg  19c","city":"Schiedam","operatorName":"E-Flux by Road","maxPowerKw":22,"isMegawatt":false,"status":"AVAILABLE","source":"ndw","priceKwh":0.33}},{"type":"Feature","geometry":{"type":"Point","coordinates":[4.376566,51.909018]},"properties":{"type":"charge","layer":"passenger","locationId":"69e5ec56378e8473c109533d","name":"Karel Doornmanweg 5 Schiedam","address":"Karel Doormanweg 5","city":"Schiedam","operatorName":"Pluq","maxPowerKw":22,"isMegawatt":false,"status":"AVAILABLE","source":"ndw","priceKwh":0.45}},{"type":"Feature","geometry":{"type":"Point","coordinates":[4.382693,51.908388]},"properties":{"type":"charge","layer":"passenger","locationId":"630D1191-BCEB-497E-A2F4-01D26170EB53","name":"Eneco eMobility Vandevloeren Projecten B.V. - Schiedam","address":"Admiraal Trompstraat 3","city":"Schiedam","operatorName":"Eneco","maxPowerKw":22,"isMegawatt":false,"status":"AVAILABLE","source":"ndw","priceKwh":0.32}},{"type":"Feature","geometry":{"type":"Point","coordinates":[4.374799,51.904845]},"properties":{"type":"charge","layer":"passenger","locationId":"682b31a6557caea4af0218c4","name":"Vakwijs - Schiedam","address":"Daniël Pichotstraat 10","city":"Schiedam","operatorName":"Alva Charging Services","maxPowerKw":22,"isMegawatt":false,"status":"AVAILABLE","source":"ndw","priceKwh":0.44}},{"type":"Feature","geometry":{"type":"Point","coordinates":[4.391083,51.900139]},"properties":{"type":"charge","layer":"passenger","locationId":"65dc75b5a595bb001cc8b38d","name":"Klasmann-Deilmann Benelux BV","address":"Nieuwe Waterwegstraat 34","city":"Schiedam","operatorName":"E-Flux by Road","maxPowerKw":22,"isMegawatt":false,"status":"AVAILABLE","source":"ndw","priceKwh":0.33}},{"type":"Feature","geometry":{"type":"Point","coordinates":[4.391634,51.90672]},"properties":{"type":"charge","layer":"passenger","locationId":"91232520","name":"50five-S NL 03011617","address":"Westfrankelandsedijk 9","city":"Schiedam","operatorName":"50five","maxPowerKw":11,"isMegawatt":false,"status":"AVAILABLE","source":"ndw"}},{"type":"Feature","geometry":{"type":"Point","coordinates":[4.408001,51.922972]},"properties":{"type":"charge","layer":"passenger","locationId":"3530911","name":"Laadnet Laadpalen parkeerdek","address":"Overschieseweg 203","city":"Schiedam","operatorName":"Laadnet","maxPowerKw":22,"isMegawatt":false,"status":"AVAILABLE","source":"ndw"}},{"type":"Feature","geometry":{"type":"Point","coordinates":[4.365232,51.937732]},"properties":{"type":"charge","layer":"passenger","locationId":"91066972","name":"50five-S NL 07106601","address":"De la Marplein 17","city":"Schiedam","operatorName":"50five","maxPowerKw":11,"isMegawatt":false,"status":"AVAILABLE","source":"ndw"}},{"type":"Feature","geometry":{"type":"Point","coordinates":[4.41334,51.904956]},"properties":{"type":"charge","layer":"passenger","locationId":"675ad151e0330be221c2ed74","name":"Blom Opleidingen Schiedam","address":"Fortunaweg 17","city":"Schiedam","operatorName":"Lanova Laadpalen","maxPowerKw":11,"isMegawatt":false,"status":"AVAILABLE","source":"ndw","priceKwh":1.03}},{"type":"Feature","geometry":{"type":"Point","coordinates":[4.372339,51.924151]},"properties":{"type":"charge","layer":"passenger","locationId":"69afbdd5a59b7c858b2efeed","name":"Van der Valk - Schiedam - Charging Stations","address":"Hargalaan 6","city":"Schiedam","operatorName":"Valk Energy","maxPowerKw":150,"isMegawatt":false,"status":"AVAILABLE","source":"ndw","priceKwh":0.59}},{"type":"Feature","geometry":{"type":"Point","coordinates":[4.364127,51.939368]},"properties":{"type":"charge","layer":"passenger","locationId":"626fcefb93ac60115da52a71","name":"DrieMaasStede -Schiedam","address":"Voorberghlaan 35","city":"Schiedam","operatorName":"E-Flux by Road","maxPowerKw":60,"isMegawatt":false,"status":"AVAILABLE","source":"ndw","priceKwh":0.38}},{"type":"Feature","geometry":{"type":"Point","coordinates":[4.402658,51.934474]},"properties":{"type":"charge","layer":"passenger","locationId":"91103453","name":"Van Leeuwen Isopartner Nederland B.V.","address":"Algerastraat 28","city":"Schiedam","operatorName":"Van Leeuwen","maxPowerKw":11,"isMegawatt":false,"status":"AVAILABLE","source":"ndw"}},{"type":"Feature","geometry":{"type":"Point","coordinates":[4.38487,51.907426]},"properties":{"type":"charge","layer":"passenger","locationId":"91179717","name":"50five-S NL Schiedam, Admiraal De Ruyterstraat 2","address":"Admiraal de Ruyterstraat 2","city":"Schiedam","operatorName":"50five","maxPowerKw":11,"isMegawatt":false,"status":"AVAILABLE","source":"ndw"}},{"type":"Feature","geometry":{"type":"Point","coordinates":[4.397713,51.935871]},"properties":{"type":"charge","layer":"passenger","locationId":"5047","name":"Van Leeuwen 's Gravenlandseweg 246","address":"'s Gravenlandseweg 246","city":"Schiedam","operatorName":"Van Leeuwen","maxPowerKw":22,"isMegawatt":false,"status":"AVAILABLE","source":"ndw"}},{"type":"Feature","geometry":{"type":"Point","coordinates":[4.376249,51.946609]},"properties":{"type":"charge","layer":"passenger","locationId":"91276685","name":"50five-S NL 17B04980","address":"Veldpad 40","city":"Schiedam","operatorName":"50five","maxPowerKw":14,"isMegawatt":false,"status":"AVAILABLE","source":"ndw"}},{"type":"Feature","geometry":{"type":"Point","coordinates":[4.399854,51.934085]},"properties":{"type":"charge","layer":"passenger","locationId":"90970299","name":"Van Leeuwen s-Gravenlandsweg 258","address":"s-Gravenlandsweg 258","city":"Schiedam","operatorName":"Van Leeuwen","maxPowerKw":22,"isMegawatt":false,"status":"AVAILABLE","source":"ndw"}},{"type":"Feature","geometry":{"type":"Point","coordinates":[4.40453,51.921579]},"properties":{"type":"charge","layer":"passenger","locationId":"c582b8fff9a944f3bc22a06dd4cf1b18","name":"Bouwlocatie Schiedam Era Contour","address":"Delflandseweg 314","city":"Schiedam","operatorName":"","maxPowerKw":11,"isMegawatt":false,"status":"AVAILABLE","source":"ndw","priceKwh":0.6}},{"type":"Feature","geometry":{"type":"Point","coordinates":[4.384489,51.906311]},"properties":{"type":"charge","layer":"passenger","locationId":"6614f542608546001c54d269","name":"Etzékera's station","address":"Admiraal de Ruyterstraat 16-J","city":"Schiedam","operatorName":"E-Flux by Road","maxPowerKw":22,"isMegawatt":false,"status":"AVAILABLE","source":"ndw","priceKwh":0.53}},{"type":"Feature","geometry":{"type":"Point","coordinates":[4.408368,51.925978]},"properties":{"type":"charge","layer":"passenger","locationId":"NLCPIL6812135","name":"FOURCE BV SCHIEDAM OPEN 2","address":"25 Jan van Riebeeckweg","city":"Schiedam","operatorName":"ChargePoint","maxPowerKw":22,"isMegawatt":false,"status":"AVAILABLE","source":"ndw","priceKwh":0.5}},{"type":"Feature","geometry":{"type":"Point","coordinates":[4.37421,51.903077]},"properties":{"type":"charge","layer":"passenger","locationId":"51F6C8B4-147C-4733-8B20-F2ACC5B22F6A","name":"Eneco eMobility Jan van Galenstraat 59 Schiedam","address":"Jan van Galenstraat 59","city":"Schiedam","operatorName":"Eneco","maxPowerKw":22,"isMegawatt":false,"status":"AVAILABLE","source":"ndw","priceKwh":0.32}},{"type":"Feature","geometry":{"type":"Point","coordinates":[4.402953,51.920612]},"properties":{"type":"charge","layer":"passenger","locationId":"NLENV682","name":"Schiedam, 's-Gravenlandseweg 565-1065 ","address":"'s-Gravelandseweg 565","city":"Schiedam","operatorName":"","maxPowerKw":22,"isMegawatt":false,"status":"AVAILABLE","source":"ndw","priceKwh":0.3}},{"type":"Feature","geometry":{"type":"Point","coordinates":[4.403443,51.930271]},"properties":{"type":"charge","layer":"freight","locationId":"32404","name":"Circle K Schiedam inz ‘s-Graveland","address":"‘s-Gravelandseweg 393 A","city":"Schiedam","operatorName":"Spirii","maxPowerKw":400,"isMegawatt":false,"status":"AVAILABLE","source":"ndw","priceKwh":0.65,"freightKind":"hpc","freightReason":"power"}},{"type":"Feature","geometry":{"type":"MultiPolygon","coordinates":[[[[4.38400105134789,51.954693113159315],[4.388933140459938,51.945535233163724],[4.389420530629197,51.94566999721006],[4.389671689402041,51.94547246893944],[4.394351734709163,51.947109854467115],[4.395187612751914,51.9469272306542],[4.394920437794268,51.94645772338163],[4.3936686873045145,51.944612873114615],[4.3934780681370045,51.944465284776236],[4.393447708400334,51.94425972531448],[4.394215753332491,51.943999699447104],[4.3949768327662175,51.94290896042751],[4.403919945845062,51.93725288981292],[4.408517384214492,51.93863687077811],[4.409316967507533,51.937981774952725],[4.413207097160444,51.93905802337787],[4.415491970831979,51.9407588129268],[4.4177127259399835,51.93847688194744],[4.416414310352864,51.9381550869824],[4.414762109991741,51.9373744638719],[4.413262442270366,51.936816026715846],[4.409810392856996,51.93633940405627],[4.4089782907399755,51.93578498666201],[4.408808394942947,51.934749252787476],[4.408172365106112,51.9314145259785],[4.40987441530337,51.92911285979285],[4.410496059869888,51.92929190542717],[4.4152347684632245,51.92297076662167],[4.416861238673236,51.92312204018854],[4.417054234669043,51.920824409027304],[4.417064121139216,51.92042411558655],[4.417076507604396,51.919947941759915],[4.416345676798986,51.9175702514168],[4.415827084208832,51.91593091968431],[4.415696844868991,51.91593857924369],[4.415265508063298,51.91448522413279],[4.413600954445228,51.9145855853733],[4.413506078342703,51.91395312323574],[4.412738998901618,51.91391462107325],[4.412209789050856,51.91323957825689],[4.409075107750439,51.91205019529397],[4.409541738999554,51.910417480326046],[4.409999103267009,51.909852944634345],[4.4113460596908975,51.910273217564544],[4.41344538044862,51.907679283782834],[4.413297536106742,51.9072848981633],[4.415676777367462,51.90502528061463],[4.412338143400168,51.90242162274016],[4.41371014994587,51.90075514114323],[4.409757230990788,51.89986844350681],[4.409712605404865,51.899858400331766],[4.399033903597259,51.89741737044238],[4.393419770340214,51.89673643065699],[4.388343890294203,51.89677964282473],[4.380173198920407,51.897925819802516],[4.372137192069583,51.89918881979085],[4.370622446567901,51.899356021155114],[4.369555138197686,51.90308330551735],[4.3699503551568,51.90639220221394],[4.369304693490013,51.908457530871374],[4.36921885790403,51.90886865613999],[4.367267901509982,51.91394873103161],[4.367225276833618,51.91405193085674],[4.366437499687259,51.9150539895873],[4.36551232472442,51.92154650203639],[4.363786633665873,51.92309632660548],[4.363079322639477,51.92360403372473],[4.362191680594903,51.92409559566251],[4.362016449630867,51.925279987862524],[4.3620013622808775,51.92538196717247],[4.361949930573424,51.925729595228006],[4.361825389068306,51.926571357434746],[4.363921760053611,51.92768771976262],[4.363108810881324,51.93334850120182],[4.362703005599912,51.93454414573333],[4.3622551982463955,51.93563678679699],[4.362202317558754,51.93575990253631],[4.3604090514448774,51.93880015832949],[4.356437294406214,51.94380528870568],[4.350671096582289,51.951506587983225],[4.367070975404517,51.95521999252136],[4.363537763788516,51.96087429093925],[4.379309330057914,51.96340669222389],[4.38400105134789,51.954693113159315]]]]},"properties":{"type":"boundary","gemeente":"Schiedam","code":"GM0606"}}]}