{"type":"FeatureCollection","metadata":{"gemeente":"Soest","slug":"soest","code":"GM0342","generated_at":"2026-08-08T12:05:52.020Z","total_passenger":222,"total_freight":0,"bounds":[5.2431724698073,52.110271768974265,5.34992559844871,52.20454935291548],"operators":["50five","ChargePoint","DAEN Mobility","E-Flux by Road","Eneco","Greenchoice B.V.","Laadnet","Laadsnel","PowerGo","PureCharged","TotalEnergies","Ubitricity","Van Leeuwen","Vattenfall InCharge","e-VOLTT"]},"features":[{"type":"Feature","geometry":{"type":"Point","coordinates":[5.28574,52.113937]},"properties":{"type":"charge","layer":"passenger","locationId":"E4675F58-7189-4C0D-9285-11B44246B683","name":"TNLP015213 - Plesmanstraat 251, Soesterberg","address":"251 Plesmanstraat","city":"Soesterberg","operatorName":"TotalEnergies","maxPowerKw":17,"isMegawatt":false,"status":"AVAILABLE","source":"ndw"}},{"type":"Feature","geometry":{"type":"Point","coordinates":[5.288923,52.16997]},"properties":{"type":"charge","layer":"passenger","locationId":"2cf4bfab-5d0b-4e6c-a378-31ba37ac5922","name":"TNLP034330 - Smitsweg 333, Soest","address":"333 Smitsweg","city":"Soest","operatorName":"TotalEnergies","maxPowerKw":13,"isMegawatt":false,"status":"CHARGING","source":"ndw"}},{"type":"Feature","geometry":{"type":"Point","coordinates":[5.2829518,52.12146]},"properties":{"type":"charge","layer":"passenger","locationId":"63489","name":"PLUS Soesterberg (PowerGo)","address":"Rademakerstraat 6","city":"Soesterberg","operatorName":"PowerGo","maxPowerKw":50,"isMegawatt":false,"status":"AVAILABLE","source":"ndw","priceKwh":0.55}},{"type":"Feature","geometry":{"type":"Point","coordinates":[5.28301,52.11887]},"properties":{"type":"charge","layer":"passenger","locationId":"4e4c07abe15ba4861f0518c9ab0d1713","name":"Dorpsplein 10","address":"Dorpsplein 10","city":"Soesterberg","operatorName":"Vattenfall InCharge","maxPowerKw":11,"isMegawatt":false,"status":"AVAILABLE","source":"ndw","priceKwh":0.2805}},{"type":"Feature","geometry":{"type":"Point","coordinates":[5.280895,52.11708]},"properties":{"type":"charge","layer":"passenger","locationId":"C4345122-C21B-4F18-BEA9-945AA1F8525F","name":"PP005490 - Christiaan Huygenslaan 35, Soesterberg","address":"35 Christiaan Huygenslaan","city":"Soesterberg","operatorName":"TotalEnergies","maxPowerKw":11,"isMegawatt":false,"status":"AVAILABLE","source":"ndw"}},{"type":"Feature","geometry":{"type":"Point","coordinates":[5.292848,52.1839663]},"properties":{"type":"charge","layer":"passenger","locationId":"1931","name":"Shell Recharge NL Prins Hendriklaan 5","address":"Prins Hendriklaan 5","city":"Soest","operatorName":"Ubitricity","maxPowerKw":22,"isMegawatt":false,"status":"AVAILABLE","source":"ndw","priceKwh":0.267}},{"type":"Feature","geometry":{"type":"Point","coordinates":[5.278427,52.174507]},"properties":{"type":"charge","layer":"passenger","locationId":"645e04819ba2e10012827d8f","name":"ISN Soest Fatih Moskee 's station","address":"Verbindingsweg  2","city":"Soest","operatorName":"E-Flux by Road","maxPowerKw":22,"isMegawatt":false,"status":"AVAILABLE","source":"ndw","priceKwh":0.43}},{"type":"Feature","geometry":{"type":"Point","coordinates":[5.28888,52.183399]},"properties":{"type":"charge","layer":"passenger","locationId":"9ac81bb129c68d81773784ed5e9b77e2","name":"Julianalaan 60","address":"Julianalaan 60","city":"Soest","operatorName":"Vattenfall InCharge","maxPowerKw":11,"isMegawatt":false,"status":"AVAILABLE","source":"ndw","priceKwh":0.2805}},{"type":"Feature","geometry":{"type":"Point","coordinates":[5.270005,52.175404]},"properties":{"type":"charge","layer":"passenger","locationId":"91169855","name":"50five-S NL 07005898","address":"Sloothaak 11","city":"Soest","operatorName":"50five","maxPowerKw":11,"isMegawatt":false,"status":"AVAILABLE","source":"ndw"}},{"type":"Feature","geometry":{"type":"Point","coordinates":[5.2993716,52.1159922]},"properties":{"type":"charge","layer":"passenger","locationId":"1678","name":"Shell Recharge NL Mercury 132","address":"Mercury 132","city":"Soesterberg","operatorName":"Ubitricity","maxPowerKw":22,"isMegawatt":false,"status":"AVAILABLE","source":"ndw","priceKwh":0.267}},{"type":"Feature","geometry":{"type":"Point","coordinates":[5.2753822,52.1690791]},"properties":{"type":"charge","layer":"passenger","locationId":"2667","name":"Shell Recharge NL Turfstreek 37","address":"Turfstreek 37","city":"Soest","operatorName":"Ubitricity","maxPowerKw":22,"isMegawatt":false,"status":"AVAILABLE","source":"ndw","priceKwh":0.267}},{"type":"Feature","geometry":{"type":"Point","coordinates":[5.268382,52.17872]},"properties":{"type":"charge","layer":"passenger","locationId":"CE5A1E08-0361-430D-98B0-7B75ABF743A5","name":"TNLP009429 - Oostergracht 1, Soest","address":"1 Oostergracht","city":"Soest","operatorName":"TotalEnergies","maxPowerKw":17,"isMegawatt":false,"status":"CHARGING","source":"ndw"}},{"type":"Feature","geometry":{"type":"Point","coordinates":[5.263866,52.178821]},"properties":{"type":"charge","layer":"passenger","locationId":"922966","name":"DAE_NL_2000681","address":"Nieuwegracht 22","city":"Soest","operatorName":"DAEN Mobility","maxPowerKw":11,"isMegawatt":false,"status":"AVAILABLE","source":"ndw","priceKwh":0.45}},{"type":"Feature","geometry":{"type":"Point","coordinates":[5.291365,52.132714]},"properties":{"type":"charge","layer":"passenger","locationId":"NLCPIL6676825","name":"CHARGEPOINT NL CARLAB ACB","address":"N413","city":"Soest","operatorName":"ChargePoint","maxPowerKw":12,"isMegawatt":false,"status":"UNAVAILABLE","source":"ndw"}},{"type":"Feature","geometry":{"type":"Point","coordinates":[5.29533,52.17668]},"properties":{"type":"charge","layer":"passenger","locationId":"f563f2dcf6f53b2b98ec6fb6f73da720","name":"Dalweg 183","address":"Dalweg 183","city":"Soest","operatorName":"Vattenfall InCharge","maxPowerKw":11,"isMegawatt":false,"status":"AVAILABLE","source":"ndw","priceKwh":0.2805}},{"type":"Feature","geometry":{"type":"Point","coordinates":[5.272317,52.178665]},"properties":{"type":"charge","layer":"passenger","locationId":"65a92671d06f0c001cabdf5e","name":"DenG Solar","address":"Weteringpad  15","city":"SOEST","operatorName":"E-Flux by Road","maxPowerKw":22,"isMegawatt":false,"status":"AVAILABLE","source":"ndw","priceKwh":0.48}},{"type":"Feature","geometry":{"type":"Point","coordinates":[5.263866,52.178821]},"properties":{"type":"charge","layer":"passenger","locationId":"922963","name":"DAE_NL_2000679","address":"Nieuwegracht 22","city":"Soest","operatorName":"DAEN Mobility","maxPowerKw":11,"isMegawatt":false,"status":"AVAILABLE","source":"ndw","priceKwh":0.45}},{"type":"Feature","geometry":{"type":"Point","coordinates":[5.281867,52.11511]},"properties":{"type":"charge","layer":"passenger","locationId":"52C8FA84-8003-42AD-86E0-BACCDAB1083A","name":"TNLP034173 - Christiaan Huygenslaan 123, Soesterberg","address":"123 Christiaan Huygenslaan","city":"Soesterberg","operatorName":"TotalEnergies","maxPowerKw":13,"isMegawatt":false,"status":"AVAILABLE","source":"ndw"}},{"type":"Feature","geometry":{"type":"Point","coordinates":[5.307539,52.181277]},"properties":{"type":"charge","layer":"passenger","locationId":"91110278","name":"50five-S NL ICUCOMPACT001061","address":"Lange Brinkweg 81","city":"Soest","operatorName":"50five","maxPowerKw":4,"isMegawatt":false,"status":"UNAVAILABLE","source":"ndw"}},{"type":"Feature","geometry":{"type":"Point","coordinates":[5.299037,52.161182]},"properties":{"type":"charge","layer":"passenger","locationId":"B03F9352-936D-4E70-BA24-5FDDD2DD7114","name":"PP005358 - Schoutenkampweg 123, Soest","address":"123 Schoutenkampweg","city":"Soest","operatorName":"TotalEnergies","maxPowerKw":11,"isMegawatt":false,"status":"UNAVAILABLE","source":"ndw"}},{"type":"Feature","geometry":{"type":"Point","coordinates":[5.2878385,52.190613]},"properties":{"type":"charge","layer":"passenger","locationId":"1069","name":"Shell Recharge NL Noorderweg 48","address":"Noorderweg 48","city":"Soest","operatorName":"Ubitricity","maxPowerKw":22,"isMegawatt":false,"status":"CHARGING","source":"ndw","priceKwh":0.267}},{"type":"Feature","geometry":{"type":"Point","coordinates":[5.2854584,52.166486]},"properties":{"type":"charge","layer":"passenger","locationId":"2820","name":"Shell Recharge NL Choristenpad 62","address":"Choristenpad 62","city":"Soest","operatorName":"Ubitricity","maxPowerKw":22,"isMegawatt":false,"status":"AVAILABLE","source":"ndw","priceKwh":0.267}},{"type":"Feature","geometry":{"type":"Point","coordinates":[5.298483,52.117344]},"properties":{"type":"charge","layer":"passenger","locationId":"E1C9F427-371E-4373-929E-B876BEB5EF3F","name":"TNLP009106 - Apollo 51, Soesterberg","address":"51 Apollo","city":"Soesterberg","operatorName":"TotalEnergies","maxPowerKw":17,"isMegawatt":false,"status":"AVAILABLE","source":"ndw"}},{"type":"Feature","geometry":{"type":"Point","coordinates":[5.295421,52.16743]},"properties":{"type":"charge","layer":"passenger","locationId":"F3A2F559-6A1B-44D9-AA74-E063F0927D73","name":"TNLP007923 - Weegbreestraat 130, Soest","address":"130 Weegbreestraat","city":"Soest","operatorName":"TotalEnergies","maxPowerKw":17,"isMegawatt":false,"status":"AVAILABLE","source":"ndw"}},{"type":"Feature","geometry":{"type":"Point","coordinates":[5.281333,52.1867303]},"properties":{"type":"charge","layer":"passenger","locationId":"1148","name":"Shell Recharge NL Koninginnelaan 25","address":"Koninginnelaan 25","city":"Soest","operatorName":"Ubitricity","maxPowerKw":22,"isMegawatt":false,"status":"AVAILABLE","source":"ndw","priceKwh":0.267}},{"type":"Feature","geometry":{"type":"Point","coordinates":[5.30301,52.18057]},"properties":{"type":"charge","layer":"passenger","locationId":"8137ca60-250c-4fac-8693-263023b781d9","name":"PP001256 - Gaesbeekerhof 1A, Soest","address":"1A Gaesbeekerhof","city":"Soest","operatorName":"TotalEnergies","maxPowerKw":11,"isMegawatt":false,"status":"UNAVAILABLE","source":"ndw"}},{"type":"Feature","geometry":{"type":"Point","coordinates":[5.2729699,52.1845488]},"properties":{"type":"charge","layer":"passenger","locationId":"2532","name":"Shell Recharge NL Koninginnelaan 125","address":"Koninginnelaan 125","city":"Soest","operatorName":"Ubitricity","maxPowerKw":22,"isMegawatt":false,"status":"AVAILABLE","source":"ndw","priceKwh":0.267}},{"type":"Feature","geometry":{"type":"Point","coordinates":[5.28422,52.16536]},"properties":{"type":"charge","layer":"passenger","locationId":"CF567F82-E984-4CC0-A780-2FFCF0A2ECDF","name":"TNLP006518 - Harperpad 39, Soest","address":"39 Harperpad","city":"Soest","operatorName":"TotalEnergies","maxPowerKw":17,"isMegawatt":false,"status":"AVAILABLE","source":"ndw"}},{"type":"Feature","geometry":{"type":"Point","coordinates":[5.29996,52.17864]},"properties":{"type":"charge","layer":"passenger","locationId":"457","name":"Shell Recharge NL Rubenslaan 9","address":"Rubenslaan 9","city":"Soest","operatorName":"Ubitricity","maxPowerKw":11,"isMegawatt":false,"status":"AVAILABLE","source":"ndw","priceKwh":0.392}},{"type":"Feature","geometry":{"type":"Point","coordinates":[5.302846,52.18165]},"properties":{"type":"charge","layer":"passenger","locationId":"75B4A526-8B75-4841-8454-60C21113E41D","name":"TNLP015176 - Sint Annahof 24, Soest","address":"24 Sint Annahof","city":"Soest","operatorName":"TotalEnergies","maxPowerKw":17,"isMegawatt":false,"status":"UNAVAILABLE","source":"ndw"}},{"type":"Feature","geometry":{"type":"Point","coordinates":[5.279942,52.120014]},"properties":{"type":"charge","layer":"passenger","locationId":"8C8F00C8-E0A3-4F29-8E2A-9B7808ED51C6","name":"TNLP007942 - Rademakerstraat 48B, Soesterberg","address":"48B Rademakerstraat","city":"Soesterberg","operatorName":"TotalEnergies","maxPowerKw":17,"isMegawatt":false,"status":"AVAILABLE","source":"ndw"}},{"type":"Feature","geometry":{"type":"Point","coordinates":[5.287735,52.163555]},"properties":{"type":"charge","layer":"passenger","locationId":"6CA5B1E2-F60B-4B54-9FA2-14C9CDFA71C8","name":"PP005477 - Wielewaal 2, Soest","address":"2 Wielewaal","city":"Soest","operatorName":"TotalEnergies","maxPowerKw":11,"isMegawatt":false,"status":"AVAILABLE","source":"ndw"}},{"type":"Feature","geometry":{"type":"Point","coordinates":[5.309693,52.162189]},"properties":{"type":"charge","layer":"passenger","locationId":"91053330","name":"50five-S NL 07113797","address":"P.C. Hooftlaan 10","city":"Soest","operatorName":"50five","maxPowerKw":11,"isMegawatt":false,"status":"AVAILABLE","source":"ndw"}},{"type":"Feature","geometry":{"type":"Point","coordinates":[5.279886,52.175728]},"properties":{"type":"charge","layer":"passenger","locationId":"D67D6080-3C4D-4162-A125-CD0D207E2C5F","name":"TNLP007745 - Industrieweg 38, Soest","address":"38 Industrieweg","city":"Soest","operatorName":"TotalEnergies","maxPowerKw":17,"isMegawatt":false,"status":"AVAILABLE","source":"ndw"}},{"type":"Feature","geometry":{"type":"Point","coordinates":[5.2819,52.11664]},"properties":{"type":"charge","layer":"passenger","locationId":"196","name":"Shell Recharge NL Prof. Lorentzlaan 48","address":"Prof. Lorentzlaan 48","city":"Soesterberg","operatorName":"Ubitricity","maxPowerKw":11,"isMegawatt":false,"status":"AVAILABLE","source":"ndw","priceKwh":0.392}},{"type":"Feature","geometry":{"type":"Point","coordinates":[5.291289,52.172813]},"properties":{"type":"charge","layer":"passenger","locationId":"21637D4E-4E32-4499-9C7B-FA1BE3D89F09","name":"TNLP006465 - Weegbreestraat 17, Soest","address":"17 Weegbreestraat","city":"Soest","operatorName":"TotalEnergies","maxPowerKw":17,"isMegawatt":false,"status":"AVAILABLE","source":"ndw"}},{"type":"Feature","geometry":{"type":"Point","coordinates":[5.302227,52.164497]},"properties":{"type":"charge","layer":"passenger","locationId":"15182864-6CC3-4BA2-8FDC-FB8A44BC7E3A","name":"TNLP009987 - Ossendamweg 4, Soest","address":"4 Ossendamweg","city":"Soest","operatorName":"TotalEnergies","maxPowerKw":17,"isMegawatt":false,"status":"AVAILABLE","source":"ndw"}},{"type":"Feature","geometry":{"type":"Point","coordinates":[5.263866,52.178821]},"properties":{"type":"charge","layer":"passenger","locationId":"922965","name":"DAE_NL_2000682","address":"Nieuwegracht 22","city":"Soest","operatorName":"DAEN Mobility","maxPowerKw":11,"isMegawatt":false,"status":"AVAILABLE","source":"ndw","priceKwh":0.45}},{"type":"Feature","geometry":{"type":"Point","coordinates":[5.29371,52.11731]},"properties":{"type":"charge","layer":"passenger","locationId":"28DB2FD2-D653-431D-874C-09D1479D3815","name":"PP001262 - Farman 16, Soesterberg","address":"16 Farman","city":"Soesterberg","operatorName":"TotalEnergies","maxPowerKw":13,"isMegawatt":false,"status":"CHARGING","source":"ndw"}},{"type":"Feature","geometry":{"type":"Point","coordinates":[5.292663,52.186172]},"properties":{"type":"charge","layer":"passenger","locationId":"2EBA9BA7-A04C-4C8D-87FA-E9E21A57347F","name":"PP005505 - Beatrixlaan 54, Soest","address":"54 Beatrixlaan","city":"Soest","operatorName":"TotalEnergies","maxPowerKw":11,"isMegawatt":false,"status":"AVAILABLE","source":"ndw"}},{"type":"Feature","geometry":{"type":"Point","coordinates":[5.300364,52.120594]},"properties":{"type":"charge","layer":"passenger","locationId":"179E31D3-26E3-4CC7-92AC-66EEBC848A4B","name":"TNLP034539 - Schukkinglaan 2, Soesterberg","address":"2 Schukkinglaan","city":"Soesterberg","operatorName":"TotalEnergies","maxPowerKw":13,"isMegawatt":false,"status":"UNAVAILABLE","source":"ndw"}},{"type":"Feature","geometry":{"type":"Point","coordinates":[5.281978,52.184826]},"properties":{"type":"charge","layer":"passenger","locationId":"F45BB2C8-8C48-4BB9-8581-C9562337FD9D","name":"TNLP006804 - St. Theresiastraat 26, Soest","address":"26 St. Theresiastraat","city":"Soest","operatorName":"TotalEnergies","maxPowerKw":17,"isMegawatt":false,"status":"UNAVAILABLE","source":"ndw"}},{"type":"Feature","geometry":{"type":"Point","coordinates":[5.275806,52.180546]},"properties":{"type":"charge","layer":"passenger","locationId":"350A1879-1846-4A8C-9E63-FB03734A4C33","name":"PP005322 - Weteringpad 2, Soest","address":"2 Weteringpad","city":"Soest","operatorName":"TotalEnergies","maxPowerKw":11,"isMegawatt":false,"status":"AVAILABLE","source":"ndw"}},{"type":"Feature","geometry":{"type":"Point","coordinates":[5.291559,52.18747]},"properties":{"type":"charge","layer":"passenger","locationId":"25173D51-FDBB-4741-BD7E-88945FD4EFCB","name":"TNLP007573 - Inspecteur Schreuderlaan 1, Soest","address":"1 Inspecteur Schreuderlaan","city":"Soest","operatorName":"TotalEnergies","maxPowerKw":17,"isMegawatt":false,"status":"AVAILABLE","source":"ndw"}},{"type":"Feature","geometry":{"type":"Point","coordinates":[5.275636,52.174442]},"properties":{"type":"charge","layer":"passenger","locationId":"CFA17005-18A3-4FC6-88B0-7048D5428861","name":"PP005578 - Oude Grachtje 32, Soest","address":"32 Oude Grachtje","city":"Soest","operatorName":"TotalEnergies","maxPowerKw":11,"isMegawatt":false,"status":"AVAILABLE","source":"ndw"}},{"type":"Feature","geometry":{"type":"Point","coordinates":[5.285443,52.120625]},"properties":{"type":"charge","layer":"passenger","locationId":"0C86B1BE-7E6F-4586-A203-FE7B5BC20D1E","name":"TNLP006602 - Den Berghplein 17, Soesterberg","address":"17 Den Berghplein","city":"Soesterberg","operatorName":"TotalEnergies","maxPowerKw":17,"isMegawatt":false,"status":"AVAILABLE","source":"ndw"}},{"type":"Feature","geometry":{"type":"Point","coordinates":[5.278475,52.180504]},"properties":{"type":"charge","layer":"passenger","locationId":"7E1AF002-63DC-4494-90E3-188EFE9A5887","name":"TNLP034334 - Laanstraat 27, Soest","address":"27 Laanstraat","city":"Soest","operatorName":"TotalEnergies","maxPowerKw":13,"isMegawatt":false,"status":"AVAILABLE","source":"ndw"}},{"type":"Feature","geometry":{"type":"Point","coordinates":[5.288622,52.179905]},"properties":{"type":"charge","layer":"passenger","locationId":"AFDC6B6A-12BF-4791-9420-706861E93CB8","name":"TNLP034180 - Chalonhof 185, Soest","address":"185 Chalonhof","city":"Soest","operatorName":"TotalEnergies","maxPowerKw":13,"isMegawatt":false,"status":"AVAILABLE","source":"ndw"}},{"type":"Feature","geometry":{"type":"Point","coordinates":[5.29403,52.17713]},"properties":{"type":"charge","layer":"passenger","locationId":"B356383B-430E-45B2-95C4-1406F38FFD6D","name":"TNLP003579 - Raadhuisplein 1, Soest","address":"1 Raadhuisplein","city":"Soest","operatorName":"TotalEnergies","maxPowerKw":17,"isMegawatt":false,"status":"UNAVAILABLE","source":"ndw"}},{"type":"Feature","geometry":{"type":"Point","coordinates":[5.280508,52.125254]},"properties":{"type":"charge","layer":"passenger","locationId":"NLENV693","name":"Soesterberg, Batenburgweg 3A - Flight Deck","address":"Batenburgweg 5A","city":"Soest","operatorName":"","maxPowerKw":11,"isMegawatt":false,"status":"AVAILABLE","source":"ndw","priceKwh":0.5}},{"type":"Feature","geometry":{"type":"Point","coordinates":[5.27028,52.17545]},"properties":{"type":"charge","layer":"passenger","locationId":"4C37815F-BF8A-4D17-A33E-FF90499C46D3","name":"TNLP003577 - Sloothaak 7, Soest","address":"7 Sloothaak","city":"Soest","operatorName":"TotalEnergies","maxPowerKw":17,"isMegawatt":false,"status":"AVAILABLE","source":"ndw"}},{"type":"Feature","geometry":{"type":"Point","coordinates":[5.275503,52.171978]},"properties":{"type":"charge","layer":"passenger","locationId":"D50D4D61-75C0-4B56-9759-C5C9DE2EBF4F","name":"TNLP007325 - Klarinet 391, Soest","address":"391 Klarinet","city":"Soest","operatorName":"TotalEnergies","maxPowerKw":17,"isMegawatt":false,"status":"AVAILABLE","source":"ndw"}},{"type":"Feature","geometry":{"type":"Point","coordinates":[5.29434,52.164795]},"properties":{"type":"charge","layer":"passenger","locationId":"893dde0059d7f133f1c7250d0ee37dfa","name":"Specht 17","address":"Specht 17","city":"Soest","operatorName":"Vattenfall InCharge","maxPowerKw":11,"isMegawatt":false,"status":"AVAILABLE","source":"ndw","priceKwh":0.2805}},{"type":"Feature","geometry":{"type":"Point","coordinates":[5.2992006,52.1838594]},"properties":{"type":"charge","layer":"passenger","locationId":"2115","name":"Shell Recharge NL Spoorstraat 3, Parkeerplaats Soestdijk","address":"Spoorstraat 3, Parkeerplaats Soestdijk","city":"Soest","operatorName":"Ubitricity","maxPowerKw":22,"isMegawatt":false,"status":"AVAILABLE","source":"ndw","priceKwh":0.267}},{"type":"Feature","geometry":{"type":"Point","coordinates":[5.311941,52.169152]},"properties":{"type":"charge","layer":"passenger","locationId":"91233232","name":"50five-S NL 03006917","address":"Ferdinand Huycklaan 20 B","city":"Soest","operatorName":"50five","maxPowerKw":4,"isMegawatt":false,"status":"UNAVAILABLE","source":"ndw"}},{"type":"Feature","geometry":{"type":"Point","coordinates":[5.263866,52.178821]},"properties":{"type":"charge","layer":"passenger","locationId":"922964","name":"DAE_NL_2000680","address":"Nieuwegracht 22","city":"Soest","operatorName":"DAEN Mobility","maxPowerKw":11,"isMegawatt":false,"status":"AVAILABLE","source":"ndw","priceKwh":0.45}},{"type":"Feature","geometry":{"type":"Point","coordinates":[5.284094,52.179653]},"properties":{"type":"charge","layer":"passenger","locationId":"F5451531-8F2A-44C1-A075-13F0659D9BC2","name":"TNLP007068 - Beetzlaan 118, Soest","address":"118 Beetzlaan","city":"Soest","operatorName":"TotalEnergies","maxPowerKw":17,"isMegawatt":false,"status":"AVAILABLE","source":"ndw"}},{"type":"Feature","geometry":{"type":"Point","coordinates":[5.296484,52.11601]},"properties":{"type":"charge","layer":"passenger","locationId":"3A787A75-3F2B-4B35-A397-AC93696CF126","name":"TNLP006187 - Apollo 26, Soesterberg","address":"26 Apollo","city":"Soesterberg","operatorName":"TotalEnergies","maxPowerKw":17,"isMegawatt":false,"status":"AVAILABLE","source":"ndw"}},{"type":"Feature","geometry":{"type":"Point","coordinates":[5.278816,52.176233]},"properties":{"type":"charge","layer":"passenger","locationId":"63a5b606f5c54e0012c4331e","name":"Industrieweg 34","address":"Industrieweg 34","city":"Soest","operatorName":"E-Flux by Road","maxPowerKw":120,"isMegawatt":false,"status":"AVAILABLE","source":"ndw","priceKwh":0.72}},{"type":"Feature","geometry":{"type":"Point","coordinates":[5.282478,52.166573]},"properties":{"type":"charge","layer":"passenger","locationId":"6AD744BE-1A2A-4CB3-9175-57BC9A0BA0EC","name":"TNLP007873 - Vedelaarpad 29, Soest","address":"29 Vedelaarpad","city":"Soest","operatorName":"TotalEnergies","maxPowerKw":17,"isMegawatt":false,"status":"AVAILABLE","source":"ndw"}},{"type":"Feature","geometry":{"type":"Point","coordinates":[5.28717,52.18885]},"properties":{"type":"charge","layer":"passenger","locationId":"507","name":"Shell Recharge NL Dokter Rupertlaan 31","address":"Dokter Rupertlaan 31","city":"Soest","operatorName":"Ubitricity","maxPowerKw":11,"isMegawatt":false,"status":"AVAILABLE","source":"ndw","priceKwh":0.392}},{"type":"Feature","geometry":{"type":"Point","coordinates":[5.28248,52.17271]},"properties":{"type":"charge","layer":"passenger","locationId":"E2E621A0-E92C-4B63-8F29-C620CF52FCEC","name":"PP005508 - Johannes Poststraat 67, Soest","address":"67 Johannes Poststraat","city":"Soest","operatorName":"TotalEnergies","maxPowerKw":11,"isMegawatt":false,"status":"AVAILABLE","source":"ndw"}},{"type":"Feature","geometry":{"type":"Point","coordinates":[5.301811,52.179214]},"properties":{"type":"charge","layer":"passenger","locationId":"A8887D12-D59D-461D-8CA4-0EE085D0138A","name":"TNLP005731 - Van Goyenlaan 40, Soest","address":"40 Van Goyenlaan","city":"Soest","operatorName":"TotalEnergies","maxPowerKw":17,"isMegawatt":false,"status":"AVAILABLE","source":"ndw"}},{"type":"Feature","geometry":{"type":"Point","coordinates":[5.283769,52.114395]},"properties":{"type":"charge","layer":"passenger","locationId":"72007DD1-0A7E-4FDB-985B-E8F2FCAE0373","name":"TNLP006429 - Professor Lorentzlaan 165, Soesterberg","address":"165 Professor Lorentzlaan","city":"Soesterberg","operatorName":"TotalEnergies","maxPowerKw":17,"isMegawatt":false,"status":"AVAILABLE","source":"ndw"}},{"type":"Feature","geometry":{"type":"Point","coordinates":[5.3013819,52.1771607]},"properties":{"type":"charge","layer":"passenger","locationId":"1002","name":"Shell Recharge NL Rubenslaan 174","address":"Rubenslaan 174","city":"Soest","operatorName":"Ubitricity","maxPowerKw":22,"isMegawatt":false,"status":"AVAILABLE","source":"ndw","priceKwh":0.267}},{"type":"Feature","geometry":{"type":"Point","coordinates":[5.303711,52.161117]},"properties":{"type":"charge","layer":"passenger","locationId":"91052049","name":"50five-S NL 03003897","address":"Braamweg 42","city":"Soest","operatorName":"50five","maxPowerKw":4,"isMegawatt":false,"status":"UNAVAILABLE","source":"ndw"}},{"type":"Feature","geometry":{"type":"Point","coordinates":[5.278645,52.169975]},"properties":{"type":"charge","layer":"passenger","locationId":"52D68913-D74F-44D2-8E0A-D69DCE0279B8","name":"TNLP007149 - Cimbaal 42, Soest","address":"42 Cimbaal","city":"Soest","operatorName":"TotalEnergies","maxPowerKw":17,"isMegawatt":false,"status":"AVAILABLE","source":"ndw"}},{"type":"Feature","geometry":{"type":"Point","coordinates":[5.267846,52.177091]},"properties":{"type":"charge","layer":"passenger","locationId":"69a1781b3fb881dfdb3b0741","name":"Oostergracht 13-15","address":"Oostergracht  13-15","city":"Soest","operatorName":"E-Flux by Road","maxPowerKw":21,"isMegawatt":false,"status":"AVAILABLE","source":"ndw","priceKwh":0.48}},{"type":"Feature","geometry":{"type":"Point","coordinates":[5.287636,52.168889]},"properties":{"type":"charge","layer":"passenger","locationId":"f0952fc6db1a4a0253ff3ae663d18b1a","name":"Veenbesstraat 576","address":"Veenbesstraat 576","city":"Soest","operatorName":"Vattenfall InCharge","maxPowerKw":11,"isMegawatt":false,"status":"AVAILABLE","source":"ndw","priceKwh":0.2805}},{"type":"Feature","geometry":{"type":"Point","coordinates":[5.302605,52.12089]},"properties":{"type":"charge","layer":"passenger","locationId":"00B2B4D8-42EA-492B-AD2D-B9EE7F98C181","name":"TNLP005783 - Van Meellaan 57, Soesterberg","address":"57 Van Meellaan","city":"Soesterberg","operatorName":"TotalEnergies","maxPowerKw":11,"isMegawatt":false,"status":"UNAVAILABLE","source":"ndw"}},{"type":"Feature","geometry":{"type":"Point","coordinates":[5.309611,52.16111]},"properties":{"type":"charge","layer":"passenger","locationId":"492DC801-37AC-4D67-A057-6EBF61CF980F","name":"TNLP009534 - P.C. Hooftlaan 17, Soest","address":"17 P.C. Hooftlaan","city":"Soest","operatorName":"TotalEnergies","maxPowerKw":17,"isMegawatt":false,"status":"AVAILABLE","source":"ndw"}},{"type":"Feature","geometry":{"type":"Point","coordinates":[5.288092,52.1727043]},"properties":{"type":"charge","layer":"passenger","locationId":"1134","name":"Shell Recharge NL Speenkruidstraat 23","address":"Speenkruidstraat 23","city":"Soest","operatorName":"Ubitricity","maxPowerKw":22,"isMegawatt":false,"status":"AVAILABLE","source":"ndw","priceKwh":0.267}},{"type":"Feature","geometry":{"type":"Point","coordinates":[5.275902,52.16806]},"properties":{"type":"charge","layer":"passenger","locationId":"DE19AC5C-8829-475C-A5F1-E880F2C6303A","name":"PP005348 - Lisdodde 11, Soest","address":"11 Lisdodde","city":"Soest","operatorName":"TotalEnergies","maxPowerKw":11,"isMegawatt":false,"status":"AVAILABLE","source":"ndw"}},{"type":"Feature","geometry":{"type":"Point","coordinates":[5.291199,52.169193]},"properties":{"type":"charge","layer":"passenger","locationId":"CE687CAF-6809-40FE-9ACA-2AB0C4FA253F","name":"PP005324 - Varenstraat 62, Soest","address":"62 Varenstraat","city":"Soest","operatorName":"TotalEnergies","maxPowerKw":11,"isMegawatt":false,"status":"AVAILABLE","source":"ndw"}},{"type":"Feature","geometry":{"type":"Point","coordinates":[5.2874223,52.1219203]},"properties":{"type":"charge","layer":"passenger","locationId":"1005","name":"Shell Recharge NL Banningstraat 3A","address":"Banningstraat 3A","city":"Soesterberg","operatorName":"Ubitricity","maxPowerKw":22,"isMegawatt":false,"status":"AVAILABLE","source":"ndw","priceKwh":0.267}},{"type":"Feature","geometry":{"type":"Point","coordinates":[5.285297,52.17735]},"properties":{"type":"charge","layer":"passenger","locationId":"B91D52AA-D7FE-4482-93F4-6C9B2F3F109C","name":"TNLP006799 - Wiardi Beckmanstraat 15, Soest","address":"15 Wiardi Beckmanstraat","city":"Soest","operatorName":"TotalEnergies","maxPowerKw":17,"isMegawatt":false,"status":"AVAILABLE","source":"ndw"}},{"type":"Feature","geometry":{"type":"Point","coordinates":[5.3030827,52.121312]},"properties":{"type":"charge","layer":"passenger","locationId":"1814","name":"Shell Recharge NL Wijnmalenlaan 21","address":"Wijnmalenlaan 21","city":"Soesterberg","operatorName":"Ubitricity","maxPowerKw":22,"isMegawatt":false,"status":"AVAILABLE","source":"ndw","priceKwh":0.267}},{"type":"Feature","geometry":{"type":"Point","coordinates":[5.293564,52.142121]},"properties":{"type":"charge","layer":"passenger","locationId":"63a16eeec54a59001251c5ee","name":"Double tree by hilton","address":"van weerden poelmanweg 4","city":"soestduinen","operatorName":"E-Flux by Road","maxPowerKw":22,"isMegawatt":false,"status":"AVAILABLE","source":"ndw","priceKwh":0.68}},{"type":"Feature","geometry":{"type":"Point","coordinates":[5.2958676,52.1860863]},"properties":{"type":"charge","layer":"passenger","locationId":"2665","name":"Shell Recharge NL Van Weedestraat 68","address":"Van Weedestraat 68","city":"Soest","operatorName":"Ubitricity","maxPowerKw":22,"isMegawatt":false,"status":"AVAILABLE","source":"ndw","priceKwh":0.267}},{"type":"Feature","geometry":{"type":"Point","coordinates":[5.290281,52.16699]},"properties":{"type":"charge","layer":"passenger","locationId":"0516BEB3-B4D5-43A1-A0D6-2521AAEBDF29","name":"TNLP007335 - Valeriaanstraat 169, Soest","address":"169 Valeriaanstraat","city":"Soest","operatorName":"TotalEnergies","maxPowerKw":17,"isMegawatt":false,"status":"UNAVAILABLE","source":"ndw"}},{"type":"Feature","geometry":{"type":"Point","coordinates":[5.29962,52.12435]},"properties":{"type":"charge","layer":"passenger","locationId":"1393","name":"50five Exploitatie Conferentiehotel Kontakt Der Kontinenten","address":"Amersfoortsestraat 20","city":"Soesterberg","operatorName":"50five","maxPowerKw":11,"isMegawatt":false,"status":"AVAILABLE","source":"ndw"}},{"type":"Feature","geometry":{"type":"Point","coordinates":[5.277559,52.120848]},"properties":{"type":"charge","layer":"passenger","locationId":"671235122192c8001db59abc","name":"Indoorspeeltuin Plezier - Soesterberg","address":"Stemerdingweg 1A","city":"Soesterberg","operatorName":"Greenchoice B.V.","maxPowerKw":14,"isMegawatt":false,"status":"AVAILABLE","source":"ndw","priceKwh":0.58}},{"type":"Feature","geometry":{"type":"Point","coordinates":[5.2846506,52.1154746]},"properties":{"type":"charge","layer":"passenger","locationId":"1004","name":"Shell Recharge NL Plesmanstraat 169","address":"Plesmanstraat 169","city":"Soesterberg","operatorName":"Ubitricity","maxPowerKw":22,"isMegawatt":false,"status":"AVAILABLE","source":"ndw","priceKwh":0.267}},{"type":"Feature","geometry":{"type":"Point","coordinates":[5.282969,52.164414]},"properties":{"type":"charge","layer":"passenger","locationId":"f39d82620831ba00a3ee58816ab1d6fb","name":"Luytenaarpad 36","address":"Luytenaarpad 36","city":"Soest","operatorName":"Vattenfall InCharge","maxPowerKw":11,"isMegawatt":false,"status":"AVAILABLE","source":"ndw","priceKwh":0.2805}},{"type":"Feature","geometry":{"type":"Point","coordinates":[5.302713,52.176351]},"properties":{"type":"charge","layer":"passenger","locationId":"ca5dcf1fb0beb7d35c1aaa8de2d2c639","name":"Pieter de Molijnlaan 25","address":"Pieter de Molijnlaan 25","city":"Soest","operatorName":"Vattenfall InCharge","maxPowerKw":11,"isMegawatt":false,"status":"AVAILABLE","source":"ndw","priceKwh":0.2805}},{"type":"Feature","geometry":{"type":"Point","coordinates":[5.302885,52.117306]},"properties":{"type":"charge","layer":"passenger","locationId":"18af2912c5d33cb927e2ed6d5eb89559","name":"Mercury 210","address":"Mercury 210","city":"Soesterberg","operatorName":"Vattenfall InCharge","maxPowerKw":11,"isMegawatt":false,"status":"AVAILABLE","source":"ndw","priceKwh":0.2805}},{"type":"Feature","geometry":{"type":"Point","coordinates":[5.2838317,52.1718449]},"properties":{"type":"charge","layer":"passenger","locationId":"764","name":"Shell Recharge NL Haverweerd 29","address":"Haverweerd 29","city":"Soest","operatorName":"Ubitricity","maxPowerKw":22,"isMegawatt":false,"status":"AVAILABLE","source":"ndw","priceKwh":0.267}},{"type":"Feature","geometry":{"type":"Point","coordinates":[5.274046,52.184704]},"properties":{"type":"charge","layer":"passenger","locationId":"01e8932059fe287b4a37bb498b66ce9c","name":"Koninginnelaan 119","address":"Koninginnelaan 119","city":"Soest","operatorName":"Vattenfall InCharge","maxPowerKw":11,"isMegawatt":false,"status":"AVAILABLE","source":"ndw","priceKwh":0.2805}},{"type":"Feature","geometry":{"type":"Point","coordinates":[5.2900599,52.1628872]},"properties":{"type":"charge","layer":"passenger","locationId":"2666","name":"Shell Recharge NL Koperwiek 1","address":"Koperwiek 1","city":"Soest","operatorName":"Ubitricity","maxPowerKw":22,"isMegawatt":false,"status":"AVAILABLE","source":"ndw","priceKwh":0.267}},{"type":"Feature","geometry":{"type":"Point","coordinates":[5.290451,52.143044]},"properties":{"type":"charge","layer":"passenger","locationId":"651fa95f3b78a80020b8b527","name":"VvE Royal Parc I","address":"Van Weerden Poelmanweg 10 t/m 32","city":"Soest","operatorName":"Laadsnel","maxPowerKw":22,"isMegawatt":false,"status":"AVAILABLE","source":"ndw","priceKwh":0.325}},{"type":"Feature","geometry":{"type":"Point","coordinates":[5.285983,52.163097]},"properties":{"type":"charge","layer":"passenger","locationId":"5f5bebee852deed9c776a3da60d97c29","name":"Wielewaal 27","address":"Wielewaal 27","city":"Soest","operatorName":"Vattenfall InCharge","maxPowerKw":11,"isMegawatt":false,"status":"AVAILABLE","source":"ndw","priceKwh":0.2805}},{"type":"Feature","geometry":{"type":"Point","coordinates":[5.2992409,52.1806218]},"properties":{"type":"charge","layer":"passenger","locationId":"1121","name":"Shell Recharge NL Jan Steenlaan 29","address":"Jan Steenlaan 29","city":"Soest","operatorName":"Ubitricity","maxPowerKw":22,"isMegawatt":false,"status":"AVAILABLE","source":"ndw","priceKwh":0.267}},{"type":"Feature","geometry":{"type":"Point","coordinates":[5.313102,52.173988]},"properties":{"type":"charge","layer":"passenger","locationId":"91054333","name":"50five-S NL 07114024","address":"Eemstraat 1","city":"Soest","operatorName":"50five","maxPowerKw":22,"isMegawatt":false,"status":"AVAILABLE","source":"ndw"}},{"type":"Feature","geometry":{"type":"Point","coordinates":[5.284115,52.185262]},"properties":{"type":"charge","layer":"passenger","locationId":"91094979","name":"50five-S NL 07105477","address":"Van Straelenlaan 17","city":"Soest","operatorName":"50five","maxPowerKw":11,"isMegawatt":false,"status":"AVAILABLE","source":"ndw"}},{"type":"Feature","geometry":{"type":"Point","coordinates":[5.3082338,52.1665951]},"properties":{"type":"charge","layer":"passenger","locationId":"1133","name":"Shell Recharge NL Soesterbergsestraat 32","address":"Soesterbergsestraat 32","city":"Soest","operatorName":"Ubitricity","maxPowerKw":22,"isMegawatt":false,"status":"AVAILABLE","source":"ndw","priceKwh":0.267}},{"type":"Feature","geometry":{"type":"Point","coordinates":[5.335078,52.158682]},"properties":{"type":"charge","layer":"passenger","locationId":"6a3e6409ac7f793a4c3568e3","name":"Duynparc Soest","address":"Birkstraat","city":"Soest","operatorName":"PureCharged","maxPowerKw":22,"isMegawatt":false,"status":"AVAILABLE","source":"ndw","priceKwh":0.53}},{"type":"Feature","geometry":{"type":"Point","coordinates":[5.27134,52.183064]},"properties":{"type":"charge","layer":"passenger","locationId":"D84C42F2-BA61-40BB-A982-6FECB3C9DD9C","name":"PP005310 - Beckeringhstraat 38, Soest","address":"38 Beckeringhstraat","city":"Soest","operatorName":"TotalEnergies","maxPowerKw":11,"isMegawatt":false,"status":"AVAILABLE","source":"ndw"}},{"type":"Feature","geometry":{"type":"Point","coordinates":[5.303906,52.1601914]},"properties":{"type":"charge","layer":"passenger","locationId":"2867","name":"Shell Recharge NL Bonifaciusstraat 22","address":"Bonifaciusstraat 22","city":"Soest","operatorName":"Ubitricity","maxPowerKw":22,"isMegawatt":false,"status":"AVAILABLE","source":"ndw","priceKwh":0.267}},{"type":"Feature","geometry":{"type":"Point","coordinates":[5.273515,52.175766]},"properties":{"type":"charge","layer":"passenger","locationId":"0505444E-22F1-4CEA-A033-A13F2B1A6FA0","name":"TNLP007827 - Gareel 58, Soest","address":"58 Gareel","city":"Soest","operatorName":"TotalEnergies","maxPowerKw":17,"isMegawatt":false,"status":"AVAILABLE","source":"ndw"}},{"type":"Feature","geometry":{"type":"Point","coordinates":[5.284046,52.166801]},"properties":{"type":"charge","layer":"passenger","locationId":"0b35d673e97e2020b51856f6c002c6e1","name":"Choristenpad 16","address":"Choristenpad 16","city":"Soest","operatorName":"Vattenfall InCharge","maxPowerKw":11,"isMegawatt":false,"status":"AVAILABLE","source":"ndw","priceKwh":0.2805}},{"type":"Feature","geometry":{"type":"Point","coordinates":[5.28284,52.19011]},"properties":{"type":"charge","layer":"passenger","locationId":"F1496FAE-F622-4747-94D4-B4B229FA3C7C","name":"TNLP008319 - Vredehofstraat 14, Soest","address":"14 Vredehofstraat","city":"Soest","operatorName":"TotalEnergies","maxPowerKw":13,"isMegawatt":false,"status":"AVAILABLE","source":"ndw"}},{"type":"Feature","geometry":{"type":"Point","coordinates":[5.298372,52.1796]},"properties":{"type":"charge","layer":"passenger","locationId":"4AFEFC52-D1F4-45B4-8282-DE1836D5FAB2","name":"TNLP006335 - Vermeerlaan 30 01, Soest","address":"30 01 Vermeerlaan","city":"Soest","operatorName":"TotalEnergies","maxPowerKw":17,"isMegawatt":false,"status":"UNAVAILABLE","source":"ndw"}},{"type":"Feature","geometry":{"type":"Point","coordinates":[5.316125,52.161067]},"properties":{"type":"charge","layer":"passenger","locationId":"91085144","name":"50five-S NL 07141267","address":"Bartolottilaan 6","city":"Soest","operatorName":"50five","maxPowerKw":17,"isMegawatt":false,"status":"AVAILABLE","source":"ndw"}},{"type":"Feature","geometry":{"type":"Point","coordinates":[5.3063057,52.1821617]},"properties":{"type":"charge","layer":"passenger","locationId":"2107","name":"Shell Recharge NL Lange Brinkweg 73","address":"Lange Brinkweg 73","city":"Soest","operatorName":"Ubitricity","maxPowerKw":22,"isMegawatt":false,"status":"AVAILABLE","source":"ndw","priceKwh":0.267}},{"type":"Feature","geometry":{"type":"Point","coordinates":[5.249504,52.168357]},"properties":{"type":"charge","layer":"passenger","locationId":"91066134","name":"50five-S NL 07101691","address":"Staalwijklaan 8","city":"Soest","operatorName":"50five","maxPowerKw":11,"isMegawatt":false,"status":"AVAILABLE","source":"ndw"}},{"type":"Feature","geometry":{"type":"Point","coordinates":[5.28138,52.1651]},"properties":{"type":"charge","layer":"passenger","locationId":"EFB84074-D7FB-441B-AB28-69DA606DC525","name":"PP005329 - Van der Weydenstraat 33, Soest","address":"33 Van der Weydenstraat","city":"Soest","operatorName":"TotalEnergies","maxPowerKw":13,"isMegawatt":false,"status":"AVAILABLE","source":"ndw"}},{"type":"Feature","geometry":{"type":"Point","coordinates":[5.303398,52.123872]},"properties":{"type":"charge","layer":"passenger","locationId":"89329366","name":"Van Leeuwen Nedcargo Soesterberg","address":"W. stuutlaan 5","city":"Soesterberg","operatorName":"Van Leeuwen","maxPowerKw":22,"isMegawatt":false,"status":"AVAILABLE","source":"ndw"}},{"type":"Feature","geometry":{"type":"Point","coordinates":[5.283134,52.176746]},"properties":{"type":"charge","layer":"passenger","locationId":"9DD1868B-F877-41C9-9448-1DB13BF56775","name":"PP005328 - Wiardi Beckmanstraat 222, Soest","address":"222 Wiardi Beckmanstraat","city":"Soest","operatorName":"TotalEnergies","maxPowerKw":11,"isMegawatt":false,"status":"AVAILABLE","source":"ndw"}},{"type":"Feature","geometry":{"type":"Point","coordinates":[5.298172,52.181915]},"properties":{"type":"charge","layer":"passenger","locationId":"4A7850AA-D7C9-4BC9-AE92-71C9233B07D9","name":"PP005333 - Pieter de Hooghlaan 14, Soest","address":"14 Pieter de Hooghlaan","city":"Soest","operatorName":"TotalEnergies","maxPowerKw":11,"isMegawatt":false,"status":"AVAILABLE","source":"ndw"}},{"type":"Feature","geometry":{"type":"Point","coordinates":[5.274366,52.173623]},"properties":{"type":"charge","layer":"passenger","locationId":"6776809d0a6db266a2deb8da","name":"Michaël Berger 's station","address":"Bunder 20","city":"Soest","operatorName":"E-Flux by Road","maxPowerKw":11,"isMegawatt":false,"status":"AVAILABLE","source":"ndw","priceKwh":0.4432}},{"type":"Feature","geometry":{"type":"Point","coordinates":[5.28214,52.163562]},"properties":{"type":"charge","layer":"passenger","locationId":"91170244","name":"50five-S NL 07140551","address":"Insingerstraat 20","city":"Soest","operatorName":"50five","maxPowerKw":14,"isMegawatt":false,"status":"AVAILABLE","source":"ndw"}},{"type":"Feature","geometry":{"type":"Point","coordinates":[5.301603,52.17569]},"properties":{"type":"charge","layer":"passenger","locationId":"00500B8E-C242-433D-BBEC-BA6997317335","name":"TNLP006360 - Albert Cuyplaan 210, Soest","address":"210 Albert Cuyplaan","city":"Soest","operatorName":"TotalEnergies","maxPowerKw":17,"isMegawatt":false,"status":"AVAILABLE","source":"ndw"}},{"type":"Feature","geometry":{"type":"Point","coordinates":[5.27902,52.171818]},"properties":{"type":"charge","layer":"passenger","locationId":"5AA975E7-7383-4647-A6B3-21FBEF882AC9","name":"TNLP008330 - Citer 1, Soest","address":"1 Citer","city":"Soest","operatorName":"TotalEnergies","maxPowerKw":13,"isMegawatt":false,"status":"UNAVAILABLE","source":"ndw"}},{"type":"Feature","geometry":{"type":"Point","coordinates":[5.286949,52.120567]},"properties":{"type":"charge","layer":"passenger","locationId":"B96D1529-1D11-4A08-B86C-BBA2245F82E1","name":"PP005170 - Noorduyn 11, Soesterberg","address":"11 Noorduyn","city":"Soesterberg","operatorName":"TotalEnergies","maxPowerKw":11,"isMegawatt":false,"status":"AVAILABLE","source":"ndw"}},{"type":"Feature","geometry":{"type":"Point","coordinates":[5.274322,52.173795]},"properties":{"type":"charge","layer":"passenger","locationId":"91055004","name":"50five-S NL 03007742","address":"Bunder 17","city":"Soest","operatorName":"50five","maxPowerKw":4,"isMegawatt":false,"status":"AVAILABLE","source":"ndw"}},{"type":"Feature","geometry":{"type":"Point","coordinates":[5.2922203,52.1853162]},"properties":{"type":"charge","layer":"passenger","locationId":"1832","name":"Shell Recharge NL Irenelaan 58","address":"Irenelaan 58","city":"Soest","operatorName":"Ubitricity","maxPowerKw":22,"isMegawatt":false,"status":"AVAILABLE","source":"ndw","priceKwh":0.267}},{"type":"Feature","geometry":{"type":"Point","coordinates":[5.287432,52.120391]},"properties":{"type":"charge","layer":"passenger","locationId":"e53f9e2b500fe02dfba5473b2ec5e5cb","name":"Noorduyn 21","address":"Noorduyn 21","city":"Soesterberg","operatorName":"Vattenfall InCharge","maxPowerKw":11,"isMegawatt":false,"status":"AVAILABLE","source":"ndw","priceKwh":0.2805}},{"type":"Feature","geometry":{"type":"Point","coordinates":[5.2938092,52.1777122]},"properties":{"type":"charge","layer":"passenger","locationId":"1439","name":"Shell Recharge NL Heetakker 22","address":"Heetakker 22","city":"Soest","operatorName":"Ubitricity","maxPowerKw":22,"isMegawatt":false,"status":"AVAILABLE","source":"ndw","priceKwh":0.267}},{"type":"Feature","geometry":{"type":"Point","coordinates":[5.3111039,52.1715513]},"properties":{"type":"charge","layer":"passenger","locationId":"781","name":"Shell Recharge NL Torenstraat 22","address":"Torenstraat 22","city":"Soest","operatorName":"Ubitricity","maxPowerKw":22,"isMegawatt":false,"status":"AVAILABLE","source":"ndw","priceKwh":0.267}},{"type":"Feature","geometry":{"type":"Point","coordinates":[5.284911,52.182347]},"properties":{"type":"charge","layer":"passenger","locationId":"91179635","name":"50five-S NL Soest, Hellingweg 1","address":"Hellingweg 1","city":"Soest","operatorName":"50five","maxPowerKw":11,"isMegawatt":false,"status":"AVAILABLE","source":"ndw"}},{"type":"Feature","geometry":{"type":"Point","coordinates":[5.297452,52.140955]},"properties":{"type":"charge","layer":"passenger","locationId":"649af7716ae345001c059e07","name":"Dire sport station 1","address":"van Weerdenpoelmanweg  23","city":"Soest","operatorName":"E-Flux by Road","maxPowerKw":22,"isMegawatt":false,"status":"AVAILABLE","source":"ndw","priceKwh":0.41}},{"type":"Feature","geometry":{"type":"Point","coordinates":[5.287004,52.17329]},"properties":{"type":"charge","layer":"passenger","locationId":"7165637E-4F50-42BA-A215-0DE2E4A0F693","name":"TNLP015264 - De Akkeren 1, Soest","address":"1 De Akkeren","city":"Soest","operatorName":"TotalEnergies","maxPowerKw":17,"isMegawatt":false,"status":"AVAILABLE","source":"ndw"}},{"type":"Feature","geometry":{"type":"Point","coordinates":[5.2853084,52.1652383]},"properties":{"type":"charge","layer":"passenger","locationId":"1173","name":"Shell Recharge NL Harperpad 16","address":"Harperpad 16","city":"Soest","operatorName":"Ubitricity","maxPowerKw":22,"isMegawatt":false,"status":"AVAILABLE","source":"ndw","priceKwh":0.267}},{"type":"Feature","geometry":{"type":"Point","coordinates":[5.293514,52.187437]},"properties":{"type":"charge","layer":"passenger","locationId":"954655EE-0B77-4AA9-9189-90ADFAD5B9B4","name":"Eneco eMobility Albert Heijn - Burgemeester Grothestraat 2","address":"Burgemeester Grothestraat 2","city":"Soest","operatorName":"Eneco","maxPowerKw":150,"isMegawatt":false,"status":"AVAILABLE","source":"ndw","priceKwh":0.62}},{"type":"Feature","geometry":{"type":"Point","coordinates":[5.283861,52.1813]},"properties":{"type":"charge","layer":"passenger","locationId":"432C7123-47B9-4E3B-920D-560FD99765A4","name":"TNLP005698 - Schrikslaan 32, Soest","address":"32 Schrikslaan","city":"Soest","operatorName":"TotalEnergies","maxPowerKw":13,"isMegawatt":false,"status":"UNAVAILABLE","source":"ndw"}},{"type":"Feature","geometry":{"type":"Point","coordinates":[5.27715,52.172611]},"properties":{"type":"charge","layer":"passenger","locationId":"7200f4fae09ab09187bc182e2422990a","name":"Spinet 112","address":"Spinet 112","city":"Soest","operatorName":"Vattenfall InCharge","maxPowerKw":11,"isMegawatt":false,"status":"AVAILABLE","source":"ndw","priceKwh":0.2805}},{"type":"Feature","geometry":{"type":"Point","coordinates":[5.2981733,52.1659256]},"properties":{"type":"charge","layer":"passenger","locationId":"1079","name":"Shell Recharge NL Goudvink 41","address":"Goudvink 41","city":"Soest","operatorName":"Ubitricity","maxPowerKw":22,"isMegawatt":false,"status":"AVAILABLE","source":"ndw","priceKwh":0.267}},{"type":"Feature","geometry":{"type":"Point","coordinates":[5.286176,52.169235]},"properties":{"type":"charge","layer":"passenger","locationId":"01B93304-1A03-4B59-BB94-E1B91F7D67F6","name":"PP005478 - Veenbesstraat 388 01, Soest","address":"388 01 Veenbesstraat","city":"Soest","operatorName":"TotalEnergies","maxPowerKw":11,"isMegawatt":false,"status":"AVAILABLE","source":"ndw"}},{"type":"Feature","geometry":{"type":"Point","coordinates":[5.276343,52.173479]},"properties":{"type":"charge","layer":"passenger","locationId":"91069730","name":"50five-S NL 07000584","address":"Bunder 32","city":"Soest","operatorName":"50five","maxPowerKw":17,"isMegawatt":false,"status":"AVAILABLE","source":"ndw"}},{"type":"Feature","geometry":{"type":"Point","coordinates":[5.301094,52.178011]},"properties":{"type":"charge","layer":"passenger","locationId":"871b0de8-0171-4d94-ae41-661cae218533","name":"TNLP015395","address":"Saenredamplantsoen 14","city":"Soest","operatorName":"TotalEnergies","maxPowerKw":17,"isMegawatt":false,"status":"AVAILABLE","source":"ndw"}},{"type":"Feature","geometry":{"type":"Point","coordinates":[5.298121,52.176411]},"properties":{"type":"charge","layer":"passenger","locationId":"9203667e7a20a8d252b2b91df0779f78","name":"Soesterengweg 11","address":"Soesterengweg 11","city":"Soest","operatorName":"Vattenfall InCharge","maxPowerKw":11,"isMegawatt":false,"status":"AVAILABLE","source":"ndw","priceKwh":0.2805}},{"type":"Feature","geometry":{"type":"Point","coordinates":[5.296103,52.179146]},"properties":{"type":"charge","layer":"passenger","locationId":"D8DEE68A-8DA7-431D-8B1A-CD9AF352655A","name":"TNLP007144 - Boekweitland 42, Soest","address":"42 Boekweitland","city":"Soest","operatorName":"TotalEnergies","maxPowerKw":17,"isMegawatt":false,"status":"AVAILABLE","source":"ndw"}},{"type":"Feature","geometry":{"type":"Point","coordinates":[5.280738,52.11453]},"properties":{"type":"charge","layer":"passenger","locationId":"9EDF2E4B-4A73-457A-A407-61965592723B","name":"TNLP007236 - Antonie van Leeuwenhoeklaan 89, Soesterberg","address":"89 Antonie van Leeuwenhoeklaan","city":"Soesterberg","operatorName":"TotalEnergies","maxPowerKw":17,"isMegawatt":false,"status":"AVAILABLE","source":"ndw"}},{"type":"Feature","geometry":{"type":"Point","coordinates":[5.279513,52.177611]},"properties":{"type":"charge","layer":"passenger","locationId":"621f5aab855d0df37f6d7b47","name":"Probin Soest","address":"Nijverheidsweg 11","city":"Soest","operatorName":"E-Flux by Road","maxPowerKw":22,"isMegawatt":false,"status":"AVAILABLE","source":"ndw","priceKwh":0.42}},{"type":"Feature","geometry":{"type":"Point","coordinates":[5.287334,52.186115]},"properties":{"type":"charge","layer":"passenger","locationId":"3117FF2D-9648-40AE-909F-5A778DA2B339","name":"PP005491 - Willem de Zwijgerlaan 19, Soest","address":"19 Willem de Zwijgerlaan","city":"Soest","operatorName":"TotalEnergies","maxPowerKw":11,"isMegawatt":false,"status":"AVAILABLE","source":"ndw"}},{"type":"Feature","geometry":{"type":"Point","coordinates":[5.300805,52.11648]},"properties":{"type":"charge","layer":"passenger","locationId":"F7972A8C-EF0F-4350-9003-7829C291EB01","name":"PP005475 - Gemini 33, Soesterberg","address":"33 Gemini","city":"Soesterberg","operatorName":"TotalEnergies","maxPowerKw":11,"isMegawatt":false,"status":"AVAILABLE","source":"ndw"}},{"type":"Feature","geometry":{"type":"Point","coordinates":[5.310333,52.169083]},"properties":{"type":"charge","layer":"passenger","locationId":"CA7B6BF9-48EF-44F8-8AB6-08566FB42FE9","name":"TNLP006038 - Kerkstraat 85, Soest","address":"85 Kerkstraat","city":"Soest","operatorName":"TotalEnergies","maxPowerKw":17,"isMegawatt":false,"status":"AVAILABLE","source":"ndw"}},{"type":"Feature","geometry":{"type":"Point","coordinates":[5.3041756,52.1613306]},"properties":{"type":"charge","layer":"passenger","locationId":"1068","name":"Shell Recharge NL Braamweg 37","address":"Braamweg 37","city":"Soest","operatorName":"Ubitricity","maxPowerKw":22,"isMegawatt":false,"status":"AVAILABLE","source":"ndw","priceKwh":0.267}},{"type":"Feature","geometry":{"type":"Point","coordinates":[5.267045,52.179823]},"properties":{"type":"charge","layer":"passenger","locationId":"6989f217f04032fb6f4eadc2","name":"Nieuwegracht 5","address":"Nieuwegracht 5","city":"Soest","operatorName":"E-Flux by Road","maxPowerKw":11,"isMegawatt":false,"status":"AVAILABLE","source":"ndw","priceKwh":0.49}},{"type":"Feature","geometry":{"type":"Point","coordinates":[5.310914,52.117629]},"properties":{"type":"charge","layer":"passenger","locationId":"4036159","name":"Laadnet Burgth Vastgoed B.V.","address":"Centurionbaan 102","city":"Soesterberg","operatorName":"Laadnet","maxPowerKw":22,"isMegawatt":false,"status":"AVAILABLE","source":"ndw"}},{"type":"Feature","geometry":{"type":"Point","coordinates":[5.287757,52.123076]},"properties":{"type":"charge","layer":"passenger","locationId":"1869","name":"Shell Recharge NL Banningstraat 47","address":"Banningstraat 47","city":"Soesterberg","operatorName":"Ubitricity","maxPowerKw":22,"isMegawatt":false,"status":"CHARGING","source":"ndw","priceKwh":0.267}},{"type":"Feature","geometry":{"type":"Point","coordinates":[5.271924,52.172567]},"properties":{"type":"charge","layer":"passenger","locationId":"7d0e3c32c1d4cebb08e2d6e19fa683f9","name":"Morgen 18","address":"Morgen 18","city":"Soest","operatorName":"Vattenfall InCharge","maxPowerKw":11,"isMegawatt":false,"status":"AVAILABLE","source":"ndw","priceKwh":0.2805}},{"type":"Feature","geometry":{"type":"Point","coordinates":[5.2865763,52.1700585]},"properties":{"type":"charge","layer":"passenger","locationId":"857","name":"Shell Recharge NL Veenbesstraat 292","address":"Veenbesstraat 292","city":"Soest","operatorName":"Ubitricity","maxPowerKw":22,"isMegawatt":false,"status":"AVAILABLE","source":"ndw","priceKwh":0.267}},{"type":"Feature","geometry":{"type":"Point","coordinates":[5.2702164,52.1738318]},"properties":{"type":"charge","layer":"passenger","locationId":"1150","name":"Shell Recharge NL Dorsvlegel 60","address":"Dorsvlegel 60","city":"Soest","operatorName":"Ubitricity","maxPowerKw":22,"isMegawatt":false,"status":"AVAILABLE","source":"ndw","priceKwh":0.267}},{"type":"Feature","geometry":{"type":"Point","coordinates":[5.2872495,52.1648464]},"properties":{"type":"charge","layer":"passenger","locationId":"780","name":"Shell Recharge NL Claroenstekerpad 49","address":"Claroenstekerpad 49","city":"Soest","operatorName":"Ubitricity","maxPowerKw":22,"isMegawatt":false,"status":"AVAILABLE","source":"ndw","priceKwh":0.267}},{"type":"Feature","geometry":{"type":"Point","coordinates":[5.304073,52.182293]},"properties":{"type":"charge","layer":"passenger","locationId":"965D712E-52A5-430A-97CB-C120777AF2E6","name":"PP005345 - Kerkplein 9, Soest","address":"9 Kerkplein","city":"Soest","operatorName":"TotalEnergies","maxPowerKw":11,"isMegawatt":false,"status":"AVAILABLE","source":"ndw"}},{"type":"Feature","geometry":{"type":"Point","coordinates":[5.2810338,52.1691347]},"properties":{"type":"charge","layer":"passenger","locationId":"2200","name":"Shell Recharge NL J.H. Isingserf 37","address":"J.H. Isingserf 37","city":"Soest","operatorName":"Ubitricity","maxPowerKw":22,"isMegawatt":false,"status":"AVAILABLE","source":"ndw","priceKwh":0.267}},{"type":"Feature","geometry":{"type":"Point","coordinates":[5.285059,52.171097]},"properties":{"type":"charge","layer":"passenger","locationId":"DB526F2B-0480-491B-9AF4-7466A93B456B","name":"TNLP034288 - Veenbesstraat 8, Soest","address":"8 Veenbesstraat","city":"Soest","operatorName":"TotalEnergies","maxPowerKw":13,"isMegawatt":false,"status":"AVAILABLE","source":"ndw"}},{"type":"Feature","geometry":{"type":"Point","coordinates":[5.282857,52.173341]},"properties":{"type":"charge","layer":"passenger","locationId":"cbe32eac92cbc4f78d578c3dd3d7b891","name":"Walraven van Hallhof 2","address":"Walraven van Hallhof 2","city":"Soest","operatorName":"Vattenfall InCharge","maxPowerKw":11,"isMegawatt":false,"status":"AVAILABLE","source":"ndw","priceKwh":0.2805}},{"type":"Feature","geometry":{"type":"Point","coordinates":[5.286674,52.174435]},"properties":{"type":"charge","layer":"passenger","locationId":"72426E17-6455-4349-9ADC-680A1435476F","name":"PP005516 - van Hamelstraat 79, Soest","address":"79 van Hamelstraat","city":"Soest","operatorName":"TotalEnergies","maxPowerKw":11,"isMegawatt":false,"status":"AVAILABLE","source":"ndw"}},{"type":"Feature","geometry":{"type":"Point","coordinates":[5.3078,52.164143]},"properties":{"type":"charge","layer":"passenger","locationId":"91E5A480-0468-4BC8-9E99-4B0396FC5B65","name":"PP005172 - Tensenhof 1, Soest","address":"1 Tensenhof","city":"Soest","operatorName":"TotalEnergies","maxPowerKw":11,"isMegawatt":false,"status":"AVAILABLE","source":"ndw"}},{"type":"Feature","geometry":{"type":"Point","coordinates":[5.281109,52.17017]},"properties":{"type":"charge","layer":"passenger","locationId":"ADC40330-80DE-45B5-80C5-61C4C8E7686D","name":"TNLP006358 - Gemshoorn 16, Soest","address":"16 Gemshoorn","city":"Soest","operatorName":"TotalEnergies","maxPowerKw":17,"isMegawatt":false,"status":"AVAILABLE","source":"ndw"}},{"type":"Feature","geometry":{"type":"Point","coordinates":[5.27332,52.17283]},"properties":{"type":"charge","layer":"passenger","locationId":"E115289E-9750-4F93-83D7-D15F80F9E2FE","name":"TNLP007062 - Hofstedering 96, Soest","address":"96 Hofstedering","city":"Soest","operatorName":"TotalEnergies","maxPowerKw":17,"isMegawatt":false,"status":"AVAILABLE","source":"ndw"}},{"type":"Feature","geometry":{"type":"Point","coordinates":[5.28828,52.19126]},"properties":{"type":"charge","layer":"passenger","locationId":"d31c9513d52c548037596316501cf2f6","name":"Colenso 167","address":"Colenso 167","city":"Soest","operatorName":"Vattenfall InCharge","maxPowerKw":11,"isMegawatt":false,"status":"AVAILABLE","source":"ndw","priceKwh":0.2805}},{"type":"Feature","geometry":{"type":"Point","coordinates":[5.293607,52.177876]},"properties":{"type":"charge","layer":"passenger","locationId":"6D4C89ED-4640-4635-B9EF-70E35EBDBF03","name":"Laadplein - PP005486 - Heetakker 22, Soest","address":"22 Heetakker","city":"Soest","operatorName":"TotalEnergies","maxPowerKw":15,"isMegawatt":false,"status":"CHARGING","source":"ndw"}},{"type":"Feature","geometry":{"type":"Point","coordinates":[5.265943,52.176187]},"properties":{"type":"charge","layer":"passenger","locationId":"65b230a12f7a54001c1cde28","name":"Clemens van Erp","address":"Zuidergracht 21-32","city":"Soest","operatorName":"E-Flux by Road","maxPowerKw":22,"isMegawatt":false,"status":"AVAILABLE","source":"ndw","priceKwh":0.42}},{"type":"Feature","geometry":{"type":"Point","coordinates":[5.283374,52.16873]},"properties":{"type":"charge","layer":"passenger","locationId":"754B3830-92C5-4DE6-8322-3617C589FEC9","name":"TNLP009522 - Willaertstraat 34, Soest","address":"34 Willaertstraat","city":"Soest","operatorName":"TotalEnergies","maxPowerKw":17,"isMegawatt":false,"status":"CHARGING","source":"ndw"}},{"type":"Feature","geometry":{"type":"Point","coordinates":[5.28191,52.16947]},"properties":{"type":"charge","layer":"passenger","locationId":"863A3233-D03D-4521-8CE4-1AAA9A81B983","name":"TNLP034315 - Tamboerijn 35, Soest","address":"35 Tamboerijn","city":"Soest","operatorName":"TotalEnergies","maxPowerKw":13,"isMegawatt":false,"status":"AVAILABLE","source":"ndw"}},{"type":"Feature","geometry":{"type":"Point","coordinates":[5.2915773,52.1687113]},"properties":{"type":"charge","layer":"passenger","locationId":"1383","name":"Shell Recharge NL Varenstraat 27","address":"Varenstraat 27","city":"Soest","operatorName":"Ubitricity","maxPowerKw":22,"isMegawatt":false,"status":"AVAILABLE","source":"ndw","priceKwh":0.267}},{"type":"Feature","geometry":{"type":"Point","coordinates":[5.270972,52.17595]},"properties":{"type":"charge","layer":"passenger","locationId":"67315836-0F4F-49C9-8535-16C0535E0467","name":"TNLP015282 - Gareel 6, Soest","address":"6 Gareel","city":"Soest","operatorName":"TotalEnergies","maxPowerKw":17,"isMegawatt":false,"status":"AVAILABLE","source":"ndw"}},{"type":"Feature","geometry":{"type":"Point","coordinates":[5.28992,52.17494]},"properties":{"type":"charge","layer":"passenger","locationId":"E94E3CF4-1F04-4AD2-88AD-AAF53BB8C421","name":"PP005463 - De Bongerd 12, Soest","address":"12 De Bongerd","city":"Soest","operatorName":"TotalEnergies","maxPowerKw":11,"isMegawatt":false,"status":"AVAILABLE","source":"ndw"}},{"type":"Feature","geometry":{"type":"Point","coordinates":[5.28247,52.1683]},"properties":{"type":"charge","layer":"passenger","locationId":"860B67F2-D301-4328-B061-EF9641854B63","name":"TNLP003575 - Willaertstraat 51, Soest","address":"51 Willaertstraat","city":"Soest","operatorName":"TotalEnergies","maxPowerKw":17,"isMegawatt":false,"status":"AVAILABLE","source":"ndw"}},{"type":"Feature","geometry":{"type":"Point","coordinates":[5.28586,52.17551]},"properties":{"type":"charge","layer":"passenger","locationId":"6c42c0cd-c9d4-4429-9a7b-bd4c04f45c2e","name":"PP001431 - Van Hamelstraat 78, Soest","address":"78 Van Hamelstraat","city":"Soest","operatorName":"TotalEnergies","maxPowerKw":11,"isMegawatt":false,"status":"UNAVAILABLE","source":"ndw"}},{"type":"Feature","geometry":{"type":"Point","coordinates":[5.292044,52.116066]},"properties":{"type":"charge","layer":"passenger","locationId":"33B8C353-B2A5-4132-912F-F2B2C78BDD84","name":"TNLP006802 - Vliegtuiglaan 24, Soesterberg","address":"24 Vliegtuiglaan","city":"Soesterberg","operatorName":"TotalEnergies","maxPowerKw":17,"isMegawatt":false,"status":"AVAILABLE","source":"ndw"}},{"type":"Feature","geometry":{"type":"Point","coordinates":[5.276228,52.1736739]},"properties":{"type":"charge","layer":"passenger","locationId":"760","name":"Shell Recharge NL Het Bunder 43","address":"Het Bunder 43","city":"Soest","operatorName":"Ubitricity","maxPowerKw":22,"isMegawatt":false,"status":"AVAILABLE","source":"ndw","priceKwh":0.267}},{"type":"Feature","geometry":{"type":"Point","coordinates":[5.2811202,52.1734645]},"properties":{"type":"charge","layer":"passenger","locationId":"1743","name":"Shell Recharge NL Johannes Poststraat 284","address":"Johannes Poststraat 284","city":"Soest","operatorName":"Ubitricity","maxPowerKw":22,"isMegawatt":false,"status":"AVAILABLE","source":"ndw","priceKwh":0.267}},{"type":"Feature","geometry":{"type":"Point","coordinates":[5.273457,52.179761]},"properties":{"type":"charge","layer":"passenger","locationId":"91057062","name":"50five-S NL 07106548","address":"Weteringpad 10","city":"Soest","operatorName":"50five","maxPowerKw":11,"isMegawatt":false,"status":"CHARGING","source":"ndw"}},{"type":"Feature","geometry":{"type":"Point","coordinates":[5.280532,52.182682]},"properties":{"type":"charge","layer":"passenger","locationId":"765d403886c305c20fb48ec3f5805875","name":"Mezenhof 2","address":"Mezenhof 2","city":"Soest","operatorName":"Vattenfall InCharge","maxPowerKw":11,"isMegawatt":false,"status":"AVAILABLE","source":"ndw","priceKwh":0.2805}},{"type":"Feature","geometry":{"type":"Point","coordinates":[5.3000666,52.1632281]},"properties":{"type":"charge","layer":"passenger","locationId":"1030","name":"Shell Recharge NL Kastanjelaan 21","address":"Kastanjelaan 21","city":"Soest","operatorName":"Ubitricity","maxPowerKw":22,"isMegawatt":false,"status":"AVAILABLE","source":"ndw","priceKwh":0.267}},{"type":"Feature","geometry":{"type":"Point","coordinates":[5.306556,52.158692]},"properties":{"type":"charge","layer":"passenger","locationId":"623aede90cb7e9d7c676c7ee","name":"Restaurant de Eetvilla","address":"Soesterbergsestraat 122","city":"Soest","operatorName":"E-Flux by Road","maxPowerKw":22,"isMegawatt":false,"status":"AVAILABLE","source":"ndw","priceKwh":0.48}},{"type":"Feature","geometry":{"type":"Point","coordinates":[5.292578,52.170692]},"properties":{"type":"charge","layer":"passenger","locationId":"12E3B9FC-442D-45B0-9C4F-C25BFBFEA8BC","name":"TNLP007920 - Weegbreestraat 205, Soest","address":"205 Weegbreestraat","city":"Soest","operatorName":"TotalEnergies","maxPowerKw":17,"isMegawatt":false,"status":"AVAILABLE","source":"ndw"}},{"type":"Feature","geometry":{"type":"Point","coordinates":[5.26932,52.17254]},"properties":{"type":"charge","layer":"passenger","locationId":"2035374c-889b-4b5b-bc0b-234eae67fb43","name":"PP001470 - Herdersstaf 2, Soest","address":"2 Herdersstaf","city":"Soest","operatorName":"TotalEnergies","maxPowerKw":11,"isMegawatt":false,"status":"AVAILABLE","source":"ndw"}},{"type":"Feature","geometry":{"type":"Point","coordinates":[5.316445,52.162073]},"properties":{"type":"charge","layer":"passenger","locationId":"OST25P0027_0154_0","name":"OST25P0027_0154_0","address":"Birkstraat 101","city":"Soest","operatorName":"e-VOLTT","maxPowerKw":38,"isMegawatt":false,"status":"AVAILABLE","source":"ndw","priceKwh":0.456}},{"type":"Feature","geometry":{"type":"Point","coordinates":[5.30504,52.16597]},"properties":{"type":"charge","layer":"passenger","locationId":"DF496A12-07FA-4DAF-9DB4-D0BC54FF2F32","name":"PP002346 - Eikenlaan 63, Soest","address":"63 Eikenlaan","city":"Soest","operatorName":"TotalEnergies","maxPowerKw":17,"isMegawatt":false,"status":"AVAILABLE","source":"ndw"}},{"type":"Feature","geometry":{"type":"Point","coordinates":[5.281143,52.12515]},"properties":{"type":"charge","layer":"passenger","locationId":"5E3C6269-CBD6-4D89-A9BC-0786C96ADF4B","name":"PP005479 - Batenburgweg 3, Soesterberg","address":"3 Batenburgweg","city":"Soesterberg","operatorName":"TotalEnergies","maxPowerKw":11,"isMegawatt":false,"status":"AVAILABLE","source":"ndw"}},{"type":"Feature","geometry":{"type":"Point","coordinates":[5.295177,52.185184]},"properties":{"type":"charge","layer":"passenger","locationId":"e089df39-b043-41f4-b84e-9192d66a0eff","name":"TNLP006368 - TNLP008498 - Nassauplantsoen 8, Soest","address":"8 Nassauplantsoen","city":"Soest","operatorName":"TotalEnergies","maxPowerKw":17,"isMegawatt":false,"status":"AVAILABLE","source":"ndw"}},{"type":"Feature","geometry":{"type":"Point","coordinates":[5.30795,52.16226]},"properties":{"type":"charge","layer":"passenger","locationId":"ae346987-a77b-44a3-b51d-897ec382b4ec","name":"PP001351 - Oude Utrechtseweg 7, Soest","address":"7 Oude Utrechtseweg","city":"Soest","operatorName":"TotalEnergies","maxPowerKw":11,"isMegawatt":false,"status":"AVAILABLE","source":"ndw"}},{"type":"Feature","geometry":{"type":"Point","coordinates":[5.284848,52.191456]},"properties":{"type":"charge","layer":"passenger","locationId":"E146C5D6-6851-435D-AB53-A5304F904F75","name":"TNLP005704 - Colenso 54, Soest","address":"54 Colenso","city":"Soest","operatorName":"TotalEnergies","maxPowerKw":11,"isMegawatt":false,"status":"AVAILABLE","source":"ndw"}},{"type":"Feature","geometry":{"type":"Point","coordinates":[5.27398,52.18251]},"properties":{"type":"charge","layer":"passenger","locationId":"f2ef088d33c0cbc00d37cc0b07208292","name":"Beckeringhstraat 20","address":"Beckeringhstraat 20","city":"Soest","operatorName":"Vattenfall InCharge","maxPowerKw":11,"isMegawatt":false,"status":"AVAILABLE","source":"ndw","priceKwh":0.2805}},{"type":"Feature","geometry":{"type":"Point","coordinates":[5.312335,52.16488]},"properties":{"type":"charge","layer":"passenger","locationId":"05CA2B4A-415F-4D66-A4E0-EA59C26ADE5C","name":"TNLP006219 - Jan Wolkershof 15, Soest","address":"15 Jan Wolkershof","city":"Soest","operatorName":"TotalEnergies","maxPowerKw":17,"isMegawatt":false,"status":"AVAILABLE","source":"ndw"}},{"type":"Feature","geometry":{"type":"Point","coordinates":[5.269419,52.180091]},"properties":{"type":"charge","layer":"passenger","locationId":"91106110","name":"50five-S NL 09000725","address":"Koningsweg 26","city":"Soest","operatorName":"50five","maxPowerKw":17,"isMegawatt":false,"status":"AVAILABLE","source":"ndw"}},{"type":"Feature","geometry":{"type":"Point","coordinates":[5.289875,52.17382]},"properties":{"type":"charge","layer":"passenger","locationId":"75944586-1483-4B66-A76C-CA89AF29E541","name":"PP005517 - Kamperfoeliestraat 1, Soest","address":"1 Kamperfoeliestraat","city":"Soest","operatorName":"TotalEnergies","maxPowerKw":11,"isMegawatt":false,"status":"UNAVAILABLE","source":"ndw"}},{"type":"Feature","geometry":{"type":"Point","coordinates":[5.288533,52.162949]},"properties":{"type":"charge","layer":"passenger","locationId":"691b46ad1fbaaddb01a2bd99","name":"Koperwiek35","address":"Koperwiek 35","city":"Soest","operatorName":"E-Flux by Road","maxPowerKw":11,"isMegawatt":false,"status":"CHARGING","source":"ndw","priceKwh":0.33}},{"type":"Feature","geometry":{"type":"Point","coordinates":[5.282301,52.12391]},"properties":{"type":"charge","layer":"passenger","locationId":"7B07F6E2-1290-41DB-8E3C-A4021D2F5450","name":"PP005340 - Brievengaarder 11, Soesterberg","address":"11 Brievengaarder","city":"Soesterberg","operatorName":"TotalEnergies","maxPowerKw":11,"isMegawatt":false,"status":"AVAILABLE","source":"ndw"}},{"type":"Feature","geometry":{"type":"Point","coordinates":[5.301844,52.160187]},"properties":{"type":"charge","layer":"passenger","locationId":"85A5EFAD-0138-4D0E-9B35-8CC920149535","name":"PP005507 - Meidoornweg 5, Soest","address":"5 Meidoornweg","city":"Soest","operatorName":"TotalEnergies","maxPowerKw":11,"isMegawatt":false,"status":"AVAILABLE","source":"ndw"}},{"type":"Feature","geometry":{"type":"Point","coordinates":[5.29381,52.18847]},"properties":{"type":"charge","layer":"passenger","locationId":"ad431d42-5c56-43b9-a543-ff288d253bf2","name":"PP001263 - Wilgenblik 16, Soest","address":"16 Wilgenblik","city":"Soest","operatorName":"TotalEnergies","maxPowerKw":11,"isMegawatt":false,"status":"AVAILABLE","source":"ndw"}},{"type":"Feature","geometry":{"type":"Point","coordinates":[5.281154,52.124508]},"properties":{"type":"charge","layer":"passenger","locationId":"704E5557-1F06-4EFD-B729-A505E93E6EE4","name":"PP005487 - Posthoorn 15, Soesterberg","address":"15 Posthoorn","city":"Soesterberg","operatorName":"TotalEnergies","maxPowerKw":11,"isMegawatt":false,"status":"AVAILABLE","source":"ndw"}},{"type":"Feature","geometry":{"type":"Point","coordinates":[5.312442,52.17295]},"properties":{"type":"charge","layer":"passenger","locationId":"4E4F61DC-4DC3-4728-A9F2-D97A914602B1","name":"PP005339 - Kerkstraat 10, Soest","address":"10 Kerkstraat","city":"Soest","operatorName":"TotalEnergies","maxPowerKw":11,"isMegawatt":false,"status":"AVAILABLE","source":"ndw"}},{"type":"Feature","geometry":{"type":"Point","coordinates":[5.267524,52.17375]},"properties":{"type":"charge","layer":"passenger","locationId":"5F717F79-F625-4C91-AA2D-B622C5A153ED","name":"TNLP006530 - Hofstedering 327, Soest","address":"327 Hofstedering","city":"Soest","operatorName":"TotalEnergies","maxPowerKw":17,"isMegawatt":false,"status":"AVAILABLE","source":"ndw"}},{"type":"Feature","geometry":{"type":"Point","coordinates":[5.275709,52.182953]},"properties":{"type":"charge","layer":"passenger","locationId":"74703E80-83D0-460A-9098-AE09EE0F048C","name":"PP005501 - Thorbeckestraat 36, Soest","address":"36 Thorbeckestraat","city":"Soest","operatorName":"TotalEnergies","maxPowerKw":15,"isMegawatt":false,"status":"AVAILABLE","source":"ndw"}},{"type":"Feature","geometry":{"type":"Point","coordinates":[5.277965,52.164024]},"properties":{"type":"charge","layer":"passenger","locationId":"AEE4B781-4526-45F1-A093-07901390D880","name":"TNLP006169 - Patrijsgang 11, Soest","address":"11 Patrijsgang","city":"Soest","operatorName":"TotalEnergies","maxPowerKw":17,"isMegawatt":false,"status":"AVAILABLE","source":"ndw"}},{"type":"Feature","geometry":{"type":"Point","coordinates":[5.298417,52.120644]},"properties":{"type":"charge","layer":"passenger","locationId":"D9187DA4-2FCD-4AAD-A961-C16A1C66274D","name":"TNLP007130 - Frits Koolhovenweg 57, Soesterberg","address":"57 Frits Koolhovenweg","city":"Soesterberg","operatorName":"TotalEnergies","maxPowerKw":17,"isMegawatt":false,"status":"AVAILABLE","source":"ndw"}},{"type":"Feature","geometry":{"type":"Point","coordinates":[5.310484,52.174557]},"properties":{"type":"charge","layer":"passenger","locationId":"68A02A82-AD36-4602-A70A-623F452FFA61","name":"PP005482 - De Gouden Ploeg 13, Soest","address":"13 De Gouden Ploeg","city":"Soest","operatorName":"TotalEnergies","maxPowerKw":11,"isMegawatt":false,"status":"AVAILABLE","source":"ndw"}},{"type":"Feature","geometry":{"type":"Point","coordinates":[5.281134,52.18519]},"properties":{"type":"charge","layer":"passenger","locationId":"74D9F670-34FA-43D8-9436-E6074DAA4CCC","name":"PP005337 - Beetzlaan 1, Soest","address":"1 Beetzlaan","city":"Soest","operatorName":"TotalEnergies","maxPowerKw":11,"isMegawatt":false,"status":"AVAILABLE","source":"ndw"}},{"type":"Feature","geometry":{"type":"Point","coordinates":[5.284702,52.1157]},"properties":{"type":"charge","layer":"passenger","locationId":"95F8C281-8F0E-4365-A7F8-0FA3778707AC","name":"PP005342 - Buys Ballotlaan 17, Soesterberg","address":"17 Buys Ballotlaan","city":"Soesterberg","operatorName":"TotalEnergies","maxPowerKw":11,"isMegawatt":false,"status":"AVAILABLE","source":"ndw"}},{"type":"Feature","geometry":{"type":"Point","coordinates":[5.28623,52.191917]},"properties":{"type":"charge","layer":"passenger","locationId":"CDFC207F-AC74-4838-9591-BB19764606D3","name":"TNLP034517 - Colenso 114, Soest","address":"114 Colenso","city":"Soest","operatorName":"TotalEnergies","maxPowerKw":13,"isMegawatt":false,"status":"UNAVAILABLE","source":"ndw"}},{"type":"Feature","geometry":{"type":"Point","coordinates":[5.283184,52.156757]},"properties":{"type":"charge","layer":"passenger","locationId":"F54BBB6D-D085-4541-A2F6-CEE097846D06","name":"TNLP034380 - Wieksloterweg 10, Soest","address":"10 Wieksloterweg","city":"Soest","operatorName":"TotalEnergies","maxPowerKw":13,"isMegawatt":false,"status":"AVAILABLE","source":"ndw"}},{"type":"Feature","geometry":{"type":"Point","coordinates":[5.28159,52.16623]},"properties":{"type":"charge","layer":"passenger","locationId":"d85760f486971a6919f051d356955995","name":"Pijperpad 22","address":"Pijperpad 22","city":"Soest","operatorName":"Vattenfall InCharge","maxPowerKw":11,"isMegawatt":false,"status":"AVAILABLE","source":"ndw","priceKwh":0.2805}},{"type":"Feature","geometry":{"type":"Point","coordinates":[5.283805,52.167908]},"properties":{"type":"charge","layer":"passenger","locationId":"E654C956-180F-4D8F-9F3E-1C3F492276D8","name":"PP005540 - Minstreelpad 38, Soest","address":"38 Minstreelpad","city":"Soest","operatorName":"TotalEnergies","maxPowerKw":11,"isMegawatt":false,"status":"AVAILABLE","source":"ndw"}},{"type":"Feature","geometry":{"type":"Point","coordinates":[5.291421,52.16758]},"properties":{"type":"charge","layer":"passenger","locationId":"43a1e8a6-75df-471e-a1ef-7104d0247454","name":"TNLP034158 - Valeriaanstraat 145, Soest","address":"145 Valeriaanstraat","city":"Soest","operatorName":"TotalEnergies","maxPowerKw":13,"isMegawatt":false,"status":"AVAILABLE","source":"ndw"}},{"type":"Feature","geometry":{"type":"Point","coordinates":[5.293834,52.169921]},"properties":{"type":"charge","layer":"passenger","locationId":"e47477724f6a51236152ab73900075df","name":"Weegbreestraat 361","address":"Weegbreestraat 361","city":"Soest","operatorName":"Vattenfall InCharge","maxPowerKw":11,"isMegawatt":false,"status":"AVAILABLE","source":"ndw","priceKwh":0.2805}},{"type":"Feature","geometry":{"type":"Point","coordinates":[5.286162,52.17097]},"properties":{"type":"charge","layer":"passenger","locationId":"805F69C3-8284-413E-B8BF-74FF7655718A","name":"TNLP006396 - Ereprijsstraat 108, Soest","address":"108 Ereprijsstraat","city":"Soest","operatorName":"TotalEnergies","maxPowerKw":17,"isMegawatt":false,"status":"AVAILABLE","source":"ndw"}},{"type":"Feature","geometry":{"type":"Point","coordinates":[5.290031,52.164903]},"properties":{"type":"charge","layer":"passenger","locationId":"a1c85c2e5f2185244157a970439c0a0f","name":"Eigendomweg 101","address":"Eigendomweg 101","city":"Soest","operatorName":"Vattenfall InCharge","maxPowerKw":11,"isMegawatt":false,"status":"AVAILABLE","source":"ndw","priceKwh":0.2805}},{"type":"Feature","geometry":{"type":"Point","coordinates":[5.282853,52.117905]},"properties":{"type":"charge","layer":"passenger","locationId":"BFFCFD20-B2A6-4C94-9844-DA57FB767115","name":"TNLP005725 - Fokkerstraat 27, Soesterberg","address":"27 Fokkerstraat","city":"Soesterberg","operatorName":"TotalEnergies","maxPowerKw":11,"isMegawatt":false,"status":"AVAILABLE","source":"ndw"}},{"type":"Feature","geometry":{"type":"Point","coordinates":[5.28103,52.17429]},"properties":{"type":"charge","layer":"passenger","locationId":"36997AD2-29FB-4C31-BE45-1757BC275BDC","name":"PP005461 - Johannes Poststraat 3, Soest","address":"3 Johannes Poststraat","city":"Soest","operatorName":"TotalEnergies","maxPowerKw":11,"isMegawatt":false,"status":"AVAILABLE","source":"ndw"}},{"type":"Feature","geometry":{"type":"Point","coordinates":[5.285325,52.118843]},"properties":{"type":"charge","layer":"passenger","locationId":"3C393B5B-3D63-457C-82E5-134EB9778681","name":"TNLP006505 - Van Maarenplein 25, Soesterberg","address":"25 Van Maarenplein","city":"Soesterberg","operatorName":"TotalEnergies","maxPowerKw":17,"isMegawatt":false,"status":"AVAILABLE","source":"ndw"}},{"type":"Feature","geometry":{"type":"Point","coordinates":[5.281623,52.1828]},"properties":{"type":"charge","layer":"passenger","locationId":"A95F09E7-470C-40B8-88F6-17F47EA212CB","name":"TNLP007744 - Beetzlaan 46, Soest","address":"46 Beetzlaan","city":"Soest","operatorName":"TotalEnergies","maxPowerKw":17,"isMegawatt":false,"status":"CHARGING","source":"ndw"}},{"type":"Feature","geometry":{"type":"Point","coordinates":[5.272153,52.174076]},"properties":{"type":"charge","layer":"passenger","locationId":"516DC489-5567-47C0-9E61-85B47C0FAF42","name":"PP005166 - Disselboom 42-01, Soest","address":"42-01 Disselboom","city":"Soest","operatorName":"TotalEnergies","maxPowerKw":11,"isMegawatt":false,"status":"AVAILABLE","source":"ndw"}},{"type":"Feature","geometry":{"type":"Point","coordinates":[5.303634,52.17771]},"properties":{"type":"charge","layer":"passenger","locationId":"A28D14E7-1192-4050-8564-83A8118C5C7F","name":"TNLP009533 - van Goyenlaan 201, Soest","address":"201 van Goyenlaan","city":"Soest","operatorName":"TotalEnergies","maxPowerKw":17,"isMegawatt":false,"status":"CHARGING","source":"ndw"}},{"type":"Feature","geometry":{"type":"Point","coordinates":[5.301462,52.18444]},"properties":{"type":"charge","layer":"passenger","locationId":"A6A95EF6-EDF5-4F04-9474-D666C4870641","name":"PP005341 - Kerkpad NZ 22, Soest","address":"22 Kerkpad NZ","city":"Soest","operatorName":"TotalEnergies","maxPowerKw":11,"isMegawatt":false,"status":"AVAILABLE","source":"ndw"}},{"type":"Feature","geometry":{"type":"Point","coordinates":[5.287334,52.192142]},"properties":{"type":"charge","layer":"passenger","locationId":"87445979-BFB0-4A7F-97D2-0D589A38A23E","name":"TNLP007291 - Colenso 159, Soest","address":"159 Colenso","city":"Soest","operatorName":"TotalEnergies","maxPowerKw":17,"isMegawatt":false,"status":"UNAVAILABLE","source":"ndw"}},{"type":"Feature","geometry":{"type":"Point","coordinates":[5.295512,52.16595]},"properties":{"type":"charge","layer":"passenger","locationId":"98CF8DA5-C29A-49F1-918A-9502F7AD75E4","name":"TNLP008520 - Winterkoning 44, Soest","address":"44 Winterkoning","city":"Soest","operatorName":"TotalEnergies","maxPowerKw":13,"isMegawatt":false,"status":"AVAILABLE","source":"ndw"}},{"type":"Feature","geometry":{"type":"Point","coordinates":[5.280526,52.12523]},"properties":{"type":"charge","layer":"passenger","locationId":"C050109D-B0EC-4746-8707-2094D79CABC3","name":"PP005471 - Batenburgweg 5, Soesterberg","address":"5 Batenburgweg","city":"Soesterberg","operatorName":"TotalEnergies","maxPowerKw":11,"isMegawatt":false,"status":"AVAILABLE","source":"ndw"}},{"type":"Feature","geometry":{"type":"Point","coordinates":[5.288168,52.175766]},"properties":{"type":"charge","layer":"passenger","locationId":"D5BF26E8-5F92-46B0-9A16-B6E2B7724FB9","name":"TNLP007075 - Wijnand Toplaan 20, Soest","address":"20 Wijnand Toplaan","city":"Soest","operatorName":"TotalEnergies","maxPowerKw":17,"isMegawatt":false,"status":"AVAILABLE","source":"ndw"}},{"type":"Feature","geometry":{"type":"Point","coordinates":[5.280031,52.119728]},"properties":{"type":"charge","layer":"passenger","locationId":"02903CD6-6637-4701-B51C-7EC2E24FC4D7","name":"TNLP006317 - Rademakerstraat 48, Soesterberg","address":"48 Rademakerstraat","city":"Soesterberg","operatorName":"TotalEnergies","maxPowerKw":17,"isMegawatt":false,"status":"AVAILABLE","source":"ndw"}},{"type":"Feature","geometry":{"type":"Point","coordinates":[5.286499,52.179268]},"properties":{"type":"charge","layer":"passenger","locationId":"2B9AE861-54FE-4A8B-A282-F676D235537A","name":"TNLP005668 - Chalonhof 36, Soest","address":"36 Chalonhof","city":"Soest","operatorName":"TotalEnergies","maxPowerKw":11,"isMegawatt":false,"status":"UNAVAILABLE","source":"ndw"}},{"type":"Feature","geometry":{"type":"Point","coordinates":[5.295815,52.183008]},"properties":{"type":"charge","layer":"passenger","locationId":"91168826","name":"50five-S NL 17B29172","address":"Prins Bernhardlaan 26","city":"Soest","operatorName":"50five","maxPowerKw":11,"isMegawatt":false,"status":"AVAILABLE","source":"ndw"}},{"type":"Feature","geometry":{"type":"Point","coordinates":[5.280712,52.174267]},"properties":{"type":"charge","layer":"passenger","locationId":"0227A967-1947-4CB3-9F77-E96E378C85B0","name":"TNLP008429 - Johannes Poststraat 3a, Soest","address":"3a Johannes Poststraat","city":"Soest","operatorName":"TotalEnergies","maxPowerKw":13,"isMegawatt":false,"status":"AVAILABLE","source":"ndw"}},{"type":"Feature","geometry":{"type":"Point","coordinates":[5.283559,52.176175]},"properties":{"type":"charge","layer":"passenger","locationId":"2cdfad397e1afcb4ec73ef535d2e7913","name":"Willem Speelmanhof 1","address":"Willem Speelmanhof 1","city":"Soest","operatorName":"Vattenfall InCharge","maxPowerKw":11,"isMegawatt":false,"status":"AVAILABLE","source":"ndw","priceKwh":0.2805}},{"type":"Feature","geometry":{"type":"Point","coordinates":[5.282585,52.181283]},"properties":{"type":"charge","layer":"passenger","locationId":"2130dde8e48dcd0cc2ca3e24a7d4d801","name":"Schrikslaan 7","address":"Schrikslaan 7","city":"Soest","operatorName":"Vattenfall InCharge","maxPowerKw":11,"isMegawatt":false,"status":"AVAILABLE","source":"ndw","priceKwh":0.2805}},{"type":"Feature","geometry":{"type":"Point","coordinates":[5.302824,52.161585]},"properties":{"type":"charge","layer":"passenger","locationId":"15593ae8e1b1a6b17a0bbf31437b0d7f","name":"Sint Willibrordusstraat 10","address":"Sint Willibrordusstraat 10","city":"Soest","operatorName":"Vattenfall InCharge","maxPowerKw":11,"isMegawatt":false,"status":"AVAILABLE","source":"ndw","priceKwh":0.2805}},{"type":"Feature","geometry":{"type":"Point","coordinates":[5.287869,52.176391]},"properties":{"type":"charge","layer":"passenger","locationId":"9004993f96bb41498fbcde23c9d03af4","name":"Titus Brandsmastraat 35","address":"Titus Brandsmastraat 35","city":"Soest","operatorName":"Vattenfall InCharge","maxPowerKw":11,"isMegawatt":false,"status":"CHARGING","source":"ndw","priceKwh":0.2805}},{"type":"Feature","geometry":{"type":"MultiPolygon","coordinates":[[[[5.308791978423863,52.20454935291548],[5.310664549075889,52.203484574475624],[5.31218364408267,52.2042455871759],[5.313626044922806,52.20421993764007],[5.3142822056513115,52.20302349265915],[5.3093384848043,52.19472952749419],[5.310216751115579,52.192016826915975],[5.311640278694671,52.19103616806841],[5.314668203709814,52.19158449416879],[5.320682750944489,52.19022215917355],[5.323844745716889,52.18849619597171],[5.3246518360982265,52.18728942935198],[5.323696697723282,52.18258916739375],[5.326708730627505,52.18181171861278],[5.333563787729262,52.183174954107685],[5.336439842094033,52.182718360830535],[5.340663032266009,52.17818000806947],[5.344322068131943,52.17703829299848],[5.349897794050251,52.17560572693396],[5.349099983102453,52.17467870012258],[5.34992559844871,52.173857348502565],[5.348505959930018,52.17353134099924],[5.348683878860396,52.17295492129153],[5.347314938206908,52.17278557573433],[5.3468838664795495,52.17167992151025],[5.34761390711074,52.17072948572152],[5.344673694344059,52.16362890094233],[5.34348379939434,52.1602711570247],[5.338720341861913,52.160057121834114],[5.3363353323528715,52.146049495103185],[5.3363164419779086,52.14595145405417],[5.330643420374137,52.13570381244611],[5.332048852583973,52.133786906347375],[5.333851565586326,52.131345808178835],[5.331267718761736,52.126630630740436],[5.311582970597161,52.1141434254612],[5.306458375005827,52.110271768974265],[5.298965499790052,52.111800000550666],[5.294599207924281,52.11347425895429],[5.291802945078316,52.114538870063626],[5.290533388072204,52.11421291655793],[5.282212723719232,52.11208325630957],[5.277559807754134,52.11881919783418],[5.277146693538042,52.11945385991881],[5.274212776739274,52.12374042151384],[5.271935813239148,52.12704581980634],[5.264101489512795,52.1250803121389],[5.256183054239682,52.13637825551376],[5.255267040981744,52.13888556063464],[5.256421621303732,52.144056315596],[5.2563860458112,52.1441722163204],[5.254793723292914,52.14951633652394],[5.250994707375583,52.15634007363828],[5.249666186289253,52.158755954915414],[5.2431724698073,52.170076981348714],[5.246956651755834,52.174226391796815],[5.249259746914882,52.17573067902918],[5.2572301851339835,52.18087045912934],[5.262080715739358,52.18393929293777],[5.270215499566841,52.18852626143611],[5.281582975158751,52.19260917960677],[5.2823351269113825,52.19286170885897],[5.2824989556865525,52.192074909343916],[5.297119376013651,52.19750469856947],[5.297266721698095,52.197557975134536],[5.304017934865207,52.20001143736911],[5.308791978423863,52.20454935291548]]]]},"properties":{"type":"boundary","gemeente":"Soest","code":"GM0342"}}]}