{"type":"FeatureCollection","metadata":{"gemeente":"Stede Broec","slug":"stede-broec","code":"GM0532","generated_at":"2026-08-08T12:05:52.020Z","total_passenger":56,"total_freight":0,"bounds":[5.1853730941733085,52.67761344972595,5.259248539016487,52.71769631700166],"operators":["50five","DAEN Mobility","E-Flux by Road","PureCharged","TotalEnergies","Ubitricity","Vattenfall InCharge"]},"features":[{"type":"Feature","geometry":{"type":"Point","coordinates":[5.218608,52.70141]},"properties":{"type":"charge","layer":"passenger","locationId":"F560819D-CB96-4AA8-91DD-4D29BA19DD8E","name":"TNLP009525 - Renate Rubinsteinlaan 41, Grootebroek","address":"41 Renate Rubinsteinlaan","city":"Grootebroek","operatorName":"TotalEnergies","maxPowerKw":15,"isMegawatt":false,"status":"AVAILABLE","source":"ndw"}},{"type":"Feature","geometry":{"type":"Point","coordinates":[5.23838,52.68836]},"properties":{"type":"charge","layer":"passenger","locationId":"8A06ECF7-5884-4AED-9641-31BAD16163BC","name":"TNLP005905 - Princenhof 6, Bovenkarspel","address":"6 Princenhof","city":"Bovenkarspel","operatorName":"TotalEnergies","maxPowerKw":13,"isMegawatt":false,"status":"AVAILABLE","source":"ndw"}},{"type":"Feature","geometry":{"type":"Point","coordinates":[5.233316,52.691284]},"properties":{"type":"charge","layer":"passenger","locationId":"ED63BB63-65D4-4829-9379-7E295B2AE14B","name":"TNLP008495 - Graaf Willemstraat 324, Grootebroek","address":"324 Graaf Willemstraat","city":"Grootebroek","operatorName":"TotalEnergies","maxPowerKw":14,"isMegawatt":false,"status":"AVAILABLE","source":"ndw"}},{"type":"Feature","geometry":{"type":"Point","coordinates":[5.2501,52.69147]},"properties":{"type":"charge","layer":"passenger","locationId":"685","name":"Shell Recharge NL Madame Curiestraat 10","address":"Madame Curiestraat 10","city":"Bovenkarspel","operatorName":"Ubitricity","maxPowerKw":11,"isMegawatt":false,"status":"AVAILABLE","source":"ndw","priceKwh":0.392}},{"type":"Feature","geometry":{"type":"Point","coordinates":[5.21827,52.693217]},"properties":{"type":"charge","layer":"passenger","locationId":"923452","name":"DAE_NL_2000911","address":"Nijverheidsweg 1","city":"Grootebroek","operatorName":"DAEN Mobility","maxPowerKw":11,"isMegawatt":false,"status":"AVAILABLE","source":"ndw","priceKwh":0.29}},{"type":"Feature","geometry":{"type":"Point","coordinates":[5.25435,52.706331]},"properties":{"type":"charge","layer":"passenger","locationId":"68b56c38329e2b6065117183","name":"Camping de Gouwe Stek","address":"De Gouw 11","city":"Bovenkarspel","operatorName":"PureCharged","maxPowerKw":11,"isMegawatt":false,"status":"AVAILABLE","source":"ndw","priceKwh":0.58}},{"type":"Feature","geometry":{"type":"Point","coordinates":[5.24212,52.69572]},"properties":{"type":"charge","layer":"passenger","locationId":"624","name":"Shell Recharge NL Spoorsingel 108","address":"Spoorsingel 108","city":"Bovenkarspel","operatorName":"Ubitricity","maxPowerKw":11,"isMegawatt":false,"status":"AVAILABLE","source":"ndw","priceKwh":0.392}},{"type":"Feature","geometry":{"type":"Point","coordinates":[5.244945,52.700593]},"properties":{"type":"charge","layer":"passenger","locationId":"91096211","name":"50five-S NL ICUCOMPACT001709","address":"Hark 1","city":"Bovenkarspel","operatorName":"50five","maxPowerKw":4,"isMegawatt":false,"status":"UNAVAILABLE","source":"ndw"}},{"type":"Feature","geometry":{"type":"Point","coordinates":[5.216834,52.699905]},"properties":{"type":"charge","layer":"passenger","locationId":"13A6F2D4-A18F-4719-A934-4A4DE4781B63","name":"PP005448 - Annie M.G. Schmidtweg 10, Grootebroek","address":"10 Annie M.G. Schmidtweg","city":"Grootebroek","operatorName":"TotalEnergies","maxPowerKw":13,"isMegawatt":false,"status":"AVAILABLE","source":"ndw"}},{"type":"Feature","geometry":{"type":"Point","coordinates":[5.249829,52.709512]},"properties":{"type":"charge","layer":"passenger","locationId":"91230979","name":"50five-S NL 18B04392","address":"Veilingweg 1","city":"Bovenkarspel","operatorName":"50five","maxPowerKw":22,"isMegawatt":false,"status":"AVAILABLE","source":"ndw"}},{"type":"Feature","geometry":{"type":"Point","coordinates":[5.21648,52.687428]},"properties":{"type":"charge","layer":"passenger","locationId":"F3BE5961-DB2C-4CD4-9221-2251A5AF9FE3","name":"TNLP008310 - Eergetouw 7, Grootebroek","address":"7 Eergetouw","city":"Grootebroek","operatorName":"TotalEnergies","maxPowerKw":14,"isMegawatt":false,"status":"AVAILABLE","source":"ndw"}},{"type":"Feature","geometry":{"type":"Point","coordinates":[5.211998,52.69965]},"properties":{"type":"charge","layer":"passenger","locationId":"9AC6FBD1-0491-43DF-A6A0-1EAB51D63BB3","name":"TNLP008163 - Annie M.G. Schmidtweg 75, Grootebroek","address":"75 Annie M.G. Schmidtweg","city":"Grootebroek","operatorName":"TotalEnergies","maxPowerKw":15,"isMegawatt":false,"status":"AVAILABLE","source":"ndw"}},{"type":"Feature","geometry":{"type":"Point","coordinates":[5.226846,52.699764]},"properties":{"type":"charge","layer":"passenger","locationId":"551B9CC9-D8B2-4AA4-9006-855E3F5A1907","name":"PP005162 - Beukenlaan 68, Grootebroek","address":"68 Beukenlaan","city":"Grootebroek","operatorName":"TotalEnergies","maxPowerKw":13,"isMegawatt":false,"status":"AVAILABLE","source":"ndw"}},{"type":"Feature","geometry":{"type":"Point","coordinates":[5.2418948,52.6893429]},"properties":{"type":"charge","layer":"passenger","locationId":"899","name":"Shell Recharge NL Hertog Albrechtstraat 36","address":"Hertog Albrechtstraat 36","city":"Bovenkarspel","operatorName":"Ubitricity","maxPowerKw":22,"isMegawatt":false,"status":"AVAILABLE","source":"ndw","priceKwh":0.267}},{"type":"Feature","geometry":{"type":"Point","coordinates":[5.20408,52.69654]},"properties":{"type":"charge","layer":"passenger","locationId":"4D205285-69FB-438D-8A7E-A9F2A6174D6B","name":"PP004259 - Asterlaan 1, Lutjebroek","address":"1 Asterlaan","city":"Lutjebroek","operatorName":"TotalEnergies","maxPowerKw":15,"isMegawatt":false,"status":"AVAILABLE","source":"ndw"}},{"type":"Feature","geometry":{"type":"Point","coordinates":[5.246041,52.690867]},"properties":{"type":"charge","layer":"passenger","locationId":"b23c8055330de58d5bc2d632ab4f119a","name":"Piet van Egmondweg 2","address":"Piet van Egmondweg 2","city":"Bovenkarspel","operatorName":"Vattenfall InCharge","maxPowerKw":11,"isMegawatt":false,"status":"CHARGING","source":"ndw","priceKwh":0.2805}},{"type":"Feature","geometry":{"type":"Point","coordinates":[5.254392,52.69921]},"properties":{"type":"charge","layer":"passenger","locationId":"CE77C333-7FF2-4673-89D8-A07F690D29E9","name":"TNLP009078 - Hoofdstraat 278, Bovenkarspel","address":"278 Hoofdstraat","city":"Bovenkarspel","operatorName":"TotalEnergies","maxPowerKw":15,"isMegawatt":false,"status":"AVAILABLE","source":"ndw"}},{"type":"Feature","geometry":{"type":"Point","coordinates":[5.251891,52.689674]},"properties":{"type":"charge","layer":"passenger","locationId":"CFC51885-27ED-4363-AB3B-A019181D3DE0","name":"TNLP034006 - Oranje Nassaustraat 25, Bovenkarspel","address":"25 Oranje Nassaustraat","city":"Bovenkarspel","operatorName":"TotalEnergies","maxPowerKw":13,"isMegawatt":false,"status":"UNAVAILABLE","source":"ndw"}},{"type":"Feature","geometry":{"type":"Point","coordinates":[5.23791,52.69538]},"properties":{"type":"charge","layer":"passenger","locationId":"C0437DE1-22A1-41A8-B5B3-EE858FE9F21C","name":"TNLP003586 - Middenweg 2, Bovenkarspel","address":"2 Middenweg","city":"Bovenkarspel","operatorName":"TotalEnergies","maxPowerKw":17,"isMegawatt":false,"status":"AVAILABLE","source":"ndw"}},{"type":"Feature","geometry":{"type":"Point","coordinates":[5.219785,52.696974]},"properties":{"type":"charge","layer":"passenger","locationId":"6974c103b4dcdbae8ecdcb54","name":"RuvaVo Beheer","address":"Burgemeester Schrijnderlaan 6","city":"Grootebroek","operatorName":"E-Flux by Road","maxPowerKw":11,"isMegawatt":false,"status":"AVAILABLE","source":"ndw","priceKwh":0.57}},{"type":"Feature","geometry":{"type":"Point","coordinates":[5.228032,52.693712]},"properties":{"type":"charge","layer":"passenger","locationId":"6322f9fbc6795540ed655ecb","name":"Auto Totaal","address":"Industrieweg 15e","city":"Grootebroek","operatorName":"E-Flux by Road","maxPowerKw":22,"isMegawatt":false,"status":"AVAILABLE","source":"ndw","priceKwh":0.48}},{"type":"Feature","geometry":{"type":"Point","coordinates":[5.223135,52.699165]},"properties":{"type":"charge","layer":"passenger","locationId":"91059010","name":"50five-S NL 07101151","address":"Nuwendoorn 10","city":"Grootebroek","operatorName":"50five","maxPowerKw":14,"isMegawatt":false,"status":"AVAILABLE","source":"ndw"}},{"type":"Feature","geometry":{"type":"Point","coordinates":[5.221263,52.6911371]},"properties":{"type":"charge","layer":"passenger","locationId":"1902","name":"Shell Recharge NL Abdij 4","address":"Abdij 4","city":"Grootebroek","operatorName":"Ubitricity","maxPowerKw":22,"isMegawatt":false,"status":"AVAILABLE","source":"ndw","priceKwh":0.267}},{"type":"Feature","geometry":{"type":"Point","coordinates":[5.2340754,52.6881347]},"properties":{"type":"charge","layer":"passenger","locationId":"1132","name":"Shell Recharge NL Hertog Albrechtstraat 328","address":"Hertog Albrechtstraat 328","city":"Grootebroek","operatorName":"Ubitricity","maxPowerKw":22,"isMegawatt":false,"status":"AVAILABLE","source":"ndw","priceKwh":0.267}},{"type":"Feature","geometry":{"type":"Point","coordinates":[5.248247,52.692522]},"properties":{"type":"charge","layer":"passenger","locationId":"5f0e471cb9094c423cfc500c150cfb46","name":"Krelagehof 26","address":"Krelagehof 26","city":"Bovenkarspel","operatorName":"Vattenfall InCharge","maxPowerKw":11,"isMegawatt":false,"status":"AVAILABLE","source":"ndw","priceKwh":0.2805}},{"type":"Feature","geometry":{"type":"Point","coordinates":[5.2326681,52.6987471]},"properties":{"type":"charge","layer":"passenger","locationId":"2345","name":"Shell Recharge NL De Tuin 1","address":"De Tuin 1","city":"Bovenkarspel","operatorName":"Ubitricity","maxPowerKw":22,"isMegawatt":false,"status":"AVAILABLE","source":"ndw","priceKwh":0.267}},{"type":"Feature","geometry":{"type":"Point","coordinates":[5.253849,52.690001]},"properties":{"type":"charge","layer":"passenger","locationId":"91054837","name":"50five-S NL 07000178","address":"Houtstraat 20","city":"Bovenkarspel","operatorName":"50five","maxPowerKw":11,"isMegawatt":false,"status":"AVAILABLE","source":"ndw"}},{"type":"Feature","geometry":{"type":"Point","coordinates":[5.217973,52.686222]},"properties":{"type":"charge","layer":"passenger","locationId":"9CC16467-47E5-495D-B0BF-005A8BDA53BB","name":"TNLP007350 - Huisplaats 30, Grootebroek","address":"30 Huisplaats","city":"Grootebroek","operatorName":"TotalEnergies","maxPowerKw":13,"isMegawatt":false,"status":"AVAILABLE","source":"ndw"}},{"type":"Feature","geometry":{"type":"Point","coordinates":[5.222471,52.68704]},"properties":{"type":"charge","layer":"passenger","locationId":"3A9E06EF-FE7F-44F0-8D96-65C5D0822811","name":"TNLP009717 - Koorkap 19, Grootebroek","address":"19 Koorkap","city":"Grootebroek","operatorName":"TotalEnergies","maxPowerKw":15,"isMegawatt":false,"status":"UNAVAILABLE","source":"ndw"}},{"type":"Feature","geometry":{"type":"Point","coordinates":[5.218856,52.685681]},"properties":{"type":"charge","layer":"passenger","locationId":"90836217","name":"50five Dirk Meilink","address":"Huisplaats 25","city":"Grootebroek","operatorName":"50five","maxPowerKw":14,"isMegawatt":false,"status":"AVAILABLE","source":"ndw"}},{"type":"Feature","geometry":{"type":"Point","coordinates":[5.230834,52.687634]},"properties":{"type":"charge","layer":"passenger","locationId":"4CF54D3D-03EE-40A1-8B85-7D99806AEDEE","name":"TNLP008187 - Waterrad 5, Grootebroek","address":"5 Waterrad","city":"Grootebroek","operatorName":"TotalEnergies","maxPowerKw":15,"isMegawatt":false,"status":"AVAILABLE","source":"ndw"}},{"type":"Feature","geometry":{"type":"Point","coordinates":[5.23061,52.69545]},"properties":{"type":"charge","layer":"passenger","locationId":"51786b8466fdb5f8db54548a6fadb6b7","name":"Rigtershof 197","address":"Rigtershof 197","city":"Grootebroek","operatorName":"Vattenfall InCharge","maxPowerKw":11,"isMegawatt":false,"status":"AVAILABLE","source":"ndw","priceKwh":0.2805}},{"type":"Feature","geometry":{"type":"Point","coordinates":[5.208277,52.696743]},"properties":{"type":"charge","layer":"passenger","locationId":"CCD46D02-8AFD-4040-9B68-A91C1BA30735","name":"TNLP009581 - Pastoor Gielenstraat 26a, Lutjebroek","address":"26a Pastoor Gielenstraat","city":"Lutjebroek","operatorName":"TotalEnergies","maxPowerKw":15,"isMegawatt":false,"status":"UNAVAILABLE","source":"ndw"}},{"type":"Feature","geometry":{"type":"Point","coordinates":[5.2268,52.69103]},"properties":{"type":"charge","layer":"passenger","locationId":"721","name":"Shell Recharge NL Overstort 69","address":"Overstort 69","city":"Grootebroek","operatorName":"Ubitricity","maxPowerKw":11,"isMegawatt":false,"status":"AVAILABLE","source":"ndw","priceKwh":0.392}},{"type":"Feature","geometry":{"type":"Point","coordinates":[5.22587,52.69589]},"properties":{"type":"charge","layer":"passenger","locationId":"AD46BDD5-9C11-46E5-BC24-28FE3BD0FAC1","name":"TNLP008642 - Waterhoen 35, Grootebroek","address":"35 Waterhoen","city":"Grootebroek","operatorName":"TotalEnergies","maxPowerKw":14,"isMegawatt":false,"status":"AVAILABLE","source":"ndw"}},{"type":"Feature","geometry":{"type":"Point","coordinates":[5.2357019,52.6999683]},"properties":{"type":"charge","layer":"passenger","locationId":"1064","name":"Shell Recharge NL Het Bunder 35","address":"Het Bunder 35","city":"Bovenkarspel","operatorName":"Ubitricity","maxPowerKw":22,"isMegawatt":false,"status":"AVAILABLE","source":"ndw","priceKwh":0.267}},{"type":"Feature","geometry":{"type":"Point","coordinates":[5.253145,52.695866]},"properties":{"type":"charge","layer":"passenger","locationId":"671FFC0C-85DA-47C3-B436-971CD4F9A4C5","name":"TNLP009075 - Burgemeester van Bredastraat 9, Bovenkarspel","address":"9 Burgemeester van Bredastraat","city":"Bovenkarspel","operatorName":"TotalEnergies","maxPowerKw":15,"isMegawatt":false,"status":"UNAVAILABLE","source":"ndw"}},{"type":"Feature","geometry":{"type":"Point","coordinates":[5.211665,52.702065]},"properties":{"type":"charge","layer":"passenger","locationId":"1D5F4F5E-793C-4449-88A1-28E16817B267","name":"PP005039 - Theo Thijssenweg 28, Grootebroek","address":"28 Theo Thijssenweg","city":"Grootebroek","operatorName":"TotalEnergies","maxPowerKw":15,"isMegawatt":false,"status":"AVAILABLE","source":"ndw"}},{"type":"Feature","geometry":{"type":"Point","coordinates":[5.226674,52.686613]},"properties":{"type":"charge","layer":"passenger","locationId":"1028","name":"Shell Recharge NL Schouwwagen 22","address":"Schouwwagen 22","city":"Grootebroek","operatorName":"Ubitricity","maxPowerKw":22,"isMegawatt":false,"status":"AVAILABLE","source":"ndw","priceKwh":0.267}},{"type":"Feature","geometry":{"type":"Point","coordinates":[5.215925,52.692444]},"properties":{"type":"charge","layer":"passenger","locationId":"D8D8D98B-42E7-4929-831D-D6C52C6BB38A","name":"TNLP034267 - Raadhuislaan 16, Grootebroek","address":"16 Raadhuislaan","city":"Grootebroek","operatorName":"TotalEnergies","maxPowerKw":13,"isMegawatt":false,"status":"UNAVAILABLE","source":"ndw"}},{"type":"Feature","geometry":{"type":"Point","coordinates":[5.24692,52.69125]},"properties":{"type":"charge","layer":"passenger","locationId":"9A51B7B1-6B00-494E-9476-8103B6D12354","name":"PP004257 - Boerhaaveplein 6, Bovenkarspel","address":"6 Boerhaaveplein","city":"Bovenkarspel","operatorName":"TotalEnergies","maxPowerKw":13,"isMegawatt":false,"status":"AVAILABLE","source":"ndw"}},{"type":"Feature","geometry":{"type":"Point","coordinates":[5.222442,52.696476]},"properties":{"type":"charge","layer":"passenger","locationId":"10DEFC22-6665-4789-8F63-6A667B0D8800","name":"TNLP009606 - Sint Elisabethstraat 16, Grootebroek","address":"16 Sint Elisabethstraat","city":"Grootebroek","operatorName":"TotalEnergies","maxPowerKw":15,"isMegawatt":false,"status":"AVAILABLE","source":"ndw"}},{"type":"Feature","geometry":{"type":"Point","coordinates":[5.23821,52.69868]},"properties":{"type":"charge","layer":"passenger","locationId":"16C6C6F7-E358-4F10-901C-25939BE399E6","name":"PP004303 - Juk 5, Bovenkarspel","address":"5 Juk","city":"Bovenkarspel","operatorName":"TotalEnergies","maxPowerKw":13,"isMegawatt":false,"status":"UNAVAILABLE","source":"ndw"}},{"type":"Feature","geometry":{"type":"Point","coordinates":[5.248986,52.696823]},"properties":{"type":"charge","layer":"passenger","locationId":"166A400F-F17C-4744-B794-BB8B10A1505D","name":"TNLP034022 - Outger Jacobszstraat 38, Bovenkarspel","address":"38 Outger Jacobszstraat","city":"Bovenkarspel","operatorName":"TotalEnergies","maxPowerKw":13,"isMegawatt":false,"status":"UNAVAILABLE","source":"ndw"}},{"type":"Feature","geometry":{"type":"Point","coordinates":[5.215332,52.697567]},"properties":{"type":"charge","layer":"passenger","locationId":"D51C2263-8085-45E9-8FE9-724BF539ABC4","name":"TNLP008468 - Zesstedenweg 223, Grootebroek","address":"223 Zesstedenweg","city":"Grootebroek","operatorName":"TotalEnergies","maxPowerKw":14,"isMegawatt":false,"status":"AVAILABLE","source":"ndw"}},{"type":"Feature","geometry":{"type":"Point","coordinates":[5.231445,52.691563]},"properties":{"type":"charge","layer":"passenger","locationId":"97C741CE-EFBE-403E-A091-5F4A5C8E8F47","name":"TNLP009517 - Gemaal 30, Grootebroek","address":"30 Gemaal","city":"Grootebroek","operatorName":"TotalEnergies","maxPowerKw":15,"isMegawatt":false,"status":"UNAVAILABLE","source":"ndw"}},{"type":"Feature","geometry":{"type":"Point","coordinates":[5.223522,52.68821]},"properties":{"type":"charge","layer":"passenger","locationId":"8F32510A-58F3-418F-A7B0-119CB995AD24","name":"TNLP009600 - Kruisgang 30, Grootebroek","address":"30 Kruisgang","city":"Grootebroek","operatorName":"TotalEnergies","maxPowerKw":13,"isMegawatt":false,"status":"CHARGING","source":"ndw"}},{"type":"Feature","geometry":{"type":"Point","coordinates":[5.250468,52.697887]},"properties":{"type":"charge","layer":"passenger","locationId":"A7B7E3DB-F693-48BA-8ABA-19B5674363AA","name":"TNLP015418 - Raadhuisplein 9, Bovenkarspel","address":"9 Raadhuisplein","city":"Bovenkarspel","operatorName":"TotalEnergies","maxPowerKw":17,"isMegawatt":false,"status":"UNAVAILABLE","source":"ndw"}},{"type":"Feature","geometry":{"type":"Point","coordinates":[5.243193,52.6919]},"properties":{"type":"charge","layer":"passenger","locationId":"B3851AE6-81E3-4D29-86C3-83E636D8EB88","name":"TNLP006314 - Houtzaagmolensingel 2, Bovenkarspel","address":"2 Houtzaagmolensingel","city":"Bovenkarspel","operatorName":"TotalEnergies","maxPowerKw":13,"isMegawatt":false,"status":"AVAILABLE","source":"ndw"}},{"type":"Feature","geometry":{"type":"Point","coordinates":[5.204097,52.698937]},"properties":{"type":"charge","layer":"passenger","locationId":"687fcd36dcbb2076ea6b937e","name":"Bureau KB","address":"Odulphushof 9","city":"Lutjebroek","operatorName":"E-Flux by Road","maxPowerKw":22,"isMegawatt":false,"status":"CHARGING","source":"ndw","priceKwh":0.47}},{"type":"Feature","geometry":{"type":"Point","coordinates":[5.245498,52.694412]},"properties":{"type":"charge","layer":"passenger","locationId":"5f42efb0524e4f34b445cad0812cd9a1","name":"Korenmolenlaan 48","address":"Korenmolenlaan 48","city":"Bovenkarspel","operatorName":"Vattenfall InCharge","maxPowerKw":11,"isMegawatt":false,"status":"AVAILABLE","source":"ndw","priceKwh":0.2805}},{"type":"Feature","geometry":{"type":"Point","coordinates":[5.24966,52.69447]},"properties":{"type":"charge","layer":"passenger","locationId":"2E70D762-E7B6-4BF5-899D-7A33FA981EC4","name":"PP005075 - Keizerskroonweg 39, Bovenkarspel","address":"39 Keizerskroonweg","city":"Bovenkarspel","operatorName":"TotalEnergies","maxPowerKw":13,"isMegawatt":false,"status":"AVAILABLE","source":"ndw"}},{"type":"Feature","geometry":{"type":"Point","coordinates":[5.237635,52.696682]},"properties":{"type":"charge","layer":"passenger","locationId":"458DFBC2-EA0C-4F1F-8B00-A909B306FF81","name":"TNLP009871 - Zonnedauw 10, Bovenkarspel","address":"10 Zonnedauw","city":"Bovenkarspel","operatorName":"TotalEnergies","maxPowerKw":17,"isMegawatt":false,"status":"UNAVAILABLE","source":"ndw"}},{"type":"Feature","geometry":{"type":"Point","coordinates":[5.231111,52.698757]},"properties":{"type":"charge","layer":"passenger","locationId":"E4C0E490-6561-47A3-8DBA-92BB9341A3FA","name":"TNLP009386 - Esdoornlaan 9, Grootebroek","address":"9 Esdoornlaan","city":"Grootebroek","operatorName":"TotalEnergies","maxPowerKw":15,"isMegawatt":false,"status":"AVAILABLE","source":"ndw"}},{"type":"Feature","geometry":{"type":"Point","coordinates":[5.239563,52.689606]},"properties":{"type":"charge","layer":"passenger","locationId":"5BEF20FE-8E24-4D6D-B60D-7529C49E9799","name":"TNLP005809 - Bourgondiëweg 133, Bovenkarspel","address":"133 Bourgondiëweg","city":"Bovenkarspel","operatorName":"TotalEnergies","maxPowerKw":15,"isMegawatt":false,"status":"UNAVAILABLE","source":"ndw"}},{"type":"Feature","geometry":{"type":"Point","coordinates":[5.230679,52.693195]},"properties":{"type":"charge","layer":"passenger","locationId":"d59943ccd3c7c1556e21cc7ae911b192","name":"Industrieweg 37","address":"Industrieweg 37","city":"Grootebroek","operatorName":"Vattenfall InCharge","maxPowerKw":11,"isMegawatt":false,"status":"AVAILABLE","source":"ndw","priceKwh":0.2805}},{"type":"Feature","geometry":{"type":"MultiPolygon","coordinates":[[[[5.256724411280559,52.68671282989687],[5.256363866607332,52.686011526809914],[5.254265300561373,52.68665657461468],[5.246480051971645,52.68551182985405],[5.246055887796709,52.68584370076229],[5.246017101006418,52.686393110507375],[5.243421206028294,52.68624347528763],[5.235432526192401,52.68602905205993],[5.233168850254991,52.68589901996744],[5.224861327094485,52.68523648788418],[5.215235838779568,52.68442191079532],[5.214435221543939,52.68434619092658],[5.208790128931569,52.68380904045498],[5.206231240645117,52.68259433131849],[5.2046996984105744,52.67794038948038],[5.204594768582464,52.67761344972595],[5.195694510066434,52.69221464737095],[5.195999267001417,52.692277363473195],[5.195805348449234,52.69260806566132],[5.195729940691309,52.692746652114295],[5.1934362871273665,52.69659427381794],[5.192766143140535,52.69784350123337],[5.190337263530942,52.70190289034105],[5.190246904630498,52.702056793577874],[5.1870227804555125,52.70745171884734],[5.1853730941733085,52.71022801200596],[5.210385501060325,52.716776213851595],[5.220133451938406,52.71769631700166],[5.230251086423487,52.717369801142944],[5.2575015871224995,52.716180698842685],[5.258158440555373,52.70904785232171],[5.258459810462873,52.70470089619539],[5.258743084381224,52.7006880683817],[5.258956767374656,52.69675557772649],[5.258959209113196,52.696616078753664],[5.258979874171352,52.695956735304016],[5.259248539016487,52.68690538523413],[5.256724411280559,52.68671282989687]]]]},"properties":{"type":"boundary","gemeente":"Stede Broec","code":"GM0532"}}]}