{"type":"FeatureCollection","metadata":{"gemeente":"Veendam","slug":"veendam","code":"GM0047","generated_at":"2026-08-08T12:05:52.020Z","total_passenger":21,"total_freight":0,"bounds":[6.80167376014822,53.03240787669624,6.961734843129465,53.12883304126793],"operators":["50five","Allego","DAEN Mobility","E-Flux by Road","Eneco","Laadnet","PowerGo","Shell Recharge"]},"features":[{"type":"Feature","geometry":{"type":"Point","coordinates":[6.892183,53.118477]},"properties":{"type":"charge","layer":"passenger","locationId":"B05AEF47-A9E2-4136-9725-9830E47C1FA7","name":"Eneco eMobility Transportweg 62 Veendam","address":"Transportweg 62","city":"Veendam","operatorName":"Eneco","maxPowerKw":22,"isMegawatt":false,"status":"UNAVAILABLE","source":"ndw","priceKwh":0.32}},{"type":"Feature","geometry":{"type":"Point","coordinates":[6.8493242,53.1066894]},"properties":{"type":"charge","layer":"passenger","locationId":"13746","name":"The Ranch Veendam (PowerGo)","address":"Parkweg 1","city":"Veendam","operatorName":"PowerGo","maxPowerKw":30,"isMegawatt":false,"status":"AVAILABLE","source":"ndw","priceKwh":0.6}},{"type":"Feature","geometry":{"type":"Point","coordinates":[6.856109,53.085351]},"properties":{"type":"charge","layer":"passenger","locationId":"91148355","name":"50five-S NL 07004005","address":"Brilduiker 28","city":"Wildervank","operatorName":"50five","maxPowerKw":22,"isMegawatt":false,"status":"CHARGING","source":"ndw"}},{"type":"Feature","geometry":{"type":"Point","coordinates":[6.834809,53.096204]},"properties":{"type":"charge","layer":"passenger","locationId":"91069607","name":"50five-S NL 07006480","address":"Borgercompagnie 239","city":"Borgercompagnie","operatorName":"50five","maxPowerKw":11,"isMegawatt":false,"status":"CHARGING","source":"ndw"}},{"type":"Feature","geometry":{"type":"Point","coordinates":[6.889149,53.110299]},"properties":{"type":"charge","layer":"passenger","locationId":"4964","name":"Shell Recharge NL9183 - Gamma Veendam","address":"Lloydsweg 11","city":"Veendam","operatorName":"Shell Recharge","maxPowerKw":150,"isMegawatt":false,"status":"AVAILABLE","source":"ndw","priceKwh":0.7025}},{"type":"Feature","geometry":{"type":"Point","coordinates":[6.890405,53.109525]},"properties":{"type":"charge","layer":"passenger","locationId":"E026518C-A607-458E-868A-1D625EDB521A","name":"Eneco eMobility Hanab Veendam","address":"Transportweg 2","city":"Veendam","operatorName":"Eneco","maxPowerKw":22,"isMegawatt":false,"status":"AVAILABLE","source":"ndw","priceKwh":0.33}},{"type":"Feature","geometry":{"type":"Point","coordinates":[6.89756,53.092807]},"properties":{"type":"charge","layer":"passenger","locationId":"923453","name":"DAE-NL-2000083","address":"Ommelanderwijk 8","city":"Veendam","operatorName":"DAEN Mobility","maxPowerKw":22,"isMegawatt":false,"status":"AVAILABLE","source":"ndw","priceKwh":0.29}},{"type":"Feature","geometry":{"type":"Point","coordinates":[6.882955,53.105275]},"properties":{"type":"charge","layer":"passenger","locationId":"644b883510ac350012bc631a","name":"Alpha Holding 2e","address":"Pieter Sneeuwplein  12","city":"Veendam","operatorName":"E-Flux by Road","maxPowerKw":11,"isMegawatt":false,"status":"AVAILABLE","source":"ndw","priceKwh":0.53}},{"type":"Feature","geometry":{"type":"Point","coordinates":[6.8696,53.10572]},"properties":{"type":"charge","layer":"passenger","locationId":"B977F1D9-5DC9-4A8E-87B7-00A59A4018A8","name":"Eneco eMobility ING Bank KRB, Prinsentuin 1, Veendam","address":"Prinsentuin 1","city":"Veendam","operatorName":"Eneco","maxPowerKw":22,"isMegawatt":false,"status":"AVAILABLE","source":"ndw","priceKwh":0.3}},{"type":"Feature","geometry":{"type":"Point","coordinates":[6.887279,53.102156]},"properties":{"type":"charge","layer":"passenger","locationId":"7A77903B-E389-4040-8885-385F3CBB3B15","name":"Eneco eMobility Broekhuis Volvo Veendam","address":"Van Stolbergweg 40","city":"Veendam","operatorName":"Eneco","maxPowerKw":11,"isMegawatt":false,"status":"CHARGING","source":"ndw","priceKwh":0.32}},{"type":"Feature","geometry":{"type":"Point","coordinates":[6.869158,53.109006]},"properties":{"type":"charge","layer":"passenger","locationId":"66f29b865adfd5001c64778b","name":"Privé Dick Smid","address":"Smaragdlaan 5","city":"Veendam","operatorName":"E-Flux by Road","maxPowerKw":22,"isMegawatt":false,"status":"CHARGING","source":"ndw","priceKwh":0.43}},{"type":"Feature","geometry":{"type":"Point","coordinates":[6.872412,53.114236]},"properties":{"type":"charge","layer":"passenger","locationId":"4299190","name":"Laadnet Beneden Westerdiep 32","address":"Beneden Westerdiep 32","city":"Veendam","operatorName":"Laadnet","maxPowerKw":22,"isMegawatt":false,"status":"CHARGING","source":"ndw"}},{"type":"Feature","geometry":{"type":"Point","coordinates":[6.858716,53.093632]},"properties":{"type":"charge","layer":"passenger","locationId":"NLLOC018087","name":"NL, Noordenveld 4, 9642GG, Veendam","address":"Noordenveld 4","city":"Veendam","operatorName":"Allego","maxPowerKw":11,"isMegawatt":false,"status":"AVAILABLE","source":"ndw","priceKwh":0.407}},{"type":"Feature","geometry":{"type":"Point","coordinates":[6.890042,53.112656]},"properties":{"type":"charge","layer":"passenger","locationId":"91094067","name":"50five-S NL ICUCOMPACT002246","address":"Transportweg 11","city":"Veendam","operatorName":"50five","maxPowerKw":22,"isMegawatt":false,"status":"UNAVAILABLE","source":"ndw"}},{"type":"Feature","geometry":{"type":"Point","coordinates":[6.859087,53.090127]},"properties":{"type":"charge","layer":"passenger","locationId":"NLLOC025899","name":"NL, Elshof 12, 9642 HM Veendam","address":"Elshof 12","city":"Veendam","operatorName":"Allego","maxPowerKw":11,"isMegawatt":false,"status":"AVAILABLE","source":"ndw","priceKwh":0.407}},{"type":"Feature","geometry":{"type":"Point","coordinates":[6.865422,53.085825]},"properties":{"type":"charge","layer":"passenger","locationId":"NLLOC006670","name":"NL, Apollolaan 15, 9648ck, Wildervank","address":"Apollolaan 15","city":"Wildervank","operatorName":"Allego","maxPowerKw":11,"isMegawatt":false,"status":"AVAILABLE","source":"ndw","priceKwh":0.407}},{"type":"Feature","geometry":{"type":"Point","coordinates":[6.877698,53.112368]},"properties":{"type":"charge","layer":"passenger","locationId":"NLLOC024616","name":"NL, Brink 8, 9645 NM Veendam","address":"Brink 8","city":"Veendam","operatorName":"Allego","maxPowerKw":11,"isMegawatt":false,"status":"AVAILABLE","source":"ndw","priceKwh":0.407}},{"type":"Feature","geometry":{"type":"Point","coordinates":[6.883911,53.107651]},"properties":{"type":"charge","layer":"passenger","locationId":"NLLOC009396","name":"NLD, Beneden Oosterdiep 87, 9641JB Veendam","address":"Beneden Oosterdiep 87","city":"Veendam","operatorName":"Allego","maxPowerKw":11,"isMegawatt":false,"status":"AVAILABLE","source":"ndw","priceKwh":0.407}},{"type":"Feature","geometry":{"type":"Point","coordinates":[6.867321,53.097084]},"properties":{"type":"charge","layer":"passenger","locationId":"NLLOC027046","name":"NL, Lubecker Bocht 12, 9642CP, Veendam","address":"Lubecker Bocht 12","city":"Veendam","operatorName":"Allego","maxPowerKw":11,"isMegawatt":false,"status":"AVAILABLE","source":"ndw","priceKwh":0.407}},{"type":"Feature","geometry":{"type":"Point","coordinates":[6.882955,53.105275]},"properties":{"type":"charge","layer":"passenger","locationId":"6449237e300da1001201122a","name":"Alpha Holding 1e","address":"Pieter Sneeuwplein  12","city":"Veendam","operatorName":"E-Flux by Road","maxPowerKw":11,"isMegawatt":false,"status":"AVAILABLE","source":"ndw","priceKwh":0.53}},{"type":"Feature","geometry":{"type":"Point","coordinates":[6.888372,53.109535]},"properties":{"type":"charge","layer":"passenger","locationId":"NLLOC016627","name":"NL, Tijdensstraat 2, 9641 CC Veendam","address":"Tijdensstraat 2","city":"Veendam","operatorName":"Allego","maxPowerKw":11,"isMegawatt":false,"status":"AVAILABLE","source":"ndw","priceKwh":0.407}},{"type":"Feature","geometry":{"type":"MultiPolygon","coordinates":[[[[6.899626888955775,53.12807496050203],[6.934801040341775,53.124144089879465],[6.949835224641686,53.1211704809176],[6.9593386151232615,53.12017758736349],[6.961734843129465,53.11002298080527],[6.96078451595888,53.09743187912793],[6.960597858037982,53.09580298829076],[6.959381835956136,53.094938359898556],[6.958397008612069,53.09526832959427],[6.957951279428751,53.09435649735948],[6.95689061692459,53.09471229703337],[6.955409293386203,53.09327250800733],[6.943836279419047,53.081915762036076],[6.936892980176925,53.07742345191492],[6.93059442864771,53.07285317336055],[6.929605938224687,53.07336559013501],[6.9290942114834975,53.071830633062696],[6.924440486543673,53.05777895679972],[6.933021928635513,53.05358926483296],[6.933343582005365,53.04961425711573],[6.91990496360395,53.049313637144394],[6.920629187696382,53.04525654030481],[6.905525020283459,53.04363095511507],[6.907702777935259,53.03888239720366],[6.901891466845637,53.03554499957966],[6.903334103158908,53.034366472776796],[6.898931090341661,53.03240787669624],[6.881443419525738,53.046620259695096],[6.868641304863206,53.041285574922355],[6.8654947128740735,53.04289816926448],[6.865103615827142,53.042809298236975],[6.861287460073183,53.04087542218978],[6.8432730407444105,53.05234563601794],[6.837170412513121,53.056229857404624],[6.814535520075113,53.070599471400044],[6.813944731272462,53.070972995969065],[6.808450435272496,53.09228099473467],[6.806959564396162,53.09825662139778],[6.80167376014822,53.119173045982855],[6.80598789670201,53.120327316834874],[6.803239328146138,53.124091041813216],[6.815805706992542,53.12742371399649],[6.821168793194245,53.12883304126793],[6.823100884600209,53.126220388399204],[6.851541894512583,53.12502254983518],[6.8651587005920955,53.12442259681658],[6.865928621942043,53.12438872415294],[6.865957705028965,53.12392953743342],[6.874123541495077,53.123548751689455],[6.8742925169031555,53.125369881165305],[6.878618886868825,53.1251501688297],[6.878939185791017,53.12582322665723],[6.8800169962381785,53.125649069592505],[6.8828146389389735,53.12519689117073],[6.883026572567772,53.12581870767073],[6.884268390731375,53.125617830303725],[6.885047105425775,53.127427103674194],[6.886253172857217,53.12860095650454],[6.894717328562459,53.127855249110425],[6.897099350065821,53.12757958238598],[6.897039412226348,53.12849567023545],[6.898942947136066,53.12816478445261],[6.899626888955775,53.12807496050203]]]]},"properties":{"type":"boundary","gemeente":"Veendam","code":"GM0047"}}]}