{"type":"FeatureCollection","metadata":{"gemeente":"Vlaardingen","slug":"vlaardingen","code":"GM0622","generated_at":"2026-08-08T12:05:52.020Z","total_passenger":32,"total_freight":1,"bounds":[4.267571096943434,51.89410295717117,4.370622446567901,51.951506587983225],"operators":["50five","Alva Charging Services","E-Flux by Road","E.ON Drive","Electra","Eneco","Laadpaal24","Opcharge","Pluq","Shell Recharge","Tango electric","Van Leeuwen","Vattenfall InCharge","bp pulse","e-VOLTT"]},"features":[{"type":"Feature","geometry":{"type":"Point","coordinates":[4.35906,51.90583]},"properties":{"type":"charge","layer":"passenger","locationId":"39A1C917-C3F0-43DB-BC94-D5EA8B0E0E77","name":"Eneco eMobility DFDS Seaways B.V.","address":"Vulcaanweg 20","city":"Vlaardingen","operatorName":"Eneco","maxPowerKw":22,"isMegawatt":false,"status":"AVAILABLE","source":"ndw","priceKwh":0.37}},{"type":"Feature","geometry":{"type":"Point","coordinates":[4.31475,51.89807]},"properties":{"type":"charge","layer":"passenger","locationId":"CB80AB38-6FD7-46A8-AD5B-8E5916555AA9","name":"Eneco eMobility Stoomloggerweg 11, Vlaardingen","address":"Stoomloggerweg 11","city":"Vlaardingen","operatorName":"Eneco","maxPowerKw":22,"isMegawatt":false,"status":"UNAVAILABLE","source":"ndw","priceKwh":0.32}},{"type":"Feature","geometry":{"type":"Point","coordinates":[4.367656,51.909466]},"properties":{"type":"charge","layer":"passenger","locationId":"91231479","name":"50five-S NL 18B13273","address":"Meester L.A. Kesperweg 51","city":"Vlaardingen","operatorName":"50five","maxPowerKw":11,"isMegawatt":false,"status":"AVAILABLE","source":"ndw"}},{"type":"Feature","geometry":{"type":"Point","coordinates":[4.365196,51.908816]},"properties":{"type":"charge","layer":"passenger","locationId":"3471","name":"E.ON Drive Public Netherlands Tankstation DCB, Schiedamsedijk 18, Vlaardingen","address":"Schiedamsedijk 18","city":"Vlaardingen","operatorName":"E.ON Drive","maxPowerKw":300,"isMegawatt":false,"status":"AVAILABLE","source":"ndw","priceKwh":0.5703}},{"type":"Feature","geometry":{"type":"Point","coordinates":[4.349477,51.914466]},"properties":{"type":"charge","layer":"passenger","locationId":"91051648","name":"50five-S NL 03013668","address":"Kleine Buitenweide 60","city":"Vlaardingen","operatorName":"50five","maxPowerKw":14,"isMegawatt":false,"status":"UNAVAILABLE","source":"ndw"}},{"type":"Feature","geometry":{"type":"Point","coordinates":[4.330188,51.916454]},"properties":{"type":"charge","layer":"passenger","locationId":"171acd12-6cc1-46f1-ab34-389cfb36a6f5","name":"bp pulse charging hub Marathonweg #2","address":"Marathonweg 18","city":"Vlaardingen","operatorName":"bp pulse","maxPowerKw":150,"isMegawatt":false,"status":"AVAILABLE","source":"ndw","priceKwh":0.7}},{"type":"Feature","geometry":{"type":"Point","coordinates":[4.323,51.90034]},"properties":{"type":"charge","layer":"passenger","locationId":"A7F0705A-AF89-4080-A606-761A39FD28AF","name":"Eneco eMobility Vertom B.V. - Vlaardingen","address":"Maassluissedijk 101","city":"Vlaardingen","operatorName":"Eneco","maxPowerKw":11,"isMegawatt":false,"status":"AVAILABLE","source":"ndw","priceKwh":0.32}},{"type":"Feature","geometry":{"type":"Point","coordinates":[4.360801,51.910151]},"properties":{"type":"charge","layer":"passenger","locationId":"NLENV531","name":"Vlaardingen, Burgemeester van Lierplein 63","address":"Burgemeester van Lierplein 63","city":"Vlaardingen","operatorName":"","maxPowerKw":11,"isMegawatt":false,"status":"AVAILABLE","source":"ndw","priceKwh":0.5}},{"type":"Feature","geometry":{"type":"Point","coordinates":[4.327049,51.900482]},"properties":{"type":"charge","layer":"passenger","locationId":"633f0ff54afafc9e14a4d515","name":"Praxis Vlaardingen","address":"Zevenmanshaven Oost 4","city":"Vlaardingen","operatorName":"Alva Charging Services","maxPowerKw":60,"isMegawatt":false,"status":"AVAILABLE","source":"ndw","priceKwh":0.668}},{"type":"Feature","geometry":{"type":"Point","coordinates":[4.35144,51.90922]},"properties":{"type":"charge","layer":"passenger","locationId":"EBFFE684-DFB4-4BFC-A45B-9473E068C188","name":"Eneco eMobility Maes Notarissen- Vlaardingen","address":"Verploegh Chasséplein 1","city":"Vlaardingen","operatorName":"Eneco","maxPowerKw":11,"isMegawatt":false,"status":"AVAILABLE","source":"ndw","priceKwh":0.55}},{"type":"Feature","geometry":{"type":"Point","coordinates":[4.36933,51.905778]},"properties":{"type":"charge","layer":"passenger","locationId":"OST23P0005_0051_1","name":"OST23P0005_0051_1","address":"Schiedamsedijk 22","city":"Vlaardingen","operatorName":"e-VOLTT","maxPowerKw":19,"isMegawatt":false,"status":"AVAILABLE","source":"ndw","priceKwh":0.4}},{"type":"Feature","geometry":{"type":"Point","coordinates":[4.326239,51.91996]},"properties":{"type":"charge","layer":"passenger","locationId":"6683e799b69938001cffed69","name":"Landelijke Rijvereniging en Ponyclub \"Die Flardingha Ruiters\"","address":"Broekpolderweg 251","city":"Vlaardingen","operatorName":"Pluq","maxPowerKw":21,"isMegawatt":false,"status":"AVAILABLE","source":"ndw","priceKwh":0.48}},{"type":"Feature","geometry":{"type":"Point","coordinates":[4.343711,51.903958]},"properties":{"type":"charge","layer":"passenger","locationId":"635f7d79a482926ebd11cd40","name":"Hoogvliet, Parallelweg 8 Vlaardingen - II","address":"Parallelweg 8","city":"Vlaardingen","operatorName":"E-Flux by Road","maxPowerKw":22,"isMegawatt":false,"status":"AVAILABLE","source":"ndw","priceKwh":0.48}},{"type":"Feature","geometry":{"type":"Point","coordinates":[4.362339,51.923164]},"properties":{"type":"charge","layer":"passenger","locationId":"547574981da648a292cc","name":"Campanile Hotel Vlaardingen","address":"Kethelweg 220","city":"Vlaardingen","operatorName":"Opcharge","maxPowerKw":11,"isMegawatt":false,"status":"AVAILABLE","source":"ndw","priceKwh":0.49}},{"type":"Feature","geometry":{"type":"Point","coordinates":[4.332443,51.917437]},"properties":{"type":"charge","layer":"passenger","locationId":"91458f68-f90b-4a79-9f3a-72282bf4c7a1","name":"Westlandseweg","address":"Westlandseweg 280","city":"Vlaardingen","operatorName":"Vattenfall InCharge","maxPowerKw":50,"isMegawatt":false,"status":"AVAILABLE","source":"ndw","priceKwh":0.46}},{"type":"Feature","geometry":{"type":"Point","coordinates":[4.332854,51.917312]},"properties":{"type":"charge","layer":"passenger","locationId":"91105065","name":"50five-S NL 04001010","address":"Westlandseweg 270","city":"Vlaardingen","operatorName":"50five","maxPowerKw":7,"isMegawatt":false,"status":"UNAVAILABLE","source":"ndw"}},{"type":"Feature","geometry":{"type":"Point","coordinates":[4.343564,51.904008]},"properties":{"type":"charge","layer":"passenger","locationId":"635f7cefdebf1a018ba7dd21","name":"Hoogvliet, Parallelweg 8 Vlaardingen - I","address":"Parallelweg  8","city":"Vlaardingen","operatorName":"E-Flux by Road","maxPowerKw":22,"isMegawatt":false,"status":"AVAILABLE","source":"ndw","priceKwh":0.48}},{"type":"Feature","geometry":{"type":"Point","coordinates":[4.329666,51.898336]},"properties":{"type":"charge","layer":"passenger","locationId":"9f74dead-fa3e-4359-94c8-476cd6d54954","name":"Kreekweg 80","address":"Kreekweg 80","city":"Vlaardingen","operatorName":"Vattenfall InCharge","maxPowerKw":22,"isMegawatt":false,"status":"AVAILABLE","source":"ndw","priceKwh":0.38}},{"type":"Feature","geometry":{"type":"Point","coordinates":[4.331961,51.903343]},"properties":{"type":"charge","layer":"passenger","locationId":"69b7f30fc596374d1824e60b","name":"R. van Herk 's station","address":"3e Industriestraat  19e","city":"vlaardingen","operatorName":"E-Flux by Road","maxPowerKw":22,"isMegawatt":false,"status":"AVAILABLE","source":"ndw","priceKwh":0.42}},{"type":"Feature","geometry":{"type":"Point","coordinates":[4.357512,51.91635]},"properties":{"type":"charge","layer":"passenger","locationId":"6683da9767c22e001c7f92aa","name":"Lentiz Groen van Prinstererlyceum","address":"Rotterdamseweg 55","city":"Vlaardingen","operatorName":"Pluq","maxPowerKw":22,"isMegawatt":false,"status":"AVAILABLE","source":"ndw","priceKwh":0.32}},{"type":"Feature","geometry":{"type":"Point","coordinates":[4.31461,51.897675]},"properties":{"type":"charge","layer":"passenger","locationId":"91108604","name":"50five-S NL 07142111","address":"Stoomloggerweg 8","city":"Vlaardingen","operatorName":"50five","maxPowerKw":11,"isMegawatt":false,"status":"AVAILABLE","source":"ndw"}},{"type":"Feature","geometry":{"type":"Point","coordinates":[4.333666,51.900773]},"properties":{"type":"charge","layer":"passenger","locationId":"L_0000187374","name":"Tango Vlaardingen - 208600","address":"Heliniumweg 2a","city":"Vlaardingen","operatorName":"Tango electric","maxPowerKw":160,"isMegawatt":false,"status":"AVAILABLE","source":"ndw","priceKwh":0.57}},{"type":"Feature","geometry":{"type":"Point","coordinates":[4.33483,51.89807]},"properties":{"type":"charge","layer":"passenger","locationId":"01ADF2CB-B9B3-4212-ADC8-DD5BC98139F4","name":"Eneco eMobility CRH - Struyk Verwo Infra - Vlaardingen","address":"Heliniumweg 20","city":"Vlaardingen","operatorName":"Eneco","maxPowerKw":22,"isMegawatt":false,"status":"AVAILABLE","source":"ndw","priceKwh":0.32}},{"type":"Feature","geometry":{"type":"Point","coordinates":[4.369524,51.905767]},"properties":{"type":"charge","layer":"passenger","locationId":"OST23P0005_0051_0","name":"OST23P0005_0051_0","address":"Schiedamsedijk 22","city":"Vlaardingen","operatorName":"e-VOLTT","maxPowerKw":19,"isMegawatt":false,"status":"AVAILABLE","source":"ndw","priceKwh":0.4}},{"type":"Feature","geometry":{"type":"Point","coordinates":[4.321278,51.90449]},"properties":{"type":"charge","layer":"passenger","locationId":"91106265","name":"50five-S NL 07110969","address":"Arij Koplaan 18","city":"Vlaardingen","operatorName":"50five","maxPowerKw":11,"isMegawatt":false,"status":"AVAILABLE","source":"ndw"}},{"type":"Feature","geometry":{"type":"Point","coordinates":[4.328134,51.903446]},"properties":{"type":"charge","layer":"passenger","locationId":"7440472C-3A80-4AC4-802A-508281E8087C","name":"Eneco eMobility Mercuriusstraat 42 Vlaardingen","address":"Mercuriusstraat 42","city":"Vlaardingen","operatorName":"Eneco","maxPowerKw":22,"isMegawatt":false,"status":"UNAVAILABLE","source":"ndw","priceKwh":0.32}},{"type":"Feature","geometry":{"type":"Point","coordinates":[4.355398,51.925068]},"properties":{"type":"charge","layer":"passenger","locationId":"90300279","name":"Laadpaal24 Sportcentrum Vlaardingen","address":"Zwanensingel 9","city":"Vlaardingen","operatorName":"Laadpaal24","maxPowerKw":22,"isMegawatt":false,"status":"AVAILABLE","source":"ndw"}},{"type":"Feature","geometry":{"type":"Point","coordinates":[4.337469,51.916735]},"properties":{"type":"charge","layer":"passenger","locationId":"89828414","name":"Van Leeuwen De Soete Suikerbol","address":"Westalandseweg 254","city":"Vlaardingen","operatorName":"Van Leeuwen","maxPowerKw":22,"isMegawatt":false,"status":"CHARGING","source":"ndw"}},{"type":"Feature","geometry":{"type":"Point","coordinates":[4.311492,51.903663]},"properties":{"type":"charge","layer":"passenger","locationId":"63eca524a8225d00120c395c","name":"Saltrans Verkoop & Verhuur B.V.","address":"Fultonstraat 2","city":"Vlaardingen","operatorName":"E-Flux by Road","maxPowerKw":6,"isMegawatt":false,"status":"AVAILABLE","source":"ndw","priceKwh":0.53}},{"type":"Feature","geometry":{"type":"Point","coordinates":[4.342702,51.922822]},"properties":{"type":"charge","layer":"passenger","locationId":"91058876","name":"50five-S NL 17B01404","address":"Laan Van Hooglede 45","city":"Vlaardingen","operatorName":"50five","maxPowerKw":14,"isMegawatt":false,"status":"AVAILABLE","source":"ndw"}},{"type":"Feature","geometry":{"type":"Point","coordinates":[4.339691,51.908073]},"properties":{"type":"charge","layer":"passenger","locationId":"91148482","name":"50five-S NL 07003570","address":"Westnieuwland 45","city":"Vlaardingen","operatorName":"50five","maxPowerKw":11,"isMegawatt":false,"status":"CHARGING","source":"ndw"}},{"type":"Feature","geometry":{"type":"Point","coordinates":[4.332668,51.900382]},"properties":{"type":"charge","layer":"passenger","locationId":"749","name":"Shell Recharge NL9189 - Gamma Vlaardingen","address":"Deltaweg 82","city":"Vlaardingen","operatorName":"Shell Recharge","maxPowerKw":150,"isMegawatt":false,"status":"AVAILABLE","source":"ndw","priceKwh":0.7025}},{"type":"Feature","geometry":{"type":"Point","coordinates":[4.36607,51.908453]},"properties":{"type":"charge","layer":"freight","locationId":"NL_ELD_PVLAKF","name":"Electra Vlaardingen - KFC","address":"Schiedamsedijk 5","city":"Vlaardingen","operatorName":"Electra","maxPowerKw":400,"isMegawatt":false,"status":"AVAILABLE","source":"ndw","priceKwh":0.5702,"freightKind":"hpc","freightReason":"power"}},{"type":"Feature","geometry":{"type":"MultiPolygon","coordinates":[[[[4.356437294406214,51.94380528870568],[4.3604090514448774,51.93880015832949],[4.362202317558754,51.93575990253631],[4.3622551982463955,51.93563678679699],[4.362703005599912,51.93454414573333],[4.363108810881324,51.93334850120182],[4.363921760053611,51.92768771976262],[4.361825389068306,51.926571357434746],[4.361949930573424,51.925729595228006],[4.3620013622808775,51.92538196717247],[4.362016449630867,51.925279987862524],[4.362191680594903,51.92409559566251],[4.363079322639477,51.92360403372473],[4.363786633665873,51.92309632660548],[4.36551232472442,51.92154650203639],[4.366437499687259,51.9150539895873],[4.367225276833618,51.91405193085674],[4.367267901509982,51.91394873103161],[4.36921885790403,51.90886865613999],[4.369304693490013,51.908457530871374],[4.3699503551568,51.90639220221394],[4.369555138197686,51.90308330551735],[4.370622446567901,51.899356021155114],[4.360034409806981,51.89943185829966],[4.349797321343375,51.89767072243805],[4.341070792682472,51.89534237077047],[4.330956767004476,51.89410295717117],[4.319596548523036,51.89457500783667],[4.319447798572033,51.89458958272389],[4.296372463455563,51.89705318177993],[4.281886198882214,51.90015229690007],[4.267571096943434,51.905335091012304],[4.277052689739485,51.91124027973714],[4.277121774329803,51.91128492172653],[4.292610636796516,51.92123636929449],[4.292953380423265,51.921467858432635],[4.295073026145008,51.922878426031154],[4.313746700189804,51.934933182931644],[4.3148427108805585,51.93681017496568],[4.322905661853869,51.94269824210076],[4.323873106677894,51.94164005328588],[4.336460162592798,51.94643451106876],[4.335529694259674,51.94699401406601],[4.336556106235368,51.9473970557042],[4.350671096582289,51.951506587983225],[4.356437294406214,51.94380528870568]]]]},"properties":{"type":"boundary","gemeente":"Vlaardingen","code":"GM0622"}}]}