{"type":"FeatureCollection","metadata":{"gemeente":"Voorne aan Zee","slug":"voorne-aan-zee","code":"GM1992","generated_at":"2026-08-08T12:05:52.020Z","total_passenger":47,"total_freight":2,"bounds":[3.993526819341125,51.80430499261635,4.239383602268581,51.936141504017655],"operators":["50five","E-Flux by Road","Eneco","Fastned","Laadnet","Lidl","Opcharge","Pluq","Shell Recharge","Smart Grid Monitor","Van Leeuwen","Van Mossel Energie Lease","bp pulse"]},"features":[{"type":"Feature","geometry":{"type":"Point","coordinates":[4.092565,51.907224]},"properties":{"type":"charge","layer":"passenger","locationId":"91068986","name":"50five-S NL 07006295","address":"Zandweg 23","city":"Oostvoorne","operatorName":"50five","maxPowerKw":11,"isMegawatt":false,"status":"AVAILABLE","source":"ndw"}},{"type":"Feature","geometry":{"type":"Point","coordinates":[4.107494,51.915201]},"properties":{"type":"charge","layer":"passenger","locationId":"91179541","name":"50five-S NL Oostvoorne, Kantelenweg 75","address":"Kantelenweg 75","city":"Oostvoorne","operatorName":"50five","maxPowerKw":11,"isMegawatt":false,"status":"AVAILABLE","source":"ndw"}},{"type":"Feature","geometry":{"type":"Point","coordinates":[4.143343,51.834598]},"properties":{"type":"charge","layer":"passenger","locationId":"68c023c4fe7dd729bffcb99a","name":"IOB laadpaal 4","address":"Kanaalweg Westzijde 45","city":"Hellevoetsluis","operatorName":"E-Flux by Road","maxPowerKw":17,"isMegawatt":false,"status":"AVAILABLE","source":"ndw","priceKwh":0.48}},{"type":"Feature","geometry":{"type":"Point","coordinates":[4.114913,51.914371]},"properties":{"type":"charge","layer":"passenger","locationId":"5090","name":"Shell Recharge NL2670 - Shell Oostvoorne","address":"BRIELSEWEG 115","city":"Oostvoorne","operatorName":"Shell Recharge","maxPowerKw":150,"isMegawatt":false,"status":"AVAILABLE","source":"ndw","priceKwh":0.7025}},{"type":"Feature","geometry":{"type":"Point","coordinates":[4.146397,51.850462]},"properties":{"type":"charge","layer":"passenger","locationId":"6a5f4388561c44afa2fef64a8665a3e9","name":"Hellevoetsluis MH","address":"Korteweg 1","city":"Hellevoetsluis","operatorName":"Smart Grid Monitor","maxPowerKw":11,"isMegawatt":false,"status":"AVAILABLE","source":"ndw","priceKwh":0.9}},{"type":"Feature","geometry":{"type":"Point","coordinates":[4.146212,51.832234]},"properties":{"type":"charge","layer":"passenger","locationId":"91106427","name":"50five-S NL 09100509","address":"Struytse Hoeck 62","city":"Hellevoetsluis","operatorName":"50five","maxPowerKw":8,"isMegawatt":false,"status":"AVAILABLE","source":"ndw"}},{"type":"Feature","geometry":{"type":"Point","coordinates":[4.132792,51.881279]},"properties":{"type":"charge","layer":"passenger","locationId":"67780a524198fd6489efa00c","name":"Stichting Ons Tintestein 's station 069","address":"Strypsedijk 48","city":"Tinte","operatorName":"E-Flux by Road","maxPowerKw":11,"isMegawatt":false,"status":"AVAILABLE","source":"ndw","priceKwh":0.48}},{"type":"Feature","geometry":{"type":"Point","coordinates":[4.17974,51.84054]},"properties":{"type":"charge","layer":"passenger","locationId":"77C37D20-763B-449F-A06A-348F71055782","name":"Eneco eMobility Vestas Benelux B.V. - Hopperweg - Hellevoetsluis","address":"Hopperweg 11","city":"Hellevoetsluis","operatorName":"Eneco","maxPowerKw":11,"isMegawatt":false,"status":"AVAILABLE","source":"ndw","priceKwh":0.32}},{"type":"Feature","geometry":{"type":"Point","coordinates":[4.127819,51.821414]},"properties":{"type":"charge","layer":"passenger","locationId":"91008878","name":"50five-S NL 34413","address":"Westkade 9","city":"Hellevoetsluis","operatorName":"50five","maxPowerKw":11,"isMegawatt":false,"status":"AVAILABLE","source":"ndw"}},{"type":"Feature","geometry":{"type":"Point","coordinates":[4.115081,51.912163]},"properties":{"type":"charge","layer":"passenger","locationId":"4293026","name":"Laadnet Autobedrijf Voorne","address":"Langeweg 2","city":"Oostvoorne","operatorName":"Laadnet","maxPowerKw":22,"isMegawatt":false,"status":"AVAILABLE","source":"ndw"}},{"type":"Feature","geometry":{"type":"Point","coordinates":[4.072624,51.857076]},"properties":{"type":"charge","layer":"passenger","locationId":"60acd89d99d564e042fe1a27","name":"Restaurant de Houten Paardjes","address":"Rondeweiweg 20","city":"Rockanje","operatorName":"E-Flux by Road","maxPowerKw":22,"isMegawatt":false,"status":"AVAILABLE","source":"ndw","priceKwh":0.53}},{"type":"Feature","geometry":{"type":"Point","coordinates":[4.075532,51.875489]},"properties":{"type":"charge","layer":"passenger","locationId":"1826908","name":"Laadnet ETB Monty's","address":"Molendijk 11","city":"Rockanje","operatorName":"Laadnet","maxPowerKw":11,"isMegawatt":false,"status":"UNAVAILABLE","source":"ndw"}},{"type":"Feature","geometry":{"type":"Point","coordinates":[4.06978,51.901649]},"properties":{"type":"charge","layer":"passenger","locationId":"67224137f6c072fa51ad1850","name":"Tenellaplas #2","address":"Duinstraat 12a","city":"Rockanje","operatorName":"E-Flux by Road","maxPowerKw":22,"isMegawatt":false,"status":"AVAILABLE","source":"ndw","priceKwh":0.57}},{"type":"Feature","geometry":{"type":"Point","coordinates":[4.174063,51.893621]},"properties":{"type":"charge","layer":"passenger","locationId":"91058954","name":"50five-S NL 07107569","address":"Krammer 132","city":"Brielle","operatorName":"50five","maxPowerKw":5,"isMegawatt":false,"status":"AVAILABLE","source":"ndw"}},{"type":"Feature","geometry":{"type":"Point","coordinates":[4.161773,51.889222]},"properties":{"type":"charge","layer":"passenger","locationId":"6716260e17c332001c991358","name":"JWB-Energy","address":"Het Woud 30","city":"Brielle","operatorName":"E-Flux by Road","maxPowerKw":22,"isMegawatt":false,"status":"UNAVAILABLE","source":"ndw","priceKwh":0.43}},{"type":"Feature","geometry":{"type":"Point","coordinates":[4.094574,51.910884]},"properties":{"type":"charge","layer":"passenger","locationId":"4122762","name":"Laadnet Connect Oostvoorne","address":"Patrijzenlaan 65","city":"Oostvoorne","operatorName":"Laadnet","maxPowerKw":11,"isMegawatt":false,"status":"CHARGING","source":"ndw"}},{"type":"Feature","geometry":{"type":"Point","coordinates":[4.184268,51.91011]},"properties":{"type":"charge","layer":"passenger","locationId":"2652174","name":"Laadnet Camping De Krabbeplaat","address":"Oude Veerdam 4","city":"Brielle","operatorName":"Laadnet","maxPowerKw":22,"isMegawatt":false,"status":"AVAILABLE","source":"ndw"}},{"type":"Feature","geometry":{"type":"Point","coordinates":[4.094119,51.908077]},"properties":{"type":"charge","layer":"passenger","locationId":"91097012","name":"50five-S NL 07100938","address":"IJsvogellaan 9","city":"Oostvoorne","operatorName":"50five","maxPowerKw":7,"isMegawatt":false,"status":"UNAVAILABLE","source":"ndw"}},{"type":"Feature","geometry":{"type":"Point","coordinates":[4.13194,51.836688]},"properties":{"type":"charge","layer":"passenger","locationId":"d65698ca-2040-4505-b22c-0d1ea09f3a7f","name":"HELLEVOETSLUIS-Hoonaartstraat","address":"Hoonaartstraat","city":"Hellevoetsluis","operatorName":"Lidl","maxPowerKw":22,"isMegawatt":false,"status":"AVAILABLE","source":"ndw"}},{"type":"Feature","geometry":{"type":"Point","coordinates":[4.143343,51.834598]},"properties":{"type":"charge","layer":"passenger","locationId":"68c0248b8bc2fec441b5295c","name":"IOB laadpaal 3","address":"Kanaalweg Westzijde 45","city":"Hellevoetsluis","operatorName":"E-Flux by Road","maxPowerKw":17,"isMegawatt":false,"status":"AVAILABLE","source":"ndw","priceKwh":0.48}},{"type":"Feature","geometry":{"type":"Point","coordinates":[4.179547,51.843748]},"properties":{"type":"charge","layer":"passenger","locationId":"91104563","name":"Van Leeuwen Stoof","address":"Voltaweg 4","city":"Hellevoetsluis","operatorName":"Van Leeuwen","maxPowerKw":11,"isMegawatt":false,"status":"AVAILABLE","source":"ndw"}},{"type":"Feature","geometry":{"type":"Point","coordinates":[4.143343,51.834598]},"properties":{"type":"charge","layer":"passenger","locationId":"68c02559fe7dd729bffe74c6","name":"IOB laadpaal 1","address":"Kanaalweg Westzijde 45","city":"Hellevoetsluis","operatorName":"E-Flux by Road","maxPowerKw":17,"isMegawatt":false,"status":"AVAILABLE","source":"ndw","priceKwh":0.48}},{"type":"Feature","geometry":{"type":"Point","coordinates":[4.181741,51.871116]},"properties":{"type":"charge","layer":"passenger","locationId":"bd71ea7d-e25b-46ec-9f57-a4971721bcd3","name":"bp pulse Coosenhoek","address":"Coosenhoek","city":"Brielle","operatorName":"bp pulse","maxPowerKw":150,"isMegawatt":false,"status":"AVAILABLE","source":"ndw","priceKwh":0.7}},{"type":"Feature","geometry":{"type":"Point","coordinates":[4.162099,51.924637]},"properties":{"type":"charge","layer":"passenger","locationId":"28336125f974412d8e67b0a9b9b00f52","name":"Brielle 00128 Golfclub Kleiburg ","address":"Krabbeweg 9","city":"Brielle","operatorName":"Opcharge","maxPowerKw":22,"isMegawatt":false,"status":"CHARGING","source":"ndw","priceKwh":0.56}},{"type":"Feature","geometry":{"type":"Point","coordinates":[4.132792,51.881279]},"properties":{"type":"charge","layer":"passenger","locationId":"6778088ab08f541e82af9637","name":"Stichting Ons Tintestein 's station nr 060","address":"Strypsedijk 48","city":"Tinte","operatorName":"E-Flux by Road","maxPowerKw":11,"isMegawatt":false,"status":"AVAILABLE","source":"ndw","priceKwh":0.48}},{"type":"Feature","geometry":{"type":"Point","coordinates":[4.07761,51.906743]},"properties":{"type":"charge","layer":"passenger","locationId":"6646117589df50001cd9f774","name":"Camping Ketjil #03","address":"Berkenrijsweg 15","city":"Oostvoorne","operatorName":"E-Flux by Road","maxPowerKw":22,"isMegawatt":false,"status":"AVAILABLE","source":"ndw","priceKwh":0.48}},{"type":"Feature","geometry":{"type":"Point","coordinates":[4.14683,51.832435]},"properties":{"type":"charge","layer":"passenger","locationId":"91230306","name":"50five-S NL 18B14063","address":"Struytse Hoeck 62","city":"Hellevoetsluis","operatorName":"50five","maxPowerKw":8,"isMegawatt":false,"status":"CHARGING","source":"ndw"}},{"type":"Feature","geometry":{"type":"Point","coordinates":[4.062369,51.915502]},"properties":{"type":"charge","layer":"passenger","locationId":"686d312c664c6ee885fefc1c","name":"Strandweg #1","address":"Strandweg 1","city":"Oostvoorne","operatorName":"E-Flux by Road","maxPowerKw":11,"isMegawatt":false,"status":"AVAILABLE","source":"ndw","priceKwh":0.57}},{"type":"Feature","geometry":{"type":"Point","coordinates":[4.143343,51.834598]},"properties":{"type":"charge","layer":"passenger","locationId":"68c024ffa04c83e38c6f1a02","name":"IOB laadpaal 2","address":"Kanaalweg Westzijde 45","city":"Hellevoetsluis","operatorName":"E-Flux by Road","maxPowerKw":17,"isMegawatt":false,"status":"AVAILABLE","source":"ndw","priceKwh":0.48}},{"type":"Feature","geometry":{"type":"Point","coordinates":[4.163958,51.896456]},"properties":{"type":"charge","layer":"passenger","locationId":"91057649","name":"50five-S NL 17B07355","address":"Notaris L.P. van de Blinklaan 1b","city":"Brielle","operatorName":"50five","maxPowerKw":11,"isMegawatt":false,"status":"AVAILABLE","source":"ndw"}},{"type":"Feature","geometry":{"type":"Point","coordinates":[4.144923,51.83385]},"properties":{"type":"charge","layer":"passenger","locationId":"91231037","name":"50five-S NL 18B14103","address":"Struytse Hoeck 331","city":"Hellevoetsluis","operatorName":"50five","maxPowerKw":8,"isMegawatt":false,"status":"AVAILABLE","source":"ndw"}},{"type":"Feature","geometry":{"type":"Point","coordinates":[4.189398,51.895855]},"properties":{"type":"charge","layer":"passenger","locationId":"74F97FE3-5539-4296-9833-110DA93CB269","name":"Eneco eMobility Ophthalux B.V. Vierpolders","address":"Seggelant-Noord 4","city":"Vierpolders","operatorName":"Eneco","maxPowerKw":11,"isMegawatt":false,"status":"AVAILABLE","source":"ndw","priceKwh":0.32}},{"type":"Feature","geometry":{"type":"Point","coordinates":[4.144903,51.834087]},"properties":{"type":"charge","layer":"passenger","locationId":"91107390","name":"50five-S NL 09100505","address":"Struytse Hoeck 331","city":"Hellevoetsluis","operatorName":"50five","maxPowerKw":8,"isMegawatt":false,"status":"AVAILABLE","source":"ndw"}},{"type":"Feature","geometry":{"type":"Point","coordinates":[4.171933,51.898816]},"properties":{"type":"charge","layer":"passenger","locationId":"91231175","name":"50five-S NL 18B11882","address":"Amer 1","city":"Brielle","operatorName":"50five","maxPowerKw":11,"isMegawatt":false,"status":"AVAILABLE","source":"ndw"}},{"type":"Feature","geometry":{"type":"Point","coordinates":[4.178847,51.891344]},"properties":{"type":"charge","layer":"passenger","locationId":"DF5207A7-7948-438F-B421-383E7AE1BBA8","name":"Eneco eMobility Stichting Onderwijsgroep Galilëi Maerlant","address":"Hossenbosdijk 14-16","city":"Brielle","operatorName":"Eneco","maxPowerKw":22,"isMegawatt":false,"status":"AVAILABLE","source":"ndw","priceKwh":0.4}},{"type":"Feature","geometry":{"type":"Point","coordinates":[4.173191,51.898296]},"properties":{"type":"charge","layer":"passenger","locationId":"91106733","name":"50five-S NL 18B02682","address":"Amer 11","city":"Brielle","operatorName":"50five","maxPowerKw":17,"isMegawatt":false,"status":"AVAILABLE","source":"ndw"}},{"type":"Feature","geometry":{"type":"Point","coordinates":[4.06978,51.901649]},"properties":{"type":"charge","layer":"passenger","locationId":"6722406f99991d7279dfb2aa","name":"Tenellaplas #1","address":"Duinstraat 12a","city":"Rockanje","operatorName":"E-Flux by Road","maxPowerKw":22,"isMegawatt":false,"status":"AVAILABLE","source":"ndw","priceKwh":0.57}},{"type":"Feature","geometry":{"type":"Point","coordinates":[4.160709,51.849513]},"properties":{"type":"charge","layer":"passenger","locationId":"91055220","name":"50five-S NL 17B08867","address":"Buitendijkweide 3","city":"Voorne aan Zee","operatorName":"50five","maxPowerKw":11,"isMegawatt":false,"status":"AVAILABLE","source":"ndw"}},{"type":"Feature","geometry":{"type":"Point","coordinates":[4.092018,51.90622]},"properties":{"type":"charge","layer":"passenger","locationId":"91051338","name":"50five-S NL 17B16007","address":"Egelantierlaan 2a","city":"Oostvoorne","operatorName":"50five","maxPowerKw":11,"isMegawatt":false,"status":"AVAILABLE","source":"ndw"}},{"type":"Feature","geometry":{"type":"Point","coordinates":[4.07761,51.906743]},"properties":{"type":"charge","layer":"passenger","locationId":"661e5f357d16c5001c2c4705","name":"Camping Ketjil #01","address":"Berkenrijsweg  15","city":"Oostvoorne","operatorName":"E-Flux by Road","maxPowerKw":11,"isMegawatt":false,"status":"AVAILABLE","source":"ndw","priceKwh":0.48}},{"type":"Feature","geometry":{"type":"Point","coordinates":[4.162937,51.842476]},"properties":{"type":"charge","layer":"passenger","locationId":"91058371","name":"50five-S NL 17B17267","address":"Sonatestraat 28","city":"Hellevoetsluis","operatorName":"50five","maxPowerKw":10,"isMegawatt":false,"status":"AVAILABLE","source":"ndw"}},{"type":"Feature","geometry":{"type":"Point","coordinates":[4.083678,51.887172]},"properties":{"type":"charge","layer":"passenger","locationId":"91067807","name":"50five-S NL 17B27711","address":"Boomweg 13","city":"Rockanje","operatorName":"50five","maxPowerKw":14,"isMegawatt":false,"status":"AVAILABLE","source":"ndw"}},{"type":"Feature","geometry":{"type":"Point","coordinates":[4.070815,51.917783]},"properties":{"type":"charge","layer":"passenger","locationId":"66866ee8225a91001cc79f96","name":"restaurant paviljoen de Duinrand","address":"Strandweg 4","city":"Oostvoorne","operatorName":"Pluq","maxPowerKw":11,"isMegawatt":false,"status":"AVAILABLE","source":"ndw","priceKwh":0.43}},{"type":"Feature","geometry":{"type":"Point","coordinates":[4.07761,51.906743]},"properties":{"type":"charge","layer":"passenger","locationId":"66193059e04d0a001ceefba0","name":"Camping Ketjil #02","address":"Berkenrijsweg  15","city":"Oostvoorne","operatorName":"E-Flux by Road","maxPowerKw":22,"isMegawatt":false,"status":"AVAILABLE","source":"ndw","priceKwh":0.48}},{"type":"Feature","geometry":{"type":"Point","coordinates":[4.086295,51.913352]},"properties":{"type":"charge","layer":"passenger","locationId":"68dd2a8d3468a356407c0e91","name":"Sebastiaan van Dorsser's station","address":"Lijsterbeslaan 40","city":"Oostvoorne","operatorName":"Van Mossel Energie Lease","maxPowerKw":11,"isMegawatt":false,"status":"AVAILABLE","source":"ndw","priceKwh":0.43}},{"type":"Feature","geometry":{"type":"Point","coordinates":[4.185013,51.909172]},"properties":{"type":"charge","layer":"passenger","locationId":"91179785","name":"50five-S NL Brielle, Oude Veerdam 12","address":"Oude Veerdam 12","city":"Brielle","operatorName":"50five","maxPowerKw":11,"isMegawatt":false,"status":"AVAILABLE","source":"ndw"}},{"type":"Feature","geometry":{"type":"Point","coordinates":[4.195484,51.892109]},"properties":{"type":"charge","layer":"passenger","locationId":"3F43C966-9851-4B65-8441-758C2C1D5FF5","name":"Eneco eMobility BWM Dussedorp - Brielle","address":"Seggelant-Oost 4","city":"Brielle","operatorName":"Eneco","maxPowerKw":11,"isMegawatt":false,"status":"AVAILABLE","source":"ndw","priceKwh":0.6}},{"type":"Feature","geometry":{"type":"Point","coordinates":[4.182208,51.870122]},"properties":{"type":"charge","layer":"freight","locationId":"31263","name":"Fastned Tussenhoek","address":"Tussenhoek N57","city":"Vierpolders","operatorName":"Fastned","maxPowerKw":400,"isMegawatt":false,"status":"AVAILABLE","source":"ndw","priceKwh":0.6364,"freightKind":"hpc","freightReason":"power"}},{"type":"Feature","geometry":{"type":"Point","coordinates":[4.180453,51.870622]},"properties":{"type":"charge","layer":"freight","locationId":"31199","name":"Fastned Coosenhoek","address":"Coosenhoek N57","city":"Vierpolders","operatorName":"Fastned","maxPowerKw":400,"isMegawatt":false,"status":"AVAILABLE","source":"ndw","priceKwh":0.6364,"freightKind":"hpc","freightReason":"power"}},{"type":"Feature","geometry":{"type":"MultiPolygon","coordinates":[[[[4.220085087988994,51.82574573984181],[4.219791743863612,51.82594229082556],[4.220126949663983,51.826084238474444],[4.220379713650156,51.82591416067444],[4.220085087988994,51.82574573984181]]],[[[4.112674698482062,51.934798391511],[4.113055442879266,51.93574061687386],[4.14488966175697,51.93140938281815],[4.162668605804334,51.926651853960266],[4.16701831921306,51.92312539405886],[4.168186979014168,51.91905693084868],[4.172385530706868,51.91858589724151],[4.172712463692245,51.91854998861539],[4.176772805522701,51.917789207863045],[4.185371023579461,51.91288540584726],[4.197099404072779,51.908301252358775],[4.210704854127058,51.90133859042909],[4.2159077303534875,51.89893764114558],[4.220067401029973,51.89606689350587],[4.228998735905147,51.88568461548895],[4.230029934378293,51.88306315568704],[4.232970058491162,51.877485852969606],[4.239383602268581,51.872986004523504],[4.185273211414263,51.849707692989185],[4.191417470749136,51.84893632650513],[4.1941792330129015,51.850039434438344],[4.196541061301038,51.85028741871855],[4.198104039216948,51.84997371609301],[4.198174422089927,51.849430137872666],[4.197610677122437,51.8470017582697],[4.196395635769099,51.84647813752251],[4.194727357247423,51.84421741978523],[4.192735594435079,51.84342958812474],[4.193474469514653,51.84294656349294],[4.194751042938452,51.843306701025526],[4.196448581512169,51.843509913847726],[4.196524771272322,51.843149915482705],[4.198528875446704,51.843393011300094],[4.198245264411562,51.83969478416236],[4.19570997169709,51.83968328276818],[4.195610207866619,51.83918678718119],[4.195545622070912,51.836724537063304],[4.197122606978838,51.83494584624245],[4.207084197248687,51.835557554478015],[4.209153945629477,51.83477975115814],[4.220255477444816,51.828212980480764],[4.220602259363683,51.827202542191614],[4.2222156969022775,51.826537555178895],[4.221970346237279,51.825018648175785],[4.220683191728799,51.825811272634446],[4.220110966511673,51.826163633528815],[4.2196676334530805,51.825968226602974],[4.219111104917284,51.82572292396423],[4.218134273501793,51.82634666251161],[4.217774745333578,51.82611349707278],[4.2197089143992885,51.8245596981456],[4.212981264841921,51.82058161013622],[4.213505436692583,51.81617164495561],[4.21235232571808,51.81402553581456],[4.199183263825898,51.80988151034397],[4.194577047158803,51.807083558203516],[4.194243193352254,51.80430499261635],[4.183605910099812,51.804346270900936],[4.181975791822507,51.804941381296345],[4.166466616164496,51.81753763392126],[4.162847758942263,51.8194242217526],[4.159884427102109,51.82001287906033],[4.158918126517141,51.82114331800956],[4.158597160517588,51.82182621684174],[4.156281706583676,51.82250720900959],[4.14736775036531,51.82154159772024],[4.143042816413737,51.82285107622775],[4.13998755416329,51.82259343627953],[4.138301982219942,51.82108298124592],[4.138786838227676,51.81994980971508],[4.1369629317838,51.82009705455888],[4.136610502087783,51.82039954106406],[4.131443421028072,51.81966169539845],[4.1288821253644965,51.81983287822595],[4.128609853010216,51.81924617633027],[4.128325982132036,51.81922592868371],[4.12860743775844,51.820833573595834],[4.128729745599217,51.822996024259076],[4.129031265103627,51.823088843250524],[4.130072717893322,51.82762137954117],[4.130321620534235,51.82859587366949],[4.129958474678009,51.82863109585167],[4.129313315515693,51.82849814762923],[4.1293861416153685,51.82837793060769],[4.129326134161995,51.82836115825321],[4.128438825343213,51.82964310596588],[4.128112255095978,51.82953523251076],[4.129036163103478,51.82827912084175],[4.128262103092699,51.82725585479306],[4.127983598903557,51.82613503276336],[4.128598252112664,51.824457263502175],[4.1283110570362584,51.82259008340295],[4.128086629960069,51.820845001611374],[4.127849890025791,51.81931936234086],[4.127666270692104,51.81932313370837],[4.1275622323245695,51.81969814284002],[4.12693169851864,51.819890090092464],[4.1269993101806,51.8199493253319],[4.127358464263746,51.81983548844928],[4.127509378632199,51.82031075722009],[4.127222610083594,51.82055313067462],[4.126181916378232,51.820781699662795],[4.1253492958327005,51.82060656951184],[4.125187613133775,51.82065072164183],[4.125563031459088,51.82084468606403],[4.125136460360046,51.82141184544021],[4.124162170214439,51.821706268478245],[4.12271803337876,51.82159586670247],[4.122576742862559,51.82080680575936],[4.121380735580117,51.82033986556293],[4.121247710043793,51.82044672039416],[4.121559001681795,51.82060671079842],[4.122172216742038,51.821943383312316],[4.121284229095486,51.822198376871384],[4.121253115975835,51.82231192202244],[4.121934643938805,51.82229718394271],[4.122768836238433,51.82399370538442],[4.122654247716914,51.82401826673214],[4.122850147219374,51.8244541965923],[4.123003659811129,51.82442752552514],[4.123569070256702,51.825676511552395],[4.121878507668932,51.82597488691318],[4.122229745243772,51.82680277925124],[4.121568218186586,51.826928778824964],[4.121370025534105,51.82655741285373],[4.119839900283894,51.82662881965834],[4.117604799864226,51.821778065922736],[4.119583969635931,51.82081825244784],[4.119421362654045,51.82062514479124],[4.116548246188287,51.82165131294301],[4.117436499889871,51.82522448733923],[4.115489879103797,51.826859138684284],[4.113113986485156,51.82745501704876],[4.1029077623339845,51.82829372790692],[4.1030454073349985,51.827081378549046],[4.09424860123779,51.82903510532305],[4.073784089080801,51.84256171695019],[4.071892321734036,51.84256111134757],[4.05787613630063,51.83757541178177],[4.055428745968044,51.83590882885694],[4.0546763981219565,51.83627447601006],[4.048791181804514,51.831880375943626],[4.048596383905914,51.83205552817082],[4.0544190710021715,51.83640109233444],[4.053370314533586,51.836942444559334],[4.056318831402786,51.83915182955032],[4.061405713973773,51.841942388788496],[4.0662978916042,51.84364412278176],[4.067459528014647,51.84542376564456],[4.067955069301688,51.84917960325042],[4.065664400614433,51.852784998703235],[4.052367993069301,51.86636693896623],[4.037323472110411,51.879645110365],[4.030564475706487,51.88422894851696],[4.029378215529949,51.88637407976967],[4.029602423251985,51.88974767378426],[4.030947043891884,51.892371866284904],[4.047597153161175,51.90777899332562],[4.050308310695001,51.90732416032666],[4.052271566704288,51.90912998087755],[4.0517786888725675,51.909429984625696],[4.050531036201713,51.90991768721446],[4.0512937416986246,51.912619557154336],[4.053274917792976,51.91450949215715],[4.052658099348957,51.91837959332716],[4.0475542191011655,51.92140867750757],[4.04013629547177,51.92390724565271],[4.02942485757729,51.92070699306551],[4.018813495280444,51.920588622015295],[4.016209307511205,51.91881412493548],[4.009970025502173,51.918376052093194],[4.0030959177471335,51.91665887746216],[3.9990624069544363,51.91513063040834],[3.993526819341125,51.91584767472211],[4.063934700293944,51.93222689715077],[4.073715745571577,51.93362831236511],[4.082837053617314,51.933671278897144],[4.092893508171925,51.93252783238537],[4.102002273998901,51.92353035654528],[4.102002474265346,51.92353047109952],[4.101719378457818,51.927009233463785],[4.1077235329382455,51.936141504017655],[4.112674698482062,51.934798391511]]]]},"properties":{"type":"boundary","gemeente":"Voorne aan Zee","code":"GM1992"}}]}