{"type":"FeatureCollection","metadata":{"gemeente":"Voorschoten","slug":"voorschoten","code":"GM0626","generated_at":"2026-08-08T12:05:52.020Z","total_passenger":12,"total_freight":0,"bounds":[4.401158957079359,52.10147063128196,4.46923869257122,52.149777261893526],"operators":["50five","E-Flux by Road","Eneco","Laadnet","PowerGo","Van Leeuwen","bp pulse"]},"features":[{"type":"Feature","geometry":{"type":"Point","coordinates":[4.445571,52.125474]},"properties":{"type":"charge","layer":"passenger","locationId":"4174736","name":"Laadnet Parkeergarage Deltaplein","address":"Koningin Julianalaan 22","city":"Voorschoten","operatorName":"Laadnet","maxPowerKw":11,"isMegawatt":false,"status":"AVAILABLE","source":"ndw"}},{"type":"Feature","geometry":{"type":"Point","coordinates":[4.466766,52.135086]},"properties":{"type":"charge","layer":"passenger","locationId":"c5d14466-d023-4230-8ede-21e362ff46d9","name":"bp Pulse Express Voorschoten","address":"Voorschoterweg 20","city":"Voorschoten","operatorName":"bp pulse","maxPowerKw":150,"isMegawatt":false,"status":"AVAILABLE","source":"ndw","priceKwh":0.7}},{"type":"Feature","geometry":{"type":"Point","coordinates":[4.4610834,52.1424675]},"properties":{"type":"charge","layer":"passenger","locationId":"20156","name":"Jumbo 3770 Voorschoten Planciusplantsoen (PowerGo)","address":"Planciusplantsoen 25","city":"Voorschoten","operatorName":"PowerGo","maxPowerKw":90,"isMegawatt":false,"status":"AVAILABLE","source":"ndw","priceKwh":0.55}},{"type":"Feature","geometry":{"type":"Point","coordinates":[4.435143,52.129939]},"properties":{"type":"charge","layer":"passenger","locationId":"91105719","name":"50five-S NL 04002898","address":"Dobbeweg 21","city":"Voorschoten","operatorName":"50five","maxPowerKw":7,"isMegawatt":false,"status":"AVAILABLE","source":"ndw"}},{"type":"Feature","geometry":{"type":"Point","coordinates":[4.46835,52.133059]},"properties":{"type":"charge","layer":"passenger","locationId":"68fa2c2ef29f24752017c2e4","name":"Allemansgeest #1","address":"Hofweg 55","city":"Nieuw-Lekkerland","operatorName":"E-Flux by Road","maxPowerKw":11,"isMegawatt":false,"status":"AVAILABLE","source":"ndw","priceKwh":0.57}},{"type":"Feature","geometry":{"type":"Point","coordinates":[4.466582,52.134609]},"properties":{"type":"charge","layer":"passenger","locationId":"8891DE26-B2B1-47A4-8D33-2EA4AA6F3D0B","name":"Eneco eMobility Hofweg 39 Voorschoten","address":"Hofweg 39","city":"Voorschoten","operatorName":"Eneco","maxPowerKw":22,"isMegawatt":false,"status":"UNAVAILABLE","source":"ndw","priceKwh":0.32}},{"type":"Feature","geometry":{"type":"Point","coordinates":[4.441382,52.11972]},"properties":{"type":"charge","layer":"passenger","locationId":"91057199","name":"50five-S NL 07000934","address":"Essenlaan 14","city":"Voorschoten","operatorName":"50five","maxPowerKw":11,"isMegawatt":false,"status":"AVAILABLE","source":"ndw"}},{"type":"Feature","geometry":{"type":"Point","coordinates":[4.465658,52.131311]},"properties":{"type":"charge","layer":"passenger","locationId":"61164400db317cfba29d49e1","name":"Titanic","address":"Louis Couperuslaan 6","city":"Voorschoten","operatorName":"E-Flux by Road","maxPowerKw":22,"isMegawatt":false,"status":"AVAILABLE","source":"ndw","priceKwh":0.46}},{"type":"Feature","geometry":{"type":"Point","coordinates":[4.46835,52.133062]},"properties":{"type":"charge","layer":"passenger","locationId":"68fa2cc4c39d8d0d0b9c6143","name":"Allemansgeest #2","address":"Hofweg 55","city":"Voorschoten","operatorName":"E-Flux by Road","maxPowerKw":11,"isMegawatt":false,"status":"AVAILABLE","source":"ndw","priceKwh":0.57}},{"type":"Feature","geometry":{"type":"Point","coordinates":[4.446106,52.118794]},"properties":{"type":"charge","layer":"passenger","locationId":"91054554","name":"50five-S NL 07111363","address":"Teun de Grooterf 13","city":"Voorschoten","operatorName":"50five","maxPowerKw":11,"isMegawatt":false,"status":"AVAILABLE","source":"ndw"}},{"type":"Feature","geometry":{"type":"Point","coordinates":[4.439754,52.119221]},"properties":{"type":"charge","layer":"passenger","locationId":"89326076","name":"Van Leeuwen Veurseweg 79","address":"Veurseweg 79","city":"Voorschoten","operatorName":"Van Leeuwen","maxPowerKw":22,"isMegawatt":false,"status":"AVAILABLE","source":"ndw"}},{"type":"Feature","geometry":{"type":"Point","coordinates":[4.439818,52.116237]},"properties":{"type":"charge","layer":"passenger","locationId":"91169242","name":"50five-S NL 07104350","address":"Eikenlaan 18","city":"Voorschoten","operatorName":"50five","maxPowerKw":11,"isMegawatt":false,"status":"AVAILABLE","source":"ndw"}},{"type":"Feature","geometry":{"type":"MultiPolygon","coordinates":[[[[4.462444356324367,52.149777261893526],[4.462968769083476,52.148945552510064],[4.465405464413306,52.149443422760655],[4.466050625707938,52.14641661443756],[4.466682035532848,52.14089112741249],[4.467171354466423,52.1369436788863],[4.46923869257122,52.13427609315543],[4.46906638010022,52.13319884524577],[4.468915566838502,52.132763607708355],[4.464492322718992,52.12731162628933],[4.463211911423647,52.126326305556084],[4.455982148621576,52.12117772889876],[4.451074987855695,52.117512553859015],[4.4464420252023364,52.11337748984823],[4.44314292272025,52.11158014137282],[4.43899393974359,52.10992966225364],[4.435744452048829,52.10740193666681],[4.433578693059462,52.10415838284103],[4.427902476903376,52.10147063128196],[4.423703873451842,52.10359023005913],[4.420816566433912,52.104622845162375],[4.4212151845914365,52.104983676484025],[4.414157814442221,52.10750875973511],[4.413074247230509,52.106633535481755],[4.411378012508883,52.10728701041813],[4.412047994116559,52.107971651560554],[4.401158957079359,52.111870450593486],[4.413548542803784,52.12160590021736],[4.413224540160817,52.12218911209199],[4.418304731863637,52.124436277661154],[4.427411911728957,52.13324365957391],[4.442988460725329,52.14534631400736],[4.443789441128982,52.14101376951493],[4.444678046573506,52.14062039976135],[4.446561955260692,52.14119375859042],[4.449603896730917,52.14098485272341],[4.450872331321077,52.142129417015944],[4.457019560019916,52.14778939544601],[4.459287200422999,52.14969724799876],[4.462444356324367,52.149777261893526]]]]},"properties":{"type":"boundary","gemeente":"Voorschoten","code":"GM0626"}}]}