{"type":"FeatureCollection","metadata":{"gemeente":"Waadhoeke","slug":"waadhoeke","code":"GM1949","generated_at":"2026-08-08T12:05:52.020Z","total_passenger":92,"total_freight":0,"bounds":[5.4379881700584916,53.12414978389452,5.749302018168481,53.33891604514506],"operators":["50five","DAEN Mobility","E-Flux by Road","Eneco","Fastned","Laadnet","Lanova Laadpalen","Moveyou","Pluq","TotalEnergies","Vattenfall InCharge"]},"features":[{"type":"Feature","geometry":{"type":"Point","coordinates":[5.535351,53.189228]},"properties":{"type":"charge","layer":"passenger","locationId":"D33EBEFE-F26E-43DA-96E0-A07DB55847CC","name":"TNLP012100 - Tichelwurk 8, Franeker","address":"8 Tichelwurk","city":"Franeker","operatorName":"TotalEnergies","maxPowerKw":17,"isMegawatt":false,"status":"AVAILABLE","source":"ndw"}},{"type":"Feature","geometry":{"type":"Point","coordinates":[5.559842,53.19007]},"properties":{"type":"charge","layer":"passenger","locationId":"6C6A07D4-B60B-4C49-A666-0245119D4C4D","name":"TNLP012117 - J H Pameijerstraat 56, Franeker","address":"56 J H Pameijerstraat","city":"Franeker","operatorName":"TotalEnergies","maxPowerKw":17,"isMegawatt":false,"status":"AVAILABLE","source":"ndw"}},{"type":"Feature","geometry":{"type":"Point","coordinates":[5.511175,53.183539]},"properties":{"type":"charge","layer":"passenger","locationId":"922923","name":"NL_DAE_2000701","address":"Edisonstraat 36","city":"Franeker","operatorName":"DAEN Mobility","maxPowerKw":11,"isMegawatt":false,"status":"AVAILABLE","source":"ndw","priceKwh":0.5}},{"type":"Feature","geometry":{"type":"Point","coordinates":[5.599927,53.25092]},"properties":{"type":"charge","layer":"passenger","locationId":"E72DF864-DC4C-412B-A911-DEF5955D2F35","name":"TNLP013265 - Fjildleane 14, Minnertsga","address":"14 Fjildleane","city":"Minnertsga","operatorName":"TotalEnergies","maxPowerKw":17,"isMegawatt":false,"status":"UNAVAILABLE","source":"ndw"}},{"type":"Feature","geometry":{"type":"Point","coordinates":[5.546689,53.196938]},"properties":{"type":"charge","layer":"passenger","locationId":"54DCAD84-7362-4E2F-B18F-03B6CA73C990","name":"TNLP012035 - Tjalk 2, Franeker","address":"2 Tjalk","city":"Franeker","operatorName":"TotalEnergies","maxPowerKw":17,"isMegawatt":false,"status":"AVAILABLE","source":"ndw"}},{"type":"Feature","geometry":{"type":"Point","coordinates":[5.72437,53.21257]},"properties":{"type":"charge","layer":"passenger","locationId":"0C58929C-84EB-47F0-A05A-90B40D4485AA","name":"TNLP013266 - Riemer Veemanstrjitte 36, Marsum","address":"36 Riemer Veemanstrjitte","city":"Marsum","operatorName":"TotalEnergies","maxPowerKw":17,"isMegawatt":false,"status":"UNAVAILABLE","source":"ndw"}},{"type":"Feature","geometry":{"type":"Point","coordinates":[5.54226,53.195514]},"properties":{"type":"charge","layer":"passenger","locationId":"6617c84cf64ec2001ca430b3","name":"Wereldrestaurant de Valk B.V.","address":"Hertog van Saxenlaan 78","city":"Franeker","operatorName":"Pluq","maxPowerKw":22,"isMegawatt":false,"status":"AVAILABLE","source":"ndw","priceKwh":0.4}},{"type":"Feature","geometry":{"type":"Point","coordinates":[5.551431,53.183511]},"properties":{"type":"charge","layer":"passenger","locationId":"3161485","name":"Laadnet Laadpaal Munro Management","address":"Anna Maria van Schurmansingel 10","city":"Franeker","operatorName":"Laadnet","maxPowerKw":4,"isMegawatt":false,"status":"AVAILABLE","source":"ndw"}},{"type":"Feature","geometry":{"type":"Point","coordinates":[5.68262,53.20374]},"properties":{"type":"charge","layer":"passenger","locationId":"31088","name":"Fastned De Mieden","address":"De Mieden A31","city":"Menaam","operatorName":"Fastned","maxPowerKw":150,"isMegawatt":false,"status":"AVAILABLE","source":"ndw","priceKwh":0.6364}},{"type":"Feature","geometry":{"type":"Point","coordinates":[5.728005,53.21055]},"properties":{"type":"charge","layer":"passenger","locationId":"F34CF035-4F6A-420C-888F-F2920228AF4C","name":"TNLP013310 - Buorren 25, Marsum","address":"25 Buorren","city":"Marsum","operatorName":"TotalEnergies","maxPowerKw":17,"isMegawatt":false,"status":"UNAVAILABLE","source":"ndw"}},{"type":"Feature","geometry":{"type":"Point","coordinates":[5.543901,53.191982]},"properties":{"type":"charge","layer":"passenger","locationId":"D414C2DB-C265-4842-972A-43727D9AA987","name":"TNLP012108 - Professor Wassenberghstraat 64, Franeker","address":"64 Professor Wassenberghstraat","city":"Franeker","operatorName":"TotalEnergies","maxPowerKw":17,"isMegawatt":false,"status":"AVAILABLE","source":"ndw"}},{"type":"Feature","geometry":{"type":"Point","coordinates":[5.543283,53.189922]},"properties":{"type":"charge","layer":"passenger","locationId":"FD7B185E-77A3-46AB-8CA3-768B35A5CB07","name":"TNLP013348 - Professor Wassenberghstraat 21, Franeker","address":"21 Professor Wassenberghstraat","city":"Franeker","operatorName":"TotalEnergies","maxPowerKw":17,"isMegawatt":false,"status":"AVAILABLE","source":"ndw"}},{"type":"Feature","geometry":{"type":"Point","coordinates":[5.64935,53.24584]},"properties":{"type":"charge","layer":"passenger","locationId":"340F548A-7952-4CF9-961B-2D6C7EADB743","name":"TNLP012229 - Wiersterdyk 3, Berltsum","address":"3 Wiersterdyk","city":"Berltsum","operatorName":"TotalEnergies","maxPowerKw":17,"isMegawatt":false,"status":"UNAVAILABLE","source":"ndw"}},{"type":"Feature","geometry":{"type":"Point","coordinates":[5.546452,53.190163]},"properties":{"type":"charge","layer":"passenger","locationId":"9BE8146A-0D94-4234-8208-6633FECCAB82","name":"TNLP012032 - Professor Ulricus Huberstraat 23, Franeker","address":"23 Professor Ulricus Huberstraat","city":"Franeker","operatorName":"TotalEnergies","maxPowerKw":17,"isMegawatt":false,"status":"AVAILABLE","source":"ndw"}},{"type":"Feature","geometry":{"type":"Point","coordinates":[5.603408,53.273655]},"properties":{"type":"charge","layer":"passenger","locationId":"9207DDA4-7A6A-4D25-AFDC-E5B5D72F7ED2","name":"TNLP012186 - Georg van Saksenstraat 14, St-Jacobiparochie","address":"14 Georg van Saksenstraat","city":"St-Jacobiparochie","operatorName":"TotalEnergies","maxPowerKw":17,"isMegawatt":false,"status":"UNAVAILABLE","source":"ndw"}},{"type":"Feature","geometry":{"type":"Point","coordinates":[5.485799,53.216175]},"properties":{"type":"charge","layer":"passenger","locationId":"4AE13558-CD6B-4B0B-A927-E8FECDD5C753","name":"TNLP012044 - Frjentsjerterein 1, Sexbierum","address":"1 Frjentsjerterein","city":"Sexbierum","operatorName":"TotalEnergies","maxPowerKw":17,"isMegawatt":false,"status":"AVAILABLE","source":"ndw"}},{"type":"Feature","geometry":{"type":"Point","coordinates":[5.546703,53.17967]},"properties":{"type":"charge","layer":"passenger","locationId":"2A2FCE92-0157-43B4-AE68-9F4724D27204","name":"TNLP012070 - Arumer Feart 14, Franeker","address":"14 Arumer Feart","city":"Franeker","operatorName":"TotalEnergies","maxPowerKw":17,"isMegawatt":false,"status":"AVAILABLE","source":"ndw"}},{"type":"Feature","geometry":{"type":"Point","coordinates":[5.603321,53.272511]},"properties":{"type":"charge","layer":"passenger","locationId":"91004057","name":"50five-S NL 90618","address":"Westeinde 1a","city":"Sint Jacobiparochie","operatorName":"50five","maxPowerKw":11,"isMegawatt":false,"status":"AVAILABLE","source":"ndw"}},{"type":"Feature","geometry":{"type":"Point","coordinates":[5.630811,53.151079]},"properties":{"type":"charge","layer":"passenger","locationId":"2647928","name":"Laadnet De Helling","address":"Skâns 12","city":"Winsum","operatorName":"Laadnet","maxPowerKw":11,"isMegawatt":false,"status":"AVAILABLE","source":"ndw"}},{"type":"Feature","geometry":{"type":"Point","coordinates":[5.649741,53.242899]},"properties":{"type":"charge","layer":"passenger","locationId":"C74B4CB7-EEF7-4380-8999-199E23BF743F","name":"Eneco eMobility AB Vakwerk Groep BV - Berlikum","address":"Hôfsleane 57","city":"Berlikum","operatorName":"Eneco","maxPowerKw":11,"isMegawatt":false,"status":"AVAILABLE","source":"ndw","priceKwh":0.32}},{"type":"Feature","geometry":{"type":"Point","coordinates":[5.482996,53.2175]},"properties":{"type":"charge","layer":"passenger","locationId":"56B65E59-3D66-4C6D-93A7-55A63F5CD995","name":"TNLP013261 - Fliet 35, Sexbierum","address":"35 Fliet","city":"Sexbierum","operatorName":"TotalEnergies","maxPowerKw":17,"isMegawatt":false,"status":"AVAILABLE","source":"ndw"}},{"type":"Feature","geometry":{"type":"Point","coordinates":[5.559736,53.19194]},"properties":{"type":"charge","layer":"passenger","locationId":"6B78BDF5-FE46-4FD3-924B-38FF870CE625","name":"TNLP013257 - Waling Dijkstrastrjitte 1, Franeker","address":"1 Waling Dijkstrastrjitte","city":"Franeker","operatorName":"TotalEnergies","maxPowerKw":17,"isMegawatt":false,"status":"AVAILABLE","source":"ndw"}},{"type":"Feature","geometry":{"type":"Point","coordinates":[5.705726,53.236653]},"properties":{"type":"charge","layer":"passenger","locationId":"922979","name":"DAE_NL_2000806","address":"It string 44","city":"Bitgummole","operatorName":"DAEN Mobility","maxPowerKw":11,"isMegawatt":false,"status":"AVAILABLE","source":"ndw","priceKwh":0.4}},{"type":"Feature","geometry":{"type":"Point","coordinates":[5.549207,53.187416]},"properties":{"type":"charge","layer":"passenger","locationId":"10CF7987-E9B7-46AC-9D98-4154BFDB0450","name":"TNLP013349 - Leeuwarderweg 8, Franeker","address":"8 Leeuwarderweg","city":"Franeker","operatorName":"TotalEnergies","maxPowerKw":17,"isMegawatt":false,"status":"CHARGING","source":"ndw"}},{"type":"Feature","geometry":{"type":"Point","coordinates":[5.542684,53.23645]},"properties":{"type":"charge","layer":"passenger","locationId":"AEF8F92C-65E4-4E5F-B1A6-60A4FCD1AF3C","name":"TNLP013260 - Buorren 111, Tzummarum","address":"111 Buorren","city":"Tzummarum","operatorName":"TotalEnergies","maxPowerKw":17,"isMegawatt":false,"status":"AVAILABLE","source":"ndw"}},{"type":"Feature","geometry":{"type":"Point","coordinates":[5.541353,53.1885]},"properties":{"type":"charge","layer":"passenger","locationId":"5C8DF4F7-4526-4E65-88CE-5A7D3C49C7A9","name":"TNLP013109 - Noorderbolwerk 11, Franeker","address":"11 Noorderbolwerk","city":"Franeker","operatorName":"TotalEnergies","maxPowerKw":17,"isMegawatt":false,"status":"AVAILABLE","source":"ndw"}},{"type":"Feature","geometry":{"type":"Point","coordinates":[5.591663,53.25051]},"properties":{"type":"charge","layer":"passenger","locationId":"68555b8744502162e267b99a","name":"Technisch Buro Zonderland","address":"Tilledyk 4","city":"Minnertsga","operatorName":"E-Flux by Road","maxPowerKw":11,"isMegawatt":false,"status":"AVAILABLE","source":"ndw","priceKwh":0.38}},{"type":"Feature","geometry":{"type":"Point","coordinates":[5.543354,53.187237]},"properties":{"type":"charge","layer":"passenger","locationId":"D0EF125F-E1F0-427A-B734-CE749BCFF326","name":"TNLP013403 - Noord 5, Franeker","address":"5 Noord","city":"Franeker","operatorName":"TotalEnergies","maxPowerKw":17,"isMegawatt":false,"status":"AVAILABLE","source":"ndw"}},{"type":"Feature","geometry":{"type":"Point","coordinates":[5.724188,53.193348]},"properties":{"type":"charge","layer":"passenger","locationId":"91905A38-AA22-46E6-B9CC-7D437E06E842","name":"TNLP013431 - Sint Janswei 47, Deinum","address":"47 Sint Janswei","city":"Deinum","operatorName":"TotalEnergies","maxPowerKw":17,"isMegawatt":false,"status":"UNAVAILABLE","source":"ndw"}},{"type":"Feature","geometry":{"type":"Point","coordinates":[5.481326,53.214832]},"properties":{"type":"charge","layer":"passenger","locationId":"0C087270-4391-4030-B588-1AC0FD20C6FD","name":"TNLP012031 - Hottingabûr 45, Sexbierum","address":"45 Hottingabûr","city":"Sexbierum","operatorName":"TotalEnergies","maxPowerKw":17,"isMegawatt":false,"status":"AVAILABLE","source":"ndw"}},{"type":"Feature","geometry":{"type":"Point","coordinates":[5.524082,53.179099]},"properties":{"type":"charge","layer":"passenger","locationId":"632b114cad9f2673374358a1","name":"Zijlstra_FranekerHQ","address":"De Wieken 14","city":"Franeker","operatorName":"Moveyou","maxPowerKw":21,"isMegawatt":false,"status":"AVAILABLE","source":"ndw","priceKwh":0.38}},{"type":"Feature","geometry":{"type":"Point","coordinates":[5.717712,53.31541]},"properties":{"type":"charge","layer":"passenger","locationId":"15231C69-AF35-4C18-B59E-9053B1841BDD","name":"TNLP012232 - Nieuwebildtdijk 30, Oudebildtzijl","address":"30 Nieuwebildtdijk","city":"Oudebildtzijl","operatorName":"TotalEnergies","maxPowerKw":17,"isMegawatt":false,"status":"UNAVAILABLE","source":"ndw"}},{"type":"Feature","geometry":{"type":"Point","coordinates":[5.487194,53.215095]},"properties":{"type":"charge","layer":"passenger","locationId":"6891c408b0f568e95fb5c247","name":"Jelle Dijkstra 's station","address":"Stasionswei 16","city":"Sexbierum","operatorName":"E-Flux by Road","maxPowerKw":22,"isMegawatt":false,"status":"AVAILABLE","source":"ndw","priceKwh":0.33}},{"type":"Feature","geometry":{"type":"Point","coordinates":[5.542038,53.192547]},"properties":{"type":"charge","layer":"passenger","locationId":"91109509","name":"50five-S NL 08101853","address":"Hertog Van Saxenlaan 76M","city":"Franeker","operatorName":"50five","maxPowerKw":11,"isMegawatt":false,"status":"AVAILABLE","source":"ndw"}},{"type":"Feature","geometry":{"type":"Point","coordinates":[5.652904,53.29525]},"properties":{"type":"charge","layer":"passenger","locationId":"32D1A997-F8AB-46B7-9CF2-0C6F8525AB47","name":"TNLP013448 - Matthijs Smitstraat 13, Nij Altoenea","address":"13 Matthijs Smitstraat","city":"Nij Altoenea","operatorName":"TotalEnergies","maxPowerKw":17,"isMegawatt":false,"status":"UNAVAILABLE","source":"ndw"}},{"type":"Feature","geometry":{"type":"Point","coordinates":[5.644087,53.24187]},"properties":{"type":"charge","layer":"passenger","locationId":"68ecd23054d07a3e6a030b96","name":"Woud Bosma 's station","address":"Hôfsleane 64A","city":"Berltsum","operatorName":"E-Flux by Road","maxPowerKw":11,"isMegawatt":false,"status":"AVAILABLE","source":"ndw","priceKwh":0.37}},{"type":"Feature","geometry":{"type":"Point","coordinates":[5.553263,53.18539]},"properties":{"type":"charge","layer":"passenger","locationId":"5D773155-E5E0-4D9C-A1E7-CD96D6934B4F","name":"TNLP013375 - Osingastraat 52, Franeker","address":"52 Osingastraat","city":"Franeker","operatorName":"TotalEnergies","maxPowerKw":17,"isMegawatt":false,"status":"AVAILABLE","source":"ndw"}},{"type":"Feature","geometry":{"type":"Point","coordinates":[5.56695,53.158653]},"properties":{"type":"charge","layer":"passenger","locationId":"3916F217-5837-4DC9-908C-05AB590E566A","name":"TNLP013355 - Nieuwbuurtsterweg 19, Tzummarum","address":"19 Nieuwbuurtsterweg","city":"Tzummarum","operatorName":"TotalEnergies","maxPowerKw":17,"isMegawatt":false,"status":"UNAVAILABLE","source":"ndw"}},{"type":"Feature","geometry":{"type":"Point","coordinates":[5.54721,53.19589]},"properties":{"type":"charge","layer":"passenger","locationId":"58C5DF1B-66D8-4369-9EBF-6345E86B557B","name":"TNLP012017 - Schoener 10, Franeker","address":"10 Schoener","city":"Franeker","operatorName":"TotalEnergies","maxPowerKw":17,"isMegawatt":false,"status":"UNAVAILABLE","source":"ndw"}},{"type":"Feature","geometry":{"type":"Point","coordinates":[5.543637,53.19634]},"properties":{"type":"charge","layer":"passenger","locationId":"CBFB90B1-2C32-482F-8CB0-E1223802F4B0","name":"TNLP013040 - Klipper 18, Franeker","address":"18 Klipper","city":"Franeker","operatorName":"TotalEnergies","maxPowerKw":17,"isMegawatt":false,"status":"UNAVAILABLE","source":"ndw"}},{"type":"Feature","geometry":{"type":"Point","coordinates":[5.516334,53.166666]},"properties":{"type":"charge","layer":"passenger","locationId":"67c85ac4be1e9868af4f4429","name":"Hitzum","address":"Hoofdweg 12","city":"Hitzum","operatorName":"E-Flux by Road","maxPowerKw":14,"isMegawatt":false,"status":"CHARGING","source":"ndw","priceKwh":0.43}},{"type":"Feature","geometry":{"type":"Point","coordinates":[5.539712,53.186527]},"properties":{"type":"charge","layer":"passenger","locationId":"033C5F4E-9069-4963-B478-96712CDB855C","name":"TNLP013399 - Voorstraat 71A, Franeker","address":"71A Voorstraat","city":"Franeker","operatorName":"TotalEnergies","maxPowerKw":17,"isMegawatt":false,"status":"CHARGING","source":"ndw"}},{"type":"Feature","geometry":{"type":"Point","coordinates":[5.561239,53.155586]},"properties":{"type":"charge","layer":"passenger","locationId":"67bc86c7bdfc3878dcad06d1","name":"parkeeerterrein  it Lyntsjepark","address":"Smidsreed 3","city":"Tzum","operatorName":"E-Flux by Road","maxPowerKw":11,"isMegawatt":false,"status":"AVAILABLE","source":"ndw","priceKwh":0.41}},{"type":"Feature","geometry":{"type":"Point","coordinates":[5.522013,53.176582]},"properties":{"type":"charge","layer":"passenger","locationId":"667c5aa0913a4b001cfdd320","name":"Empatec Franeker Hoofdingang","address":"De Roede  1","city":"Franeker","operatorName":"E-Flux by Road","maxPowerKw":11,"isMegawatt":false,"status":"AVAILABLE","source":"ndw","priceKwh":0.38}},{"type":"Feature","geometry":{"type":"Point","coordinates":[5.486676,53.218822]},"properties":{"type":"charge","layer":"passenger","locationId":"25A08E2D-618E-40A4-958A-CAC4E039A123","name":"TNLP012062 - Skoalstrjitte 16, Sexbierum","address":"16 Skoalstrjitte","city":"Sexbierum","operatorName":"TotalEnergies","maxPowerKw":17,"isMegawatt":false,"status":"AVAILABLE","source":"ndw"}},{"type":"Feature","geometry":{"type":"Point","coordinates":[5.54061,53.187792]},"properties":{"type":"charge","layer":"passenger","locationId":"68e90e3a092e8723b03d96ef","name":"Sportcentrum Het Noord","address":"Noord 88","city":"Franeker","operatorName":"E-Flux by Road","maxPowerKw":22,"isMegawatt":false,"status":"AVAILABLE","source":"ndw","priceKwh":0.4}},{"type":"Feature","geometry":{"type":"Point","coordinates":[5.631991,53.197221]},"properties":{"type":"charge","layer":"passenger","locationId":"61b3651f497fea0df79a94f7","name":"Horjus Paneel en Meubel","address":"De Alde Mar 16","city":"Dronrijp","operatorName":"E-Flux by Road","maxPowerKw":22,"isMegawatt":false,"status":"AVAILABLE","source":"ndw","priceKwh":0.38}},{"type":"Feature","geometry":{"type":"Point","coordinates":[5.531548,53.189587]},"properties":{"type":"charge","layer":"passenger","locationId":"E4C1715A-D630-4B36-844F-96303915B62E","name":"TNLP012168 - Meester K. Bijlsmastraat 1, Franeker","address":"1 Meester K. Bijlsmastraat","city":"Franeker","operatorName":"TotalEnergies","maxPowerKw":17,"isMegawatt":false,"status":"AVAILABLE","source":"ndw"}},{"type":"Feature","geometry":{"type":"Point","coordinates":[5.658914,53.219178]},"properties":{"type":"charge","layer":"passenger","locationId":"91105807","name":"50five-S NL 04001845","address":"Moolnersrak 8","city":"Menaam","operatorName":"50five","maxPowerKw":7,"isMegawatt":false,"status":"CHARGING","source":"ndw"}},{"type":"Feature","geometry":{"type":"Point","coordinates":[5.636558,53.243556]},"properties":{"type":"charge","layer":"passenger","locationId":"66158e87f10991001bea0494","name":"Empatec Groeituin","address":"Gernierswei  23a","city":"Wier","operatorName":"E-Flux by Road","maxPowerKw":11,"isMegawatt":false,"status":"AVAILABLE","source":"ndw","priceKwh":0.38}},{"type":"Feature","geometry":{"type":"Point","coordinates":[5.696754,53.278849]},"properties":{"type":"charge","layer":"passenger","locationId":"91090699","name":"50five-S NL 07108279","address":"Hamerenweg 23","city":"Vrouwenparochie","operatorName":"50five","maxPowerKw":11,"isMegawatt":false,"status":"AVAILABLE","source":"ndw"}},{"type":"Feature","geometry":{"type":"Point","coordinates":[5.484737,53.14918]},"properties":{"type":"charge","layer":"passenger","locationId":"0DCD9954-EFA6-40BA-AE00-A97794C85620","name":"TNLP013415 - Dorpsstraat 5, Aclum","address":"5 Dorpsstraat","city":"Aclum","operatorName":"TotalEnergies","maxPowerKw":17,"isMegawatt":false,"status":"AVAILABLE","source":"ndw"}},{"type":"Feature","geometry":{"type":"Point","coordinates":[5.535509,53.184483]},"properties":{"type":"charge","layer":"passenger","locationId":"2EA46CE8-1B72-4958-A465-17061ADED4BE","name":"TNLP013262 - Laene 1, Franeker","address":"1 Laene","city":"Franeker","operatorName":"TotalEnergies","maxPowerKw":17,"isMegawatt":false,"status":"UNAVAILABLE","source":"ndw"}},{"type":"Feature","geometry":{"type":"Point","coordinates":[5.543069,53.207859]},"properties":{"type":"charge","layer":"passenger","locationId":"91013793","name":"50five-S NL 32505.0","address":"Jorrit Biermastrjitte 2","city":"Dongjum","operatorName":"50five","maxPowerKw":4,"isMegawatt":false,"status":"AVAILABLE","source":"ndw"}},{"type":"Feature","geometry":{"type":"Point","coordinates":[5.634827,53.15309]},"properties":{"type":"charge","layer":"passenger","locationId":"89D2B34E-2558-48A9-B546-C6FE45C3AFC0","name":"TNLP013346 - Fikarusleane 2, Winsum","address":"2 Fikarusleane","city":"Winsum","operatorName":"TotalEnergies","maxPowerKw":17,"isMegawatt":false,"status":"UNAVAILABLE","source":"ndw"}},{"type":"Feature","geometry":{"type":"Point","coordinates":[5.631991,53.197221]},"properties":{"type":"charge","layer":"passenger","locationId":"61b3644c497fea639f9a88db","name":"Horjus Paneel en Meubel","address":"De Alde Mar 16","city":"Dronrijp","operatorName":"E-Flux by Road","maxPowerKw":22,"isMegawatt":false,"status":"AVAILABLE","source":"ndw","priceKwh":0.38}},{"type":"Feature","geometry":{"type":"Point","coordinates":[5.66043,53.24238]},"properties":{"type":"charge","layer":"passenger","locationId":"EDEE5CF7-E811-4049-9F6C-C7E86834873B","name":"Eneco eMobility Rinsma Scania - Berlikum Publiek","address":"Bitgumerdyk 26 P","city":"Berlikum","operatorName":"Eneco","maxPowerKw":11,"isMegawatt":false,"status":"AVAILABLE","source":"ndw","priceKwh":0.29}},{"type":"Feature","geometry":{"type":"Point","coordinates":[5.555607,53.192013]},"properties":{"type":"charge","layer":"passenger","locationId":"63B409CC-3F77-4EA8-8C03-D119C5056A62","name":"TNLP012076 - Simke Kloostermanstrjitte 1, Franeker","address":"1 Simke Kloostermanstrjitte","city":"Franeker","operatorName":"TotalEnergies","maxPowerKw":17,"isMegawatt":false,"status":"UNAVAILABLE","source":"ndw"}},{"type":"Feature","geometry":{"type":"Point","coordinates":[5.534682,53.19523]},"properties":{"type":"charge","layer":"passenger","locationId":"CAF15218-596D-49DD-A8C8-D53C4E9602CA","name":"TNLP013047 - H.J.A.M. Schaepmanplein 5, Franeker","address":"5 H.J.A.M. Schaepmanplein","city":"Franeker","operatorName":"TotalEnergies","maxPowerKw":17,"isMegawatt":false,"status":"UNAVAILABLE","source":"ndw"}},{"type":"Feature","geometry":{"type":"Point","coordinates":[5.624526,53.194608]},"properties":{"type":"charge","layer":"passenger","locationId":"64a5182e364d05001ca8df82","name":"Ampleksa BV","address":"Westerpolder 5","city":"DRONRYP","operatorName":"Lanova Laadpalen","maxPowerKw":11,"isMegawatt":false,"status":"AVAILABLE","source":"ndw","priceKwh":0.28}},{"type":"Feature","geometry":{"type":"Point","coordinates":[5.540624,53.184727]},"properties":{"type":"charge","layer":"passenger","locationId":"A27296C8-4890-4C4B-A9A1-06ED8A43E26A","name":"TNLP013368 - Zuiderkade 43, Franeker","address":"43 Zuiderkade","city":"Franeker","operatorName":"TotalEnergies","maxPowerKw":17,"isMegawatt":false,"status":"UNAVAILABLE","source":"ndw"}},{"type":"Feature","geometry":{"type":"Point","coordinates":[5.718336,53.300102]},"properties":{"type":"charge","layer":"passenger","locationId":"0B53A6F0-1275-4434-A810-6E8793A15908","name":"TNLP013164 - Keuningsstreek 12, Oude Bildzijl","address":"12 Keuningsstreek","city":"Oude Bildzijl","operatorName":"TotalEnergies","maxPowerKw":17,"isMegawatt":false,"status":"UNAVAILABLE","source":"ndw"}},{"type":"Feature","geometry":{"type":"Point","coordinates":[5.663872,53.27679]},"properties":{"type":"charge","layer":"passenger","locationId":"FDF4EF7E-5173-428A-9AFF-E2D636EB86EC","name":"TNLP013238 - Van Harenstraat 130, Sint Annaparochie","address":"130 Van Harenstraat","city":"Sint Annaparochie","operatorName":"TotalEnergies","maxPowerKw":17,"isMegawatt":false,"status":"UNAVAILABLE","source":"ndw"}},{"type":"Feature","geometry":{"type":"Point","coordinates":[5.488501,53.216446]},"properties":{"type":"charge","layer":"passenger","locationId":"982487A5-7E0D-4D50-B323-6DFBB572F2C7","name":"TNLP012074 - Spoardyk 4, Sexbierum","address":"4 Spoardyk","city":"Sexbierum","operatorName":"TotalEnergies","maxPowerKw":17,"isMegawatt":false,"status":"AVAILABLE","source":"ndw"}},{"type":"Feature","geometry":{"type":"Point","coordinates":[5.689015,53.236275]},"properties":{"type":"charge","layer":"passenger","locationId":"06727249-86BA-4FB1-A8A9-B5B54795F75D","name":"TNLP012066 - De Kamp 3, Bitgum","address":"3 De Kamp","city":"Bitgum","operatorName":"TotalEnergies","maxPowerKw":17,"isMegawatt":false,"status":"UNAVAILABLE","source":"ndw"}},{"type":"Feature","geometry":{"type":"Point","coordinates":[5.531737,53.19141]},"properties":{"type":"charge","layer":"passenger","locationId":"EB12C575-E1BA-4403-9F69-D2A2D2764512","name":"TNLP012188 - Michiel Miedemastraat 13, Franeker","address":"13 Michiel Miedemastraat","city":"Franeker","operatorName":"TotalEnergies","maxPowerKw":17,"isMegawatt":false,"status":"AVAILABLE","source":"ndw"}},{"type":"Feature","geometry":{"type":"Point","coordinates":[5.565524,53.15667]},"properties":{"type":"charge","layer":"passenger","locationId":"034008A5-53C8-4AEE-A78A-958D4C39E26E","name":"TNLP012015 - Meester Klaas Douwesstraat 8, Tzum","address":"8 Meester Klaas Douwesstraat","city":"Tzum","operatorName":"TotalEnergies","maxPowerKw":17,"isMegawatt":false,"status":"UNAVAILABLE","source":"ndw"}},{"type":"Feature","geometry":{"type":"Point","coordinates":[5.547903,53.180573]},"properties":{"type":"charge","layer":"passenger","locationId":"98541DE4-3AD0-4885-BBA0-A169098F56F5","name":"TNLP013048 - Berltsumer Wiid 32, Franeker","address":"32 Berltsumer Wiid","city":"Franeker","operatorName":"TotalEnergies","maxPowerKw":17,"isMegawatt":false,"status":"UNAVAILABLE","source":"ndw"}},{"type":"Feature","geometry":{"type":"Point","coordinates":[5.660262,53.206118]},"properties":{"type":"charge","layer":"passenger","locationId":"6a2966021c130c0a7739b03a","name":"Harry Slotengraaf 's station","address":"Gralda 5","city":"Menaam","operatorName":"E-Flux by Road","maxPowerKw":11,"isMegawatt":false,"status":"AVAILABLE","source":"ndw","priceKwh":0.443}},{"type":"Feature","geometry":{"type":"Point","coordinates":[5.630849,53.149242]},"properties":{"type":"charge","layer":"passenger","locationId":"966B9959-3973-447F-8A3D-3B4BDDBDB14B","name":"TNLP013428 - Hegeterp 37, Winsum","address":"37 Hegeterp","city":"Winsum","operatorName":"TotalEnergies","maxPowerKw":17,"isMegawatt":false,"status":"AVAILABLE","source":"ndw"}},{"type":"Feature","geometry":{"type":"Point","coordinates":[5.714563,53.22629]},"properties":{"type":"charge","layer":"passenger","locationId":"E7F64C73-77CB-470B-AC70-C78268CDB881","name":"TNLP013299 - Folkert Klazingastrjitte 25, Engelum","address":"25 Folkert Klazingastrjitte","city":"Engelum","operatorName":"TotalEnergies","maxPowerKw":17,"isMegawatt":false,"status":"AVAILABLE","source":"ndw"}},{"type":"Feature","geometry":{"type":"Point","coordinates":[5.541787,53.198404]},"properties":{"type":"charge","layer":"passenger","locationId":"62a073a06b7e5f4c23846b50","name":"MoveYou_HQ","address":"Het Want 3","city":"Franeker","operatorName":"Moveyou","maxPowerKw":22,"isMegawatt":false,"status":"AVAILABLE","source":"ndw","priceKwh":0.45}},{"type":"Feature","geometry":{"type":"Point","coordinates":[5.636421,53.195713]},"properties":{"type":"charge","layer":"passenger","locationId":"62d16633b2514a196bf3029e","name":"Expedition Factory","address":"Osingasingel 10","city":"Dronrijp","operatorName":"E-Flux by Road","maxPowerKw":11,"isMegawatt":false,"status":"AVAILABLE","source":"ndw","priceKwh":0.53}},{"type":"Feature","geometry":{"type":"Point","coordinates":[5.523506,53.190291]},"properties":{"type":"charge","layer":"passenger","locationId":"91276435","name":"50five-S NL 07115192","address":"Marten van der Hemlaan 22","city":"Franeker","operatorName":"50five","maxPowerKw":11,"isMegawatt":false,"status":"AVAILABLE","source":"ndw"}},{"type":"Feature","geometry":{"type":"Point","coordinates":[5.627063,53.309155]},"properties":{"type":"charge","layer":"passenger","locationId":"C586469D-90E8-4185-B3BA-A8C562375175","name":"TNLP012140 - Nieuwebiltdijk 428, St.-Jacobiparochie","address":"428 Nieuwebiltdijk","city":"St.-Jacobiparochie","operatorName":"TotalEnergies","maxPowerKw":17,"isMegawatt":false,"status":"UNAVAILABLE","source":"ndw"}},{"type":"Feature","geometry":{"type":"Point","coordinates":[5.660561,53.21655]},"properties":{"type":"charge","layer":"passenger","locationId":"177E3FB8-2349-4B45-93FA-39DFF9ECE268","name":"TNLP012000 - Greatebuorren 8, Menaam","address":"8 Greatebuorren","city":"Menaam","operatorName":"TotalEnergies","maxPowerKw":17,"isMegawatt":false,"status":"UNAVAILABLE","source":"ndw"}},{"type":"Feature","geometry":{"type":"Point","coordinates":[5.511427,53.23546]},"properties":{"type":"charge","layer":"passenger","locationId":"474AF61E-E74A-4282-ACCB-69AF962FD389","name":"TNLP012061 - Buorren 27, Oosterbierum","address":"27 Buorren","city":"Oosterbierum","operatorName":"TotalEnergies","maxPowerKw":17,"isMegawatt":false,"status":"AVAILABLE","source":"ndw"}},{"type":"Feature","geometry":{"type":"Point","coordinates":[5.553098,53.188974]},"properties":{"type":"charge","layer":"passenger","locationId":"2652164","name":"Laadnet Recreatiepark Bloemketerp","address":"Burgemeester J. Dijkstraweg 3","city":"Franeker","operatorName":"Laadnet","maxPowerKw":22,"isMegawatt":false,"status":"AVAILABLE","source":"ndw"}},{"type":"Feature","geometry":{"type":"Point","coordinates":[5.536697,53.190052]},"properties":{"type":"charge","layer":"passenger","locationId":"DE80A312-D224-4E18-B362-3CCFB7DAED81","name":"TNLP013445 - Noorderbleek 34, Franeker","address":"34 Noorderbleek","city":"Franeker","operatorName":"TotalEnergies","maxPowerKw":17,"isMegawatt":false,"status":"CHARGING","source":"ndw"}},{"type":"Feature","geometry":{"type":"Point","coordinates":[5.716801,53.301914]},"properties":{"type":"charge","layer":"passenger","locationId":"9DE7D034-3CD2-4D87-A068-77A5D4CCEBD8","name":"TNLP012001 - Ds. Marinus Mooijstraat 14, Oudebildtzijl","address":"14 Ds. Marinus Mooijstraat","city":"Oudebildtzijl","operatorName":"TotalEnergies","maxPowerKw":17,"isMegawatt":false,"status":"UNAVAILABLE","source":"ndw"}},{"type":"Feature","geometry":{"type":"Point","coordinates":[5.646887,53.239117]},"properties":{"type":"charge","layer":"passenger","locationId":"C9458A04-6553-4E38-8C9F-40DD71A8CF9D","name":"TNLP012147 - De Pream 64, Berltsum","address":"64 De Pream","city":"Berltsum","operatorName":"TotalEnergies","maxPowerKw":17,"isMegawatt":false,"status":"UNAVAILABLE","source":"ndw"}},{"type":"Feature","geometry":{"type":"Point","coordinates":[5.535135,53.194687]},"properties":{"type":"charge","layer":"passenger","locationId":"67DCE4CA-E223-47B8-A2BD-73DAB74A9544","name":"TNLP012016 - H.J.A.M. Schaepmanplein 2, Franeker","address":"2 H.J.A.M. Schaepmanplein","city":"Franeker","operatorName":"TotalEnergies","maxPowerKw":17,"isMegawatt":false,"status":"UNAVAILABLE","source":"ndw"}},{"type":"Feature","geometry":{"type":"Point","coordinates":[5.729781,53.176754]},"properties":{"type":"charge","layer":"passenger","locationId":"7743CBA8-AEC2-479F-B7A5-2F3F57C324D2","name":"TNLP013392 - Oedsmawei 13, Boksum","address":"13 Oedsmawei","city":"Boksum","operatorName":"TotalEnergies","maxPowerKw":17,"isMegawatt":false,"status":"AVAILABLE","source":"ndw"}},{"type":"Feature","geometry":{"type":"Point","coordinates":[5.590449,53.223015]},"properties":{"type":"charge","layer":"passenger","locationId":"E28600C9-B2EE-4B74-8626-C87A76641A7E","name":"TNLP012068 - Hoofdstraat 6, Ried","address":"6 Hoofdstraat","city":"Ried","operatorName":"TotalEnergies","maxPowerKw":17,"isMegawatt":false,"status":"UNAVAILABLE","source":"ndw"}},{"type":"Feature","geometry":{"type":"Point","coordinates":[5.63764,53.19721]},"properties":{"type":"charge","layer":"passenger","locationId":"C3E1388D-0BAE-4EED-ADC4-9959A6AEB3D1","name":"TNLP012097 - Rypster Rak 2, Dronryp","address":"2 Rypster Rak","city":"Dronryp","operatorName":"TotalEnergies","maxPowerKw":17,"isMegawatt":false,"status":"UNAVAILABLE","source":"ndw"}},{"type":"Feature","geometry":{"type":"Point","coordinates":[5.53907,53.187466]},"properties":{"type":"charge","layer":"passenger","locationId":"41D9636A-A62D-434B-AB14-44C7AD48144D","name":"TNLP013233 - Sjaardemastraat 1, Franeker","address":"1 Sjaardemastraat","city":"Franeker","operatorName":"TotalEnergies","maxPowerKw":17,"isMegawatt":false,"status":"UNAVAILABLE","source":"ndw"}},{"type":"Feature","geometry":{"type":"Point","coordinates":[5.54736,53.184723]},"properties":{"type":"charge","layer":"passenger","locationId":"27F23134-16DB-450B-A3E6-0F17F4D728B4","name":"TNLP012013 - Zuiderkade 7, Franeker","address":"7 Zuiderkade","city":"Franeker","operatorName":"TotalEnergies","maxPowerKw":17,"isMegawatt":false,"status":"UNAVAILABLE","source":"ndw"}},{"type":"Feature","geometry":{"type":"Point","coordinates":[5.547843,53.23659]},"properties":{"type":"charge","layer":"passenger","locationId":"00596D0D-11F4-4633-8EE3-9E775146D019","name":"TNLP012172 - Buorren 43 C, Tzummarum","address":"43 C Buorren","city":"Tzummarum","operatorName":"TotalEnergies","maxPowerKw":17,"isMegawatt":false,"status":"UNAVAILABLE","source":"ndw"}},{"type":"Feature","geometry":{"type":"Point","coordinates":[5.647294,53.240765]},"properties":{"type":"charge","layer":"passenger","locationId":"4A340B38-CC65-41CA-AE9A-55E23A6C5946","name":"TNLP013430 - Gratemawei 6, Berltsum","address":"6 Gratemawei","city":"Berltsum","operatorName":"TotalEnergies","maxPowerKw":17,"isMegawatt":false,"status":"UNAVAILABLE","source":"ndw"}},{"type":"Feature","geometry":{"type":"Point","coordinates":[5.70797,53.234849]},"properties":{"type":"charge","layer":"passenger","locationId":"91276729","name":"50five-S NL 07100048","address":"J.H. van Aismawei 24","city":"Bitgummole","operatorName":"50five","maxPowerKw":16,"isMegawatt":false,"status":"AVAILABLE","source":"ndw"}},{"type":"Feature","geometry":{"type":"Point","coordinates":[5.626335,53.208176]},"properties":{"type":"charge","layer":"passenger","locationId":"3692558","name":"Laadnet Op Healwei","address":"Slappeterpsterdyk 11","city":"Skingen","operatorName":"Laadnet","maxPowerKw":22,"isMegawatt":false,"status":"CHARGING","source":"ndw"}},{"type":"Feature","geometry":{"type":"Point","coordinates":[5.649039,53.24249]},"properties":{"type":"charge","layer":"passenger","locationId":"ce85ff53-6857-413b-82ef-c760f1e9d533","name":"Hôfsleane 65A","address":"Hôfsleane 65A","city":"Berlikum","operatorName":"Vattenfall InCharge","maxPowerKw":22,"isMegawatt":false,"status":"AVAILABLE","source":"ndw","priceKwh":0.34}},{"type":"Feature","geometry":{"type":"MultiPolygon","coordinates":[[[[5.722392219784503,53.322314946816356],[5.721415491063192,53.31603443221807],[5.729683107868084,53.31745333247577],[5.749302018168481,53.31355633188661],[5.747165035185953,53.30992440815557],[5.744770929910496,53.30878973177535],[5.739394199118727,53.30398870959574],[5.735384505523338,53.29472214611921],[5.7351569243179075,53.29437114617336],[5.730572373402783,53.294469620441916],[5.729876374531698,53.293886861783335],[5.72798267550481,53.29170392485002],[5.727084362231677,53.289383572821244],[5.727026892646398,53.289148263673454],[5.727642950850317,53.28907360872019],[5.727616751261851,53.28895379102492],[5.726618275491992,53.2889900144092],[5.725499873415428,53.28914749888508],[5.724849961585596,53.28773419483067],[5.726350936568,53.2876084830771],[5.723843339814859,53.28443187074873],[5.724027729178614,53.28438171721155],[5.722044306201083,53.28047607496826],[5.7213585266783245,53.279573409226096],[5.720130201520588,53.2749178881318],[5.722307272766719,53.27153363069098],[5.72734074994372,53.268346707166295],[5.735387602341431,53.26471480277159],[5.729836582383317,53.261236923305674],[5.732601606085942,53.25716784296522],[5.73595767906573,53.251471153387754],[5.736133759298646,53.248903589843586],[5.733620375498739,53.24851510608029],[5.735274733930366,53.247046243726416],[5.743916652802988,53.24109917996966],[5.736012622834213,53.237436014036376],[5.734954534932656,53.23805517624001],[5.729769551489315,53.23525550797139],[5.73814837509728,53.23128443912138],[5.733625821136863,53.230895800670446],[5.732552538480925,53.2303240277247],[5.733597187068803,53.22231772822265],[5.734162972669426,53.21580567738619],[5.74561231349321,53.215877352971155],[5.747107855231643,53.215145374932646],[5.743905658413323,53.21138014165034],[5.734741185796107,53.211220709344744],[5.736090788885307,53.20608575511253],[5.73740090617161,53.206218300176445],[5.742411772702353,53.20009610859665],[5.7445747713923065,53.197805783337316],[5.74211733343298,53.1942788729556],[5.740700788921742,53.18744797090891],[5.740342889176696,53.18537283563771],[5.745409423850024,53.18523221546811],[5.741423347186441,53.18089606625189],[5.737786409572424,53.17254759806053],[5.734812927573197,53.17147510727821],[5.733326127137115,53.169474510734005],[5.732383191823808,53.169389591543826],[5.731345878945589,53.170744171261674],[5.728217180458605,53.16978612620872],[5.728334103951283,53.16792543859741],[5.724924876753733,53.16607987678316],[5.723529623227273,53.16842361986709],[5.723758030194288,53.1699799642882],[5.7201273653993505,53.17052815474967],[5.718787383525001,53.16948368704194],[5.7132442458427,53.17523055308762],[5.706098818731595,53.17338396995662],[5.699291329536845,53.17371074727763],[5.697901460170542,53.174479954954435],[5.697298845539701,53.17771815505774],[5.692686413457174,53.17993317290093],[5.687096101745208,53.18003986910592],[5.685912874409372,53.18168675924076],[5.684642208200235,53.18182680791127],[5.679398327681436,53.17913379558626],[5.677291264501476,53.176393597866394],[5.675171778548989,53.17771948075724],[5.67425999603226,53.17744557946187],[5.672524745282289,53.175171163162425],[5.669006127498412,53.17333372592135],[5.668102818367633,53.173668804491896],[5.66803831931829,53.175072614713095],[5.66583011408291,53.175275462854195],[5.6635925084703835,53.173971863747084],[5.662062150911161,53.172200440425726],[5.6625815362792,53.17070555467639],[5.661260781672053,53.16975924880933],[5.652840068916773,53.16626002320326],[5.653537050880039,53.1659265509722],[5.655140024890828,53.16514287811231],[5.656084089066271,53.165734358010276],[5.660296537005089,53.16427849175665],[5.660985126784753,53.16311351185776],[5.657502337977513,53.15861585511417],[5.65943508184502,53.157624382600645],[5.657659250757517,53.15723882262236],[5.656658526268771,53.15543441713253],[5.656934007089034,53.15444265386031],[5.661903843714535,53.15496835968721],[5.66281365203166,53.15232485489453],[5.661973406078715,53.15092070981855],[5.663319933182724,53.14982201867372],[5.658471674238159,53.149419175709106],[5.655447430700721,53.14772819288899],[5.652029828270742,53.14869093968808],[5.6493438193188075,53.14712838899937],[5.654124059729931,53.141639703501696],[5.649697999674121,53.139289751901586],[5.648106618482404,53.13837131100314],[5.644826862499187,53.137810250511784],[5.643885634436449,53.13745818344416],[5.638213220362762,53.13656516445595],[5.631992829421764,53.13302025758483],[5.636182950451593,53.13064660578655],[5.637486448962104,53.128053280390695],[5.6373475883698845,53.12414978389452],[5.635399948753051,53.1254149009395],[5.632186452273381,53.12558994655014],[5.632088405795216,53.12627092400712],[5.627423411282645,53.126703674549915],[5.6275019600054526,53.12820604176292],[5.624481017252534,53.12820084701088],[5.621893410194298,53.1269463088848],[5.624482477050335,53.128480977684156],[5.626235710554251,53.132008395540474],[5.624209196279006,53.13389148364047],[5.625413180862366,53.134188126281444],[5.622215614181374,53.138248610782355],[5.618871519754714,53.13611867081169],[5.596331100429045,53.125964239104356],[5.594420192772599,53.12947050731028],[5.591231330470328,53.128818426225315],[5.589949744059624,53.131002203402375],[5.5897660453852,53.13098180999422],[5.587640944327573,53.13033579662916],[5.586615636297468,53.13124674736883],[5.585919162129176,53.13099794640641],[5.582860438337772,53.13247793220233],[5.584033239414314,53.13394993551486],[5.58245558092386,53.133110610094185],[5.581756009778252,53.13375045998112],[5.577994218910772,53.134020209432826],[5.577602571153817,53.13369365048477],[5.5753105911852865,53.13429235804006],[5.57436055626525,53.133510050503865],[5.573980183443982,53.13120638538208],[5.571336862242043,53.12992049336343],[5.565199595867076,53.12960108190045],[5.562604044705552,53.130232365079394],[5.563602654239467,53.13124318613503],[5.562296869745934,53.13158688808124],[5.559929008835493,53.13463724339703],[5.55812645019381,53.134287506131855],[5.557448308462524,53.13472789628102],[5.55538027970144,53.134604290389206],[5.554190327736912,53.132938756718204],[5.550847304795482,53.13408830012077],[5.547316573315583,53.13736612457543],[5.543824847852759,53.13851027117159],[5.542176990077141,53.139947717069234],[5.5396650841626425,53.14095375706537],[5.539181831056703,53.14198522135924],[5.537656229689366,53.14210447640118],[5.537951526039305,53.14446572139073],[5.531211770094627,53.147889486745896],[5.527656094116787,53.145950260930924],[5.524645062545149,53.14554472458886],[5.520855937264406,53.14641569444007],[5.511596337866908,53.14576723090839],[5.510198157678199,53.14454158853398],[5.512395129463046,53.14314971260779],[5.51170410420268,53.14216631114294],[5.512504863897938,53.14187199927787],[5.511292844796222,53.1408376233049],[5.5104254299582776,53.14010207284302],[5.512939814384411,53.1385814504154],[5.504984963656365,53.13472794763444],[5.504736992776375,53.13533985512807],[5.501068197418524,53.136225801387866],[5.502887652521755,53.13784928003028],[5.500806020407914,53.13847133138114],[5.5009402121855695,53.138980594842586],[5.497917948201669,53.140736123042565],[5.496871059677414,53.140392186600245],[5.492518017152183,53.14201312867383],[5.488269972740468,53.13830619652413],[5.484321075288028,53.136988891617406],[5.48119502578692,53.13861640912563],[5.483023547507508,53.138861526943465],[5.4841911965187045,53.13982073445887],[5.486634726193722,53.140332533669955],[5.487101058145302,53.14100092980203],[5.484628883925328,53.14171932632409],[5.4828011145974695,53.141467672978905],[5.47966406039363,53.14299069732392],[5.477268849552781,53.14294323102022],[5.478496855371066,53.14529225879233],[5.472191215961697,53.14661523167785],[5.472833873132699,53.14885623573661],[5.474809111851587,53.15080722782002],[5.476440956974919,53.150421506187854],[5.476721998630165,53.15034511022587],[5.476785025715675,53.150763357784044],[5.480250457225355,53.157338892855336],[5.482794634623761,53.15913546886982],[5.4866834892414715,53.16501677240398],[5.484743046563169,53.16583544120448],[5.486044679800951,53.16774967465823],[5.485401144569444,53.167875510382586],[5.486009809883986,53.169680244320375],[5.488265185186615,53.16988793318824],[5.489404311790523,53.17211731252957],[5.491663023673019,53.17222885076635],[5.493433962908359,53.173027107367844],[5.493995394848771,53.174298055746476],[5.496366369583143,53.17780607084103],[5.496371709805254,53.178383494135915],[5.48185961732297,53.17615788332503],[5.480236426421611,53.17596151691191],[5.480134575674356,53.17632023480078],[5.479408493448709,53.17668539649289],[5.4816064299625475,53.18003805716095],[5.480931429930753,53.18005635245933],[5.48363823305624,53.183793761077666],[5.481698743591162,53.18378115569991],[5.482156839671129,53.18520532077162],[5.487603746410953,53.193644884827236],[5.490167662688962,53.19406917569259],[5.489555108290418,53.20073958002087],[5.485111545169041,53.1998834022549],[5.479342330080979,53.19967011210429],[5.466841715091175,53.1993525846843],[5.462457317790303,53.199942479153854],[5.461698295951418,53.20111483747481],[5.458006449393995,53.20007175963449],[5.456211963436037,53.20303180029447],[5.4379881700584916,53.209838928527155],[5.448774183768807,53.22030000651705],[5.452676469554434,53.222695251830054],[5.461665194038668,53.226474023207736],[5.473253773610406,53.23474437446999],[5.480125253323694,53.237925826605526],[5.482718018828943,53.240624342176645],[5.489693288975786,53.242037485481475],[5.50443944420608,53.24871048094883],[5.515271390708726,53.25200697306767],[5.516181904828527,53.25327597151713],[5.519279137641003,53.254354843395966],[5.524364635319755,53.25578271531238],[5.527287789789273,53.25734538398052],[5.536384171179088,53.26408195754233],[5.538118829630739,53.26561782218045],[5.546352381107032,53.271746580244425],[5.552850482091688,53.2747758061622],[5.56174611787224,53.28505209459747],[5.5785096090577335,53.29602193315266],[5.587016777733708,53.300468904195874],[5.6223890038444555,53.31118689135662],[5.625674483174731,53.31073555083403],[5.628335930597161,53.312722649007235],[5.6341276904064745,53.31453612245308],[5.643446360955808,53.31903892033038],[5.680348419491423,53.32811054779151],[5.717370023352481,53.33891604514506],[5.722392219784503,53.322314946816356]]]]},"properties":{"type":"boundary","gemeente":"Waadhoeke","code":"GM1949"}}]}