{"type":"FeatureCollection","metadata":{"gemeente":"Waddinxveen","slug":"waddinxveen","code":"GM0627","generated_at":"2026-08-08T12:05:52.020Z","total_passenger":92,"total_freight":2,"bounds":[4.5910888292957095,52.011680293604726,4.706038988986196,52.07704601591232],"operators":["50five","Allego","Blink Charging","ChargePoint","E-Flux by Road","Eneco","Kia Nederland B.V.","Laadnet","Laadsnel","Milence","Van Leeuwen"]},"features":[{"type":"Feature","geometry":{"type":"Point","coordinates":[4.663128,52.027583]},"properties":{"type":"charge","layer":"passenger","locationId":"91098794","name":"50five-S NL ICUCOMPACT001889","address":"Wilhelminakade 1","city":"Waddinxveen","operatorName":"50five","maxPowerKw":11,"isMegawatt":false,"status":"UNAVAILABLE","source":"ndw"}},{"type":"Feature","geometry":{"type":"Point","coordinates":[4.636917,52.034756]},"properties":{"type":"charge","layer":"passenger","locationId":"NLLOC015975","name":"NL, Kuyperhoeve 31, 2743JM, Waddinxveen","address":"Kuyperhoeve 31","city":"Waddinxveen","operatorName":"Allego","maxPowerKw":11,"isMegawatt":false,"status":"AVAILABLE","source":"ndw","priceKwh":0.511}},{"type":"Feature","geometry":{"type":"Point","coordinates":[4.630806,52.016406]},"properties":{"type":"charge","layer":"passenger","locationId":"663e17153f8198001c2cdbd2","name":"Waddinxveen K9","address":"Transportweg  32","city":"Waddinxveen","operatorName":"E-Flux by Road","maxPowerKw":11,"isMegawatt":false,"status":"AVAILABLE","source":"ndw","priceKwh":0.54}},{"type":"Feature","geometry":{"type":"Point","coordinates":[4.639774,52.038172]},"properties":{"type":"charge","layer":"passenger","locationId":"NLLOC013029","name":"NL, Graanakker 110, 2743 EL Waddinxveen","address":"Graanakker 110","city":"Waddinxveen","operatorName":"Allego","maxPowerKw":11,"isMegawatt":false,"status":"AVAILABLE","source":"ndw","priceKwh":0.511}},{"type":"Feature","geometry":{"type":"Point","coordinates":[4.657346,52.033103]},"properties":{"type":"charge","layer":"passenger","locationId":"NLLOC001504","name":"NLD, Waddinxveen, Jupiterlaan 9","address":"Jupiterlaan 9","city":"Waddinxveen","operatorName":"Allego","maxPowerKw":11,"isMegawatt":false,"status":"AVAILABLE","source":"ndw","priceKwh":0.511}},{"type":"Feature","geometry":{"type":"Point","coordinates":[4.656914,52.033553]},"properties":{"type":"charge","layer":"passenger","locationId":"NLLOC006638","name":"NL, Jupiterlaan 1, 2741 TH, Waddinxveen","address":"Jupiterlaan 1","city":"Waddinxveen","operatorName":"Allego","maxPowerKw":11,"isMegawatt":false,"status":"AVAILABLE","source":"ndw","priceKwh":0.511}},{"type":"Feature","geometry":{"type":"Point","coordinates":[4.654845,52.045264]},"properties":{"type":"charge","layer":"passenger","locationId":"NLENV6","name":"Supertank Waddinxveen","address":"Juliana van Stolberglaan 1","city":"Waddinxveen","operatorName":"","maxPowerKw":50,"isMegawatt":false,"status":"AVAILABLE","source":"ndw","priceKwh":0.74}},{"type":"Feature","geometry":{"type":"Point","coordinates":[4.634636,52.017688]},"properties":{"type":"charge","layer":"passenger","locationId":"2686614","name":"Laadnet Delta Wines B.V.","address":"Exportweg 8","city":"Waddinxveen","operatorName":"Laadnet","maxPowerKw":22,"isMegawatt":false,"status":"AVAILABLE","source":"ndw"}},{"type":"Feature","geometry":{"type":"Point","coordinates":[4.615227,52.02739]},"properties":{"type":"charge","layer":"passenger","locationId":"4fd3f683-cce2-46fe-893b-8cc4ed51f197","name":"P095.A - Isero - Montea","address":"Dirk Verheulweg 3","city":"Waddinxveen","operatorName":"Blink Charging","maxPowerKw":22,"isMegawatt":false,"status":"UNAVAILABLE","source":"ndw","priceKwh":0.2}},{"type":"Feature","geometry":{"type":"Point","coordinates":[4.652664,52.025742]},"properties":{"type":"charge","layer":"passenger","locationId":"NLCPIL7234935","name":"LKQ NL WADDINXVEEN 3","address":"320 Coenecoop","city":"Waddinxveen","operatorName":"ChargePoint","maxPowerKw":22,"isMegawatt":false,"status":"CHARGING","source":"ndw","priceKwh":0.5}},{"type":"Feature","geometry":{"type":"Point","coordinates":[4.655964,52.037119]},"properties":{"type":"charge","layer":"passenger","locationId":"NLLOC005246","name":"NLD, Heemraadweg 10, Waddinxveen","address":"Heemraadweg 10","city":"Waddinxveen","operatorName":"Allego","maxPowerKw":11,"isMegawatt":false,"status":"AVAILABLE","source":"ndw","priceKwh":0.511}},{"type":"Feature","geometry":{"type":"Point","coordinates":[4.650922,52.032864]},"properties":{"type":"charge","layer":"passenger","locationId":"672dfa66445dde83cc39c4a3","name":"Woonpartners Midden-Holland","address":"Coenecoop 6","city":"Waddinxveen","operatorName":"Laadsnel","maxPowerKw":22,"isMegawatt":false,"status":"AVAILABLE","source":"ndw","priceKwh":0.27}},{"type":"Feature","geometry":{"type":"Point","coordinates":[4.651355,52.02418]},"properties":{"type":"charge","layer":"passenger","locationId":"65a55c4c5ec16b001cd357d8","name":"C de Rooij 's station","address":"coenecoop  665","city":"Waddinxveen","operatorName":"E-Flux by Road","maxPowerKw":11,"isMegawatt":false,"status":"AVAILABLE","source":"ndw","priceKwh":0.38}},{"type":"Feature","geometry":{"type":"Point","coordinates":[4.630806,52.016406]},"properties":{"type":"charge","layer":"passenger","locationId":"663e13e4dafc19001c210c05","name":"Waddinxveen K6","address":"Transportweg 32","city":"Waddinxveen","operatorName":"E-Flux by Road","maxPowerKw":11,"isMegawatt":false,"status":"AVAILABLE","source":"ndw","priceKwh":0.54}},{"type":"Feature","geometry":{"type":"Point","coordinates":[4.651145,52.036467]},"properties":{"type":"charge","layer":"passenger","locationId":"4226278","name":"Laadnet Bouwacademie Groene Hart","address":"Kanaaldijk 11","city":"Waddinxveen","operatorName":"Laadnet","maxPowerKw":22,"isMegawatt":false,"status":"UNAVAILABLE","source":"ndw"}},{"type":"Feature","geometry":{"type":"Point","coordinates":[4.641752,52.049166]},"properties":{"type":"charge","layer":"passenger","locationId":"11DF164A-5BF2-4C7E-9F92-F3D6580303A4","name":"Eneco eMobility Alcapharm B.V. - Waddinxveen","address":"Dorpstraat 101","city":"Waddinxveen","operatorName":"Eneco","maxPowerKw":22,"isMegawatt":false,"status":"AVAILABLE","source":"ndw","priceKwh":0.4}},{"type":"Feature","geometry":{"type":"Point","coordinates":[4.656408,52.02514]},"properties":{"type":"charge","layer":"passenger","locationId":"676293484c1b31a0402de9be","name":"Autocentrum Van Vliet Waddinxveen","address":"Coenecoop 143","city":"Waddinxveen","operatorName":"Kia Nederland B.V.","maxPowerKw":176,"isMegawatt":false,"status":"AVAILABLE","source":"ndw","priceKwh":0.73}},{"type":"Feature","geometry":{"type":"Point","coordinates":[4.653831,52.028465]},"properties":{"type":"charge","layer":"passenger","locationId":"2745493","name":"Laadnet CC87A-01","address":"Coenecoop 87a","city":"Waddinxveen","operatorName":"Laadnet","maxPowerKw":22,"isMegawatt":false,"status":"UNAVAILABLE","source":"ndw"}},{"type":"Feature","geometry":{"type":"Point","coordinates":[4.654471,52.028148]},"properties":{"type":"charge","layer":"passenger","locationId":"91230523","name":"50five-S NL 03004843","address":"Coenecoop 71","city":"Waddinxveen","operatorName":"50five","maxPowerKw":22,"isMegawatt":false,"status":"AVAILABLE","source":"ndw"}},{"type":"Feature","geometry":{"type":"Point","coordinates":[4.632183,52.017927]},"properties":{"type":"charge","layer":"passenger","locationId":"91233247","name":"50five-S NL 09000317","address":"Distributieweg 8","city":"Waddinxveen","operatorName":"50five","maxPowerKw":11,"isMegawatt":false,"status":"AVAILABLE","source":"ndw"}},{"type":"Feature","geometry":{"type":"Point","coordinates":[4.644534,52.030152]},"properties":{"type":"charge","layer":"passenger","locationId":"NLLOC003500","name":"NLD Johan Zocherstraat 45, 2742 MS Waddinxveen","address":"Johan Zocherstraat 45","city":"Waddinxveen","operatorName":"Allego","maxPowerKw":11,"isMegawatt":false,"status":"AVAILABLE","source":"ndw","priceKwh":0.511}},{"type":"Feature","geometry":{"type":"Point","coordinates":[4.646202,52.049921]},"properties":{"type":"charge","layer":"passenger","locationId":"NLLOC001508","name":"NLD, Waddinxveen, Groensvoorde 20","address":"Groensvoorde 20","city":"Waddinxveen","operatorName":"Allego","maxPowerKw":22,"isMegawatt":false,"status":"AVAILABLE","source":"ndw","priceKwh":0.511}},{"type":"Feature","geometry":{"type":"Point","coordinates":[4.631158,52.033627]},"properties":{"type":"charge","layer":"passenger","locationId":"NLLOC005345","name":"NLD, Zonnehof 54 2743LP Waddinxveen","address":"Zonnehof 54","city":"Waddinxveen","operatorName":"Allego","maxPowerKw":11,"isMegawatt":false,"status":"AVAILABLE","source":"ndw","priceKwh":0.511}},{"type":"Feature","geometry":{"type":"Point","coordinates":[4.650093,52.04148]},"properties":{"type":"charge","layer":"passenger","locationId":"NLLOC001502","name":"NLD, Waddinxveen, Spoorpad 160","address":"Spoorpad 160","city":"Waddinxveen","operatorName":"Allego","maxPowerKw":22,"isMegawatt":false,"status":"AVAILABLE","source":"ndw","priceKwh":0.511}},{"type":"Feature","geometry":{"type":"Point","coordinates":[4.633063,52.035379]},"properties":{"type":"charge","layer":"passenger","locationId":"NLLOC001505","name":"NLD, Waddinxveen, Marga Klompehoeve 13","address":"Marga Klompehoeve 13","city":"Waddinxveen","operatorName":"Allego","maxPowerKw":11,"isMegawatt":false,"status":"AVAILABLE","source":"ndw","priceKwh":0.511}},{"type":"Feature","geometry":{"type":"Point","coordinates":[4.642869,52.039531]},"properties":{"type":"charge","layer":"passenger","locationId":"NLLOC003431","name":"NLD Kievitdreef 43, 2743 EG Waddinxveen","address":"Kievitdreef 43","city":"Waddinxveen","operatorName":"Allego","maxPowerKw":11,"isMegawatt":false,"status":"AVAILABLE","source":"ndw","priceKwh":0.511}},{"type":"Feature","geometry":{"type":"Point","coordinates":[4.610758,52.026351]},"properties":{"type":"charge","layer":"passenger","locationId":"NLLOC007216","name":"NL, Arie Kempkesweg 80, 2742JV, Waddinxveen","address":"Arie Kempkesweg 80","city":"Waddinxveen","operatorName":"Allego","maxPowerKw":11,"isMegawatt":false,"status":"AVAILABLE","source":"ndw","priceKwh":0.511}},{"type":"Feature","geometry":{"type":"Point","coordinates":[4.650499,52.027904]},"properties":{"type":"charge","layer":"passenger","locationId":"2499607","name":"Laadnet Van Noort Bedrijven B.V.","address":"Coenecoop 450","city":"Waddinxveen","operatorName":"Laadnet","maxPowerKw":22,"isMegawatt":false,"status":"AVAILABLE","source":"ndw"}},{"type":"Feature","geometry":{"type":"Point","coordinates":[4.661332,52.028053]},"properties":{"type":"charge","layer":"passenger","locationId":"4208961","name":"Laadnet Van Wijk Railinfra B.V.","address":"Sint Victorstraat 61","city":"Waddinxveen","operatorName":"Laadnet","maxPowerKw":22,"isMegawatt":false,"status":"AVAILABLE","source":"ndw"}},{"type":"Feature","geometry":{"type":"Point","coordinates":[4.645151,52.047345]},"properties":{"type":"charge","layer":"passenger","locationId":"NLLOC001506","name":"NLD, Waddinxveen, Mozartlaan 18","address":"Mozartlaan 18","city":"Waddinxveen","operatorName":"Allego","maxPowerKw":22,"isMegawatt":false,"status":"AVAILABLE","source":"ndw","priceKwh":0.511}},{"type":"Feature","geometry":{"type":"Point","coordinates":[4.630779,52.016465]},"properties":{"type":"charge","layer":"passenger","locationId":"663e1889115599001c573ae2","name":"Waddinxveen K10","address":"Transportweg 32","city":"Waddinxveen","operatorName":"E-Flux by Road","maxPowerKw":11,"isMegawatt":false,"status":"AVAILABLE","source":"ndw","priceKwh":0.54}},{"type":"Feature","geometry":{"type":"Point","coordinates":[4.616917,52.028491]},"properties":{"type":"charge","layer":"passenger","locationId":"91110285","name":"50five-S NL 08001238","address":"Dirk Verheulweg 158","city":"Waddinxveen","operatorName":"50five","maxPowerKw":22,"isMegawatt":false,"status":"AVAILABLE","source":"ndw"}},{"type":"Feature","geometry":{"type":"Point","coordinates":[4.630806,52.016406]},"properties":{"type":"charge","layer":"passenger","locationId":"663e0090ae91c5001c9e2afe","name":"Waddinxveen K1","address":"Transportweg 32","city":"Waddinxveen","operatorName":"E-Flux by Road","maxPowerKw":11,"isMegawatt":false,"status":"AVAILABLE","source":"ndw","priceKwh":0.54}},{"type":"Feature","geometry":{"type":"Point","coordinates":[4.633431,52.036337]},"properties":{"type":"charge","layer":"passenger","locationId":"NLLOC007901","name":"NL, Aletta Jacobshoeve 11, 2743JA, Waddinxveen","address":"Aletta Jacobshoeve 11","city":"Waddinxveen","operatorName":"Allego","maxPowerKw":11,"isMegawatt":false,"status":"AVAILABLE","source":"ndw","priceKwh":0.511}},{"type":"Feature","geometry":{"type":"Point","coordinates":[4.661455,52.056374]},"properties":{"type":"charge","layer":"passenger","locationId":"NLLOC002232","name":"NLD, Willem Kloosstraat 2, Waddinxveen","address":"Willem Kloosstraat 2","city":"Waddinxveen","operatorName":"Allego","maxPowerKw":11,"isMegawatt":false,"status":"AVAILABLE","source":"ndw","priceKwh":0.511}},{"type":"Feature","geometry":{"type":"Point","coordinates":[4.653763,52.027651]},"properties":{"type":"charge","layer":"passenger","locationId":"69d8b276af3df745fe57d0c5","name":"De Kruijf Trappen 1.1","address":"Coenecoop 79","city":"Waddinxveen","operatorName":"E-Flux by Road","maxPowerKw":22,"isMegawatt":false,"status":"AVAILABLE","source":"ndw","priceKwh":0.48}},{"type":"Feature","geometry":{"type":"Point","coordinates":[4.630806,52.016406]},"properties":{"type":"charge","layer":"passenger","locationId":"663e12accf842c001c5f9400","name":"Waddinxveen K5","address":"Transportweg  32","city":"Waddinxveen","operatorName":"E-Flux by Road","maxPowerKw":11,"isMegawatt":false,"status":"AVAILABLE","source":"ndw","priceKwh":0.54}},{"type":"Feature","geometry":{"type":"Point","coordinates":[4.630806,52.016406]},"properties":{"type":"charge","layer":"passenger","locationId":"663e11b165617b001d74073c","name":"Waddinxveen K4","address":"Transportweg 32","city":"Waddinxveen","operatorName":"E-Flux by Road","maxPowerKw":11,"isMegawatt":false,"status":"AVAILABLE","source":"ndw","priceKwh":0.54}},{"type":"Feature","geometry":{"type":"Point","coordinates":[4.639847,52.032354]},"properties":{"type":"charge","layer":"passenger","locationId":"6804c4fe8a039ab451f7eb0f","name":"Zaptec (73)","address":"Polderlaan 177","city":"Waddinxveen","operatorName":"E-Flux by Road","maxPowerKw":22,"isMegawatt":false,"status":"UNAVAILABLE","source":"ndw"}},{"type":"Feature","geometry":{"type":"Point","coordinates":[4.646363,52.052557]},"properties":{"type":"charge","layer":"passenger","locationId":"NLLOC001503","name":"NLD, Waddinxveen, Lindengaarde 32","address":"Lindengaarde 32","city":"Waddinxveen","operatorName":"Allego","maxPowerKw":11,"isMegawatt":false,"status":"AVAILABLE","source":"ndw","priceKwh":0.511}},{"type":"Feature","geometry":{"type":"Point","coordinates":[4.619318,52.02049]},"properties":{"type":"charge","layer":"passenger","locationId":"65ca1a4b729164001cbe5c5b","name":"Boba Supply BV","address":"Tweede Bloksweg  72A","city":"Waddinxveen","operatorName":"E-Flux by Road","maxPowerKw":22,"isMegawatt":false,"status":"AVAILABLE","source":"ndw","priceKwh":0.41}},{"type":"Feature","geometry":{"type":"Point","coordinates":[4.655157,52.056408]},"properties":{"type":"charge","layer":"passenger","locationId":"NLLOC001582","name":"NLD, Waddinxveen, H. Heijermanslaan 12","address":"H. Heijermanslaan 12","city":"Waddinxveen","operatorName":"Allego","maxPowerKw":11,"isMegawatt":false,"status":"AVAILABLE","source":"ndw","priceKwh":0.511}},{"type":"Feature","geometry":{"type":"Point","coordinates":[4.635856,52.01857]},"properties":{"type":"charge","layer":"passenger","locationId":"91107349","name":"50five-S NL 03003293","address":"Nijverheidsweg 2","city":"Waddinxveen","operatorName":"50five","maxPowerKw":11,"isMegawatt":false,"status":"AVAILABLE","source":"ndw"}},{"type":"Feature","geometry":{"type":"Point","coordinates":[4.630806,52.016406]},"properties":{"type":"charge","layer":"passenger","locationId":"663e1480fbb885001c2fd640","name":"Waddinxveen K7","address":"Transportweg 32","city":"Waddinxveen","operatorName":"E-Flux by Road","maxPowerKw":11,"isMegawatt":false,"status":"AVAILABLE","source":"ndw","priceKwh":0.54}},{"type":"Feature","geometry":{"type":"Point","coordinates":[4.65368,52.027705]},"properties":{"type":"charge","layer":"passenger","locationId":"69d8b43e17a88b10938c986b","name":"de Kruijf Trappen 2.2","address":"Coenecoop 79","city":"Waddinxveen","operatorName":"E-Flux by Road","maxPowerKw":22,"isMegawatt":false,"status":"AVAILABLE","source":"ndw","priceKwh":0.48}},{"type":"Feature","geometry":{"type":"Point","coordinates":[4.652387,52.049597]},"properties":{"type":"charge","layer":"passenger","locationId":"013F99D4-1D3C-4C3B-A3AC-9F9BB633574F","name":"Eneco eMobility Albert Heijn - Kon. Wilhelminaplein 42","address":"Kon. Wilhelminaplein 42","city":"Waddinxveen","operatorName":"Eneco","maxPowerKw":150,"isMegawatt":false,"status":"CHARGING","source":"ndw","priceKwh":0.62}},{"type":"Feature","geometry":{"type":"Point","coordinates":[4.610949,52.024906]},"properties":{"type":"charge","layer":"passenger","locationId":"91170560","name":"50five-S NL 09000139","address":"Dirk Verheulweg 158","city":"Waddinxveen","operatorName":"50five","maxPowerKw":22,"isMegawatt":false,"status":"AVAILABLE","source":"ndw"}},{"type":"Feature","geometry":{"type":"Point","coordinates":[4.643267,52.051645]},"properties":{"type":"charge","layer":"passenger","locationId":"NLLOC003093","name":"NLD, Peuleyen 68, 2742 EK Waddinxveen","address":"Peuleyen 68","city":"Waddinxveen","operatorName":"Allego","maxPowerKw":11,"isMegawatt":false,"status":"AVAILABLE","source":"ndw","priceKwh":0.511}},{"type":"Feature","geometry":{"type":"Point","coordinates":[4.650077,52.056028]},"properties":{"type":"charge","layer":"passenger","locationId":"NLLOC002257","name":"NLD, Busken Huetlaan 31 2741 AM Waddinxveen","address":"Busken Huetlaan","city":"Waddinxveen","operatorName":"Allego","maxPowerKw":11,"isMegawatt":false,"status":"AVAILABLE","source":"ndw","priceKwh":0.511}},{"type":"Feature","geometry":{"type":"Point","coordinates":[4.630806,52.016406]},"properties":{"type":"charge","layer":"passenger","locationId":"663e158a0f4975001cce4ccb","name":"Waddinxveen K8","address":"Transportweg 32","city":"Waddinxveen","operatorName":"E-Flux by Road","maxPowerKw":11,"isMegawatt":false,"status":"AVAILABLE","source":"ndw","priceKwh":0.54}},{"type":"Feature","geometry":{"type":"Point","coordinates":[4.647695,52.029147]},"properties":{"type":"charge","layer":"passenger","locationId":"NLLOC014713","name":"NL, Leonard Springerstraat 16, 2742 MN Waddinxveen","address":"Leonard Springerstraat 16","city":"Waddinxveen","operatorName":"Allego","maxPowerKw":11,"isMegawatt":false,"status":"AVAILABLE","source":"ndw","priceKwh":0.511}},{"type":"Feature","geometry":{"type":"Point","coordinates":[4.653685,52.027702]},"properties":{"type":"charge","layer":"passenger","locationId":"69d8b3cfce4b9fde90e76cdf","name":"de Kruijf Trappen 2.1","address":"Coenecoop 79","city":"Waddinxveen","operatorName":"E-Flux by Road","maxPowerKw":22,"isMegawatt":false,"status":"AVAILABLE","source":"ndw","priceKwh":0.48}},{"type":"Feature","geometry":{"type":"Point","coordinates":[4.637222,52.04024]},"properties":{"type":"charge","layer":"passenger","locationId":"NLLOC001507","name":"NLD, Waddinxveen, Zuidplaslaan 50","address":"Zuidplaslaan 50","city":"Waddinxveen","operatorName":"Allego","maxPowerKw":11,"isMegawatt":false,"status":"AVAILABLE","source":"ndw","priceKwh":0.511}},{"type":"Feature","geometry":{"type":"Point","coordinates":[4.67533,52.03796]},"properties":{"type":"charge","layer":"passenger","locationId":"525688E7-2B94-4E80-8434-234D6EC13558","name":"Eneco eMobility Coenecoopweg 3b1 Waddinxveen","address":"Coenecoopweg 3b1","city":"Waddinxveen","operatorName":"Eneco","maxPowerKw":22,"isMegawatt":false,"status":"AVAILABLE","source":"ndw","priceKwh":0.32}},{"type":"Feature","geometry":{"type":"Point","coordinates":[4.642604,52.048933]},"properties":{"type":"charge","layer":"passenger","locationId":"693467d9751f26152307482d","name":"Van Drie","address":"Wagnerlaan 7","city":"Waddinxveen","operatorName":"E-Flux by Road","maxPowerKw":22,"isMegawatt":false,"status":"AVAILABLE","source":"ndw","priceKwh":1.03}},{"type":"Feature","geometry":{"type":"Point","coordinates":[4.612129,52.025827]},"properties":{"type":"charge","layer":"passenger","locationId":"6a45221123dc66be638103bd","name":"De Wild Group B.V. 1/2","address":"Dirk Verheulweg 150","city":"Waddinxveen","operatorName":"E-Flux by Road","maxPowerKw":11,"isMegawatt":false,"status":"AVAILABLE","source":"ndw","priceKwh":0.38}},{"type":"Feature","geometry":{"type":"Point","coordinates":[4.634826,52.01873]},"properties":{"type":"charge","layer":"passenger","locationId":"91106347","name":"50five-S NL 03003308","address":"Nijverheidsweg 2","city":"Waddinxveen","operatorName":"50five","maxPowerKw":11,"isMegawatt":false,"status":"AVAILABLE","source":"ndw"}},{"type":"Feature","geometry":{"type":"Point","coordinates":[4.630806,52.016406]},"properties":{"type":"charge","layer":"passenger","locationId":"663e047ffbb885001c2f5736","name":"Waddinxveen K2","address":"Transportweg 32","city":"Waddinxveen","operatorName":"E-Flux by Road","maxPowerKw":11,"isMegawatt":false,"status":"AVAILABLE","source":"ndw","priceKwh":0.54}},{"type":"Feature","geometry":{"type":"Point","coordinates":[4.610787,52.046863]},"properties":{"type":"charge","layer":"passenger","locationId":"91276336","name":"50five-S NL 17B08845","address":"Onderweg 30","city":"Waddinxveen","operatorName":"50five","maxPowerKw":11,"isMegawatt":false,"status":"AVAILABLE","source":"ndw"}},{"type":"Feature","geometry":{"type":"Point","coordinates":[4.640377,52.0456]},"properties":{"type":"charge","layer":"passenger","locationId":"NLLOC007226","name":"NL, Veenkade 5, 2742 AM, Waddinxveen","address":"Veenkade 5","city":"Waddinxveen","operatorName":"Allego","maxPowerKw":11,"isMegawatt":false,"status":"AVAILABLE","source":"ndw","priceKwh":0.511}},{"type":"Feature","geometry":{"type":"Point","coordinates":[4.649916,52.032192]},"properties":{"type":"charge","layer":"passenger","locationId":"3964772","name":"Laadnet Flexcom Hub-Laadpunt","address":"Coenecoop 12","city":"Waddinxveen","operatorName":"Laadnet","maxPowerKw":22,"isMegawatt":false,"status":"UNAVAILABLE","source":"ndw"}},{"type":"Feature","geometry":{"type":"Point","coordinates":[4.63794,52.042232]},"properties":{"type":"charge","layer":"passenger","locationId":"91094874","name":"50five-S NL 03012030","address":"Machtelderf 11","city":"Waddinxveen","operatorName":"50five","maxPowerKw":11,"isMegawatt":false,"status":"AVAILABLE","source":"ndw"}},{"type":"Feature","geometry":{"type":"Point","coordinates":[4.658777,52.045662]},"properties":{"type":"charge","layer":"passenger","locationId":"NLLOC017015","name":"NL, Nesse 1, 2741 ES Waddinxveen","address":"Nesse 1","city":"Waddinxveen","operatorName":"Allego","maxPowerKw":11,"isMegawatt":false,"status":"AVAILABLE","source":"ndw","priceKwh":0.511}},{"type":"Feature","geometry":{"type":"Point","coordinates":[4.663046,52.027594]},"properties":{"type":"charge","layer":"passenger","locationId":"62a85c5b439b56ef141e5724","name":"Arvast Groep laadstation 1","address":"Wilhelminakade 1","city":"Waddinxveen","operatorName":"E-Flux by Road","maxPowerKw":22,"isMegawatt":false,"status":"AVAILABLE","source":"ndw","priceKwh":0.63}},{"type":"Feature","geometry":{"type":"Point","coordinates":[4.654164,52.028133]},"properties":{"type":"charge","layer":"passenger","locationId":"91229461","name":"50five-S NL 18B01388","address":"Coenecoop 73","city":"Waddinxveen","operatorName":"50five","maxPowerKw":11,"isMegawatt":false,"status":"AVAILABLE","source":"ndw"}},{"type":"Feature","geometry":{"type":"Point","coordinates":[4.648771,52.027513]},"properties":{"type":"charge","layer":"passenger","locationId":"NLLOC011310","name":"NL, Dubbelspoor 78, 2742MX, Waddinxveen","address":"Dubbelspoor 78","city":"Waddinxveen","operatorName":"Allego","maxPowerKw":11,"isMegawatt":false,"status":"AVAILABLE","source":"ndw","priceKwh":0.511}},{"type":"Feature","geometry":{"type":"Point","coordinates":[4.627794,52.035667]},"properties":{"type":"charge","layer":"passenger","locationId":"NLLOC002259","name":"NLD, Waddinxveen, Galilei 12","address":"Galilei 12","city":"Waddinxveen","operatorName":"Allego","maxPowerKw":11,"isMegawatt":false,"status":"AVAILABLE","source":"ndw","priceKwh":0.511}},{"type":"Feature","geometry":{"type":"Point","coordinates":[4.645437,52.032785]},"properties":{"type":"charge","layer":"passenger","locationId":"NLLOC002854","name":"NLD, Ganzerik 92, 2742MB Waddinxveen","address":"Ganzerik 92","city":"Waddinxveen","operatorName":"Allego","maxPowerKw":11,"isMegawatt":false,"status":"CHARGING","source":"ndw","priceKwh":0.511}},{"type":"Feature","geometry":{"type":"Point","coordinates":[4.630806,52.016406]},"properties":{"type":"charge","layer":"passenger","locationId":"663e0e3ddafc19001c20d8ee","name":"Waddinxveen K3","address":"Transportweg 32","city":"Waddinxveen","operatorName":"E-Flux by Road","maxPowerKw":11,"isMegawatt":false,"status":"AVAILABLE","source":"ndw","priceKwh":0.54}},{"type":"Feature","geometry":{"type":"Point","coordinates":[4.64745,52.054017]},"properties":{"type":"charge","layer":"passenger","locationId":"NLLOC001501","name":"NLD, Waddinxveen, Sparrengaarde 7","address":"Sparrengaarde 7","city":"Waddinxveen","operatorName":"Allego","maxPowerKw":11,"isMegawatt":false,"status":"AVAILABLE","source":"ndw","priceKwh":0.511}},{"type":"Feature","geometry":{"type":"Point","coordinates":[4.650621,52.045351]},"properties":{"type":"charge","layer":"passenger","locationId":"NLLOC003421","name":"NLD Passage 58, 2741GN Waddinxveen","address":"Passage 58","city":"Waddinxveen","operatorName":"Allego","maxPowerKw":11,"isMegawatt":false,"status":"AVAILABLE","source":"ndw","priceKwh":0.511}},{"type":"Feature","geometry":{"type":"Point","coordinates":[4.646175,52.039573]},"properties":{"type":"charge","layer":"passenger","locationId":"NLLOC027877","name":"NL, Limaweg 49, 2743 CC Waddinxveen","address":"Limaweg 49","city":"Waddinxveen","operatorName":"Allego","maxPowerKw":11,"isMegawatt":false,"status":"CHARGING","source":"ndw","priceKwh":0.511}},{"type":"Feature","geometry":{"type":"Point","coordinates":[4.658046,52.036414]},"properties":{"type":"charge","layer":"passenger","locationId":"91044187","name":"50five-S NL 07113110","address":"Zuidkade 89","city":"Boskoop","operatorName":"50five","maxPowerKw":14,"isMegawatt":false,"status":"AVAILABLE","source":"ndw"}},{"type":"Feature","geometry":{"type":"Point","coordinates":[4.631305,52.037836]},"properties":{"type":"charge","layer":"passenger","locationId":"67eceae2005ce9e08be6d3bb","name":"Verbaan 's station","address":"Woubrechterf 73","city":"Waddinxveen","operatorName":"E-Flux by Road","maxPowerKw":11,"isMegawatt":false,"status":"AVAILABLE","source":"ndw","priceKwh":0.5}},{"type":"Feature","geometry":{"type":"Point","coordinates":[4.633675,52.038505]},"properties":{"type":"charge","layer":"passenger","locationId":"NLLOC003854","name":"NLD Woubrechterf 36, 2743 HM Waddinxveen","address":"Woubrechterf 36","city":"Waddinxveen","operatorName":"Allego","maxPowerKw":11,"isMegawatt":false,"status":"AVAILABLE","source":"ndw","priceKwh":0.511}},{"type":"Feature","geometry":{"type":"Point","coordinates":[4.632846,52.016947]},"properties":{"type":"charge","layer":"passenger","locationId":"90224160","name":"Van Leeuwen Doeleman Logistiek","address":"Distributieweg 13","city":"Waddinxveen","operatorName":"Van Leeuwen","maxPowerKw":22,"isMegawatt":false,"status":"AVAILABLE","source":"ndw"}},{"type":"Feature","geometry":{"type":"Point","coordinates":[4.64373,52.035537]},"properties":{"type":"charge","layer":"passenger","locationId":"NLLOC008281","name":"NL, Adrianahoeve 23, 2742 PL, Waddinxveen","address":"Adrianahoeve 23","city":"Waddinxveen","operatorName":"Allego","maxPowerKw":11,"isMegawatt":false,"status":"AVAILABLE","source":"ndw","priceKwh":0.511}},{"type":"Feature","geometry":{"type":"Point","coordinates":[4.657859,52.043352]},"properties":{"type":"charge","layer":"passenger","locationId":"NLLOC007212","name":"NL, Raadhuisplein 1, 2741 HR, Waddinxveen","address":"Raadhuisplein 1","city":"Waddinxveen","operatorName":"Allego","maxPowerKw":11,"isMegawatt":false,"status":"AVAILABLE","source":"ndw","priceKwh":0.511}},{"type":"Feature","geometry":{"type":"Point","coordinates":[4.65361,52.047909]},"properties":{"type":"charge","layer":"passenger","locationId":"NLLOC001834","name":"NLD, Waddinxveen, Prinses Marijkestraat 7","address":"Prinses Marijkestraat 7","city":"Waddinxveen","operatorName":"Allego","maxPowerKw":22,"isMegawatt":false,"status":"AVAILABLE","source":"ndw","priceKwh":0.511}},{"type":"Feature","geometry":{"type":"Point","coordinates":[4.653755,52.027658]},"properties":{"type":"charge","layer":"passenger","locationId":"69d8b3498237dfe223041f2d","name":"de Kruijf Trappen 1.2","address":"Coenecoop 79","city":"Waddinxveen","operatorName":"E-Flux by Road","maxPowerKw":22,"isMegawatt":false,"status":"AVAILABLE","source":"ndw","priceKwh":0.48}},{"type":"Feature","geometry":{"type":"Point","coordinates":[4.66305,52.027608]},"properties":{"type":"charge","layer":"passenger","locationId":"62a85d02a9bffd4aefe54bae","name":"Arvast Groep laadstation 2","address":"Wilhelminakade 1","city":"Waddinxveen","operatorName":"E-Flux by Road","maxPowerKw":22,"isMegawatt":false,"status":"AVAILABLE","source":"ndw","priceKwh":0.63}},{"type":"Feature","geometry":{"type":"Point","coordinates":[4.64448,52.036276]},"properties":{"type":"charge","layer":"passenger","locationId":"NLLOC016577","name":"NL, Tuinbouwweg 2A, 2742 KP Waddinxveen","address":"Tuinbouwweg 2A","city":"Waddinxveen","operatorName":"Allego","maxPowerKw":11,"isMegawatt":false,"status":"AVAILABLE","source":"ndw","priceKwh":0.511}},{"type":"Feature","geometry":{"type":"Point","coordinates":[4.648228,52.03555]},"properties":{"type":"charge","layer":"passenger","locationId":"NLLOC008327","name":"NL, Molenzigt 2, 2742PH, Waddinxveen","address":"Molenzigt 2","city":"Waddinxveen","operatorName":"Allego","maxPowerKw":11,"isMegawatt":false,"status":"AVAILABLE","source":"ndw","priceKwh":0.511}},{"type":"Feature","geometry":{"type":"Point","coordinates":[4.653604,52.053276]},"properties":{"type":"charge","layer":"passenger","locationId":"NLLOC001836","name":"NLD, Waddinxveen, Willem de Rijkelaan 182","address":"Willem de Rijkelaan 182","city":"Waddinxveen","operatorName":"Allego","maxPowerKw":11,"isMegawatt":false,"status":"AVAILABLE","source":"ndw","priceKwh":0.511}},{"type":"Feature","geometry":{"type":"Point","coordinates":[4.640909,52.035358]},"properties":{"type":"charge","layer":"passenger","locationId":"NLLOC005127","name":"NLD De Akker 129 2743DT Waddinxveen","address":"NLD De Akker 129","city":"Waddinxveen","operatorName":"Allego","maxPowerKw":11,"isMegawatt":false,"status":"AVAILABLE","source":"ndw","priceKwh":0.511}},{"type":"Feature","geometry":{"type":"Point","coordinates":[4.656376,52.049318]},"properties":{"type":"charge","layer":"passenger","locationId":"NLLOC003501","name":"NLD Prins Alexanderstraat 2, 2741 CR Waddinxveen","address":"Prins Alexanderstraat 2","city":"Waddinxveen","operatorName":"Allego","maxPowerKw":11,"isMegawatt":false,"status":"AVAILABLE","source":"ndw","priceKwh":0.511}},{"type":"Feature","geometry":{"type":"Point","coordinates":[4.641104,52.046836]},"properties":{"type":"charge","layer":"passenger","locationId":"NLLOC003262","name":"NLD Polderkade 2, 2742KW Waddinxveen","address":"Polderkade 2","city":"Waddinxveen","operatorName":"Allego","maxPowerKw":11,"isMegawatt":false,"status":"AVAILABLE","source":"ndw","priceKwh":0.511}},{"type":"Feature","geometry":{"type":"Point","coordinates":[4.657976,52.039377]},"properties":{"type":"charge","layer":"passenger","locationId":"NLLOC003811","name":"NLD Zuidkade 56, 2741 JC Waddinxveen","address":"Zuidkade 56","city":"Waddinxveen","operatorName":"Allego","maxPowerKw":11,"isMegawatt":false,"status":"AVAILABLE","source":"ndw","priceKwh":0.511}},{"type":"Feature","geometry":{"type":"Point","coordinates":[4.654366,52.029748]},"properties":{"type":"charge","layer":"passenger","locationId":"89598874","name":"Van Leeuwen Coenecoop","address":"Coenecoop","city":"Waddinxveen","operatorName":"Van Leeuwen","maxPowerKw":11,"isMegawatt":false,"status":"AVAILABLE","source":"ndw"}},{"type":"Feature","geometry":{"type":"Point","coordinates":[4.660914,52.041992]},"properties":{"type":"charge","layer":"passenger","locationId":"91092386","name":"50five-S NL 17B18503","address":"Kromme Esse 2a","city":"Waddinxveen","operatorName":"50five","maxPowerKw":11,"isMegawatt":false,"status":"AVAILABLE","source":"ndw"}},{"type":"Feature","geometry":{"type":"Point","coordinates":[4.645007,52.056212]},"properties":{"type":"charge","layer":"passenger","locationId":"NLLOC002913","name":"NLD, Wingerd 109, 2742 SE Waddinxveen","address":"Wingerd 109","city":"Waddinxveen","operatorName":"Allego","maxPowerKw":11,"isMegawatt":false,"status":"AVAILABLE","source":"ndw","priceKwh":0.511}},{"type":"Feature","geometry":{"type":"Point","coordinates":[4.656344,52.038868]},"properties":{"type":"charge","layer":"passenger","locationId":"NLLOC006610","name":"NL, Watermolen 14, 2741 MP, Waddinxveen","address":"Watermolen 14","city":"Waddinxveen","operatorName":"Allego","maxPowerKw":11,"isMegawatt":false,"status":"AVAILABLE","source":"ndw","priceKwh":0.511}},{"type":"Feature","geometry":{"type":"Point","coordinates":[4.642582,52.018378]},"properties":{"type":"charge","layer":"freight","locationId":"6551f936cf2516001c4e3902","name":"DCB CHARGE Waddinxveen (E-Truck)","address":"Overslagweg 1","city":"Waddinxveen","operatorName":"E-Flux by Road","maxPowerKw":360,"isMegawatt":false,"status":"AVAILABLE","source":"ndw","priceKwh":0.63,"freightKind":"dedicated","freightReason":"truck-name"}},{"type":"Feature","geometry":{"type":"Point","coordinates":[4.6199,52.0177]},"properties":{"type":"charge","layer":"freight","locationId":"curated:milence-waddinxveen","name":"Milence Charging Hub Waddinxveen","address":"Distripark Doelwijk (A12), Waddinxveen","city":"Waddinxveen","operatorName":"Milence","maxPowerKw":400,"isMegawatt":false,"status":"UNKNOWN","source":"curated","freightKind":"dedicated","freightReason":"curated"}},{"type":"Feature","geometry":{"type":"MultiPolygon","coordinates":[[[[4.64690355873896,52.064280351458386],[4.659150121811067,52.06400630309365],[4.659147284709689,52.064018088153844],[4.659967250492324,52.064104660373346],[4.66402360172578,52.05770542532382],[4.66696417563215,52.05762776796534],[4.669699430372297,52.05550504178543],[4.669000916079424,52.05234196028563],[4.679803585629012,52.05207291238242],[4.679542719747013,52.05124673180089],[4.677310994323195,52.04397152117411],[4.6870589865482835,52.04383655358038],[4.687399265187063,52.04308563921147],[4.705105644173095,52.04028321920084],[4.706038988986196,52.04012021077849],[4.701737387292849,52.03785651616576],[4.699701344286049,52.03691479021142],[4.694970043678527,52.03441965705453],[4.691896128007949,52.032985259159204],[4.68584721965396,52.030264356152315],[4.680540828660156,52.02798175701593],[4.679081079406954,52.028191493037575],[4.667278385433537,52.02507879419132],[4.667769688732999,52.02451916394179],[4.670380020875488,52.022835661418604],[4.673647298022306,52.02259979348312],[4.679671096600108,52.02115774112952],[4.681822536479056,52.01930797981383],[4.675574254205245,52.01767537033066],[4.666605898923398,52.012971078636006],[4.664791461885964,52.01452434093266],[4.664716055612515,52.016485209578214],[4.667302654766304,52.01924562867169],[4.6677671163051135,52.0214898566155],[4.667371901787775,52.022646522651144],[4.663770550047711,52.02200804232407],[4.6627996430190075,52.02398471370694],[4.656842750724131,52.02205133838799],[4.655184143125113,52.02101635097414],[4.6530516426095865,52.02134462872507],[4.648812055355833,52.02057599233804],[4.6484245826962365,52.01898692794414],[4.6368018317549335,52.011680293604726],[4.624735023395661,52.01472240913735],[4.59695171358043,52.03154665934522],[4.5910888292957095,52.03508764388345],[4.607333994182114,52.04531226830998],[4.606272155781199,52.04594936737689],[4.610223777346428,52.046267582863834],[4.6108219834612365,52.04823374967818],[4.6109468599952415,52.04871112347811],[4.60804629876168,52.04911679334825],[4.605528567839548,52.05043857910832],[4.608405462856495,52.0629444993096],[4.608073777345829,52.06544130321844],[4.607426663081791,52.06552672470203],[4.607023335407008,52.07704601591232],[4.625319954667269,52.07644346268366],[4.6253067529336835,52.074447444443614],[4.636880717806569,52.07353189352951],[4.637624228353749,52.06801043294938],[4.638224639010093,52.06482387987907],[4.646860178453774,52.064283023318715],[4.64690355873896,52.064280351458386]]]]},"properties":{"type":"boundary","gemeente":"Waddinxveen","code":"GM0627"}}]}