{"type":"FeatureCollection","metadata":{"gemeente":"Wassenaar","slug":"wassenaar","code":"GM0629","generated_at":"2026-08-08T12:05:52.020Z","total_passenger":17,"total_freight":0,"bounds":[4.302636419860589,52.09477302274582,4.443939237166985,52.186898953518444],"operators":["50five","Allego","E-Flux by Road","Eneco","Pluq","Smart Grid Monitor","Van Leeuwen"]},"features":[{"type":"Feature","geometry":{"type":"Point","coordinates":[4.43077,52.15035]},"properties":{"type":"charge","layer":"passenger","locationId":"DBBBB4B0-C6E5-43FD-A1A3-44AFDDF2D3A8","name":"Eneco eMobility Marineweg 15 Wassenaar","address":"Marineweg 15","city":"Wassenaar","operatorName":"Eneco","maxPowerKw":22,"isMegawatt":false,"status":"UNAVAILABLE","source":"ndw","priceKwh":0.32}},{"type":"Feature","geometry":{"type":"Point","coordinates":[4.363146,52.118508]},"properties":{"type":"charge","layer":"passenger","locationId":"0c30a1b15cf34eeead9d9f892fd5d80b","name":"Hinfelaar Wassenaar","address":"Stoeplaan 11","city":"Wassenaar","operatorName":"Smart Grid Monitor","maxPowerKw":11,"isMegawatt":false,"status":"AVAILABLE","source":"ndw","priceKwh":0.4}},{"type":"Feature","geometry":{"type":"Point","coordinates":[4.386701,52.148073]},"properties":{"type":"charge","layer":"passenger","locationId":"89242726","name":"Van Leeuwen 89242726","address":"Duinrell 1","city":"Wassenaar","operatorName":"Van Leeuwen","maxPowerKw":22,"isMegawatt":false,"status":"AVAILABLE","source":"ndw"}},{"type":"Feature","geometry":{"type":"Point","coordinates":[4.364387,52.111359]},"properties":{"type":"charge","layer":"passenger","locationId":"67b4a29d54da6ede18f37c7d","name":"Laadpaal 2","address":"Landgoed de Wittenburg 1","city":"Wassenaar","operatorName":"E-Flux by Road","maxPowerKw":11,"isMegawatt":false,"status":"AVAILABLE","source":"ndw","priceKwh":0.48}},{"type":"Feature","geometry":{"type":"Point","coordinates":[4.415085,52.136688]},"properties":{"type":"charge","layer":"passenger","locationId":"91052774","name":"50five-S NL 07100907","address":"Papewegse Hof 12","city":"Wassenaar","operatorName":"50five","maxPowerKw":11,"isMegawatt":false,"status":"AVAILABLE","source":"ndw"}},{"type":"Feature","geometry":{"type":"Point","coordinates":[4.363925,52.118988]},"properties":{"type":"charge","layer":"passenger","locationId":"676015dac70f8d6a4b04e244","name":"VvE vh Landgoed De Schouwenburgh","address":"Stoeplaan  9","city":"Wassenaar","operatorName":"E-Flux by Road","maxPowerKw":11,"isMegawatt":false,"status":"AVAILABLE","source":"ndw","priceKwh":0.38}},{"type":"Feature","geometry":{"type":"Point","coordinates":[4.403674,52.142102]},"properties":{"type":"charge","layer":"passenger","locationId":"91068829","name":"50five-S NL 07004549","address":"Van Zuylen van Nijeveltstraat 90","city":"Wassenaar","operatorName":"50five","maxPowerKw":7,"isMegawatt":false,"status":"AVAILABLE","source":"ndw"}},{"type":"Feature","geometry":{"type":"Point","coordinates":[4.42317,52.146021]},"properties":{"type":"charge","layer":"passenger","locationId":"00064544-AA0B-4AF9-A09F-1ED697E14E8D","name":"Eneco eMobility Bouwstichting ASH - Rijksstraatweg 200 - Wassenaar","address":"Rijksstraatweg 200","city":"Wassenaar","operatorName":"Eneco","maxPowerKw":22,"isMegawatt":false,"status":"AVAILABLE","source":"ndw","priceKwh":0.35}},{"type":"Feature","geometry":{"type":"Point","coordinates":[4.373354,52.118236]},"properties":{"type":"charge","layer":"passenger","locationId":"91110501","name":"50five-S NL 08103495","address":"Laan van Hoogwolde 2","city":"Wassenaar","operatorName":"50five","maxPowerKw":11,"isMegawatt":false,"status":"AVAILABLE","source":"ndw"}},{"type":"Feature","geometry":{"type":"Point","coordinates":[4.359646,52.105753]},"properties":{"type":"charge","layer":"passenger","locationId":"NLLOC015958","name":"Allego - Van der Valk Den Haag - Wassenaar","address":"Zijdeweg 54","city":"Wassenaar","operatorName":"Allego","maxPowerKw":300,"isMegawatt":false,"status":"AVAILABLE","source":"ndw","priceKwh":0.511}},{"type":"Feature","geometry":{"type":"Point","coordinates":[4.379758,52.117838]},"properties":{"type":"charge","layer":"passenger","locationId":"60e41cd3bc86960ab04a7970","name":"Raephorst","address":"Raaphorstlaan 25","city":"Wassenaar","operatorName":"E-Flux by Road","maxPowerKw":22,"isMegawatt":false,"status":"CHARGING","source":"ndw","priceKwh":0.4}},{"type":"Feature","geometry":{"type":"Point","coordinates":[4.390204,52.14186]},"properties":{"type":"charge","layer":"passenger","locationId":"664dec77132a6a001cf906e7","name":"Maison Mosterd Charging Station","address":"Florijnlaan 8","city":"Wassenaar","operatorName":"E-Flux by Road","maxPowerKw":11,"isMegawatt":false,"status":"AVAILABLE","source":"ndw","priceKwh":0.2729}},{"type":"Feature","geometry":{"type":"Point","coordinates":[4.385575,52.153401]},"properties":{"type":"charge","layer":"passenger","locationId":"66794c4663a36d001c86c34f","name":"Restaurant De Baron","address":"Katwijkseweg 7","city":"Wassenaar","operatorName":"Pluq","maxPowerKw":22,"isMegawatt":false,"status":"AVAILABLE","source":"ndw","priceKwh":0.5}},{"type":"Feature","geometry":{"type":"Point","coordinates":[4.370472,52.133313]},"properties":{"type":"charge","layer":"passenger","locationId":"89205482","name":"50five Exploitatie De Koninklijke Haagsche Golf & Country Club","address":"Groot Haesebroekseweg 22","city":"Wassenaar","operatorName":"50five","maxPowerKw":22,"isMegawatt":false,"status":"CHARGING","source":"ndw"}},{"type":"Feature","geometry":{"type":"Point","coordinates":[4.364387,52.111359]},"properties":{"type":"charge","layer":"passenger","locationId":"67b4a0d454da6ede18f3276f","name":"Laadpaal 1","address":"Landgoed de Wittenburg  1","city":"Wassenaar","operatorName":"E-Flux by Road","maxPowerKw":11,"isMegawatt":false,"status":"AVAILABLE","source":"ndw","priceKwh":0.48}},{"type":"Feature","geometry":{"type":"Point","coordinates":[4.368863,52.124545]},"properties":{"type":"charge","layer":"passenger","locationId":"91064868","name":"50five-S NL 17B33343","address":"Konijnenlaan 35","city":"Wassenaar","operatorName":"50five","maxPowerKw":11,"isMegawatt":false,"status":"AVAILABLE","source":"ndw"}},{"type":"Feature","geometry":{"type":"Point","coordinates":[4.384462,52.133231]},"properties":{"type":"charge","layer":"passenger","locationId":"91231903","name":"50five-S NL 03000823","address":"Schouwweg 57","city":"Wassenaar","operatorName":"50five","maxPowerKw":11,"isMegawatt":false,"status":"UNAVAILABLE","source":"ndw"}},{"type":"Feature","geometry":{"type":"MultiPolygon","coordinates":[[[[4.398325029409756,52.1724225056877],[4.3990238041166725,52.17184834697834],[4.399147872318819,52.1719289879298],[4.4000793244136505,52.17138191192621],[4.40322013128343,52.16895781185955],[4.404111811320459,52.1684056401183],[4.4042141142718325,52.16826076138935],[4.404801387705727,52.167502935391404],[4.409318768747996,52.16934258768501],[4.411567195008628,52.163501606697196],[4.413193314277216,52.1637913932389],[4.414763833891243,52.162455206309886],[4.4177860131664515,52.16147806889035],[4.419771229803023,52.162344871699645],[4.425973745952962,52.159230349267105],[4.431094363338407,52.158437967672164],[4.440478012509531,52.155653524819776],[4.439215680849005,52.154696005165974],[4.438865008633264,52.15326502447899],[4.441371482163197,52.14949903132445],[4.443939237166985,52.14604179179552],[4.442988460725329,52.14534631400736],[4.427411911728957,52.13324365957391],[4.418304731863637,52.124436277661154],[4.413224540160817,52.12218911209199],[4.413548542803784,52.12160590021736],[4.401158957079359,52.111870450593486],[4.396925092607743,52.10904436049437],[4.391753250631412,52.10559148252896],[4.389135134454835,52.10384325771863],[4.387776009750046,52.10301631310289],[4.377038623923218,52.09703873299487],[4.375769299765377,52.09646350673964],[4.372709157151179,52.09477302274582],[4.370456164922681,52.096233565250984],[4.369866520452562,52.096234127000855],[4.363308869567153,52.10180390531471],[4.36319265253033,52.1021130231072],[4.358831206991384,52.105527502424025],[4.358616170140342,52.10568226966422],[4.35848843062581,52.10576118182292],[4.3437433321384376,52.09810899657102],[4.342317987778658,52.09748229104507],[4.341361914715816,52.09834294602291],[4.338573252321915,52.09743526431839],[4.337252806511121,52.09876996844635],[4.327388904410319,52.095657830112415],[4.323289478447515,52.09921041384737],[4.332264140630605,52.10304054715152],[4.33043438139326,52.104261681910145],[4.333060269913946,52.105731248439184],[4.329000347727172,52.10916725908803],[4.328942023548537,52.1092099683183],[4.328835703078865,52.109287819274236],[4.302636419860589,52.12852065665352],[4.321210571514937,52.14179511679208],[4.3451013322402465,52.16121405928],[4.350098098249862,52.165659181018164],[4.374377854130091,52.186898953518444],[4.398325029409756,52.1724225056877]]]]},"properties":{"type":"boundary","gemeente":"Wassenaar","code":"GM0629"}}]}