{"type":"FeatureCollection","metadata":{"gemeente":"Westland","slug":"westland","code":"GM1783","generated_at":"2026-08-08T12:05:52.020Z","total_passenger":120,"total_freight":1,"bounds":[4.125302484457527,51.94139952601654,4.309819285230901,52.056449681148024],"operators":["50five","Allego","DAEN Mobility","E-Flux by Road","Eneco","Kia Nederland B.V.","Laadnet","Opcharge","Pluq","Spirii","Tango electric","Van Leeuwen","bp pulse","e-VOLTT"]},"features":[{"type":"Feature","geometry":{"type":"Point","coordinates":[4.230578,51.950102]},"properties":{"type":"charge","layer":"passenger","locationId":"4278370","name":"Laadnet Eetcafé Westgaag - destination charging","address":"Transportweg 1","city":"Maasdijk","operatorName":"Laadnet","maxPowerKw":180,"isMegawatt":false,"status":"AVAILABLE","source":"ndw"}},{"type":"Feature","geometry":{"type":"Point","coordinates":[4.280752,52.013929]},"properties":{"type":"charge","layer":"passenger","locationId":"e153d0c598ee4de7b7d3","name":"Wateringen | Woonboulevard | DC","address":"'s-Gravenzandseweg 23","city":"Wateringen","operatorName":"Opcharge","maxPowerKw":50,"isMegawatt":false,"status":"AVAILABLE","source":"ndw","priceKwh":0.59}},{"type":"Feature","geometry":{"type":"Point","coordinates":[4.21946,51.967442]},"properties":{"type":"charge","layer":"passenger","locationId":"91083578","name":"Van Leeuwen PB Tec","address":"Honderdland 851","city":"Maasdijk","operatorName":"Van Leeuwen","maxPowerKw":2,"isMegawatt":false,"status":"AVAILABLE","source":"ndw"}},{"type":"Feature","geometry":{"type":"Point","coordinates":[4.236517,52.016814]},"properties":{"type":"charge","layer":"passenger","locationId":"609394d3744b1618ff8c74ed","name":"Dwarsweg","address":"Dwarsweg 9","city":"Rozenburg","operatorName":"E-Flux by Road","maxPowerKw":10,"isMegawatt":false,"status":"AVAILABLE","source":"ndw","priceKwh":0.53}},{"type":"Feature","geometry":{"type":"Point","coordinates":[4.280638,52.013765]},"properties":{"type":"charge","layer":"passenger","locationId":"dc75ff71-2f7b-472a-b611-4d9969532395","name":"bp pulse Wateringen","address":"Wippolderlaan 1","city":"Wateringen","operatorName":"bp pulse","maxPowerKw":150,"isMegawatt":false,"status":"AVAILABLE","source":"ndw","priceKwh":0.7}},{"type":"Feature","geometry":{"type":"Point","coordinates":[4.137068,51.998233]},"properties":{"type":"charge","layer":"passenger","locationId":"923348","name":"PBLR-0002563","address":"De Heeren van 's-Gravenzande 72","city":"'s-Gravenzande","operatorName":"DAEN Mobility","maxPowerKw":4,"isMegawatt":false,"status":"AVAILABLE","source":"ndw","priceKwh":0.35}},{"type":"Feature","geometry":{"type":"Point","coordinates":[4.226933,52.03179]},"properties":{"type":"charge","layer":"passenger","locationId":"91275430","name":"50five-S NL 03006479","address":"ABC Westland 135","city":"Poeldijk","operatorName":"50five","maxPowerKw":11,"isMegawatt":false,"status":"AVAILABLE","source":"ndw"}},{"type":"Feature","geometry":{"type":"Point","coordinates":[4.25714,51.97193]},"properties":{"type":"charge","layer":"passenger","locationId":"4216250","name":"Laadnet Rijk Zwaan TCHT","address":"Burgemeester Crezeelaan 66a","city":"De Lier","operatorName":"Laadnet","maxPowerKw":22,"isMegawatt":false,"status":"AVAILABLE","source":"ndw"}},{"type":"Feature","geometry":{"type":"Point","coordinates":[4.243096,51.963909]},"properties":{"type":"charge","layer":"passenger","locationId":"4241065","name":"Laadnet Kwekerij Bergcamp","address":"Oudecampsweg 11","city":"De Lier","operatorName":"Laadnet","maxPowerKw":22,"isMegawatt":false,"status":"AVAILABLE","source":"ndw"}},{"type":"Feature","geometry":{"type":"Point","coordinates":[4.280323,51.986307]},"properties":{"type":"charge","layer":"passenger","locationId":"4160625","name":"Laadnet Vreugdenhil Young Plants 3","address":"Noord-Lierweg 15","city":"De Lier","operatorName":"Laadnet","maxPowerKw":22,"isMegawatt":false,"status":"AVAILABLE","source":"ndw"}},{"type":"Feature","geometry":{"type":"Point","coordinates":[4.255189,51.972863]},"properties":{"type":"charge","layer":"passenger","locationId":"3692539","name":"Laadnet Rijk Zwaan De Serre","address":"Burgemeester Crezeelaan 40","city":"De Lier","operatorName":"Laadnet","maxPowerKw":22,"isMegawatt":false,"status":"AVAILABLE","source":"ndw"}},{"type":"Feature","geometry":{"type":"Point","coordinates":[4.28914,52.00721]},"properties":{"type":"charge","layer":"passenger","locationId":"bb177f35ca6344898e305ca368ab92dc","name":"Wateringen 00087 Boerderij Dichtbij  ","address":"Zwetkade Noord 3","city":"Wateringen","operatorName":"Opcharge","maxPowerKw":22,"isMegawatt":false,"status":"AVAILABLE","source":"ndw","priceKwh":0.49}},{"type":"Feature","geometry":{"type":"Point","coordinates":[4.20709,51.98081]},"properties":{"type":"charge","layer":"passenger","locationId":"4208855","name":"Laadnet Van der Valk Solar Systems","address":"Galgeweg 46","city":"‘s-Gravenzande","operatorName":"Laadnet","maxPowerKw":22,"isMegawatt":false,"status":"AVAILABLE","source":"ndw"}},{"type":"Feature","geometry":{"type":"Point","coordinates":[4.171652,52.023279]},"properties":{"type":"charge","layer":"passenger","locationId":"68282c1ed6e9efc351feaf34","name":"Hoogvliet, Molenstraat 46 Monster - I","address":"Molenstraat 46","city":"Monster","operatorName":"E-Flux by Road","maxPowerKw":22,"isMegawatt":false,"status":"AVAILABLE","source":"ndw","priceKwh":0.38}},{"type":"Feature","geometry":{"type":"Point","coordinates":[4.204648,51.992422]},"properties":{"type":"charge","layer":"passenger","locationId":"1403446","name":"Laadnet Parkeergarage De Rentmeester Naaldwijk","address":"Patijnenburg 43","city":"Naaldwijk","operatorName":"Laadnet","maxPowerKw":22,"isMegawatt":false,"status":"AVAILABLE","source":"ndw"}},{"type":"Feature","geometry":{"type":"Point","coordinates":[4.21075,52.02691]},"properties":{"type":"charge","layer":"passenger","locationId":"91228712","name":"50five-S NL 07101001","address":"Vrouwe antoniahof 2","city":"Poeldijk","operatorName":"50five","maxPowerKw":11,"isMegawatt":false,"status":"CHARGING","source":"ndw"}},{"type":"Feature","geometry":{"type":"Point","coordinates":[4.219629,51.966517]},"properties":{"type":"charge","layer":"passenger","locationId":"F89F786D-BCA1-480F-9E89-ADA5351A10E6","name":"Eneco eMobility Growers United Maasdijk","address":"Honderdland 899","city":"Maasdijk","operatorName":"Eneco","maxPowerKw":11,"isMegawatt":false,"status":"AVAILABLE","source":"ndw","priceKwh":0.3}},{"type":"Feature","geometry":{"type":"Point","coordinates":[4.227197,51.951751]},"properties":{"type":"charge","layer":"passenger","locationId":"4234450","name":"Laadnet VMeij Installaties BV","address":"Bandijkweg 30","city":"Maasdijk","operatorName":"Laadnet","maxPowerKw":22,"isMegawatt":false,"status":"AVAILABLE","source":"ndw"}},{"type":"Feature","geometry":{"type":"Point","coordinates":[4.177483,51.995179]},"properties":{"type":"charge","layer":"passenger","locationId":"OST21P0106_0010_0","name":"OST21P0106_0010_0","address":"van Leeuwenhoekstraat 10","city":"'s-Gravenzande","operatorName":"e-VOLTT","maxPowerKw":19,"isMegawatt":false,"status":"AVAILABLE","source":"ndw","priceKwh":0.5}},{"type":"Feature","geometry":{"type":"Point","coordinates":[4.250732,51.988691]},"properties":{"type":"charge","layer":"passenger","locationId":"67cacb9ae24e42715711f4df","name":"SK Roses 3","address":"Noord-Lierweg  40b","city":"De Lier","operatorName":"E-Flux by Road","maxPowerKw":22,"isMegawatt":false,"status":"AVAILABLE","source":"ndw","priceKwh":0.28}},{"type":"Feature","geometry":{"type":"Point","coordinates":[4.250762,51.98863]},"properties":{"type":"charge","layer":"passenger","locationId":"67cacb4eab7b4cd153ad6bd1","name":"SK Roses 2","address":"Noord-Lierweg 40b","city":"De Lier","operatorName":"E-Flux by Road","maxPowerKw":22,"isMegawatt":false,"status":"CHARGING","source":"ndw","priceKwh":0.28}},{"type":"Feature","geometry":{"type":"Point","coordinates":[4.297209,51.981081]},"properties":{"type":"charge","layer":"passenger","locationId":"65799f2e7ae494001cd47cec","name":"De Tuinderij","address":"Van Wijklaan 2","city":"De Lier","operatorName":"E-Flux by Road","maxPowerKw":22,"isMegawatt":false,"status":"AVAILABLE","source":"ndw","priceKwh":0.48}},{"type":"Feature","geometry":{"type":"Point","coordinates":[4.181612,51.995777]},"properties":{"type":"charge","layer":"passenger","locationId":"4153466","name":"Laadnet Beko Groothandel Extern","address":"Franklinstraat 17","city":"'s-Gravenzande","operatorName":"Laadnet","maxPowerKw":22,"isMegawatt":false,"status":"AVAILABLE","source":"ndw"}},{"type":"Feature","geometry":{"type":"Point","coordinates":[4.165898,51.989822]},"properties":{"type":"charge","layer":"passenger","locationId":"84bf2590-ba1d-4b3b-8c44-98b5bf173ac2","name":"Tango 's-Gravenzande 1-2-3","address":"Woutersweg 10a","city":"'s-Gravenzande","operatorName":"Tango electric","maxPowerKw":300,"isMegawatt":false,"status":"AVAILABLE","source":"ndw","priceKwh":0.6}},{"type":"Feature","geometry":{"type":"Point","coordinates":[4.196942,52.000366]},"properties":{"type":"charge","layer":"passenger","locationId":"91052636","name":"50five-S NL 07104829","address":"Zandheuvelweg 49","city":"Naaldwijk","operatorName":"50five","maxPowerKw":11,"isMegawatt":false,"status":"AVAILABLE","source":"ndw"}},{"type":"Feature","geometry":{"type":"Point","coordinates":[4.201537,51.986962]},"properties":{"type":"charge","layer":"passenger","locationId":"6683ac58b69938001cfd2a46","name":"Lentiz Dalton MAVO & Het Groene Lyceum","address":"Professor Holwerdalaan 60","city":"Naaldwijk","operatorName":"Pluq","maxPowerKw":22,"isMegawatt":false,"status":"AVAILABLE","source":"ndw","priceKwh":0.32}},{"type":"Feature","geometry":{"type":"Point","coordinates":[4.22275,51.973402]},"properties":{"type":"charge","layer":"passenger","locationId":"68e61f005a0bb5914d8b750a","name":"Van der Windt","address":"Burgmeester van Doornlaan 12","city":"De Lier","operatorName":"E-Flux by Road","maxPowerKw":11,"isMegawatt":false,"status":"AVAILABLE","source":"ndw","priceKwh":0.48}},{"type":"Feature","geometry":{"type":"Point","coordinates":[4.28551,52.013464]},"properties":{"type":"charge","layer":"passenger","locationId":"OST22P0016_0053_0","name":"OST22P0016_0053_0","address":"Westlandseweg 11","city":"Wateringen","operatorName":"e-VOLTT","maxPowerKw":38,"isMegawatt":false,"status":"AVAILABLE","source":"ndw","priceKwh":0.4}},{"type":"Feature","geometry":{"type":"Point","coordinates":[4.133528,51.996767]},"properties":{"type":"charge","layer":"passenger","locationId":"91108238","name":"50five-S NL 09102153","address":"Nieuwlandsedijk 41","city":"'s-Gravenzande","operatorName":"50five","maxPowerKw":11,"isMegawatt":false,"status":"AVAILABLE","source":"ndw"}},{"type":"Feature","geometry":{"type":"Point","coordinates":[4.219621,52.027678]},"properties":{"type":"charge","layer":"passenger","locationId":"91098594","name":"50five-S NL 07108014","address":"Laak 19","city":"Poeldijk","operatorName":"50five","maxPowerKw":11,"isMegawatt":false,"status":"CHARGING","source":"ndw"}},{"type":"Feature","geometry":{"type":"Point","coordinates":[4.24834,52.024095]},"properties":{"type":"charge","layer":"passenger","locationId":"91091885","name":"50five-S NL 17B10748","address":"Gouwlaan 99","city":"Kwintsheul","operatorName":"50five","maxPowerKw":12,"isMegawatt":false,"status":"AVAILABLE","source":"ndw"}},{"type":"Feature","geometry":{"type":"Point","coordinates":[4.231271,51.972454]},"properties":{"type":"charge","layer":"passenger","locationId":"91108226","name":"50five-S NL 19B01437","address":"Burgemeester van Doornlaan 9B","city":"De Lier","operatorName":"50five","maxPowerKw":11,"isMegawatt":false,"status":"UNAVAILABLE","source":"ndw"}},{"type":"Feature","geometry":{"type":"Point","coordinates":[4.280818,52.013896]},"properties":{"type":"charge","layer":"passenger","locationId":"de2e0302c7574237ad3e","name":"Wateringen | Woonboulevard | AC","address":"'s-Gravenzandseweg 23","city":"Wateringen","operatorName":"Opcharge","maxPowerKw":22,"isMegawatt":false,"status":"AVAILABLE","source":"ndw","priceKwh":0.49}},{"type":"Feature","geometry":{"type":"Point","coordinates":[4.23049,52.032815]},"properties":{"type":"charge","layer":"passenger","locationId":"91276458","name":"50five-S NL 08104748","address":"ABC Westland 230","city":"Poeldijk","operatorName":"50five","maxPowerKw":11,"isMegawatt":false,"status":"AVAILABLE","source":"ndw"}},{"type":"Feature","geometry":{"type":"Point","coordinates":[4.195337,51.957009]},"properties":{"type":"charge","layer":"passenger","locationId":"6a3a22984a932a3054531cbe","name":"Oranjepolderweg 15","address":"Oranjepolderweg  15","city":"Maasdijk","operatorName":"E-Flux by Road","maxPowerKw":11,"isMegawatt":false,"status":"AVAILABLE","source":"ndw","priceKwh":0.28}},{"type":"Feature","geometry":{"type":"Point","coordinates":[4.227755,52.031803]},"properties":{"type":"charge","layer":"passenger","locationId":"91276053","name":"50five-S NL 03005060","address":"ABC Westland 135","city":"Poeldijk","operatorName":"50five","maxPowerKw":11,"isMegawatt":false,"status":"AVAILABLE","source":"ndw"}},{"type":"Feature","geometry":{"type":"Point","coordinates":[4.228703,51.958384]},"properties":{"type":"charge","layer":"passenger","locationId":"OST22P0016_0003_0","name":"OST22P0016_0003_0","address":"Honderdland 71","city":"Maasdijk","operatorName":"e-VOLTT","maxPowerKw":19,"isMegawatt":false,"status":"AVAILABLE","source":"ndw","priceKwh":0.5}},{"type":"Feature","geometry":{"type":"Point","coordinates":[4.25183,51.962194]},"properties":{"type":"charge","layer":"passenger","locationId":"4174688","name":"Laadnet Lans Westland b.v.","address":"Burgerweg 32","city":"De Lier","operatorName":"Laadnet","maxPowerKw":22,"isMegawatt":false,"status":"AVAILABLE","source":"ndw"}},{"type":"Feature","geometry":{"type":"Point","coordinates":[4.251153,51.988769]},"properties":{"type":"charge","layer":"passenger","locationId":"67cae3702d621d454de7e1c5","name":"SK Roses 10","address":"Noord-Lierweg 40b","city":"De Lier","operatorName":"E-Flux by Road","maxPowerKw":22,"isMegawatt":false,"status":"AVAILABLE","source":"ndw","priceKwh":0.28}},{"type":"Feature","geometry":{"type":"Point","coordinates":[4.214245,52.002688]},"properties":{"type":"charge","layer":"passenger","locationId":"6752cc0c4abe56a16f82e28d","name":"Zeeuw & Zeeuw Kia Naaldwijk","address":"Klompenmakerstraat 30","city":"Naaldwijk","operatorName":"Kia Nederland B.V.","maxPowerKw":100,"isMegawatt":false,"status":"AVAILABLE","source":"ndw","priceKwh":0.78}},{"type":"Feature","geometry":{"type":"Point","coordinates":[4.251328,51.988801]},"properties":{"type":"charge","layer":"passenger","locationId":"67cad2c126f5f480886a4fcb","name":"SK Roses 8","address":"Noord-Lierweg 40b","city":"De Lier","operatorName":"E-Flux by Road","maxPowerKw":22,"isMegawatt":false,"status":"AVAILABLE","source":"ndw","priceKwh":0.28}},{"type":"Feature","geometry":{"type":"Point","coordinates":[4.24342,51.972123]},"properties":{"type":"charge","layer":"passenger","locationId":"3968950","name":"Laadnet Marel Beheer BV","address":"Hoogweg 2","city":"De Lier","operatorName":"Laadnet","maxPowerKw":22,"isMegawatt":false,"status":"AVAILABLE","source":"ndw"}},{"type":"Feature","geometry":{"type":"Point","coordinates":[4.214988,51.956555]},"properties":{"type":"charge","layer":"passenger","locationId":"4734308","name":"Laadnet Prinsenlaan","address":"Prinsenlaan 13","city":"Maasdijk","operatorName":"Laadnet","maxPowerKw":22,"isMegawatt":false,"status":"AVAILABLE","source":"ndw"}},{"type":"Feature","geometry":{"type":"Point","coordinates":[4.255103,52.007924]},"properties":{"type":"charge","layer":"passenger","locationId":"4923851","name":"Laadnet BK Plant","address":"Harteveldlaan 12","city":"Honselersdijk","operatorName":"Laadnet","maxPowerKw":150,"isMegawatt":false,"status":"AVAILABLE","source":"ndw"}},{"type":"Feature","geometry":{"type":"Point","coordinates":[4.216841,51.990097]},"properties":{"type":"charge","layer":"passenger","locationId":"369147D8-9E20-4539-B707-2245C05605E1","name":"Eneco eMobility Middel Broekweg 2A Naaldwijk","address":"Middel Broekweg 2A","city":"Naaldwijk","operatorName":"Eneco","maxPowerKw":22,"isMegawatt":false,"status":"CHARGING","source":"ndw","priceKwh":0.32}},{"type":"Feature","geometry":{"type":"Point","coordinates":[4.212468,51.961661]},"properties":{"type":"charge","layer":"passenger","locationId":"3803964","name":"Laadnet Lans Westland B.V.","address":"Maasambacht 2b","city":"Maasdijk","operatorName":"Laadnet","maxPowerKw":22,"isMegawatt":false,"status":"AVAILABLE","source":"ndw"}},{"type":"Feature","geometry":{"type":"Point","coordinates":[4.195512,52.011686]},"properties":{"type":"charge","layer":"passenger","locationId":"2457952","name":"Laadnet Van der Valk Systemen BV","address":"Zwartendijk 73","city":"Monster","operatorName":"Laadnet","maxPowerKw":22,"isMegawatt":false,"status":"AVAILABLE","source":"ndw"}},{"type":"Feature","geometry":{"type":"Point","coordinates":[4.272613,51.985508]},"properties":{"type":"charge","layer":"passenger","locationId":"4160622","name":"Laadnet Vreugdenhil Young Plants 1","address":"Noord-Lierweg 35-A","city":"De Lier","operatorName":"Laadnet","maxPowerKw":22,"isMegawatt":false,"status":"AVAILABLE","source":"ndw"}},{"type":"Feature","geometry":{"type":"Point","coordinates":[4.234682,52.033666]},"properties":{"type":"charge","layer":"passenger","locationId":"91106630","name":"50five-S NL 09100457","address":"ABC Westland 374","city":"Poeldijk","operatorName":"50five","maxPowerKw":11,"isMegawatt":false,"status":"AVAILABLE","source":"ndw"}},{"type":"Feature","geometry":{"type":"Point","coordinates":[4.288364,52.010809]},"properties":{"type":"charge","layer":"passenger","locationId":"94B2DAD6-C8AF-49A5-9E6C-2FD5CA417A53","name":"Eneco eMobility Dusseldorp BMW - Wateringen","address":"De Lierseweg 3","city":"Wateringen","operatorName":"Eneco","maxPowerKw":11,"isMegawatt":false,"status":"AVAILABLE","source":"ndw","priceKwh":0.6}},{"type":"Feature","geometry":{"type":"Point","coordinates":[4.228642,51.956553]},"properties":{"type":"charge","layer":"passenger","locationId":"68be865abc04ba243e156b8c","name":"Aartsdijkweg 45","address":"Aartsdijkweg 45","city":"Maasdijk","operatorName":"E-Flux by Road","maxPowerKw":11,"isMegawatt":false,"status":"AVAILABLE","source":"ndw","priceKwh":0.33}},{"type":"Feature","geometry":{"type":"Point","coordinates":[4.22657,52.031736]},"properties":{"type":"charge","layer":"passenger","locationId":"91276553","name":"50five-S NL 03005229","address":"ABC Westland 135","city":"Poeldijk","operatorName":"50five","maxPowerKw":11,"isMegawatt":false,"status":"AVAILABLE","source":"ndw"}},{"type":"Feature","geometry":{"type":"Point","coordinates":[4.250665,51.988667]},"properties":{"type":"charge","layer":"passenger","locationId":"67cacc0371e42a6eea673ac7","name":"SK Roses 4","address":"Noord-Lierweg 40b","city":"De Lier","operatorName":"E-Flux by Road","maxPowerKw":22,"isMegawatt":false,"status":"AVAILABLE","source":"ndw","priceKwh":0.28}},{"type":"Feature","geometry":{"type":"Point","coordinates":[4.266901,51.973331]},"properties":{"type":"charge","layer":"passenger","locationId":"3642119","name":"Laadnet Rijk Zwaan De Hybride","address":"Zijtwende 46","city":"De Lier","operatorName":"Laadnet","maxPowerKw":22,"isMegawatt":false,"status":"AVAILABLE","source":"ndw"}},{"type":"Feature","geometry":{"type":"Point","coordinates":[4.25769,51.963995]},"properties":{"type":"charge","layer":"passenger","locationId":"91141274","name":"Van Leeuwen U-Grand","address":"Laan van Boekesteijn 16","city":"De Lier","operatorName":"Van Leeuwen","maxPowerKw":11,"isMegawatt":false,"status":"AVAILABLE","source":"ndw"}},{"type":"Feature","geometry":{"type":"Point","coordinates":[4.235691,52.033818]},"properties":{"type":"charge","layer":"passenger","locationId":"91230519","name":"50five-S NL 03003989","address":"ABC Westland 374","city":"Poeldijk","operatorName":"50five","maxPowerKw":4,"isMegawatt":false,"status":"AVAILABLE","source":"ndw"}},{"type":"Feature","geometry":{"type":"Point","coordinates":[4.251261,51.988723]},"properties":{"type":"charge","layer":"passenger","locationId":"67cad04cbfb8a65609b0e8cf","name":"SK Roses 6","address":"Noord-Lierweg 40b","city":"De Lier","operatorName":"E-Flux by Road","maxPowerKw":22,"isMegawatt":false,"status":"AVAILABLE","source":"ndw","priceKwh":0.28}},{"type":"Feature","geometry":{"type":"Point","coordinates":[4.204073,51.997481]},"properties":{"type":"charge","layer":"passenger","locationId":"3672601","name":"Laadnet ISW Westland Praktijkcollege","address":"Lage Woerd 2","city":"Naaldwijk","operatorName":"Laadnet","maxPowerKw":22,"isMegawatt":false,"status":"AVAILABLE","source":"ndw"}},{"type":"Feature","geometry":{"type":"Point","coordinates":[4.27644,52.022483]},"properties":{"type":"charge","layer":"passenger","locationId":"60913a2798cccd2359f35bf2","name":"Guldeland","address":"Guldeland 31","city":"Wateringen ","operatorName":"E-Flux by Road","maxPowerKw":11,"isMegawatt":false,"status":"AVAILABLE","source":"ndw","priceKwh":0.53}},{"type":"Feature","geometry":{"type":"Point","coordinates":[4.233365,52.032399]},"properties":{"type":"charge","layer":"passenger","locationId":"91109411","name":"50five-S NL 09103100","address":"ABC Westland 384","city":"Poeldijk","operatorName":"50five","maxPowerKw":11,"isMegawatt":false,"status":"AVAILABLE","source":"ndw"}},{"type":"Feature","geometry":{"type":"Point","coordinates":[4.227405,52.031885]},"properties":{"type":"charge","layer":"passenger","locationId":"91276595","name":"50five-S NL 18B04269","address":"ABC Westland 135","city":"Poeldijk","operatorName":"50five","maxPowerKw":14,"isMegawatt":false,"status":"AVAILABLE","source":"ndw"}},{"type":"Feature","geometry":{"type":"Point","coordinates":[4.29728,51.981086]},"properties":{"type":"charge","layer":"passenger","locationId":"65799fb25369a3001ceff7fa","name":"De Tuinderij","address":"Van Wijklaan 2","city":"De Lier","operatorName":"E-Flux by Road","maxPowerKw":22,"isMegawatt":false,"status":"AVAILABLE","source":"ndw","priceKwh":0.48}},{"type":"Feature","geometry":{"type":"Point","coordinates":[4.244471,51.979742]},"properties":{"type":"charge","layer":"passenger","locationId":"91087150","name":"50five-S NL 07000917","address":"Blaker 1c","city":"De Lier","operatorName":"50five","maxPowerKw":13,"isMegawatt":false,"status":"AVAILABLE","source":"ndw"}},{"type":"Feature","geometry":{"type":"Point","coordinates":[4.229213,51.957025]},"properties":{"type":"charge","layer":"passenger","locationId":"91054284","name":"50five-S NL 03000837","address":"Aartsdijkweg 22","city":"Maasdijk","operatorName":"50five","maxPowerKw":11,"isMegawatt":false,"status":"AVAILABLE","source":"ndw"}},{"type":"Feature","geometry":{"type":"Point","coordinates":[4.221621,52.023229]},"properties":{"type":"charge","layer":"passenger","locationId":"64D7C4F3-ED1A-4FA0-BB6A-A480CF489725","name":"Eneco eMobility Verburghlaan 24A Poeldijk","address":"Verburghlaan 24A","city":"Poeldijk","operatorName":"Eneco","maxPowerKw":22,"isMegawatt":false,"status":"AVAILABLE","source":"ndw","priceKwh":0.32}},{"type":"Feature","geometry":{"type":"Point","coordinates":[4.217058,51.95923]},"properties":{"type":"charge","layer":"passenger","locationId":"91085818","name":"50five-S NL ICUCOMPACT000666","address":"Korte Kruisweg 19","city":"Maasdijk","operatorName":"50five","maxPowerKw":4,"isMegawatt":false,"status":"UNAVAILABLE","source":"ndw"}},{"type":"Feature","geometry":{"type":"Point","coordinates":[4.22293,51.95931]},"properties":{"type":"charge","layer":"passenger","locationId":"E4083C3B-C518-4B1C-9AFC-2F300FFD6D14","name":"Eneco eMobility Honderdland 171 Maasdijk","address":"Honderdland 171","city":"Maasdijk","operatorName":"Eneco","maxPowerKw":22,"isMegawatt":false,"status":"AVAILABLE","source":"ndw","priceKwh":0.32}},{"type":"Feature","geometry":{"type":"Point","coordinates":[4.23049,52.032815]},"properties":{"type":"charge","layer":"passenger","locationId":"91276323","name":"50five-S NL 08104736","address":"ABC Westland 230","city":"Poeldijk","operatorName":"50five","maxPowerKw":11,"isMegawatt":false,"status":"AVAILABLE","source":"ndw"}},{"type":"Feature","geometry":{"type":"Point","coordinates":[4.230782,52.032857]},"properties":{"type":"charge","layer":"passenger","locationId":"91276667","name":"50five-S NL 09102585","address":"ABC Westland 230","city":"Poeldijk","operatorName":"50five","maxPowerKw":11,"isMegawatt":false,"status":"UNAVAILABLE","source":"ndw"}},{"type":"Feature","geometry":{"type":"Point","coordinates":[4.264697,52.01511]},"properties":{"type":"charge","layer":"passenger","locationId":"D65F531D-FB37-4348-A550-933F6F50F95E","name":"Eneco eMobility Bovendijk 50 Kwintsheul","address":"Bovendijk 50","city":"Kwintsheul","operatorName":"Eneco","maxPowerKw":22,"isMegawatt":false,"status":"AVAILABLE","source":"ndw","priceKwh":0.32}},{"type":"Feature","geometry":{"type":"Point","coordinates":[4.240405,51.992923]},"properties":{"type":"charge","layer":"passenger","locationId":"4174798","name":"Laadnet Wollebrand Lakehouse","address":"Broekpolderlaan 10","city":"Honselersdijk","operatorName":"Laadnet","maxPowerKw":22,"isMegawatt":false,"status":"AVAILABLE","source":"ndw"}},{"type":"Feature","geometry":{"type":"Point","coordinates":[4.251186,51.988753]},"properties":{"type":"charge","layer":"passenger","locationId":"67cad25da918f52dec6667f8","name":"SK Roses 7","address":"Noord-Lierweg 40b","city":"40b","operatorName":"E-Flux by Road","maxPowerKw":22,"isMegawatt":false,"status":"CHARGING","source":"ndw","priceKwh":0.28}},{"type":"Feature","geometry":{"type":"Point","coordinates":[4.250856,51.988629]},"properties":{"type":"charge","layer":"passenger","locationId":"67cacabf71e42a6eea66dcc9","name":"SK Roses 1","address":"Noord-Lierweg 40b","city":"De Lier","operatorName":"E-Flux by Road","maxPowerKw":22,"isMegawatt":false,"status":"AVAILABLE","source":"ndw","priceKwh":0.28}},{"type":"Feature","geometry":{"type":"Point","coordinates":[4.258604,51.95959]},"properties":{"type":"charge","layer":"passenger","locationId":"4567A48A-1939-40E8-8797-D0B2FBF40376","name":"Eneco eMobility Growers United De Lier","address":"Scheeweg 9","city":"De Lier","operatorName":"Eneco","maxPowerKw":11,"isMegawatt":false,"status":"AVAILABLE","source":"ndw","priceKwh":0.3}},{"type":"Feature","geometry":{"type":"Point","coordinates":[4.21045,51.99331]},"properties":{"type":"charge","layer":"passenger","locationId":"4666FAC4-DEA7-4705-A3B5-EDAAC6F21CF4","name":"Eneco eMobility Ahold Europe Real Estate & Construction - Naaldwijk","address":"Verdilaan 4","city":"Naaldwijk","operatorName":"Eneco","maxPowerKw":22,"isMegawatt":false,"status":"AVAILABLE","source":"ndw","priceKwh":0.35}},{"type":"Feature","geometry":{"type":"Point","coordinates":[4.204969,51.998679]},"properties":{"type":"charge","layer":"passenger","locationId":"4230221","name":"Laadnet Baljeu en Staal assurantien BV","address":"De Linge 14","city":"Naaldwijk","operatorName":"Laadnet","maxPowerKw":22,"isMegawatt":false,"status":"AVAILABLE","source":"ndw"}},{"type":"Feature","geometry":{"type":"Point","coordinates":[4.245322,51.968341]},"properties":{"type":"charge","layer":"passenger","locationId":"4250337","name":"Laadnet Kwekerij Bergcamp - Hoogweg","address":"GHoogweg 15F","city":"De Lier","operatorName":"Laadnet","maxPowerKw":22,"isMegawatt":false,"status":"AVAILABLE","source":"ndw"}},{"type":"Feature","geometry":{"type":"Point","coordinates":[4.233655,51.974276]},"properties":{"type":"charge","layer":"passenger","locationId":"3966601","name":"Laadnet Boekestijn","address":"Kijckerweg 105-A","city":"De Lier","operatorName":"Laadnet","maxPowerKw":22,"isMegawatt":false,"status":"AVAILABLE","source":"ndw"}},{"type":"Feature","geometry":{"type":"Point","coordinates":[4.222242,51.96235]},"properties":{"type":"charge","layer":"passenger","locationId":"AF894E34-6371-4A57-9D8C-7AC93D5CB20D","name":"Eneco eMobility Firma Greenpack - Maasdijk","address":"Honderdland 431","city":"Maasdijk","operatorName":"Eneco","maxPowerKw":11,"isMegawatt":false,"status":"AVAILABLE","source":"ndw","priceKwh":0.55}},{"type":"Feature","geometry":{"type":"Point","coordinates":[4.227293,51.959567]},"properties":{"type":"charge","layer":"passenger","locationId":"4287230","name":"Laadnet Logistic Business Partners Rotterdam B.V.","address":"Honderdland 50","city":"Maasdijk","operatorName":"Laadnet","maxPowerKw":22,"isMegawatt":false,"status":"AVAILABLE","source":"ndw"}},{"type":"Feature","geometry":{"type":"Point","coordinates":[4.265119,51.977916]},"properties":{"type":"charge","layer":"passenger","locationId":"64007f640f1ffc00127cf414","name":"Berkman - De Lier","address":"Lierweg  107","city":"De Lier","operatorName":"E-Flux by Road","maxPowerKw":50,"isMegawatt":false,"status":"AVAILABLE","source":"ndw","priceKwh":0.48}},{"type":"Feature","geometry":{"type":"Point","coordinates":[4.229082,51.999041]},"properties":{"type":"charge","layer":"passenger","locationId":"91231243","name":"50five-S NL 18B06193","address":"Middel Broekweg 31","city":"Honselersdijk","operatorName":"50five","maxPowerKw":22,"isMegawatt":false,"status":"AVAILABLE","source":"ndw"}},{"type":"Feature","geometry":{"type":"Point","coordinates":[4.211796,51.961071]},"properties":{"type":"charge","layer":"passenger","locationId":"4174449","name":"Laadnet Bos elektrotechniek B.V.","address":"Maasambacht 2A","city":"Maasdijk","operatorName":"Laadnet","maxPowerKw":22,"isMegawatt":false,"status":"AVAILABLE","source":"ndw"}},{"type":"Feature","geometry":{"type":"Point","coordinates":[4.229844,52.034625]},"properties":{"type":"charge","layer":"passenger","locationId":"660d386e75cc1f001c454e46","name":"Van der Ende Racing Inn","address":"Nieuweweg  57K","city":"Poeldijk","operatorName":"E-Flux by Road","maxPowerKw":11,"isMegawatt":false,"status":"AVAILABLE","source":"ndw","priceKwh":0.58}},{"type":"Feature","geometry":{"type":"Point","coordinates":[4.283126,52.012951]},"properties":{"type":"charge","layer":"passenger","locationId":"699592fd6960459b3e2a41d0","name":"Agro Care 1","address":"Naaldwijkseweg 100","city":"Wateringen","operatorName":"E-Flux by Road","maxPowerKw":22,"isMegawatt":false,"status":"AVAILABLE","source":"ndw","priceKwh":0.28}},{"type":"Feature","geometry":{"type":"Point","coordinates":[4.209268,52.020604]},"properties":{"type":"charge","layer":"passenger","locationId":"4216660","name":"Laadnet Kokosystems Holding b.v.","address":"Saturnus 11","city":"Poeldijk","operatorName":"Laadnet","maxPowerKw":22,"isMegawatt":false,"status":"AVAILABLE","source":"ndw"}},{"type":"Feature","geometry":{"type":"Point","coordinates":[4.171648,52.023268]},"properties":{"type":"charge","layer":"passenger","locationId":"68282cd9254964ee855e0169","name":"Hoogvliet, Molenstraat 46 Monster - II","address":"Molenstraat  46","city":"monster","operatorName":"E-Flux by Road","maxPowerKw":22,"isMegawatt":false,"status":"AVAILABLE","source":"ndw","priceKwh":0.38}},{"type":"Feature","geometry":{"type":"Point","coordinates":[4.3007,52.01484]},"properties":{"type":"charge","layer":"passenger","locationId":"6CFD4BF1-06A0-43B9-BF0E-BB127AE0BE6A","name":"Eneco eMobility Klopperman 49 Wateringen","address":"Klopperman 49","city":"Wateringen","operatorName":"Eneco","maxPowerKw":22,"isMegawatt":false,"status":"AVAILABLE","source":"ndw","priceKwh":0.32}},{"type":"Feature","geometry":{"type":"Point","coordinates":[4.220332,51.969494]},"properties":{"type":"charge","layer":"passenger","locationId":"AD548277-1480-4F87-810F-3DCD041E276B","name":"Eneco eMobility Leehove 49 De Lier","address":"Leehove 49","city":"De Lier","operatorName":"Eneco","maxPowerKw":22,"isMegawatt":false,"status":"AVAILABLE","source":"ndw","priceKwh":0.32}},{"type":"Feature","geometry":{"type":"Point","coordinates":[4.269498,51.976454]},"properties":{"type":"charge","layer":"passenger","locationId":"4216549","name":"Laadnet Rijk Zwaan SQC","address":"Zijtwende 50","city":"De Lier","operatorName":"Laadnet","maxPowerKw":22,"isMegawatt":false,"status":"AVAILABLE","source":"ndw"}},{"type":"Feature","geometry":{"type":"Point","coordinates":[4.283126,52.012951]},"properties":{"type":"charge","layer":"passenger","locationId":"699593d8885b785d7ac650cc","name":"Agro Care 2","address":"Naaldwijkseweg 100","city":"Wateringen","operatorName":"E-Flux by Road","maxPowerKw":22,"isMegawatt":false,"status":"AVAILABLE","source":"ndw","priceKwh":0.28}},{"type":"Feature","geometry":{"type":"Point","coordinates":[4.282728,51.977662]},"properties":{"type":"charge","layer":"passenger","locationId":"3967155","name":"Laadnet Logico","address":"Zijtwende 19","city":"De Lier","operatorName":"Laadnet","maxPowerKw":22,"isMegawatt":false,"status":"AVAILABLE","source":"ndw"}},{"type":"Feature","geometry":{"type":"Point","coordinates":[4.258028,52.015745]},"properties":{"type":"charge","layer":"passenger","locationId":"2042610","name":"Laadnet Autoservice Valstar","address":"Bovendijk 15","city":"Kwintsheul","operatorName":"Laadnet","maxPowerKw":22,"isMegawatt":false,"status":"AVAILABLE","source":"ndw"}},{"type":"Feature","geometry":{"type":"Point","coordinates":[4.251228,51.988713]},"properties":{"type":"charge","layer":"passenger","locationId":"67cacde371e42a6eea67e403","name":"SK Roses 5","address":"Noord-Lierweg  40b","city":"De Lier","operatorName":"E-Flux by Road","maxPowerKw":22,"isMegawatt":false,"status":"AVAILABLE","source":"ndw","priceKwh":0.28}},{"type":"Feature","geometry":{"type":"Point","coordinates":[4.283126,52.012951]},"properties":{"type":"charge","layer":"passenger","locationId":"6996d88e3fcbf4ea8c53691c","name":"Agro Care 3","address":"Naaldwijkseweg 100","city":"Wateringen","operatorName":"E-Flux by Road","maxPowerKw":11,"isMegawatt":false,"status":"AVAILABLE","source":"ndw","priceKwh":0.28}},{"type":"Feature","geometry":{"type":"Point","coordinates":[4.250843,51.971714]},"properties":{"type":"charge","layer":"passenger","locationId":"4160623","name":"Laadnet Vreugdenhil Young Plants 2","address":"Burgemeester Crezeelaan 12","city":"De Lier","operatorName":"Laadnet","maxPowerKw":22,"isMegawatt":false,"status":"AVAILABLE","source":"ndw"}},{"type":"Feature","geometry":{"type":"Point","coordinates":[4.205042,51.992182]},"properties":{"type":"charge","layer":"passenger","locationId":"4226381","name":"Laadnet Olsthoorn Makelaars Westland B.V.","address":"Patijnenburg 16","city":"Naaldwijk","operatorName":"Laadnet","maxPowerKw":22,"isMegawatt":false,"status":"AVAILABLE","source":"ndw"}},{"type":"Feature","geometry":{"type":"Point","coordinates":[4.222441,51.980857]},"properties":{"type":"charge","layer":"passenger","locationId":"3289932","name":"Laadnet Looye Kwekers Naaldwijk","address":"Vlietboomgaard 10","city":"Naaldwijk","operatorName":"Laadnet","maxPowerKw":22,"isMegawatt":false,"status":"AVAILABLE","source":"ndw"}},{"type":"Feature","geometry":{"type":"Point","coordinates":[4.22545,52.011425]},"properties":{"type":"charge","layer":"passenger","locationId":"67e3afa5ce896c284867e31f","name":"Vollebregt Barten 5a rechts","address":"Peoldijksepad 5","city":"Honselersdijk","operatorName":"E-Flux by Road","maxPowerKw":22,"isMegawatt":false,"status":"AVAILABLE","source":"ndw","priceKwh":0.53}},{"type":"Feature","geometry":{"type":"Point","coordinates":[4.271033,51.991797]},"properties":{"type":"charge","layer":"passenger","locationId":"91051358","name":"50five-S NL 03004782","address":"Pastoor Verburghlaan 20a","city":"Westland","operatorName":"50five","maxPowerKw":8,"isMegawatt":false,"status":"AVAILABLE","source":"ndw"}},{"type":"Feature","geometry":{"type":"Point","coordinates":[4.267622,51.978822]},"properties":{"type":"charge","layer":"passenger","locationId":"4213444","name":"Laadnet Vve Oude Liermolen 1t\\/m7","address":"Oude Liermolenweg 1","city":"De Lier","operatorName":"Laadnet","maxPowerKw":11,"isMegawatt":false,"status":"AVAILABLE","source":"ndw"}},{"type":"Feature","geometry":{"type":"Point","coordinates":[4.276489,52.017488]},"properties":{"type":"charge","layer":"passenger","locationId":"91106238","name":"50five-S NL 09101058","address":"Molenweer 2","city":"Wateringen","operatorName":"50five","maxPowerKw":21,"isMegawatt":false,"status":"AVAILABLE","source":"ndw"}},{"type":"Feature","geometry":{"type":"Point","coordinates":[4.229215,51.997937]},"properties":{"type":"charge","layer":"passenger","locationId":"91229734","name":"50five-S NL 19B02459","address":"Middel Broekweg 31","city":"Honselersdijk","operatorName":"50five","maxPowerKw":11,"isMegawatt":false,"status":"AVAILABLE","source":"ndw"}},{"type":"Feature","geometry":{"type":"Point","coordinates":[4.259796,52.023444]},"properties":{"type":"charge","layer":"passenger","locationId":"91275091","name":"50five-S NL 19B02758","address":"Markuslaan 8","city":"Wateringen","operatorName":"50five","maxPowerKw":11,"isMegawatt":false,"status":"AVAILABLE","source":"ndw"}},{"type":"Feature","geometry":{"type":"Point","coordinates":[4.287373,52.007713]},"properties":{"type":"charge","layer":"passenger","locationId":"91105282","name":"50five-S NL 03001654","address":"Middenzwet 7","city":"Wateringen","operatorName":"50five","maxPowerKw":4,"isMegawatt":false,"status":"AVAILABLE","source":"ndw"}},{"type":"Feature","geometry":{"type":"Point","coordinates":[4.206195,51.999273]},"properties":{"type":"charge","layer":"passenger","locationId":"91090028","name":"50five-S NL 03990313","address":"De Linge 23","city":"Naaldwijk","operatorName":"50five","maxPowerKw":4,"isMegawatt":false,"status":"CHARGING","source":"ndw"}},{"type":"Feature","geometry":{"type":"Point","coordinates":[4.22545,52.011425]},"properties":{"type":"charge","layer":"passenger","locationId":"67e3aeb291c468d0ec6c4be4","name":"Vollebregt Barten links","address":"Poeldijksepad 5","city":"Honselersdijk","operatorName":"E-Flux by Road","maxPowerKw":22,"isMegawatt":false,"status":"AVAILABLE","source":"ndw","priceKwh":0.53}},{"type":"Feature","geometry":{"type":"Point","coordinates":[4.212034,52.025496]},"properties":{"type":"charge","layer":"passenger","locationId":"91096278","name":"50five-S NL ICUCOMPACT001698","address":"Vrouwe Antoniahof 14","city":"Poeldijk","operatorName":"50five","maxPowerKw":4,"isMegawatt":false,"status":"UNAVAILABLE","source":"ndw"}},{"type":"Feature","geometry":{"type":"Point","coordinates":[4.227091,51.971903]},"properties":{"type":"charge","layer":"passenger","locationId":"91150328","name":"50five-S NL 07103302","address":"Jan van de Laarweg 28","city":"De Lier","operatorName":"50five","maxPowerKw":11,"isMegawatt":false,"status":"AVAILABLE","source":"ndw"}},{"type":"Feature","geometry":{"type":"Point","coordinates":[4.183722,52.025326]},"properties":{"type":"charge","layer":"passenger","locationId":"OST22P0016_0081_0","name":"OST22P0016_0081_0","address":"Boomaweg 3","city":"Monster","operatorName":"e-VOLTT","maxPowerKw":38,"isMegawatt":false,"status":"AVAILABLE","source":"ndw","priceKwh":0.35}},{"type":"Feature","geometry":{"type":"Point","coordinates":[4.251212,51.988753]},"properties":{"type":"charge","layer":"passenger","locationId":"67cae3217ff5ea6e9d1583e2","name":"SK Roses 9","address":"Noord-Lierweg 40b","city":"De Lier","operatorName":"E-Flux by Road","maxPowerKw":22,"isMegawatt":false,"status":"AVAILABLE","source":"ndw","priceKwh":0.28}},{"type":"Feature","geometry":{"type":"Point","coordinates":[4.275372,52.016334]},"properties":{"type":"charge","layer":"passenger","locationId":"NLLOC027955","name":"Allego - Hornbach Wateringen A4","address":"'s-Gravenzandseweg 71-72","city":"Wateringen","operatorName":"Allego","maxPowerKw":22,"isMegawatt":false,"status":"AVAILABLE","source":"ndw","priceKwh":0.511}},{"type":"Feature","geometry":{"type":"Point","coordinates":[4.267221,51.98926]},"properties":{"type":"charge","layer":"passenger","locationId":"3486221","name":"Laadnet VG Orchids","address":"Pastoor Verburghlaan 10","city":"De Lier","operatorName":"Laadnet","maxPowerKw":22,"isMegawatt":false,"status":"AVAILABLE","source":"ndw"}},{"type":"Feature","geometry":{"type":"Point","coordinates":[4.183821,52.021716]},"properties":{"type":"charge","layer":"passenger","locationId":"91230050","name":"50five-S NL 03010492","address":"Emmastraat 5","city":"Monster","operatorName":"50five","maxPowerKw":11,"isMegawatt":false,"status":"UNAVAILABLE","source":"ndw"}},{"type":"Feature","geometry":{"type":"Point","coordinates":[4.194593,52.014734]},"properties":{"type":"charge","layer":"passenger","locationId":"89143274","name":"Van Leeuwen De poel 1","address":"De poel 1","city":"Monster","operatorName":"Van Leeuwen","maxPowerKw":22,"isMegawatt":false,"status":"UNAVAILABLE","source":"ndw"}},{"type":"Feature","geometry":{"type":"Point","coordinates":[4.275814,52.000715]},"properties":{"type":"charge","layer":"passenger","locationId":"63d2979a015f5c001276402e","name":"Patrick Kok 's station","address":"zwet 1c","city":"kwinsheul","operatorName":"E-Flux by Road","maxPowerKw":22,"isMegawatt":false,"status":"CHARGING","source":"ndw","priceKwh":0.38}},{"type":"Feature","geometry":{"type":"Point","coordinates":[4.225994,51.992738]},"properties":{"type":"charge","layer":"passenger","locationId":"60b9f354d3fac60555ae1e95","name":"Anexo WHC 001","address":"Europa 1","city":"Naaldwijk","operatorName":"E-Flux by Road","maxPowerKw":22,"isMegawatt":false,"status":"AVAILABLE","source":"ndw","priceKwh":0.48}},{"type":"Feature","geometry":{"type":"Point","coordinates":[4.220454,51.991254]},"properties":{"type":"charge","layer":"passenger","locationId":"91339156","name":"Van Leeuwen Cees Advocaten NV","address":"Tiendweg 14","city":"Naaldwijk","operatorName":"Van Leeuwen","maxPowerKw":22,"isMegawatt":false,"status":"AVAILABLE","source":"ndw"}},{"type":"Feature","geometry":{"type":"Point","coordinates":[4.291974,52.015455]},"properties":{"type":"charge","layer":"passenger","locationId":"91107430","name":"50five-S NL 04002258","address":"Groeneweg 9a 9a","city":"Oostvoorne","operatorName":"50five","maxPowerKw":7,"isMegawatt":false,"status":"AVAILABLE","source":"ndw"}},{"type":"Feature","geometry":{"type":"Point","coordinates":[4.274091,51.983463]},"properties":{"type":"charge","layer":"passenger","locationId":"91179614","name":"50five-S NL De Lier, Noord-Lierweg 14","address":"Noord-Lierweg 14","city":"De Lier","operatorName":"50five","maxPowerKw":11,"isMegawatt":false,"status":"AVAILABLE","source":"ndw"}},{"type":"Feature","geometry":{"type":"Point","coordinates":[4.235646,52.00188]},"properties":{"type":"charge","layer":"freight","locationId":"39441","name":"Circle K Honselersdijk","address":"Middel Broekweg 59A","city":"Honselersdijk","operatorName":"Spirii","maxPowerKw":400,"isMegawatt":false,"status":"AVAILABLE","source":"ndw","priceKwh":0.65,"freightKind":"hpc","freightReason":"power"}},{"type":"Feature","geometry":{"type":"MultiPolygon","coordinates":[[[[4.1874834180786635,52.052116408966334],[4.189565218089661,52.051497780927875],[4.191736441913845,52.05219166029046],[4.196340432386955,52.05566090591186],[4.204116396263472,52.04472693723603],[4.20416393881716,52.044670070007825],[4.209037154326403,52.03827438921438],[4.212434288695139,52.03403308918441],[4.209584460417454,52.03365471836749],[4.212255001611374,52.03075239125482],[4.213734229743361,52.031686603604314],[4.219226674857139,52.033736826049854],[4.2283257634234195,52.03464209518201],[4.235053993000466,52.039256441013535],[4.241415382665929,52.03194963768129],[4.244294602701215,52.0288455393245],[4.244808091589387,52.02873116940289],[4.248217103251409,52.02522587442164],[4.254891605148563,52.028289699652284],[4.256376643581468,52.028348026292576],[4.259132797913155,52.029571078551136],[4.266645381564163,52.03300636452706],[4.272662722174869,52.03591732652841],[4.272973420014277,52.03551865172966],[4.275895466942293,52.031558170263025],[4.277896847777271,52.032468496982084],[4.281741557841785,52.02736836516819],[4.28280041699443,52.027626384165615],[4.283474856699606,52.026700405020925],[4.28524989644943,52.0274225114846],[4.285883887479219,52.026481017239405],[4.285046716094184,52.02626787022232],[4.285650345556837,52.02591387145337],[4.285146309241784,52.02561791319589],[4.288254581788182,52.02375780068738],[4.286773441419185,52.02296759278736],[4.286999353102771,52.02286913621336],[4.294344607481693,52.01935880848016],[4.2897367160595055,52.0176476279161],[4.295512163487993,52.01484856377018],[4.2986145253448,52.01687701563949],[4.301075389709384,52.01786911314473],[4.302664084132108,52.01648820330616],[4.307638612434026,52.01815153083072],[4.309819285230901,52.01563419619695],[4.307588840812188,52.014693289735554],[4.281464449639767,52.002916041982544],[4.273117202503955,51.999249886011135],[4.2652451319543125,51.99583616671158],[4.267252395025639,51.993583826280606],[4.269815034327767,51.99289359800151],[4.271116531874446,51.99224676064152],[4.271894169105843,51.992891612860625],[4.2803215420588465,51.990347428054015],[4.280332866021488,51.989741372491316],[4.280355313892041,51.98853980244497],[4.284089855376077,51.98564093260247],[4.287536977803531,51.98901590806778],[4.288683686035513,51.98882523390381],[4.290192542628428,51.98739654752788],[4.290489268267319,51.98663366047653],[4.291913221694413,51.98297226739506],[4.293313621650692,51.98320774270499],[4.295629338111882,51.98359708520659],[4.295986555999019,51.982655477214365],[4.29632446234137,51.98176473699249],[4.298781391333726,51.98216120070096],[4.299270755063675,51.98111382075835],[4.30070277002779,51.98116245669262],[4.301816137848162,51.98120025738491],[4.302900676468968,51.98009159964658],[4.302690570320483,51.979695524727624],[4.298253001861422,51.97746389703575],[4.295980622465757,51.97753272578677],[4.2875532672085495,51.97335529075722],[4.289302869372222,51.971910408838234],[4.28509133833502,51.969889492659256],[4.284127255910035,51.97062653394267],[4.282317001121137,51.969787992294236],[4.2803148257638295,51.97145131284509],[4.278160848735613,51.97043307933906],[4.274686078889043,51.97339608121877],[4.273224499754828,51.973642925668514],[4.271949278976702,51.971614308835136],[4.272464463474527,51.97025588680765],[4.271455564993897,51.969859795428704],[4.276537185765977,51.965053873709905],[4.26344832352563,51.96009346930786],[4.258267722440922,51.95896517166479],[4.25362881032055,51.95886661058322],[4.233957256603943,51.95333124748656],[4.233532395726511,51.95267089212827],[4.234099109360206,51.94973520305448],[4.2393982838339905,51.94463667590046],[4.239722051255553,51.944469128165125],[4.241257749824488,51.943674386732354],[4.240316972343405,51.9428719699857],[4.236940861194598,51.94392952259624],[4.2319195328515615,51.94295446576849],[4.231766872918141,51.94292220517024],[4.228291163979707,51.94799079452291],[4.2214533800512,51.94266846212473],[4.219528688476147,51.94139952601654],[4.217823634007065,51.941636519902595],[4.1923959476320976,51.954805794422654],[4.186723733902637,51.962675774038324],[4.189369355035037,51.9647577165857],[4.1911960099101995,51.96544470370615],[4.190608691628652,51.9659814796997],[4.1879178417593845,51.96539163803086],[4.186579969107175,51.965868943991794],[4.1874744707742915,51.96681757979546],[4.175898038277517,51.97169365678962],[4.169605257745227,51.973973177617374],[4.155062349222726,51.97783792531251],[4.15530309602786,51.97959981135068],[4.1472804415780855,51.98139314421576],[4.149954453788796,51.98481037073188],[4.148941853769846,51.98509394848453],[4.150957676955526,51.98761830798304],[4.138613058926636,51.99164706945215],[4.1355667735810835,51.99270276270853],[4.132362913989746,51.9954598556183],[4.130986880740353,51.997179135856825],[4.132516857790569,51.998542589734804],[4.125302484457527,52.001640378514075],[4.137401892969057,52.00989092493068],[4.1527393682696765,52.02222142917365],[4.160586405890366,52.028828725662265],[4.168188201399453,52.03399260245722],[4.17548026705222,52.04154539823082],[4.187647498319258,52.056449681148024],[4.189178774062787,52.055467148058966],[4.1874834180786635,52.052116408966334]]]]},"properties":{"type":"boundary","gemeente":"Westland","code":"GM1783"}}]}