{"type":"FeatureCollection","metadata":{"gemeente":"Wormerland","slug":"wormerland","code":"GM0880","generated_at":"2026-08-08T12:05:52.020Z","total_passenger":67,"total_freight":0,"bounds":[4.7887555021459915,52.46849789474036,4.934702911725998,52.54260054249778],"operators":["50five","E-Flux by Road","Eneco","PureCharged","TotalEnergies","Ubitricity","Vattenfall","Vattenfall InCharge"]},"features":[{"type":"Feature","geometry":{"type":"Point","coordinates":[4.821132,52.49676]},"properties":{"type":"charge","layer":"passenger","locationId":"F689AA84-6896-4C0F-A60B-D85A2E3E43F7","name":"TNLP008845 - Roze-ven 52, Wormer","address":"52 Roze-ven","city":"Wormer","operatorName":"TotalEnergies","maxPowerKw":14,"isMegawatt":false,"status":"AVAILABLE","source":"ndw"}},{"type":"Feature","geometry":{"type":"Point","coordinates":[4.8073546,52.493829]},"properties":{"type":"charge","layer":"passenger","locationId":"1426","name":"Shell Recharge NL De Aker 11","address":"De Aker 11","city":"Wormer","operatorName":"Ubitricity","maxPowerKw":22,"isMegawatt":false,"status":"AVAILABLE","source":"ndw","priceKwh":0.267}},{"type":"Feature","geometry":{"type":"Point","coordinates":[4.79136,52.518135]},"properties":{"type":"charge","layer":"passenger","locationId":"678915c4bb76346dd0655722","name":"Bodo Beheer BV","address":"Dorpsstraat 64","city":"Oostknollendam","operatorName":"E-Flux by Road","maxPowerKw":11,"isMegawatt":false,"status":"AVAILABLE","source":"ndw","priceKwh":0.53}},{"type":"Feature","geometry":{"type":"Point","coordinates":[4.81573,52.50219]},"properties":{"type":"charge","layer":"passenger","locationId":"010FBB60-5A70-46C7-8111-65648ABAE84D","name":"TNLP003521 - Sternstraat 2, Wormer","address":"2 Sternstraat","city":"Wormer","operatorName":"TotalEnergies","maxPowerKw":17,"isMegawatt":false,"status":"AVAILABLE","source":"ndw"}},{"type":"Feature","geometry":{"type":"Point","coordinates":[4.793208,52.492853]},"properties":{"type":"charge","layer":"passenger","locationId":"6331ae4a9a912e56eb603079","name":"Saenliefde","address":"Veerdijk 62","city":"Wormer","operatorName":"E-Flux by Road","maxPowerKw":11,"isMegawatt":false,"status":"AVAILABLE","source":"ndw","priceKwh":0.43}},{"type":"Feature","geometry":{"type":"Point","coordinates":[4.8022032,52.4994487]},"properties":{"type":"charge","layer":"passenger","locationId":"1889","name":"Shell Recharge NL Koningsvarenstraat 23","address":"Koningsvarenstraat 23","city":"Wormer","operatorName":"Ubitricity","maxPowerKw":22,"isMegawatt":false,"status":"AVAILABLE","source":"ndw","priceKwh":0.267}},{"type":"Feature","geometry":{"type":"Point","coordinates":[4.912007,52.508987]},"properties":{"type":"charge","layer":"passenger","locationId":"04135578-82C7-43E7-B6E0-D5738AA574E0","name":"TNLP007741 - Tjadenweg 43, Wijdewormer","address":"43 Tjadenweg","city":"Wijdewormer","operatorName":"TotalEnergies","maxPowerKw":17,"isMegawatt":false,"status":"AVAILABLE","source":"ndw"}},{"type":"Feature","geometry":{"type":"Point","coordinates":[4.807538,52.4912687]},"properties":{"type":"charge","layer":"passenger","locationId":"1990","name":"Shell Recharge NL De Balk 2a","address":"De Balk 2a","city":"Wormer","operatorName":"Ubitricity","maxPowerKw":22,"isMegawatt":false,"status":"AVAILABLE","source":"ndw","priceKwh":0.267}},{"type":"Feature","geometry":{"type":"Point","coordinates":[4.81124,52.49948]},"properties":{"type":"charge","layer":"passenger","locationId":"301989A1-6E68-476C-A884-33366984C658","name":"TNLP007381 - Talingstraat 5, Wormer","address":"5 Talingstraat","city":"Wormer","operatorName":"TotalEnergies","maxPowerKw":17,"isMegawatt":false,"status":"AVAILABLE","source":"ndw"}},{"type":"Feature","geometry":{"type":"Point","coordinates":[4.9146,52.50778]},"properties":{"type":"charge","layer":"passenger","locationId":"477","name":"Shell Recharge NL Noorderweg 158","address":"Noorderweg 158","city":"Wormerland","operatorName":"Ubitricity","maxPowerKw":11,"isMegawatt":false,"status":"AVAILABLE","source":"ndw","priceKwh":0.392}},{"type":"Feature","geometry":{"type":"Point","coordinates":[4.812236,52.49241]},"properties":{"type":"charge","layer":"passenger","locationId":"5713052C-6AEC-48A0-B222-720D5227996C","name":"TNLP015427 - Waterzolder 36, Wormer","address":"36 Waterzolder","city":"Wormer","operatorName":"TotalEnergies","maxPowerKw":17,"isMegawatt":false,"status":"UNAVAILABLE","source":"ndw"}},{"type":"Feature","geometry":{"type":"Point","coordinates":[4.8023178,52.4936977]},"properties":{"type":"charge","layer":"passenger","locationId":"1734","name":"Shell Recharge NL Bassein 22","address":"Bassein 22","city":"Wormer","operatorName":"Ubitricity","maxPowerKw":22,"isMegawatt":false,"status":"AVAILABLE","source":"ndw","priceKwh":0.267}},{"type":"Feature","geometry":{"type":"Point","coordinates":[4.790689,52.518795]},"properties":{"type":"charge","layer":"passenger","locationId":"6a5f642626e86ac78b6b8c91","name":"Rob Kreuninger 's station","address":"Hooge erf 5","city":"Oostknollendam","operatorName":"Vattenfall","maxPowerKw":22,"isMegawatt":false,"status":"UNAVAILABLE","source":"ndw","priceKwh":0.43}},{"type":"Feature","geometry":{"type":"Point","coordinates":[4.918507,52.50548]},"properties":{"type":"charge","layer":"passenger","locationId":"646CBAB5-6A33-42A5-BAB7-8D2627CEE3A9","name":"TNLP008322 - Sportlaan 2, Wijdewormer","address":"2 Sportlaan","city":"Wijdewormer","operatorName":"TotalEnergies","maxPowerKw":13,"isMegawatt":false,"status":"AVAILABLE","source":"ndw"}},{"type":"Feature","geometry":{"type":"Point","coordinates":[4.859359,52.50696]},"properties":{"type":"charge","layer":"passenger","locationId":"2A82EF84-D7EC-4E3B-8A5A-FEA3D7FC433E","name":"TNLP008963 - Dorpsstraat 76, Jisp","address":"76 Dorpsstraat","city":"Jisp","operatorName":"TotalEnergies","maxPowerKw":14,"isMegawatt":false,"status":"AVAILABLE","source":"ndw"}},{"type":"Feature","geometry":{"type":"Point","coordinates":[4.92445,52.50944]},"properties":{"type":"charge","layer":"passenger","locationId":"737","name":"Shell Recharge NL Neckerstraat 28","address":"Neckerstraat 28","city":"Wijdewormer","operatorName":"Ubitricity","maxPowerKw":11,"isMegawatt":false,"status":"AVAILABLE","source":"ndw","priceKwh":0.392}},{"type":"Feature","geometry":{"type":"Point","coordinates":[4.807282,52.513701]},"properties":{"type":"charge","layer":"passenger","locationId":"697b101c05575fe2c28d2643","name":"Noord-Holland-Midden 64106 - Kantoor Links","address":"Schaalsmeerdijk 1","city":"Oostknollendam","operatorName":"E-Flux by Road","maxPowerKw":11,"isMegawatt":false,"status":"AVAILABLE","source":"ndw","priceKwh":0.43}},{"type":"Feature","geometry":{"type":"Point","coordinates":[4.79449,52.504254]},"properties":{"type":"charge","layer":"passenger","locationId":"685968e1b6cfc3bd629dfe92","name":"Caravanpark de Akker","address":"Wormerringdijk 1","city":"Wormer","operatorName":"PureCharged","maxPowerKw":11,"isMegawatt":false,"status":"AVAILABLE","source":"ndw","priceKwh":0.53}},{"type":"Feature","geometry":{"type":"Point","coordinates":[4.802054,52.491]},"properties":{"type":"charge","layer":"passenger","locationId":"91107601","name":"50five-S NL 08101470","address":"Lassiestraat 1","city":"Wormer","operatorName":"50five","maxPowerKw":11,"isMegawatt":false,"status":"UNAVAILABLE","source":"ndw"}},{"type":"Feature","geometry":{"type":"Point","coordinates":[4.79325,52.52001]},"properties":{"type":"charge","layer":"passenger","locationId":"C80FC8FB-AE0D-4D55-A5E9-62E3FB60044C","name":"PP005083 - Dorpsstraat 163, Oostknollendam","address":"163 Dorpsstraat","city":"Oostknollendam","operatorName":"TotalEnergies","maxPowerKw":15,"isMegawatt":false,"status":"AVAILABLE","source":"ndw"}},{"type":"Feature","geometry":{"type":"Point","coordinates":[4.82067,52.49676]},"properties":{"type":"charge","layer":"passenger","locationId":"556","name":"Shell Recharge NL Roze-ven 52","address":"Roze-ven 52","city":"Wormer","operatorName":"Ubitricity","maxPowerKw":11,"isMegawatt":false,"status":"AVAILABLE","source":"ndw","priceKwh":0.392}},{"type":"Feature","geometry":{"type":"Point","coordinates":[4.806602,52.497894]},"properties":{"type":"charge","layer":"passenger","locationId":"DC255FD3-A1C5-4251-86E7-9693D2576DA7","name":"TNLP006991 - Watermuntstraat 7, Wormer","address":"7 Watermuntstraat","city":"Wormer","operatorName":"TotalEnergies","maxPowerKw":17,"isMegawatt":false,"status":"UNAVAILABLE","source":"ndw"}},{"type":"Feature","geometry":{"type":"Point","coordinates":[4.798347,52.49868]},"properties":{"type":"charge","layer":"passenger","locationId":"6D085A99-4185-4DA5-9F51-2E9D81A2B832","name":"PP005223 - Poortwachter 35, Wormer","address":"35 Poortwachter","city":"Wormer","operatorName":"TotalEnergies","maxPowerKw":11,"isMegawatt":false,"status":"UNAVAILABLE","source":"ndw"}},{"type":"Feature","geometry":{"type":"Point","coordinates":[4.82055,52.49776]},"properties":{"type":"charge","layer":"passenger","locationId":"e353caa4-77fd-4e8d-a750-06ea8b956ebe","name":"PP001179 - Roze Ven 21, Wormer","address":"21 Roze Ven","city":"Wormer","operatorName":"TotalEnergies","maxPowerKw":11,"isMegawatt":false,"status":"AVAILABLE","source":"ndw"}},{"type":"Feature","geometry":{"type":"Point","coordinates":[4.831361,52.50072]},"properties":{"type":"charge","layer":"passenger","locationId":"D218870C-72FA-40E2-9B7F-88CE9F79790E","name":"TNLP007383 - Willem de Grootstraat 1, Wormer","address":"1 Willem de Grootstraat","city":"Wormer","operatorName":"TotalEnergies","maxPowerKw":17,"isMegawatt":false,"status":"UNAVAILABLE","source":"ndw"}},{"type":"Feature","geometry":{"type":"Point","coordinates":[4.817041,52.4984]},"properties":{"type":"charge","layer":"passenger","locationId":"6f9a4cc2ae014b3fb6b4c7c46331e728","name":"Torenplein 5","address":"Torenplein 5","city":"Wormer","operatorName":"Vattenfall InCharge","maxPowerKw":11,"isMegawatt":false,"status":"AVAILABLE","source":"ndw","priceKwh":0.2805}},{"type":"Feature","geometry":{"type":"Point","coordinates":[4.7954933,52.4922759]},"properties":{"type":"charge","layer":"passenger","locationId":"1110","name":"Shell Recharge NL Merckenrif 1","address":"Merckenrif 1","city":"Wormer","operatorName":"Ubitricity","maxPowerKw":22,"isMegawatt":false,"status":"AVAILABLE","source":"ndw","priceKwh":0.267}},{"type":"Feature","geometry":{"type":"Point","coordinates":[4.79514,52.49174]},"properties":{"type":"charge","layer":"passenger","locationId":"F06191F0-3064-4E5F-B2B5-84947A3830F5","name":"PP004055 - Kuif 1, Wormer","address":"1 Kuif","city":"Wormer","operatorName":"TotalEnergies","maxPowerKw":11,"isMegawatt":false,"status":"UNAVAILABLE","source":"ndw"}},{"type":"Feature","geometry":{"type":"Point","coordinates":[4.84722,52.50434]},"properties":{"type":"charge","layer":"passenger","locationId":"495","name":"Shell Recharge NL Weiver 3","address":"Weiver 3","city":"Wormer","operatorName":"Ubitricity","maxPowerKw":11,"isMegawatt":false,"status":"AVAILABLE","source":"ndw","priceKwh":0.392}},{"type":"Feature","geometry":{"type":"Point","coordinates":[4.791023,52.518406]},"properties":{"type":"charge","layer":"passenger","locationId":"6437dc0147ef9700122efd49","name":"Pim van DilLen 's station","address":"Dorpsstraat 111","city":"Oostknollendam","operatorName":"E-Flux by Road","maxPowerKw":11,"isMegawatt":false,"status":"AVAILABLE","source":"ndw","priceKwh":0.28}},{"type":"Feature","geometry":{"type":"Point","coordinates":[4.8152392,52.4921432]},"properties":{"type":"charge","layer":"passenger","locationId":"2348","name":"Shell Recharge NL Kees Jongensstraat 34","address":"Kees Jongensstraat 34","city":"Wormer","operatorName":"Ubitricity","maxPowerKw":22,"isMegawatt":false,"status":"AVAILABLE","source":"ndw","priceKwh":0.267}},{"type":"Feature","geometry":{"type":"Point","coordinates":[4.803733,52.493362]},"properties":{"type":"charge","layer":"passenger","locationId":"D041D55C-6E33-4DE6-BAEC-771349917003","name":"PP005617 - Accra 20, Wormer","address":"20 Accra","city":"Wormer","operatorName":"TotalEnergies","maxPowerKw":11,"isMegawatt":false,"status":"UNAVAILABLE","source":"ndw"}},{"type":"Feature","geometry":{"type":"Point","coordinates":[4.796658,52.49932]},"properties":{"type":"charge","layer":"passenger","locationId":"6117F055-A8B7-48A1-9397-6873098A2EB5","name":"TNLP015164 - Poortwachter 140, Wormer","address":"140 Poortwachter","city":"Wormer","operatorName":"TotalEnergies","maxPowerKw":17,"isMegawatt":false,"status":"UNAVAILABLE","source":"ndw"}},{"type":"Feature","geometry":{"type":"Point","coordinates":[4.918585,52.505514]},"properties":{"type":"charge","layer":"passenger","locationId":"f229eff9ab3d43ed41cb295eafded023","name":"Sportlaan 2","address":"Sportlaan 2","city":"Wijdewormer","operatorName":"Vattenfall InCharge","maxPowerKw":11,"isMegawatt":false,"status":"AVAILABLE","source":"ndw","priceKwh":0.2805}},{"type":"Feature","geometry":{"type":"Point","coordinates":[4.816351,52.49688]},"properties":{"type":"charge","layer":"passenger","locationId":"0DA86E19-892A-44A5-98DC-C69931174C0D","name":"PP005148 - Prins van Oranjestraat 88, Wormer","address":"88 Prins van Oranjestraat","city":"Wormer","operatorName":"TotalEnergies","maxPowerKw":15,"isMegawatt":false,"status":"AVAILABLE","source":"ndw"}},{"type":"Feature","geometry":{"type":"Point","coordinates":[4.807328,52.495853]},"properties":{"type":"charge","layer":"passenger","locationId":"1013da198cafca413d3e4879c54fc0e6","name":"Robstraat 23","address":"Robstraat 23","city":"Wormer","operatorName":"Vattenfall InCharge","maxPowerKw":11,"isMegawatt":false,"status":"AVAILABLE","source":"ndw","priceKwh":0.2805}},{"type":"Feature","geometry":{"type":"Point","coordinates":[4.800236,52.494293]},"properties":{"type":"charge","layer":"passenger","locationId":"5DC08E70-CF8F-4C4E-8645-A42D67188215","name":"TNLP006433 - Nieuweweg 44, Wormer","address":"44 Nieuweweg","city":"Wormer","operatorName":"TotalEnergies","maxPowerKw":15,"isMegawatt":false,"status":"AVAILABLE","source":"ndw"}},{"type":"Feature","geometry":{"type":"Point","coordinates":[4.822527,52.495931]},"properties":{"type":"charge","layer":"passenger","locationId":"91091831","name":"50five-S NL 07002660","address":"De Achterhoede 29","city":"Wormer","operatorName":"50five","maxPowerKw":4,"isMegawatt":false,"status":"AVAILABLE","source":"ndw"}},{"type":"Feature","geometry":{"type":"Point","coordinates":[4.810532,52.49355]},"properties":{"type":"charge","layer":"passenger","locationId":"11E185EE-866F-4563-8580-76ACF2D40911","name":"TNLP006102 - Kalander 48, Wormer","address":"48 Kalander","city":"Wormer","operatorName":"TotalEnergies","maxPowerKw":17,"isMegawatt":false,"status":"UNAVAILABLE","source":"ndw"}},{"type":"Feature","geometry":{"type":"Point","coordinates":[4.805315,52.50081]},"properties":{"type":"charge","layer":"passenger","locationId":"A9865C53-1CB8-49E1-B5DA-1C2A85D9E2A2","name":"PP005313 - Paardenakker 4, Wormer","address":"4 Paardenakker","city":"Wormer","operatorName":"TotalEnergies","maxPowerKw":11,"isMegawatt":false,"status":"UNAVAILABLE","source":"ndw"}},{"type":"Feature","geometry":{"type":"Point","coordinates":[4.81395,52.493675]},"properties":{"type":"charge","layer":"passenger","locationId":"A17EEF14-7319-475E-BDC1-4CEC750214A5","name":"PP005144 - Kees Jongensstraat 5, Wormer","address":"5 Kees Jongensstraat","city":"Wormer","operatorName":"TotalEnergies","maxPowerKw":15,"isMegawatt":false,"status":"CHARGING","source":"ndw"}},{"type":"Feature","geometry":{"type":"Point","coordinates":[4.807282,52.513701]},"properties":{"type":"charge","layer":"passenger","locationId":"697b0f5fd3eccf3227139542","name":"Noord-Holland-Midden 64106 - Kantoor Rechts","address":"schaalsmeerdijk 1","city":"Oostknollendam","operatorName":"E-Flux by Road","maxPowerKw":11,"isMegawatt":false,"status":"AVAILABLE","source":"ndw","priceKwh":0.43}},{"type":"Feature","geometry":{"type":"Point","coordinates":[4.847218,52.50832]},"properties":{"type":"charge","layer":"passenger","locationId":"AD12FC15-9AFB-45E7-A2A4-AB072F6AB782","name":"PP005149 - Molenpad 22, Jisp","address":"22 Molenpad","city":"Jisp","operatorName":"TotalEnergies","maxPowerKw":11,"isMegawatt":false,"status":"UNAVAILABLE","source":"ndw"}},{"type":"Feature","geometry":{"type":"Point","coordinates":[4.80852,52.49015]},"properties":{"type":"charge","layer":"passenger","locationId":"56E4AAC5-C939-49CB-AB79-A2C5C7B29FE9","name":"PP002381 - Koetserstraat 3, Wormer","address":"3 Koetserstraat","city":"Wormer","operatorName":"TotalEnergies","maxPowerKw":17,"isMegawatt":false,"status":"AVAILABLE","source":"ndw"}},{"type":"Feature","geometry":{"type":"Point","coordinates":[4.811968,52.494582]},"properties":{"type":"charge","layer":"passenger","locationId":"91150139","name":"50five-S NL 17B02875","address":"Zaandammerstraat 80 80","city":"Wormer","operatorName":"50five","maxPowerKw":11,"isMegawatt":false,"status":"AVAILABLE","source":"ndw"}},{"type":"Feature","geometry":{"type":"Point","coordinates":[4.80099,52.49275]},"properties":{"type":"charge","layer":"passenger","locationId":"05FBDAC7-5AC2-48FB-B14C-9C3880E42690","name":"Eneco eMobility Odion Service Bureau - Wormer","address":"Mercuriusweg 5A","city":"Wormer","operatorName":"Eneco","maxPowerKw":22,"isMegawatt":false,"status":"AVAILABLE","source":"ndw","priceKwh":0.32}},{"type":"Feature","geometry":{"type":"Point","coordinates":[4.84693,52.47305]},"properties":{"type":"charge","layer":"passenger","locationId":"18474EC5-78C4-4D36-91BE-8C7450D50A47","name":"Eneco eMobility AZ Trainingscomplex","address":"Zuiderweg 72A","city":"Wijdewormer","operatorName":"Eneco","maxPowerKw":22,"isMegawatt":false,"status":"UNAVAILABLE","source":"ndw","priceKwh":0.32}},{"type":"Feature","geometry":{"type":"Point","coordinates":[4.813752,52.49562]},"properties":{"type":"charge","layer":"passenger","locationId":"9D54CCAD-4CE9-45BE-B90B-2E5A78CCAD61","name":"TNLP007842 - Arisstraat 72, Wormer","address":"72 Arisstraat","city":"Wormer","operatorName":"TotalEnergies","maxPowerKw":17,"isMegawatt":false,"status":"UNAVAILABLE","source":"ndw"}},{"type":"Feature","geometry":{"type":"Point","coordinates":[4.81019,52.50014]},"properties":{"type":"charge","layer":"passenger","locationId":"526","name":"Shell Recharge NL Kemphaanstraat 42","address":"Kemphaanstraat 42","city":"Wormer","operatorName":"Ubitricity","maxPowerKw":11,"isMegawatt":false,"status":"AVAILABLE","source":"ndw","priceKwh":0.392}},{"type":"Feature","geometry":{"type":"Point","coordinates":[4.806246,52.499065]},"properties":{"type":"charge","layer":"passenger","locationId":"86E929FE-E4AC-4DB7-B291-7271A07FFED9","name":"TNLP006918 - Watermuntstraat 143, Wormer","address":"143 Watermuntstraat","city":"Wormer","operatorName":"TotalEnergies","maxPowerKw":17,"isMegawatt":false,"status":"UNAVAILABLE","source":"ndw"}},{"type":"Feature","geometry":{"type":"Point","coordinates":[4.81049,52.49499]},"properties":{"type":"charge","layer":"passenger","locationId":"517","name":"Shell Recharge NL Spatterstraat 21","address":"Spatterstraat 21","city":"Wormer","operatorName":"Ubitricity","maxPowerKw":11,"isMegawatt":false,"status":"AVAILABLE","source":"ndw","priceKwh":0.392}},{"type":"Feature","geometry":{"type":"Point","coordinates":[4.803212,52.49607]},"properties":{"type":"charge","layer":"passenger","locationId":"2D148140-6DD1-4079-88A6-A86B3FE5BAA4","name":"TNLP006278 - Spatterstraat 223, Wormer","address":"223 Spatterstraat","city":"Wormer","operatorName":"TotalEnergies","maxPowerKw":17,"isMegawatt":false,"status":"UNAVAILABLE","source":"ndw"}},{"type":"Feature","geometry":{"type":"Point","coordinates":[4.808115,52.496418]},"properties":{"type":"charge","layer":"passenger","locationId":"91F1BA27-AB67-48B1-95B1-3818F168A2DE","name":"TNLP006436 - Mooriaanstraat 4, Wormer","address":"4 Mooriaanstraat","city":"Wormer","operatorName":"TotalEnergies","maxPowerKw":17,"isMegawatt":false,"status":"UNAVAILABLE","source":"ndw"}},{"type":"Feature","geometry":{"type":"Point","coordinates":[4.812541,52.49748]},"properties":{"type":"charge","layer":"passenger","locationId":"BFEB8EED-39AB-43A9-9E5C-014091C30EA8","name":"TNLP006827 - Zaandammerstraat 29, Wormer","address":"29 Zaandammerstraat","city":"Wormer","operatorName":"TotalEnergies","maxPowerKw":17,"isMegawatt":false,"status":"UNAVAILABLE","source":"ndw"}},{"type":"Feature","geometry":{"type":"Point","coordinates":[4.824113,52.4996]},"properties":{"type":"charge","layer":"passenger","locationId":"DCA63955-FE21-438C-B8F8-C95FCB403DF9","name":"TNLP009675 - Dorpsstraat 214, Wormer","address":"214 Dorpsstraat","city":"Wormer","operatorName":"TotalEnergies","maxPowerKw":15,"isMegawatt":false,"status":"AVAILABLE","source":"ndw"}},{"type":"Feature","geometry":{"type":"Point","coordinates":[4.816828,52.49942]},"properties":{"type":"charge","layer":"passenger","locationId":"367B90B7-9108-4F62-A3CE-D1FC4B1373DD","name":"PP005450 - Beschuitstorenstraat 1, Wormer","address":"1 Beschuitstorenstraat","city":"Wormer","operatorName":"TotalEnergies","maxPowerKw":11,"isMegawatt":false,"status":"UNAVAILABLE","source":"ndw"}},{"type":"Feature","geometry":{"type":"Point","coordinates":[4.801021,52.497776]},"properties":{"type":"charge","layer":"passenger","locationId":"6DF6E944-D452-4E02-B424-AB8DAF4564D2","name":"TNLP006147 - Knollendammerstraat 34, Wormer","address":"34 Knollendammerstraat","city":"Wormer","operatorName":"TotalEnergies","maxPowerKw":17,"isMegawatt":false,"status":"UNAVAILABLE","source":"ndw"}},{"type":"Feature","geometry":{"type":"Point","coordinates":[4.812726,52.501335]},"properties":{"type":"charge","layer":"passenger","locationId":"EBC18353-C47A-4311-81B1-0FAF05BD6BF5","name":"TNLP006703 - Sternstraat 31, Wormer","address":"31 Sternstraat","city":"Wormer","operatorName":"TotalEnergies","maxPowerKw":17,"isMegawatt":false,"status":"UNAVAILABLE","source":"ndw"}},{"type":"Feature","geometry":{"type":"Point","coordinates":[4.804041,52.495036]},"properties":{"type":"charge","layer":"passenger","locationId":"c873fc34fb60eae6d6a208e891e9e032","name":"Spatterstraat 163","address":"Spatterstraat 163","city":"Wormer","operatorName":"Vattenfall InCharge","maxPowerKw":11,"isMegawatt":false,"status":"CHARGING","source":"ndw","priceKwh":0.2805}},{"type":"Feature","geometry":{"type":"Point","coordinates":[4.810422,52.49107]},"properties":{"type":"charge","layer":"passenger","locationId":"B2A37E87-0FD8-49A8-BEFE-1C45BF83A50E","name":"TNLP006797 - Lijmkoker 13, Wormer","address":"13 Lijmkoker","city":"Wormer","operatorName":"TotalEnergies","maxPowerKw":17,"isMegawatt":false,"status":"UNAVAILABLE","source":"ndw"}},{"type":"Feature","geometry":{"type":"Point","coordinates":[4.821252,52.499092]},"properties":{"type":"charge","layer":"passenger","locationId":"FD927F5C-71C5-4FC7-A38A-DA300048F392","name":"TNLP006796 - De Voorhoede 21, Wormer","address":"21 De Voorhoede","city":"Wormer","operatorName":"TotalEnergies","maxPowerKw":17,"isMegawatt":false,"status":"UNAVAILABLE","source":"ndw"}},{"type":"Feature","geometry":{"type":"Point","coordinates":[4.81748,52.49993]},"properties":{"type":"charge","layer":"passenger","locationId":"e99f2da60f3ae86f103a6840d8b4bc27","name":"Dorpsstraat 147","address":"Dorpsstraat 147","city":"Wormer","operatorName":"Vattenfall InCharge","maxPowerKw":11,"isMegawatt":false,"status":"AVAILABLE","source":"ndw","priceKwh":0.2805}},{"type":"Feature","geometry":{"type":"Point","coordinates":[4.807055,52.492292]},"properties":{"type":"charge","layer":"passenger","locationId":"91057539","name":"50five-S NL 07108763","address":"De Brouwer 8","city":"Wormer","operatorName":"50five","maxPowerKw":11,"isMegawatt":false,"status":"AVAILABLE","source":"ndw"}},{"type":"Feature","geometry":{"type":"Point","coordinates":[4.80386,52.49964]},"properties":{"type":"charge","layer":"passenger","locationId":"D855350B-F9FD-48CE-9097-C8C40260E9AC","name":"PP005179 - Koningsvarenstraat 20, Wormer","address":"20 Koningsvarenstraat","city":"Wormer","operatorName":"TotalEnergies","maxPowerKw":11,"isMegawatt":false,"status":"UNAVAILABLE","source":"ndw"}},{"type":"Feature","geometry":{"type":"Point","coordinates":[4.80802,52.49223]},"properties":{"type":"charge","layer":"passenger","locationId":"06062636-17E5-4F41-8D27-6A5BA04BECA0","name":"PP004052 - De Balk 8, Wormer","address":"8 De Balk","city":"Wormer","operatorName":"TotalEnergies","maxPowerKw":11,"isMegawatt":false,"status":"UNAVAILABLE","source":"ndw"}},{"type":"Feature","geometry":{"type":"Point","coordinates":[4.80656,52.49672]},"properties":{"type":"charge","layer":"passenger","locationId":"e738e6fb-11ba-4375-899b-3b2a3bf5686c","name":"PP002136 - Badhuisstraat 1, Wormer","address":"1 Badhuisstraat","city":"Wormer","operatorName":"TotalEnergies","maxPowerKw":11,"isMegawatt":false,"status":"AVAILABLE","source":"ndw"}},{"type":"Feature","geometry":{"type":"Point","coordinates":[4.808629,52.497827]},"properties":{"type":"charge","layer":"passenger","locationId":"21f8848fa1b78f9964303689ea4eeeaf","name":"Lepelbladstraat 5","address":"Lepelbladstraat 5","city":"Wormer","operatorName":"Vattenfall InCharge","maxPowerKw":11,"isMegawatt":false,"status":"AVAILABLE","source":"ndw","priceKwh":0.2805}},{"type":"Feature","geometry":{"type":"MultiPolygon","coordinates":[[[[4.834023223703055,52.53887415957448],[4.835342624823993,52.53735096165625],[4.837493934532111,52.530623610197],[4.843297566781692,52.52679038187301],[4.849796484366747,52.525040114774036],[4.859380982460791,52.525034692329214],[4.867719053471298,52.52214537017926],[4.874693664708986,52.52004398365604],[4.893500938489426,52.517607919189835],[4.90194757339827,52.517842610305166],[4.909523468948935,52.51701000419468],[4.9226001528494345,52.5114126971632],[4.928530264209859,52.51080752613502],[4.934351228528519,52.511641083792604],[4.934702911725998,52.51035381739505],[4.929246059665201,52.50740766702645],[4.925116812076903,52.50553049298433],[4.925582426044269,52.50540429898943],[4.9264803769924175,52.50428063439272],[4.9262086912001575,52.500179471357505],[4.923991549860229,52.496882893445466],[4.9237875011459105,52.49316031041604],[4.9206501585399565,52.49043489059258],[4.916126238566777,52.48654561180424],[4.908220201098396,52.48309727559574],[4.906468949908379,52.47982686467045],[4.895630293662027,52.47822790510785],[4.890531788145803,52.478959591958535],[4.882437217279824,52.474802230825546],[4.867225705361222,52.47057741908051],[4.862586084995048,52.46849789474036],[4.852504338424099,52.470367443147246],[4.84647935872881,52.4707247632628],[4.842681378236412,52.471971239609964],[4.842374752856487,52.47212707442148],[4.842129665698544,52.47232621851238],[4.841535572927478,52.47302237987169],[4.837545939594363,52.477094247623974],[4.836924117568647,52.47987642627342],[4.827552961447696,52.480898476161876],[4.816844912023858,52.482561331168725],[4.815154122868377,52.48303798871607],[4.814614369208011,52.48321728851239],[4.814003926815402,52.483528176494914],[4.813868027575131,52.48346626905598],[4.812364248961421,52.48396792269236],[4.811565113521032,52.48574701233367],[4.798842298563064,52.49110565439374],[4.793642881086051,52.490882403655995],[4.792358244274017,52.4911320196167],[4.791588489857698,52.49214495665625],[4.793352750702992,52.49395018501667],[4.795077060144781,52.49621869171215],[4.794623695074228,52.50041403403873],[4.793997073934251,52.50328786216531],[4.793344981502522,52.50700468357168],[4.789750788300524,52.5094266263576],[4.7887555021459915,52.511106169588714],[4.7898602156408545,52.51923636254765],[4.792438940886311,52.519725685480935],[4.798283529325978,52.52436099028574],[4.804705181130186,52.52536070520636],[4.811625769400038,52.530191053288206],[4.820186102956838,52.531232369087085],[4.824406345253428,52.533805043657765],[4.8169921445174015,52.535648784928554],[4.819026591105397,52.538726554621746],[4.820985630376326,52.53824694655228],[4.824384325551529,52.54260054249778],[4.828030827175013,52.541669162752825],[4.8339094935179565,52.53896095760787],[4.834023223703055,52.53887415957448]]]]},"properties":{"type":"boundary","gemeente":"Wormerland","code":"GM0880"}}]}