{"type":"FeatureCollection","metadata":{"gemeente":"Zoetermeer","slug":"zoetermeer","code":"GM0637","generated_at":"2026-08-08T12:05:52.020Z","total_passenger":88,"total_freight":3,"bounds":[4.415230599462567,52.03128071987484,4.557179828220584,52.09329056913578],"operators":["50five","ChargePoint","E-Flux by Road","ERA Contour | TBI ","Eneco","Fastned","Jord Energy","Laadnet","Lanova Laadpalen","Opcharge","Pluq","Shell Recharge","Tango electric","Van Leeuwen","Vattenfall InCharge","bp pulse"]},"features":[{"type":"Feature","geometry":{"type":"Point","coordinates":[4.552788,52.062408]},"properties":{"type":"charge","layer":"passenger","locationId":"91093425","name":"50five-S NL 17B11797","address":"Coloradostroom 19","city":"Zoetermeer","operatorName":"50five","maxPowerKw":11,"isMegawatt":false,"status":"CHARGING","source":"ndw"}},{"type":"Feature","geometry":{"type":"Point","coordinates":[4.504727,52.04263]},"properties":{"type":"charge","layer":"passenger","locationId":"c73b64b174954b62bf9cbb11fce63f48","name":"Hoofdkantoor ERA Contour | TBI | Zoetermeer","address":"zilverstraat 39","city":"Zoetermeer","operatorName":"ERA Contour | TBI ","maxPowerKw":22,"isMegawatt":false,"status":"AVAILABLE","source":"ndw","priceKwh":0.3}},{"type":"Feature","geometry":{"type":"Point","coordinates":[4.492192,52.064038]},"properties":{"type":"charge","layer":"passenger","locationId":"7c3b08d536e848cdb916","name":"TMC - Woonhart Zoetermeer","address":"Coppeliaschouw 34","city":"Zoetermeer","operatorName":"Opcharge","maxPowerKw":22,"isMegawatt":false,"status":"AVAILABLE","source":"ndw","priceKwh":0.49}},{"type":"Feature","geometry":{"type":"Point","coordinates":[4.512008,52.050171]},"properties":{"type":"charge","layer":"passenger","locationId":"NLCPIL7359415","name":"FOURCE BV ZOETERMEER 3","address":"15 Philipsstraat","city":"Zoetermeer","operatorName":"ChargePoint","maxPowerKw":22,"isMegawatt":false,"status":"AVAILABLE","source":"ndw","priceKwh":0.5}},{"type":"Feature","geometry":{"type":"Point","coordinates":[4.511041,52.056017]},"properties":{"type":"charge","layer":"passenger","locationId":"212bd9b5-301b-499c-80c7-c60ae3547550","name":"bp pulse Palenstein","address":"Van Aalstlaan 380","city":"Zoetermeer","operatorName":"bp pulse","maxPowerKw":150,"isMegawatt":false,"status":"AVAILABLE","source":"ndw","priceKwh":0.7}},{"type":"Feature","geometry":{"type":"Point","coordinates":[4.503483,52.036229]},"properties":{"type":"charge","layer":"passenger","locationId":"5294","name":"Shell Recharge NL9202 - Gamma Zoetermeer","address":"Argonstraat 11","city":"Zoetermeer","operatorName":"Shell Recharge","maxPowerKw":150,"isMegawatt":false,"status":"AVAILABLE","source":"ndw","priceKwh":0.7025}},{"type":"Feature","geometry":{"type":"Point","coordinates":[4.495317,52.061996]},"properties":{"type":"charge","layer":"passenger","locationId":"685d3adf58722cab8a4cef0e","name":"Hoogvliet, Italiëlaan 13 Zoetermeer - I","address":"Italiëlaan 13 [P94]","city":"Zoetermeer","operatorName":"E-Flux by Road","maxPowerKw":22,"isMegawatt":false,"status":"UNAVAILABLE","source":"ndw","priceKwh":0.38}},{"type":"Feature","geometry":{"type":"Point","coordinates":[4.511593,52.039415]},"properties":{"type":"charge","layer":"passenger","locationId":"91109249","name":"50five-S NL 08100334","address":"Chroomstraat 143","city":"Zoetermeer","operatorName":"50five","maxPowerKw":22,"isMegawatt":false,"status":"AVAILABLE","source":"ndw"}},{"type":"Feature","geometry":{"type":"Point","coordinates":[4.494025,52.060669]},"properties":{"type":"charge","layer":"passenger","locationId":"91107367","name":"50five-S NL 03004221","address":"Frankrijklaan 4","city":"Zoetermeer","operatorName":"50five","maxPowerKw":4,"isMegawatt":false,"status":"AVAILABLE","source":"ndw"}},{"type":"Feature","geometry":{"type":"Point","coordinates":[4.463493,52.064421]},"properties":{"type":"charge","layer":"passenger","locationId":"91105201","name":"50five-S NL 09101004","address":"Amerikaweg 1","city":"Zoetermeer","operatorName":"50five","maxPowerKw":11,"isMegawatt":false,"status":"AVAILABLE","source":"ndw"}},{"type":"Feature","geometry":{"type":"Point","coordinates":[4.482193,52.058512]},"properties":{"type":"charge","layer":"passenger","locationId":"91108924","name":"50five-S NL 09100176","address":"Ierlandlaan 45","city":"Zoetermeer","operatorName":"50five","maxPowerKw":11,"isMegawatt":false,"status":"AVAILABLE","source":"ndw"}},{"type":"Feature","geometry":{"type":"Point","coordinates":[4.546887,52.058422]},"properties":{"type":"charge","layer":"passenger","locationId":"91059124","name":"50five-S NL 07005820","address":"Rottestroom 35","city":"Zoetermeer","operatorName":"50five","maxPowerKw":11,"isMegawatt":false,"status":"CHARGING","source":"ndw"}},{"type":"Feature","geometry":{"type":"Point","coordinates":[4.495521,52.034593]},"properties":{"type":"charge","layer":"passenger","locationId":"677fddaf3ecf143b66d0588c","name":"Presentation Partner","address":"Signaalrood 63","city":"Zoetermeer","operatorName":"E-Flux by Road","maxPowerKw":22,"isMegawatt":false,"status":"AVAILABLE","source":"ndw","priceKwh":0.53}},{"type":"Feature","geometry":{"type":"Point","coordinates":[4.513236,52.041451]},"properties":{"type":"charge","layer":"passenger","locationId":"90267317","name":"Van Leeuwen langerak","address":"Chroomstraat 50","city":"Zoetermeer","operatorName":"Van Leeuwen","maxPowerKw":22,"isMegawatt":false,"status":"AVAILABLE","source":"ndw"}},{"type":"Feature","geometry":{"type":"Point","coordinates":[4.503013,52.03767]},"properties":{"type":"charge","layer":"passenger","locationId":"91063910","name":"50five-S NL 03004108","address":"Edelgasstraat 5","city":"Zoetermeer","operatorName":"50five","maxPowerKw":4,"isMegawatt":false,"status":"AVAILABLE","source":"ndw"}},{"type":"Feature","geometry":{"type":"Point","coordinates":[4.484736,52.059099]},"properties":{"type":"charge","layer":"passenger","locationId":"90398145","name":"Van Leeuwen VvE Soeterweijde V","address":"Dublinstraat 79","city":"Zoetermeer","operatorName":"Van Leeuwen","maxPowerKw":11,"isMegawatt":false,"status":"AVAILABLE","source":"ndw"}},{"type":"Feature","geometry":{"type":"Point","coordinates":[4.511364,52.05134]},"properties":{"type":"charge","layer":"passenger","locationId":"91542854","name":"Van Leeuwen Remto Automaterialen BV","address":"Fokkerstraat 1","city":"Zoetermeer","operatorName":"Van Leeuwen","maxPowerKw":11,"isMegawatt":false,"status":"AVAILABLE","source":"ndw"}},{"type":"Feature","geometry":{"type":"Point","coordinates":[4.50266,52.04323]},"properties":{"type":"charge","layer":"passenger","locationId":"BFB10B8F-EFF9-465F-9265-FD931E453145","name":"Eneco eMobility JOVI - Zilverstraat - Zoetermeer","address":"Zilverstraat 1","city":"Zoetermeer","operatorName":"Eneco","maxPowerKw":11,"isMegawatt":false,"status":"AVAILABLE","source":"ndw","priceKwh":0.32}},{"type":"Feature","geometry":{"type":"Point","coordinates":[4.521843,52.071619]},"properties":{"type":"charge","layer":"passenger","locationId":"91229948","name":"50five-S NL 07106700","address":"Jonagoldhof 37","city":"Zoetermeer","operatorName":"50five","maxPowerKw":6,"isMegawatt":false,"status":"AVAILABLE","source":"ndw"}},{"type":"Feature","geometry":{"type":"Point","coordinates":[4.514392,52.040783]},"properties":{"type":"charge","layer":"passenger","locationId":"9C3A1062-927C-401D-B178-C2F90175F893","name":"Eneco eMobility VerandaCentrum - Zoetermeer","address":"Cobaltstraat 31","city":"Zoetermeer","operatorName":"Eneco","maxPowerKw":11,"isMegawatt":false,"status":"AVAILABLE","source":"ndw","priceKwh":0.32}},{"type":"Feature","geometry":{"type":"Point","coordinates":[4.48139,52.04638]},"properties":{"type":"charge","layer":"passenger","locationId":"62CD4603-D87B-4BC3-8535-524C2F4440E3","name":"Eneco eMobility Platina Argenta - Louis Braillelaan 60 - Zoetermeer","address":"Louis Braillelaan 60","city":"Zoetermeer","operatorName":"Eneco","maxPowerKw":11,"isMegawatt":false,"status":"AVAILABLE","source":"ndw","priceKwh":0.35}},{"type":"Feature","geometry":{"type":"Point","coordinates":[4.480233,52.045395]},"properties":{"type":"charge","layer":"passenger","locationId":"91108214","name":"50five-S NL 04000213","address":"Baron de Coubertinlaan 1","city":"Zoetermeer","operatorName":"50five","maxPowerKw":7,"isMegawatt":false,"status":"UNAVAILABLE","source":"ndw"}},{"type":"Feature","geometry":{"type":"Point","coordinates":[4.502928,52.041057]},"properties":{"type":"charge","layer":"passenger","locationId":"90222809","name":"Van Leeuwen NFGD Zoetermeer","address":"Koraalrood 48","city":"Zoetermeer","operatorName":"Van Leeuwen","maxPowerKw":22,"isMegawatt":false,"status":"AVAILABLE","source":"ndw"}},{"type":"Feature","geometry":{"type":"Point","coordinates":[4.479991,52.045206]},"properties":{"type":"charge","layer":"passenger","locationId":"91105666","name":"50five-S NL 09000974","address":"Baron de Coubertinlaan 1","city":"Zoetermeer","operatorName":"50five","maxPowerKw":22,"isMegawatt":false,"status":"AVAILABLE","source":"ndw"}},{"type":"Feature","geometry":{"type":"Point","coordinates":[4.494724,52.059945]},"properties":{"type":"charge","layer":"passenger","locationId":"91197388","name":"50five-S NL 09100629","address":"Markt 15","city":"Zoetermeer","operatorName":"50five","maxPowerKw":11,"isMegawatt":false,"status":"UNAVAILABLE","source":"ndw"}},{"type":"Feature","geometry":{"type":"Point","coordinates":[4.507176,52.047772]},"properties":{"type":"charge","layer":"passenger","locationId":"696e3276f7fa8844057fb5df","name":"Van Winkelen","address":"Industrieweg 5a","city":"Zoetermeer","operatorName":"Lanova Laadpalen","maxPowerKw":200,"isMegawatt":false,"status":"AVAILABLE","source":"ndw","priceKwh":0.33}},{"type":"Feature","geometry":{"type":"Point","coordinates":[4.475409,52.050023]},"properties":{"type":"charge","layer":"passenger","locationId":"69b28fb37192abaae85d17ae","name":"Hillborgh","address":"Bredewater 26","city":"Zoetermeer","operatorName":"Pluq","maxPowerKw":11,"isMegawatt":false,"status":"AVAILABLE","source":"ndw","priceKwh":0.48}},{"type":"Feature","geometry":{"type":"Point","coordinates":[4.511997,52.045493]},"properties":{"type":"charge","layer":"passenger","locationId":"56143808","name":"50five Exploitatie Dutch Tech Campus Zoetermeer","address":"Werner von Siemensstraat 13","city":"Zoetermeer","operatorName":"50five","maxPowerKw":22,"isMegawatt":false,"status":"AVAILABLE","source":"ndw"}},{"type":"Feature","geometry":{"type":"Point","coordinates":[4.538223,52.069466]},"properties":{"type":"charge","layer":"passenger","locationId":"91229121","name":"50five-S NL 07100445","address":"Loosduinenstraat 30","city":"Zoetermeer","operatorName":"50five","maxPowerKw":13,"isMegawatt":false,"status":"AVAILABLE","source":"ndw"}},{"type":"Feature","geometry":{"type":"Point","coordinates":[4.48362,52.04551]},"properties":{"type":"charge","layer":"passenger","locationId":"F387F173-762F-41B2-92EA-77019F6CD92F","name":"Eneco eMobility Regulus Enterprises - Albert Einsteinlaan 10 - Zoetermeer","address":"Albert Einsteinlaan 10","city":"Zoetermeer","operatorName":"Eneco","maxPowerKw":22,"isMegawatt":false,"status":"AVAILABLE","source":"ndw","priceKwh":0.32}},{"type":"Feature","geometry":{"type":"Point","coordinates":[4.482638,52.04625]},"properties":{"type":"charge","layer":"passenger","locationId":"F7C8C366-4941-4A21-9180-DE1E3416D84F","name":"Eneco eMobility Platina Argenta Green Projectdevelopement - Zoetermeer","address":"de Louis Braillelaan 80","city":"Zoetermeer","operatorName":"Eneco","maxPowerKw":11,"isMegawatt":false,"status":"AVAILABLE","source":"ndw","priceKwh":0.32}},{"type":"Feature","geometry":{"type":"Point","coordinates":[4.514349,52.047199]},"properties":{"type":"charge","layer":"passenger","locationId":"2425547","name":"Laadnet Rexel Zoetermeer","address":"Bleiswijkseweg 35","city":"Zoetermeer","operatorName":"Laadnet","maxPowerKw":22,"isMegawatt":false,"status":"AVAILABLE","source":"ndw"}},{"type":"Feature","geometry":{"type":"Point","coordinates":[4.537832,52.052455]},"properties":{"type":"charge","layer":"passenger","locationId":"4217193","name":"Laadnet Lachman Zorg","address":"Falkland 13","city":"Zoetermeer","operatorName":"Laadnet","maxPowerKw":22,"isMegawatt":false,"status":"UNAVAILABLE","source":"ndw"}},{"type":"Feature","geometry":{"type":"Point","coordinates":[4.53501,52.063253]},"properties":{"type":"charge","layer":"passenger","locationId":"91068749","name":"50five-S NL 07103919","address":"Stellendamstraat 49","city":"Zoetermeer","operatorName":"50five","maxPowerKw":11,"isMegawatt":false,"status":"AVAILABLE","source":"ndw"}},{"type":"Feature","geometry":{"type":"Point","coordinates":[4.466545,52.060422]},"properties":{"type":"charge","layer":"passenger","locationId":"69e7826c0b94b61af1ec7073","name":"DPZ Services laadstation","address":"Zalkerbos  1","city":"zoetermeer","operatorName":"E-Flux by Road","maxPowerKw":22,"isMegawatt":false,"status":"AVAILABLE","source":"ndw","priceKwh":0.37}},{"type":"Feature","geometry":{"type":"Point","coordinates":[4.499397,52.06861]},"properties":{"type":"charge","layer":"passenger","locationId":"89470033","name":"50five Exploitatie Openbaar laden ziekenhuis Langeland","address":"Toneellaan 1","city":"Zoetermeer","operatorName":"50five","maxPowerKw":22,"isMegawatt":false,"status":"AVAILABLE","source":"ndw"}},{"type":"Feature","geometry":{"type":"Point","coordinates":[4.469256,52.047713]},"properties":{"type":"charge","layer":"passenger","locationId":"91106883","name":"50five-S NL 03004216","address":"Houtsingel 5","city":"Zoetermeer","operatorName":"50five","maxPowerKw":22,"isMegawatt":false,"status":"AVAILABLE","source":"ndw"}},{"type":"Feature","geometry":{"type":"Point","coordinates":[4.49536,52.062016]},"properties":{"type":"charge","layer":"passenger","locationId":"685d3b9517dcdfbb93f6f03b","name":"Hoogvliet, Italiëlaan 13 Zoetermeer - III","address":"Italiëlaan 13 [P96]","city":"Zoetermeer","operatorName":"E-Flux by Road","maxPowerKw":22,"isMegawatt":false,"status":"AVAILABLE","source":"ndw","priceKwh":0.38}},{"type":"Feature","geometry":{"type":"Point","coordinates":[4.515116,52.046597]},"properties":{"type":"charge","layer":"passenger","locationId":"91169346","name":"50five-S NL 04003309","address":"Bleiswijkseweg 37","city":"Zoetermeer","operatorName":"50five","maxPowerKw":7,"isMegawatt":false,"status":"AVAILABLE","source":"ndw"}},{"type":"Feature","geometry":{"type":"Point","coordinates":[4.553206,52.061371]},"properties":{"type":"charge","layer":"passenger","locationId":"91051565","name":"50five-S NL 17B02049","address":"Hunzestroom 19","city":"Zoetermeer","operatorName":"50five","maxPowerKw":12,"isMegawatt":false,"status":"AVAILABLE","source":"ndw"}},{"type":"Feature","geometry":{"type":"Point","coordinates":[4.501586,52.044094]},"properties":{"type":"charge","layer":"passenger","locationId":"a310c773-26ae-4316-8537-aa29b9c65c27","name":"Zilverstraat","address":"Zilverstraat 2","city":"Zoetermeer","operatorName":"Vattenfall InCharge","maxPowerKw":50,"isMegawatt":false,"status":"UNAVAILABLE","source":"ndw","priceKwh":0.46}},{"type":"Feature","geometry":{"type":"Point","coordinates":[4.503496,52.039065]},"properties":{"type":"charge","layer":"passenger","locationId":"61057599","name":"Van Leeuwen Platinastraat 65","address":"Platinastraat 65","city":"Zoetermeer","operatorName":"Van Leeuwen","maxPowerKw":22,"isMegawatt":false,"status":"AVAILABLE","source":"ndw"}},{"type":"Feature","geometry":{"type":"Point","coordinates":[4.503142,52.035744]},"properties":{"type":"charge","layer":"passenger","locationId":"6932a6279b162832899775b9","name":"Gamma Zoetermeer","address":"Argonstraat 11","city":"Zoetermeer","operatorName":"Pluq","maxPowerKw":22,"isMegawatt":false,"status":"AVAILABLE","source":"ndw","priceKwh":0.42}},{"type":"Feature","geometry":{"type":"Point","coordinates":[4.500869,52.038589]},"properties":{"type":"charge","layer":"passenger","locationId":"AFB328E4-933D-402D-871B-6B7CB42019DC","name":"Eneco eMobility Mulitpy Zoetermeer","address":"Koraalrood 131","city":"Zoetermeer","operatorName":"Eneco","maxPowerKw":22,"isMegawatt":false,"status":"UNAVAILABLE","source":"ndw","priceKwh":0.55}},{"type":"Feature","geometry":{"type":"Point","coordinates":[4.530769,52.056288]},"properties":{"type":"charge","layer":"passenger","locationId":"91063747","name":"50five-S NL 07117265","address":"Slotermeer 64","city":"Zoetermeer","operatorName":"50five","maxPowerKw":11,"isMegawatt":false,"status":"AVAILABLE","source":"ndw"}},{"type":"Feature","geometry":{"type":"Point","coordinates":[4.518821,52.044781]},"properties":{"type":"charge","layer":"passenger","locationId":"91276426","name":"50five-S NL 09002161","address":"Bleiswijkseweg 47","city":"Zoetermeer","operatorName":"50five","maxPowerKw":22,"isMegawatt":false,"status":"AVAILABLE","source":"ndw"}},{"type":"Feature","geometry":{"type":"Point","coordinates":[4.503138,52.044397]},"properties":{"type":"charge","layer":"passenger","locationId":"91230553","name":"50five-S NL 18B13346","address":"Zilverstraat 6","city":"Zoetermeer","operatorName":"50five","maxPowerKw":11,"isMegawatt":false,"status":"AVAILABLE","source":"ndw"}},{"type":"Feature","geometry":{"type":"Point","coordinates":[4.53851,52.069633]},"properties":{"type":"charge","layer":"passenger","locationId":"91085519","name":"50five-S NL 03011815","address":"Molenaarsgraafstraat 4","city":"Zoetermeer","operatorName":"50five","maxPowerKw":11,"isMegawatt":false,"status":"AVAILABLE","source":"ndw"}},{"type":"Feature","geometry":{"type":"Point","coordinates":[4.50317,52.050426]},"properties":{"type":"charge","layer":"passenger","locationId":"91121062","name":"50five-S NL 03009801","address":"Molenstraat 113","city":"Zoetermeer","operatorName":"50five","maxPowerKw":4,"isMegawatt":false,"status":"AVAILABLE","source":"ndw"}},{"type":"Feature","geometry":{"type":"Point","coordinates":[4.514052,52.045957]},"properties":{"type":"charge","layer":"passenger","locationId":"63135924","name":"50five Exploitatie Dutch Tech Zoetermeer Siemens","address":"Werner von Siemensstraat 7","city":"Zoetermeer","operatorName":"50five","maxPowerKw":11,"isMegawatt":false,"status":"AVAILABLE","source":"ndw"}},{"type":"Feature","geometry":{"type":"Point","coordinates":[4.523114,52.064792]},"properties":{"type":"charge","layer":"passenger","locationId":"91044565","name":"50five-S NL 17B31985","address":"Leeuwenhof 13","city":"Zoetermeer","operatorName":"50five","maxPowerKw":11,"isMegawatt":false,"status":"AVAILABLE","source":"ndw"}},{"type":"Feature","geometry":{"type":"Point","coordinates":[4.530992,52.06288]},"properties":{"type":"charge","layer":"passenger","locationId":"88886727","name":"Van Leeuwen Sanihil","address":"Willem Dreeslaan 301","city":"Zoetermeer","operatorName":"Van Leeuwen","maxPowerKw":22,"isMegawatt":false,"status":"AVAILABLE","source":"ndw"}},{"type":"Feature","geometry":{"type":"Point","coordinates":[4.515061,52.052662]},"properties":{"type":"charge","layer":"passenger","locationId":"89246668","name":"Van Leeuwen Storkstraat 14","address":"Storkstraat 14","city":"Zoetermeer","operatorName":"Van Leeuwen","maxPowerKw":22,"isMegawatt":false,"status":"AVAILABLE","source":"ndw"}},{"type":"Feature","geometry":{"type":"Point","coordinates":[4.514334,52.045355]},"properties":{"type":"charge","layer":"passenger","locationId":"90743041","name":"Van Leeuwen TKH security","address":"Werner von Siemensstraat 7","city":"Zoetermeer","operatorName":"Van Leeuwen","maxPowerKw":22,"isMegawatt":false,"status":"AVAILABLE","source":"ndw"}},{"type":"Feature","geometry":{"type":"Point","coordinates":[4.532927,52.06562]},"properties":{"type":"charge","layer":"passenger","locationId":"91120980","name":"50five-S NL 07001170","address":"Aarlanderveenstraat 69","city":"Zoetermeer","operatorName":"50five","maxPowerKw":11,"isMegawatt":false,"status":"CHARGING","source":"ndw"}},{"type":"Feature","geometry":{"type":"Point","coordinates":[4.472797,52.044343]},"properties":{"type":"charge","layer":"passenger","locationId":"91106292","name":"50five-S NL 03009710","address":"Röntgenlaan 31","city":"Zoetermeer","operatorName":"50five","maxPowerKw":11,"isMegawatt":false,"status":"AVAILABLE","source":"ndw"}},{"type":"Feature","geometry":{"type":"Point","coordinates":[4.45909,52.062509]},"properties":{"type":"charge","layer":"passenger","locationId":"91179861","name":"50five-S NL Zoetermeer, Zonnenberg 4","address":"Zonnenberg 4","city":"Zoetermeer","operatorName":"50five","maxPowerKw":11,"isMegawatt":false,"status":"UNAVAILABLE","source":"ndw"}},{"type":"Feature","geometry":{"type":"Point","coordinates":[4.516472,52.057983]},"properties":{"type":"charge","layer":"passenger","locationId":"89050957","name":"50five Exploitatie Laadpunten NL MAB BV","address":"Zegwaartseweg 31","city":"Zoetermeer","operatorName":"50five","maxPowerKw":22,"isMegawatt":false,"status":"AVAILABLE","source":"ndw"}},{"type":"Feature","geometry":{"type":"Point","coordinates":[4.496726,52.06205]},"properties":{"type":"charge","layer":"passenger","locationId":"4f65ada4ed2a403ca31b5f9c88567cf2","name":"Jord B.V. | Zoetermeer","address":"Italiënlaan 29B","city":"Zoetermeer","operatorName":"Jord Energy","maxPowerKw":22,"isMegawatt":false,"status":"AVAILABLE","source":"ndw","priceKwh":0.62}},{"type":"Feature","geometry":{"type":"Point","coordinates":[4.523868,52.062571]},"properties":{"type":"charge","layer":"passenger","locationId":"91106049","name":"50five-S NL 18B01234","address":"Edisonstraat 64","city":"Zoetermeer","operatorName":"50five","maxPowerKw":19,"isMegawatt":false,"status":"AVAILABLE","source":"ndw"}},{"type":"Feature","geometry":{"type":"Point","coordinates":[4.467481,52.04768]},"properties":{"type":"charge","layer":"passenger","locationId":"91110256","name":"50five-S NL 04003143","address":"Houtsingel 25","city":"Zoetermeer","operatorName":"50five","maxPowerKw":7,"isMegawatt":false,"status":"AVAILABLE","source":"ndw"}},{"type":"Feature","geometry":{"type":"Point","coordinates":[4.495317,52.061973]},"properties":{"type":"charge","layer":"passenger","locationId":"685d3bd45ee28db0d826528c","name":"Hoogvliet, Italiëlaan 13 Zoetermeer - IV","address":"Italiëlaan 13 [P97]","city":"Zoetermeer","operatorName":"E-Flux by Road","maxPowerKw":22,"isMegawatt":false,"status":"CHARGING","source":"ndw","priceKwh":0.38}},{"type":"Feature","geometry":{"type":"Point","coordinates":[4.540653,52.067225]},"properties":{"type":"charge","layer":"passenger","locationId":"91091599","name":"50five-S NL 07104500","address":"Peursumstraat 15","city":"Zoetermeer","operatorName":"50five","maxPowerKw":11,"isMegawatt":false,"status":"AVAILABLE","source":"ndw"}},{"type":"Feature","geometry":{"type":"Point","coordinates":[4.513671,52.068085]},"properties":{"type":"charge","layer":"passenger","locationId":"91274992","name":"50five-S NL 07113553","address":"Anjeliertuin 9","city":"Zoetermeer","operatorName":"50five","maxPowerKw":14,"isMegawatt":false,"status":"AVAILABLE","source":"ndw"}},{"type":"Feature","geometry":{"type":"Point","coordinates":[4.529236,52.061701]},"properties":{"type":"charge","layer":"passenger","locationId":"91458512","name":"Van Leeuwen prive","address":"Stephensonstraat 50 t/m 148","city":"Zoetermeer","operatorName":"Van Leeuwen","maxPowerKw":11,"isMegawatt":false,"status":"AVAILABLE","source":"ndw"}},{"type":"Feature","geometry":{"type":"Point","coordinates":[4.48115,52.069854]},"properties":{"type":"charge","layer":"passenger","locationId":"639b2843bfa2b40012dcb376","name":"Palestrinarode - plein","address":"Palestrinarode 24","city":"Zoetermeer","operatorName":"E-Flux by Road","maxPowerKw":11,"isMegawatt":false,"status":"AVAILABLE","source":"ndw","priceKwh":0.58}},{"type":"Feature","geometry":{"type":"Point","coordinates":[4.537563,52.064232]},"properties":{"type":"charge","layer":"passenger","locationId":"91267388","name":"Van Leeuwen Laadpaal","address":"Aletta Jacobslaan 145","city":"Zoetermeer","operatorName":"Van Leeuwen","maxPowerKw":11,"isMegawatt":false,"status":"AVAILABLE","source":"ndw"}},{"type":"Feature","geometry":{"type":"Point","coordinates":[4.514627,52.046501]},"properties":{"type":"charge","layer":"passenger","locationId":"91106237","name":"50five-S NL 04003870","address":"Bleiswijkseweg 37","city":"Zoetermeer","operatorName":"50five","maxPowerKw":7,"isMegawatt":false,"status":"AVAILABLE","source":"ndw"}},{"type":"Feature","geometry":{"type":"Point","coordinates":[4.47997,52.045184]},"properties":{"type":"charge","layer":"passenger","locationId":"91106609","name":"50five-S NL 08001514","address":"Baron de Coubertinlaan 1","city":"Zoetermeer","operatorName":"50five","maxPowerKw":11,"isMegawatt":false,"status":"AVAILABLE","source":"ndw"}},{"type":"Feature","geometry":{"type":"Point","coordinates":[4.471002,52.047166]},"properties":{"type":"charge","layer":"passenger","locationId":"91105651","name":"50five-S NL ICUEVE900629","address":"Louis Pasteurlaan 6","city":"Zoetermeer","operatorName":"50five","maxPowerKw":22,"isMegawatt":false,"status":"AVAILABLE","source":"ndw"}},{"type":"Feature","geometry":{"type":"Point","coordinates":[4.508769,52.042955]},"properties":{"type":"charge","layer":"passenger","locationId":"91105711","name":"50five-S NL 09101432","address":"Zilverstraat 91","city":"Zoetermeer","operatorName":"50five","maxPowerKw":11,"isMegawatt":false,"status":"AVAILABLE","source":"ndw"}},{"type":"Feature","geometry":{"type":"Point","coordinates":[4.492178,52.057938]},"properties":{"type":"charge","layer":"passenger","locationId":"4219158","name":"Laadnet Business inVentures BV","address":"Vlamingstraat 4","city":"Zoetermeer","operatorName":"Laadnet","maxPowerKw":22,"isMegawatt":false,"status":"AVAILABLE","source":"ndw"}},{"type":"Feature","geometry":{"type":"Point","coordinates":[4.47701,52.048721]},"properties":{"type":"charge","layer":"passenger","locationId":"4883","name":"50five Exploitatie Crown Business Zoetermeer","address":"Boerhaavelaan 40","city":"Zoetermeer","operatorName":"50five","maxPowerKw":11,"isMegawatt":false,"status":"AVAILABLE","source":"ndw"}},{"type":"Feature","geometry":{"type":"Point","coordinates":[4.497893,52.072803]},"properties":{"type":"charge","layer":"passenger","locationId":"91150442","name":"50five-S NL 07105494","address":"Gaffelaarkade 24","city":"Zoetermeer","operatorName":"50five","maxPowerKw":11,"isMegawatt":false,"status":"AVAILABLE","source":"ndw"}},{"type":"Feature","geometry":{"type":"Point","coordinates":[4.551417,52.062891]},"properties":{"type":"charge","layer":"passenger","locationId":"91187074","name":"50five-S NL PD12300000587","address":"Berkelstroom 113","city":"Zoetermeer","operatorName":"50five","maxPowerKw":4,"isMegawatt":false,"status":"AVAILABLE","source":"ndw"}},{"type":"Feature","geometry":{"type":"Point","coordinates":[4.522906,52.055289]},"properties":{"type":"charge","layer":"passenger","locationId":"b75aa1422a5bc0c05271fa2f33352a57","name":"Kelvinstraat 1","address":"Kelvinstraat 1","city":"Zoetermeer","operatorName":"Vattenfall InCharge","maxPowerKw":50,"isMegawatt":false,"status":"AVAILABLE","source":"ndw","priceKwh":0.54}},{"type":"Feature","geometry":{"type":"Point","coordinates":[4.537669,52.064966]},"properties":{"type":"charge","layer":"passenger","locationId":"91526938","name":"Van Leeuwen Prive","address":"Puttershoekstraat 28","city":"Zoetermeer","operatorName":"Van Leeuwen","maxPowerKw":11,"isMegawatt":false,"status":"UNAVAILABLE","source":"ndw"}},{"type":"Feature","geometry":{"type":"Point","coordinates":[4.48003,52.07108]},"properties":{"type":"charge","layer":"passenger","locationId":"9026A45F-3DAE-45E3-A32A-B2EB2E16DCC0","name":"Eneco eMobility Hedin 3F B.V. - Zwaardslootseweg 3 - Zoetermeer","address":"Zwaardslootseweg 3","city":"Zoetermeer","operatorName":"Eneco","maxPowerKw":22,"isMegawatt":false,"status":"AVAILABLE","source":"ndw","priceKwh":0.58}},{"type":"Feature","geometry":{"type":"Point","coordinates":[4.512411,52.052494]},"properties":{"type":"charge","layer":"passenger","locationId":"90775050","name":"Van Leeuwen Bode Scholten","address":"Fokkerstraat 9","city":"Zoetermeer","operatorName":"Van Leeuwen","maxPowerKw":11,"isMegawatt":false,"status":"AVAILABLE","source":"ndw"}},{"type":"Feature","geometry":{"type":"Point","coordinates":[4.514791,52.046169]},"properties":{"type":"charge","layer":"passenger","locationId":"91105246","name":"50five-S NL 04000186","address":"Bleiswijkseweg 37","city":"Zoetermeer","operatorName":"50five","maxPowerKw":7,"isMegawatt":false,"status":"AVAILABLE","source":"ndw"}},{"type":"Feature","geometry":{"type":"Point","coordinates":[4.481025,52.070281]},"properties":{"type":"charge","layer":"passenger","locationId":"610147cd8c85a19414036c12","name":"LIB_1305","address":"Palestrinarode 32","city":"Zoetermeer","operatorName":"E-Flux by Road","maxPowerKw":11,"isMegawatt":false,"status":"AVAILABLE","source":"ndw","priceKwh":0.53}},{"type":"Feature","geometry":{"type":"Point","coordinates":[4.458422,52.069536]},"properties":{"type":"charge","layer":"passenger","locationId":"1183","name":"50five Exploitatie SnowWorld Zoetermeer","address":"Buytenparklaan 30","city":"Zoetermeer","operatorName":"50five","maxPowerKw":22,"isMegawatt":false,"status":"AVAILABLE","source":"ndw"}},{"type":"Feature","geometry":{"type":"Point","coordinates":[4.498358,52.0666]},"properties":{"type":"charge","layer":"passenger","locationId":"6509928f074f10001ba3b735","name":"Jump One charging station - Salomeschouw","address":"Saloméschouw 19","city":"Zoetermeer","operatorName":"E-Flux by Road","maxPowerKw":22,"isMegawatt":false,"status":"AVAILABLE","source":"ndw","priceKwh":0.59}},{"type":"Feature","geometry":{"type":"Point","coordinates":[4.507613,52.036648]},"properties":{"type":"charge","layer":"passenger","locationId":"89286176","name":"Van Leeuwen Platinstraat 141","address":"Platinstraat 141","city":"Zoetermeer","operatorName":"Van Leeuwen","maxPowerKw":11,"isMegawatt":false,"status":"AVAILABLE","source":"ndw"}},{"type":"Feature","geometry":{"type":"Point","coordinates":[4.475935,52.045334]},"properties":{"type":"charge","layer":"passenger","locationId":"NLENV629","name":"Zoetermeer, Röntgenlaan 75 - Renovatie Q2 '26","address":"Röntgenlaan 75","city":"Zoetermeer","operatorName":"","maxPowerKw":11,"isMegawatt":false,"status":"AVAILABLE","source":"ndw","priceKwh":0.5}},{"type":"Feature","geometry":{"type":"Point","coordinates":[4.531043,52.0581]},"properties":{"type":"charge","layer":"passenger","locationId":"6148567602c6044457a3591f","name":"Brielsemeer 78, Zoetermeer","address":"Brielsemeer","city":"Zoetermeer","operatorName":"E-Flux by Road","maxPowerKw":11,"isMegawatt":false,"status":"CHARGING","source":"ndw","priceKwh":0.73}},{"type":"Feature","geometry":{"type":"Point","coordinates":[4.497206,52.03331]},"properties":{"type":"charge","layer":"passenger","locationId":"67c5b38f8984dc4ebd10bd35","name":"ColoCenter's station","address":"Heliumstraat 200","city":"Zoetermeer","operatorName":"E-Flux by Road","maxPowerKw":22,"isMegawatt":false,"status":"AVAILABLE","source":"ndw","priceKwh":0.35}},{"type":"Feature","geometry":{"type":"Point","coordinates":[4.47037,52.04706]},"properties":{"type":"charge","layer":"passenger","locationId":"91199793","name":"50five-S NL ICUEVE900628","address":"Louis Pasteurlaan 6","city":"Zoetermeer","operatorName":"50five","maxPowerKw":22,"isMegawatt":false,"status":"AVAILABLE","source":"ndw"}},{"type":"Feature","geometry":{"type":"Point","coordinates":[4.537291,52.050678]},"properties":{"type":"charge","layer":"freight","locationId":"c12f9e5b-0abe-400c-916c-debb13d4b3ce","name":"Tango Zoetermeer 4-5-6","address":"Huygensstraat 47","city":"Zoetermeer","operatorName":"Tango electric","maxPowerKw":400,"isMegawatt":false,"status":"AVAILABLE","source":"ndw","priceKwh":0.6,"freightKind":"hpc","freightReason":"power"}},{"type":"Feature","geometry":{"type":"Point","coordinates":[4.436339,52.051738]},"properties":{"type":"charge","layer":"freight","locationId":"31258","name":"Fastned Knorrestein","address":"Knorrestein A12","city":"Zoetermeer","operatorName":"Fastned","maxPowerKw":400,"isMegawatt":false,"status":"AVAILABLE","source":"ndw","priceKwh":0.6364,"freightKind":"hpc","freightReason":"power"}},{"type":"Feature","geometry":{"type":"Point","coordinates":[4.51174,52.053322]},"properties":{"type":"charge","layer":"freight","locationId":"91364304","name":"Van Leeuwen Snellader - openingstijd 8.00-16.00","address":"Fokkerstraat 58","city":"Zoetermeer","operatorName":"Van Leeuwen","maxPowerKw":480,"isMegawatt":false,"status":"AVAILABLE","source":"ndw","freightKind":"hpc","freightReason":"power"}},{"type":"Feature","geometry":{"type":"MultiPolygon","coordinates":[[[[4.510126665639712,52.09002829201403],[4.5131341893553465,52.088445373398876],[4.514267162525771,52.088587356390654],[4.530554912977803,52.08051090152444],[4.530103252162325,52.080082273594755],[4.530316447093773,52.07996916405915],[4.536019109213314,52.07690809625984],[4.534180316878035,52.07556386395418],[4.534042120874401,52.075389583481474],[4.533903930198374,52.07521530916463],[4.53516778655921,52.07446335316949],[4.533694637060989,52.07305129111472],[4.535339563242836,52.072294251557],[4.539485668981637,52.07030849900664],[4.5427288607014455,52.068887465948016],[4.546770982005029,52.06698686974162],[4.553209420999625,52.063831642949275],[4.5527713112664525,52.063307919821355],[4.555855343016873,52.0618609912778],[4.557179828220584,52.06123952989398],[4.550532594150992,52.056304218689455],[4.5493423790723995,52.05474464018956],[4.54754621790608,52.05036985301553],[4.545078962401662,52.048861209041924],[4.5351088539494,52.049613405732956],[4.5225830613828455,52.043391828697736],[4.519254704956128,52.041526472506376],[4.518995308176647,52.04138421690873],[4.518278574953491,52.04099115230248],[4.512072137864215,52.036825355354694],[4.507059830379535,52.032825519160234],[4.504708768136642,52.031930936310744],[4.488006179463737,52.03186455399735],[4.477383991665023,52.031791718023115],[4.477680521601396,52.03139496935556],[4.477027439798758,52.03128071987484],[4.47670566534651,52.03164228809198],[4.475993353741011,52.032775568944245],[4.472803991967499,52.0380246438407],[4.472530737237233,52.03797257189538],[4.472372605604619,52.03827907808891],[4.471955301698003,52.039030831887274],[4.471618734456444,52.038996890132246],[4.47074324551968,52.0404778548626],[4.458931694488895,52.03885397708957],[4.457643400231124,52.03861879909935],[4.456994327729628,52.039672363595756],[4.456437608678369,52.03954192540743],[4.450563745942039,52.049210367095476],[4.438043879258564,52.05028387380102],[4.438043496568908,52.05028390757092],[4.425830931871776,52.05146963845622],[4.422072091072306,52.05167328695675],[4.421388568947833,52.052207709213135],[4.415230599462567,52.05701313176446],[4.4153943350472495,52.05744156154819],[4.422431041816998,52.057328996568856],[4.42042367062528,52.06210137791614],[4.420832214633236,52.06258028305132],[4.42168493230608,52.06288612846993],[4.421403900178064,52.063303693986164],[4.437630066666424,52.070403573446804],[4.44324666255918,52.07291094919842],[4.4555043718003615,52.078326148026875],[4.4567783201492475,52.07867518958598],[4.456751807542848,52.07881507645577],[4.475659615422319,52.08129653481025],[4.474274515102215,52.08526091444929],[4.4930178817829205,52.0877521471186],[4.492218752462413,52.090010007027146],[4.497805702898846,52.08783778987077],[4.499367597666959,52.08846008363825],[4.498907846447203,52.08942800109876],[4.499966872988654,52.09165544151056],[4.504449456572129,52.09329056913578],[4.505531810815906,52.09242693331475],[4.510126665639712,52.09002829201403]]]]},"properties":{"type":"boundary","gemeente":"Zoetermeer","code":"GM0637"}}]}