{"type":"FeatureCollection","metadata":{"gemeente":"Zuidplas","slug":"zuidplas","code":"GM1892","generated_at":"2026-08-08T12:05:52.020Z","total_passenger":104,"total_freight":2,"bounds":[4.546338787926787,51.93349203849048,4.688683952636637,52.06552672470203],"operators":["50five","Allego","E-Flux by Road","Fastned","Fleet Charge Services","Laadnet","Pluq","Shell Recharge","Tesla","Valk Energy","Van Leeuwen","Vattenfall InCharge","bp pulse","e-VOLTT"]},"features":[{"type":"Feature","geometry":{"type":"Point","coordinates":[4.615403,51.975078]},"properties":{"type":"charge","layer":"passenger","locationId":"NLLOC014097","name":"NL, Kroonkruid 80, 2914BN, Nieuwerkerk aan den IJssel","address":"Kroonkruid 80","city":"Nieuwerkerk aan den IJssel","operatorName":"Allego","maxPowerKw":11,"isMegawatt":false,"status":"AVAILABLE","source":"ndw","priceKwh":0.511}},{"type":"Feature","geometry":{"type":"Point","coordinates":[4.6116,51.970536]},"properties":{"type":"charge","layer":"passenger","locationId":"NLLOC010224","name":"NL, Schildmos 65, 2914 XD, Nieuwerkerk aan den IJssel","address":"Schildmos 65","city":"Nieuwerkerk aan den IJssel","operatorName":"Allego","maxPowerKw":11,"isMegawatt":false,"status":"AVAILABLE","source":"ndw","priceKwh":0.511}},{"type":"Feature","geometry":{"type":"Point","coordinates":[4.614672,51.969145]},"properties":{"type":"charge","layer":"passenger","locationId":"NLLOC002392","name":"NLD, Zwanendaal 4, 2914 ET, Nieuwekerk aan den IJssel","address":"Zwanendaal 4","city":"Nieuwekerk aan den IJssel","operatorName":"Allego","maxPowerKw":11,"isMegawatt":false,"status":"AVAILABLE","source":"ndw","priceKwh":0.511}},{"type":"Feature","geometry":{"type":"Point","coordinates":[4.58905,51.966643]},"properties":{"type":"charge","layer":"passenger","locationId":"61501ea5-27ee-4395-8a53-c491f00f9b3a","name":"bp pulse De Vink","address":"Rijksweg A20","city":"Nieuwerkerk aan den IJssel","operatorName":"bp pulse","maxPowerKw":150,"isMegawatt":false,"status":"AVAILABLE","source":"ndw","priceKwh":0.7}},{"type":"Feature","geometry":{"type":"Point","coordinates":[4.618958,51.97843]},"properties":{"type":"charge","layer":"passenger","locationId":"4fb9dcd3-dee6-409c-9453-1cdfe4ae023f","name":"Nieuwerkerk aan den IJssel, Netherlands","address":"185, Parallelweg Zuid","city":"Nieuwerkerk aan den IJssel","operatorName":"Tesla","maxPowerKw":250,"isMegawatt":false,"status":"AVAILABLE","source":"ndw","priceKwh":0.53}},{"type":"Feature","geometry":{"type":"Point","coordinates":[4.609258,51.958935]},"properties":{"type":"charge","layer":"passenger","locationId":"NLLOC002456","name":"NLD, Nieuwerkerk aan den IJssel, Burgemeester van Heugtenlaan 143","address":"Burgemeester van Heugtenlaan 143","city":"Nieuwerkerk aan den IJssel","operatorName":"Allego","maxPowerKw":11,"isMegawatt":false,"status":"AVAILABLE","source":"ndw","priceKwh":0.511}},{"type":"Feature","geometry":{"type":"Point","coordinates":[4.615974,51.969638]},"properties":{"type":"charge","layer":"passenger","locationId":"NLLOC002631","name":"NLD, Mezendaal 326, 2914 EG Nieuwerkerk aan den IJssel","address":"Mezendaal 326","city":"Nieuwerkerk a/d IJssel","operatorName":"Allego","maxPowerKw":11,"isMegawatt":false,"status":"AVAILABLE","source":"ndw","priceKwh":0.511}},{"type":"Feature","geometry":{"type":"Point","coordinates":[4.589139,51.967919]},"properties":{"type":"charge","layer":"passenger","locationId":"31171","name":"Fastned Maatveld","address":"Maatveld A20","city":"Nieuwerkerk a/d IJssel","operatorName":"Fastned","maxPowerKw":300,"isMegawatt":false,"status":"AVAILABLE","source":"ndw","priceKwh":0.6364}},{"type":"Feature","geometry":{"type":"Point","coordinates":[4.581646,52.013231]},"properties":{"type":"charge","layer":"passenger","locationId":"62a2fbed35d56b5a61e872ac","name":"Dorpsstraat Zevenhuizen","address":"Dorpsstraat  190","city":"Zevenhuizen","operatorName":"E-Flux by Road","maxPowerKw":43,"isMegawatt":false,"status":"AVAILABLE","source":"ndw","priceKwh":0.38}},{"type":"Feature","geometry":{"type":"Point","coordinates":[4.586676,52.042017]},"properties":{"type":"charge","layer":"passenger","locationId":"622a20a3cdd05dc741db5a58","name":"Peter van den Berg 's station","address":"Industriestraat 5","city":"Moerkapelle","operatorName":"E-Flux by Road","maxPowerKw":22,"isMegawatt":false,"status":"AVAILABLE","source":"ndw","priceKwh":0.38}},{"type":"Feature","geometry":{"type":"Point","coordinates":[4.604976,51.969431]},"properties":{"type":"charge","layer":"passenger","locationId":"4213439","name":"Laadnet Ambachtswerf","address":"Dorpsstraat 9c","city":"Nieuwerkerk aan den IJssel","operatorName":"Laadnet","maxPowerKw":22,"isMegawatt":false,"status":"AVAILABLE","source":"ndw"}},{"type":"Feature","geometry":{"type":"Point","coordinates":[4.666112,51.992711]},"properties":{"type":"charge","layer":"passenger","locationId":"NLLOC007948","name":"NL, Ganzeneiland 23, 2841PE, Moordrecht","address":"Ganzeneiland 23","city":"Moordrecht","operatorName":"Allego","maxPowerKw":11,"isMegawatt":false,"status":"AVAILABLE","source":"ndw","priceKwh":0.511}},{"type":"Feature","geometry":{"type":"Point","coordinates":[4.582005,52.006282]},"properties":{"type":"charge","layer":"passenger","locationId":"NLLOC002764","name":"NLD, Kratonlaan 116, 2761 SH Zevenhuizen","address":"Kratonlaan 116","city":"Zevenhuizen","operatorName":"Allego","maxPowerKw":11,"isMegawatt":false,"status":"AVAILABLE","source":"ndw","priceKwh":0.511}},{"type":"Feature","geometry":{"type":"Point","coordinates":[4.589445,51.967602]},"properties":{"type":"charge","layer":"passenger","locationId":"15","name":"Shell Recharge NL0724 - Shell Maatveld","address":"A20 E25 NZ","city":"Nieuwerkerk aan den IJssel","operatorName":"Shell Recharge","maxPowerKw":175,"isMegawatt":false,"status":"AVAILABLE","source":"ndw","priceKwh":0.7025}},{"type":"Feature","geometry":{"type":"Point","coordinates":[4.617695,51.966809]},"properties":{"type":"charge","layer":"passenger","locationId":"NLLOC003750","name":"NLD Doortocht 65, 2914 KA Nieuwerkerk aan den IJssel","address":"Doortocht 65","city":"Nieuwerkerk aan den Ijssel","operatorName":"Allego","maxPowerKw":11,"isMegawatt":false,"status":"AVAILABLE","source":"ndw","priceKwh":0.511}},{"type":"Feature","geometry":{"type":"Point","coordinates":[4.58684,52.037304]},"properties":{"type":"charge","layer":"passenger","locationId":"OST22P0028_0036_0","name":"OST22P0028_0036_0","address":"Bredeweg 40","city":"Moerkapelle","operatorName":"e-VOLTT","maxPowerKw":38,"isMegawatt":false,"status":"AVAILABLE","source":"ndw","priceKwh":0.29}},{"type":"Feature","geometry":{"type":"Point","coordinates":[4.612857,51.958382]},"properties":{"type":"charge","layer":"passenger","locationId":"91069731","name":"50five-S NL 03007673","address":"Seine 18","city":"Zuidplas","operatorName":"50five","maxPowerKw":4,"isMegawatt":false,"status":"AVAILABLE","source":"ndw"}},{"type":"Feature","geometry":{"type":"Point","coordinates":[4.578683,52.012599]},"properties":{"type":"charge","layer":"passenger","locationId":"NLLOC002762","name":"NLD, Boslaan 42, 2761 VX Zevenhuizen","address":"Boslaan 42","city":"Zevenhuizen","operatorName":"Allego","maxPowerKw":11,"isMegawatt":false,"status":"AVAILABLE","source":"ndw","priceKwh":0.511}},{"type":"Feature","geometry":{"type":"Point","coordinates":[4.619055,51.976195]},"properties":{"type":"charge","layer":"passenger","locationId":"NLLOC003844","name":"NLD Kroonkruid 159, 2914 TL Nieuwe","address":"Kroonkruid 155","city":"Nieuwekerk aan den IJssel","operatorName":"Allego","maxPowerKw":11,"isMegawatt":false,"status":"AVAILABLE","source":"ndw","priceKwh":0.511}},{"type":"Feature","geometry":{"type":"Point","coordinates":[4.620323,51.963614]},"properties":{"type":"charge","layer":"passenger","locationId":"NLLOC003642","name":"NLD Merwede 40, 2911 EB Nieuwerkerk aan den IJssel","address":"Merwede 40","city":"Nieuwerkerk aan den IJssel","operatorName":"Allego","maxPowerKw":11,"isMegawatt":false,"status":"AVAILABLE","source":"ndw","priceKwh":0.511}},{"type":"Feature","geometry":{"type":"Point","coordinates":[4.62322,51.962442]},"properties":{"type":"charge","layer":"passenger","locationId":"4213438","name":"Laadnet 's-Gravenweg","address":"'s-Gravenweg 91","city":"Nieuwerkerk aan den IJssel","operatorName":"Laadnet","maxPowerKw":22,"isMegawatt":false,"status":"AVAILABLE","source":"ndw"}},{"type":"Feature","geometry":{"type":"Point","coordinates":[4.586464,52.038783]},"properties":{"type":"charge","layer":"passenger","locationId":"4237229","name":"Laadnet Bredeweg 59","address":"Bredeweg 59","city":"Moerkapelle","operatorName":"Laadnet","maxPowerKw":22,"isMegawatt":false,"status":"AVAILABLE","source":"ndw"}},{"type":"Feature","geometry":{"type":"Point","coordinates":[4.610656,51.979872]},"properties":{"type":"charge","layer":"passenger","locationId":"91299460","name":"50five-S NL Location","address":"Hoogeveenenweg","city":"Nieuwerkerk aan den IJssel","operatorName":"50five","maxPowerKw":11,"isMegawatt":false,"status":"AVAILABLE","source":"ndw"}},{"type":"Feature","geometry":{"type":"Point","coordinates":[4.604137,51.955939]},"properties":{"type":"charge","layer":"passenger","locationId":"NLLOC004735","name":"NLD Yukon 38 2911 DB Nieuwerkerk a/d IJssel","address":"Yukon 38","city":"Nieuwerkerk","operatorName":"Allego","maxPowerKw":11,"isMegawatt":false,"status":"AVAILABLE","source":"ndw","priceKwh":0.511}},{"type":"Feature","geometry":{"type":"Point","coordinates":[4.604857,51.955324]},"properties":{"type":"charge","layer":"passenger","locationId":"NLLOC009103","name":"NLD, Mississippi 4 2911CZ Nieuwerkerk aan den IJssel","address":"Mississippi 4","city":"Nieuwerkerk aan den IJssel","operatorName":"Allego","maxPowerKw":11,"isMegawatt":false,"status":"AVAILABLE","source":"ndw","priceKwh":0.511}},{"type":"Feature","geometry":{"type":"Point","coordinates":[4.60416,51.969471]},"properties":{"type":"charge","layer":"passenger","locationId":"NLLOC002363","name":"Dorpsstraat 6, 2912 CB, Nieuwekerk aan den IJssel","address":"Dorpsstraat 6","city":"Nieuwekerk aan den IJssel","operatorName":"Allego","maxPowerKw":11,"isMegawatt":false,"status":"AVAILABLE","source":"ndw","priceKwh":0.511}},{"type":"Feature","geometry":{"type":"Point","coordinates":[4.596597,52.027046]},"properties":{"type":"charge","layer":"passenger","locationId":"3672813","name":"Laadnet Jan Hendrikspad 2","address":"Jan Hendrikspad 2","city":"Zevenhuizen","operatorName":"Laadnet","maxPowerKw":22,"isMegawatt":false,"status":"AVAILABLE","source":"ndw"}},{"type":"Feature","geometry":{"type":"Point","coordinates":[4.65176,51.999464]},"properties":{"type":"charge","layer":"passenger","locationId":"08b9a3f0-9537-469c-8dd5-674f73a12abf","name":"Middelweg","address":"Middelweg 20B","city":"Moordrecht","operatorName":"Vattenfall InCharge","maxPowerKw":50,"isMegawatt":false,"status":"AVAILABLE","source":"ndw","priceKwh":0.46}},{"type":"Feature","geometry":{"type":"Point","coordinates":[4.662926,52.019186]},"properties":{"type":"charge","layer":"passenger","locationId":"698c6a5a75afac4952ce4ea1","name":"CYCLUS PUBLIEK","address":"Oostbaan 1090","city":"Moordrecht","operatorName":"E-Flux by Road","maxPowerKw":22,"isMegawatt":false,"status":"AVAILABLE","source":"ndw","priceKwh":0.25}},{"type":"Feature","geometry":{"type":"Point","coordinates":[4.616279,51.958895]},"properties":{"type":"charge","layer":"passenger","locationId":"NLLOC015697","name":"NL, Vecht 65, 2911EM, Nieuwekerk aan den IJssel","address":"Vecht 65","city":"Nieuwekerk aan den IJssel","operatorName":"Allego","maxPowerKw":11,"isMegawatt":false,"status":"AVAILABLE","source":"ndw","priceKwh":0.511}},{"type":"Feature","geometry":{"type":"Point","coordinates":[4.669355,51.98853]},"properties":{"type":"charge","layer":"passenger","locationId":"91045765","name":"50five-S NL 17B19594","address":"Burgemeester Brandtstraat 1A","city":"Moordrecht","operatorName":"50five","maxPowerKw":7,"isMegawatt":false,"status":"AVAILABLE","source":"ndw"}},{"type":"Feature","geometry":{"type":"Point","coordinates":[4.619223,51.97793]},"properties":{"type":"charge","layer":"passenger","locationId":"69afbdd5a59b7c858b2efeeb","name":"Van der Valk - Nieuwerkerk aan den IJssel - Charging Stations","address":"Parallelweg Zuid 185","city":"IJssel","operatorName":"Valk Energy","maxPowerKw":11,"isMegawatt":false,"status":"AVAILABLE","source":"ndw","priceKwh":0.59}},{"type":"Feature","geometry":{"type":"Point","coordinates":[4.579361,52.007815]},"properties":{"type":"charge","layer":"passenger","locationId":"NLLOC004395","name":"NLD Schielandsingel 24, 2761 XR Zevenhuizen","address":"Schielandsingel 24","city":"Zevenhuizen","operatorName":"Allego","maxPowerKw":11,"isMegawatt":false,"status":"AVAILABLE","source":"ndw","priceKwh":0.511}},{"type":"Feature","geometry":{"type":"Point","coordinates":[4.573806,52.042891]},"properties":{"type":"charge","layer":"passenger","locationId":"2593416","name":"Laadnet Moerkapelle","address":"Moerkapelse Zijde 32","city":"Moerkapelle","operatorName":"Laadnet","maxPowerKw":22,"isMegawatt":false,"status":"AVAILABLE","source":"ndw"}},{"type":"Feature","geometry":{"type":"Point","coordinates":[4.620216,51.978508]},"properties":{"type":"charge","layer":"passenger","locationId":"91231387","name":"50five-S NL 04000849","address":"Parallelweg Zuid 185","city":"Nieuwerkerk aan den IJssel","operatorName":"50five","maxPowerKw":7,"isMegawatt":false,"status":"AVAILABLE","source":"ndw"}},{"type":"Feature","geometry":{"type":"Point","coordinates":[4.582249,52.015915]},"properties":{"type":"charge","layer":"passenger","locationId":"NLLOC002401","name":"NLD, Multatulistraat 5, 2761 LA, Zevenhuizen","address":"Multatulistraat 5","city":"Zevenhuizen","operatorName":"Allego","maxPowerKw":11,"isMegawatt":false,"status":"AVAILABLE","source":"ndw","priceKwh":0.511}},{"type":"Feature","geometry":{"type":"Point","coordinates":[4.612866,51.979147]},"properties":{"type":"charge","layer":"passenger","locationId":"62710c649fa97aa05aae8049","name":"Rotan RH Interieurs B.V.","address":"Hoogeveenenweg  11","city":"Nieuwerkerk a/d IJssel","operatorName":"Fleet Charge Services","maxPowerKw":22,"isMegawatt":false,"status":"AVAILABLE","source":"ndw","priceKwh":0.42}},{"type":"Feature","geometry":{"type":"Point","coordinates":[4.603098,52.024706]},"properties":{"type":"charge","layer":"passenger","locationId":"90080257","name":"Van Leeuwen Intratuin Zuidplas","address":"Bredeweg 86 C","city":"Zevenhuizen","operatorName":"Van Leeuwen","maxPowerKw":22,"isMegawatt":false,"status":"AVAILABLE","source":"ndw"}},{"type":"Feature","geometry":{"type":"Point","coordinates":[4.619179,51.966001]},"properties":{"type":"charge","layer":"passenger","locationId":"NLLOC002349","name":"NLD, Kleinpolderlaan 6, 2911 PA, Nieuwekerk aan den IJssel","address":"Kleinpolderlaan 6","city":"Nieuwekerk aan den IJssel","operatorName":"Allego","maxPowerKw":11,"isMegawatt":false,"status":"AVAILABLE","source":"ndw","priceKwh":0.511}},{"type":"Feature","geometry":{"type":"Point","coordinates":[4.564988,52.008468]},"properties":{"type":"charge","layer":"passenger","locationId":"612f48e5cb83c91450e4ac5a","name":"Recreatiepark de Koornmolen","address":"Tweemanspolder 6A","city":"Zevenhuizen","operatorName":"E-Flux by Road","maxPowerKw":22,"isMegawatt":false,"status":"AVAILABLE","source":"ndw","priceKwh":0.47}},{"type":"Feature","geometry":{"type":"Point","coordinates":[4.611948,51.979437]},"properties":{"type":"charge","layer":"passenger","locationId":"1596216","name":"Laadnet Hoofdkantoor","address":"Hoogeveenenweg 93","city":"Nieuwerkerk aan den IJssel","operatorName":"Laadnet","maxPowerKw":22,"isMegawatt":false,"status":"AVAILABLE","source":"ndw"}},{"type":"Feature","geometry":{"type":"Point","coordinates":[4.597669,52.005901]},"properties":{"type":"charge","layer":"passenger","locationId":"664f56e27b1444001c548a8a","name":"Fam. Hol/Krootjes","address":"Paltsgraaf 14","city":"Zevenhuizen","operatorName":"E-Flux by Road","maxPowerKw":22,"isMegawatt":false,"status":"AVAILABLE","source":"ndw","priceKwh":0.4}},{"type":"Feature","geometry":{"type":"Point","coordinates":[4.592012,52.0121]},"properties":{"type":"charge","layer":"passenger","locationId":"NLLOC006914","name":"NL, Kraagroos 1, 2761 JS, Zevenhuizen","address":"Kraagroos 1","city":"Zevenhuizen","operatorName":"Allego","maxPowerKw":11,"isMegawatt":false,"status":"AVAILABLE","source":"ndw","priceKwh":0.511}},{"type":"Feature","geometry":{"type":"Point","coordinates":[4.606822,51.957144]},"properties":{"type":"charge","layer":"passenger","locationId":"66238101","name":"Van Leeuwen Maipo 14","address":"Maipo 14","city":"Nieuwerkerk aan den Ijssel","operatorName":"Van Leeuwen","maxPowerKw":17,"isMegawatt":false,"status":"AVAILABLE","source":"ndw"}},{"type":"Feature","geometry":{"type":"Point","coordinates":[4.610237,51.966024]},"properties":{"type":"charge","layer":"passenger","locationId":"NLLOC004513","name":"NLD Boslaan 2, 2912 PA Nieuwerkerk aan den ijssel","address":"Boslaan 2","city":"Nieuwerkerk aan de Ijssel","operatorName":"Allego","maxPowerKw":11,"isMegawatt":false,"status":"CHARGING","source":"ndw","priceKwh":0.511}},{"type":"Feature","geometry":{"type":"Point","coordinates":[4.612073,51.960271]},"properties":{"type":"charge","layer":"passenger","locationId":"NLLOC015907","name":"NL, Burgermeester Van Heugtenlaan 87, 2911HA Nieuwekerk aan den IJssel","address":"Burgermeester Van Heugtenlaan 87","city":"Nieuwekerk aan den IJssel","operatorName":"Allego","maxPowerKw":11,"isMegawatt":false,"status":"AVAILABLE","source":"ndw","priceKwh":0.511}},{"type":"Feature","geometry":{"type":"Point","coordinates":[4.641712,51.958419]},"properties":{"type":"charge","layer":"passenger","locationId":"69a0499093faa853c6afebf6","name":"TP - Parc De IJsselhoeve","address":"Klein Hitland 10","city":"Nieuwekerk a/d Ijssel","operatorName":"Pluq","maxPowerKw":22,"isMegawatt":false,"status":"AVAILABLE","source":"ndw","priceKwh":0.4}},{"type":"Feature","geometry":{"type":"Point","coordinates":[4.669015,51.990278]},"properties":{"type":"charge","layer":"passenger","locationId":"91186957","name":"50five-S NL 07113780","address":"Fazantendreef 3","city":"Moordrecht","operatorName":"50five","maxPowerKw":11,"isMegawatt":false,"status":"AVAILABLE","source":"ndw"}},{"type":"Feature","geometry":{"type":"Point","coordinates":[4.576345,52.045615]},"properties":{"type":"charge","layer":"passenger","locationId":"NLLOC007090","name":"NL, Jonkheer van der Welstraat 8 2751 AJ Moerkapelle","address":"Jonkheer van der Welstraat 8","city":"Moerkapelle","operatorName":"Allego","maxPowerKw":11,"isMegawatt":false,"status":"AVAILABLE","source":"ndw","priceKwh":0.511}},{"type":"Feature","geometry":{"type":"Point","coordinates":[4.619961,51.978554]},"properties":{"type":"charge","layer":"passenger","locationId":"91229592","name":"50five-S NL 04000504","address":"Parallelweg Zuid 185","city":"Nieuwerkerk aan den IJssel","operatorName":"50five","maxPowerKw":7,"isMegawatt":false,"status":"AVAILABLE","source":"ndw"}},{"type":"Feature","geometry":{"type":"Point","coordinates":[4.561492,51.975548]},"properties":{"type":"charge","layer":"passenger","locationId":"89036360","name":"Van Leeuwen 89036360","address":"Strandweg 23","city":"Zevenhuizen","operatorName":"Van Leeuwen","maxPowerKw":22,"isMegawatt":false,"status":"AVAILABLE","source":"ndw"}},{"type":"Feature","geometry":{"type":"Point","coordinates":[4.613238,51.961935]},"properties":{"type":"charge","layer":"passenger","locationId":"NLLOC002911","name":"NLD, Schelde 84, 2911 RG Nieuwerkerk aan den IJssel","address":"Schelde 84","city":"Nieuwerkerk aan den IJssel","operatorName":"Allego","maxPowerKw":11,"isMegawatt":false,"status":"AVAILABLE","source":"ndw","priceKwh":0.511}},{"type":"Feature","geometry":{"type":"Point","coordinates":[4.606025,51.965694]},"properties":{"type":"charge","layer":"passenger","locationId":"NLLOC003626","name":"NLD Dorrestein 133, 2912 BC Nieuwerkerk aan den IJssel","address":"Dorrestein 133","city":"Nieuwerkerk aan den IJssel","operatorName":"Allego","maxPowerKw":11,"isMegawatt":false,"status":"AVAILABLE","source":"ndw","priceKwh":0.511}},{"type":"Feature","geometry":{"type":"Point","coordinates":[4.606869,51.953474]},"properties":{"type":"charge","layer":"passenger","locationId":"NLLOC004017","name":"NL, Hudson 23, 2911CW, Nieuwerkerk aan den IJssel","address":"Hudson 23","city":"Nieuwerkerk aan den IJssel","operatorName":"Allego","maxPowerKw":11,"isMegawatt":false,"status":"AVAILABLE","source":"ndw","priceKwh":0.511}},{"type":"Feature","geometry":{"type":"Point","coordinates":[4.593344,52.007715]},"properties":{"type":"charge","layer":"passenger","locationId":"NLLOC008929","name":"NL, Koning Willem-Alexanderlaan 118, 2761HK, Zevenhuizen","address":"Koning Willem-Alexanderlaan 118","city":"Zevenhuizen","operatorName":"Allego","maxPowerKw":11,"isMegawatt":false,"status":"AVAILABLE","source":"ndw","priceKwh":0.511}},{"type":"Feature","geometry":{"type":"Point","coordinates":[4.588191,52.009102]},"properties":{"type":"charge","layer":"passenger","locationId":"90239288","name":"Van Leeuwen Dekker Zevenhuizen","address":"Nijverheidscentrum 2","city":"Zevenhuizen","operatorName":"Van Leeuwen","maxPowerKw":22,"isMegawatt":false,"status":"AVAILABLE","source":"ndw"}},{"type":"Feature","geometry":{"type":"Point","coordinates":[4.672147,51.988694]},"properties":{"type":"charge","layer":"passenger","locationId":"NLLOC004172","name":"NLD, Leliestraat 29, 2841 AX Moordrecht","address":"Leliestraat 29","city":"Moordrecht","operatorName":"Allego","maxPowerKw":11,"isMegawatt":false,"status":"AVAILABLE","source":"ndw","priceKwh":0.511}},{"type":"Feature","geometry":{"type":"Point","coordinates":[4.587625,52.007583]},"properties":{"type":"charge","layer":"passenger","locationId":"67dae1da03d4084ddf5c14db","name":"Vakgarage Boode Laadstation","address":"Nijverheidscentrum 4","city":"Zevenhuizen","operatorName":"E-Flux by Road","maxPowerKw":11,"isMegawatt":false,"status":"AVAILABLE","source":"ndw","priceKwh":0.51}},{"type":"Feature","geometry":{"type":"Point","coordinates":[4.593716,51.965983]},"properties":{"type":"charge","layer":"passenger","locationId":"NLLOC027941","name":"Allego - Hornbach Nieuwerkerk ad IJssel A20","address":"Laan van Avant-Garde 1","city":"Nieuwerkerk aan den IJssel","operatorName":"Allego","maxPowerKw":200,"isMegawatt":false,"status":"AVAILABLE","source":"ndw","priceKwh":0.511}},{"type":"Feature","geometry":{"type":"Point","coordinates":[4.608912,51.957723]},"properties":{"type":"charge","layer":"passenger","locationId":"NLLOC006897","name":"NL, Donau 151, 2911HB, Nieuwerkerk aan den IJssel","address":"Donau 151","city":"Nieuwerkerk aan den IJssel","operatorName":"Allego","maxPowerKw":11,"isMegawatt":false,"status":"AVAILABLE","source":"ndw","priceKwh":0.511}},{"type":"Feature","geometry":{"type":"Point","coordinates":[4.595667,52.006073]},"properties":{"type":"charge","layer":"passenger","locationId":"NLLOC004399","name":"NLD, Kanselierstuin 14, 2761 HM Zevenhuizen","address":"Kanselierstuin","city":"Zevenhuizen","operatorName":"Allego","maxPowerKw":11,"isMegawatt":false,"status":"AVAILABLE","source":"ndw","priceKwh":0.511}},{"type":"Feature","geometry":{"type":"Point","coordinates":[4.606167,51.969853]},"properties":{"type":"charge","layer":"passenger","locationId":"NLLOC007409","name":"NL, Bakkerijstraat 2, 2912 CZ, Nieuwerkerk aan den IJssel","address":"Bakkerijstraat 2","city":"Nieuwerkerk aan den IJssel","operatorName":"Allego","maxPowerKw":11,"isMegawatt":false,"status":"AVAILABLE","source":"ndw","priceKwh":0.511}},{"type":"Feature","geometry":{"type":"Point","coordinates":[4.580372,52.011593]},"properties":{"type":"charge","layer":"passenger","locationId":"NLLOC006910","name":"NL, Burgemeester Nederveenlaan 13, 2761 VJ, Zevenhuizen","address":"Burgemeester Nederveenlaan 13","city":"Zevenhuizen","operatorName":"Allego","maxPowerKw":11,"isMegawatt":false,"status":"AVAILABLE","source":"ndw","priceKwh":0.511}},{"type":"Feature","geometry":{"type":"Point","coordinates":[4.580979,52.009692]},"properties":{"type":"charge","layer":"passenger","locationId":"NLLOC018229","name":"NL, De Lente 40, 2761 VL Zevenhuizen","address":"De Lente 40","city":"Zevenhuizen","operatorName":"Allego","maxPowerKw":11,"isMegawatt":false,"status":"UNAVAILABLE","source":"ndw","priceKwh":0.511}},{"type":"Feature","geometry":{"type":"Point","coordinates":[4.585787,52.047505]},"properties":{"type":"charge","layer":"passenger","locationId":"NLLOC007501","name":"NL, Achterzoom 19, 2751 HH, Moerkapelle","address":"Achterzoom 19","city":"Moerkapelle","operatorName":"Allego","maxPowerKw":11,"isMegawatt":false,"status":"AVAILABLE","source":"ndw","priceKwh":0.511}},{"type":"Feature","geometry":{"type":"Point","coordinates":[4.610636,51.962484]},"properties":{"type":"charge","layer":"passenger","locationId":"NLLOC011105","name":"NL, de Esdoorn 44 2912 RB Nieuwerkerk aan den IJssel","address":"de Esdoorn 44","city":"Nieuwerkerk aan den IJssel","operatorName":"Allego","maxPowerKw":11,"isMegawatt":false,"status":"AVAILABLE","source":"ndw","priceKwh":0.511}},{"type":"Feature","geometry":{"type":"Point","coordinates":[4.624478,51.97578]},"properties":{"type":"charge","layer":"passenger","locationId":"91229700","name":"50five-S NL 03003319","address":"Orchideeveld 5","city":"Nieuwerkerk aan Den IJssel","operatorName":"50five","maxPowerKw":11,"isMegawatt":false,"status":"AVAILABLE","source":"ndw"}},{"type":"Feature","geometry":{"type":"Point","coordinates":[4.572148,52.046064]},"properties":{"type":"charge","layer":"passenger","locationId":"NLLOC003449","name":"NLD, De Grutto 2, 2751 CT Moerkapelle","address":"De Grutto 2","city":"Moerkapelle","operatorName":"Allego","maxPowerKw":11,"isMegawatt":false,"status":"AVAILABLE","source":"ndw","priceKwh":0.511}},{"type":"Feature","geometry":{"type":"Point","coordinates":[4.669223,51.99142]},"properties":{"type":"charge","layer":"passenger","locationId":"NLLOC005638","name":"NLD Land voor Water 47, 2841 NC Moordrecht","address":"Land voor Water 47","city":"Moordrecht","operatorName":"Allego","maxPowerKw":11,"isMegawatt":false,"status":"AVAILABLE","source":"ndw","priceKwh":0.511}},{"type":"Feature","geometry":{"type":"Point","coordinates":[4.622739,51.972996]},"properties":{"type":"charge","layer":"passenger","locationId":"NLLOC002858","name":"NLD, Anjerveld 2, 2914 PA Nieuwekerk aan den IJssel","address":"Anjerveld 2","city":"Nieuwekerk aan den IJssel","operatorName":"Allego","maxPowerKw":11,"isMegawatt":false,"status":"AVAILABLE","source":"ndw","priceKwh":0.511}},{"type":"Feature","geometry":{"type":"Point","coordinates":[4.669712,51.986135]},"properties":{"type":"charge","layer":"passenger","locationId":"NLLOC003526","name":"NLD Sluislaan 46, 2841 XS Moordrecht","address":"Sluislaan 46","city":"Moordrecht","operatorName":"Allego","maxPowerKw":11,"isMegawatt":false,"status":"AVAILABLE","source":"ndw","priceKwh":0.511}},{"type":"Feature","geometry":{"type":"Point","coordinates":[4.595193,51.968172]},"properties":{"type":"charge","layer":"passenger","locationId":"2386022","name":"Laadnet Krabbendam Kadoverpakking","address":"Steenbakkerij 10","city":"Nieuwerkerk aan den IJssel","operatorName":"Laadnet","maxPowerKw":22,"isMegawatt":false,"status":"AVAILABLE","source":"ndw"}},{"type":"Feature","geometry":{"type":"Point","coordinates":[4.620006,51.972092]},"properties":{"type":"charge","layer":"passenger","locationId":"NLLOC002860","name":"NLD, Lelieveld 72, 2914 CD Nieuwerkerk ad IJssel","address":"Lelieveld 72","city":"Nieuwerkerk ad IJssel","operatorName":"Allego","maxPowerKw":11,"isMegawatt":false,"status":"AVAILABLE","source":"ndw","priceKwh":0.511}},{"type":"Feature","geometry":{"type":"Point","coordinates":[4.609422,51.955937]},"properties":{"type":"charge","layer":"passenger","locationId":"NLLOC009873","name":"NL, Colorado 26, 2911JA, Nieuwekerk aan den IJssel","address":"Colorado 26","city":"Nieuwekerk aan den IJssel","operatorName":"Allego","maxPowerKw":11,"isMegawatt":false,"status":"AVAILABLE","source":"ndw","priceKwh":0.511}},{"type":"Feature","geometry":{"type":"Point","coordinates":[4.624175,51.974189]},"properties":{"type":"charge","layer":"passenger","locationId":"NLLOC002435","name":"NLD, Madeliefveld 145, 2914 PK, Nieuwekerk aan den IJssel","address":"Madeliefveld 145","city":"Nieuwekerk aan den IJssel","operatorName":"Allego","maxPowerKw":11,"isMegawatt":false,"status":"AVAILABLE","source":"ndw","priceKwh":0.511}},{"type":"Feature","geometry":{"type":"Point","coordinates":[4.583,52.047358]},"properties":{"type":"charge","layer":"passenger","locationId":"NLLOC003606","name":"NLD, Bovenas 1, 2751 HG Moerkapelle","address":"Bovenas 1","city":"Moerkapelle","operatorName":"Allego","maxPowerKw":11,"isMegawatt":false,"status":"AVAILABLE","source":"ndw","priceKwh":0.511}},{"type":"Feature","geometry":{"type":"Point","coordinates":[4.661133,51.989316]},"properties":{"type":"charge","layer":"passenger","locationId":"NLLOC003184","name":"NLD Oudersvrucht 2, 2841 LN Moordrecht","address":"Oudersvrucht 2","city":"Moordrecht","operatorName":"Allego","maxPowerKw":11,"isMegawatt":false,"status":"AVAILABLE","source":"ndw","priceKwh":0.511}},{"type":"Feature","geometry":{"type":"Point","coordinates":[4.596564,52.011299]},"properties":{"type":"charge","layer":"passenger","locationId":"90231113","name":"Van Leeuwen Martin Westerhof","address":"Knibbelweg 22c","city":"Zevenhuizen","operatorName":"Van Leeuwen","maxPowerKw":11,"isMegawatt":false,"status":"AVAILABLE","source":"ndw"}},{"type":"Feature","geometry":{"type":"Point","coordinates":[4.582141,52.043869]},"properties":{"type":"charge","layer":"passenger","locationId":"NLLOC010442","name":"NL, Julianastraat 15C, 2751GC, Moerkapelle","address":"Julianastraat 15C","city":"Moerkapelle","operatorName":"Allego","maxPowerKw":11,"isMegawatt":false,"status":"AVAILABLE","source":"ndw","priceKwh":0.511}},{"type":"Feature","geometry":{"type":"Point","coordinates":[4.606036,51.958271]},"properties":{"type":"charge","layer":"passenger","locationId":"NLLOC015264","name":"NL, Colorado 35, 2911JA, Nieuwerkerk aan den IJssel","address":"Colorado 35","city":"Nieuwerkerk aan den Ijssel","operatorName":"Allego","maxPowerKw":11,"isMegawatt":false,"status":"AVAILABLE","source":"ndw","priceKwh":0.511}},{"type":"Feature","geometry":{"type":"Point","coordinates":[4.603064,51.956686]},"properties":{"type":"charge","layer":"passenger","locationId":"NLLOC004734","name":"NLD Yukon 13, 2911 DB Nieuwekerk aan den IJssel","address":"Yukon 13","city":"Nieuwekerk aan den IJssel","operatorName":"Allego","maxPowerKw":11,"isMegawatt":false,"status":"AVAILABLE","source":"ndw","priceKwh":0.511}},{"type":"Feature","geometry":{"type":"Point","coordinates":[4.569658,52.043181]},"properties":{"type":"charge","layer":"passenger","locationId":"NLLOC003738","name":"NLD, Hollevoeterlaan 42, 2751 DT Moerkapelle","address":"Hollevoeterlaan 42","city":"Moerkapelle","operatorName":"Allego","maxPowerKw":11,"isMegawatt":false,"status":"AVAILABLE","source":"ndw","priceKwh":0.511}},{"type":"Feature","geometry":{"type":"Point","coordinates":[4.61538,51.962359]},"properties":{"type":"charge","layer":"passenger","locationId":"NLLOC018198","name":"NL, Wolga 52, 2911 RB Nieuwerkerk aan den IJssel","address":"Wolga 52","city":"Nieuwerkerk aan den IJssel","operatorName":"Allego","maxPowerKw":11,"isMegawatt":false,"status":"AVAILABLE","source":"ndw","priceKwh":0.511}},{"type":"Feature","geometry":{"type":"Point","coordinates":[4.593851,52.004696]},"properties":{"type":"charge","layer":"passenger","locationId":"NLLOC003088","name":"NLD Hofdamestuin 2 , 2761 HV Zevenhuizen","address":"Hofdamestuin 2","city":"Zevenhuizen","operatorName":"Allego","maxPowerKw":11,"isMegawatt":false,"status":"AVAILABLE","source":"ndw","priceKwh":0.511}},{"type":"Feature","geometry":{"type":"Point","coordinates":[4.605494,51.963076]},"properties":{"type":"charge","layer":"passenger","locationId":"NLLOC004104","name":"NLD, Van Beethovenlaan 57, 2912 VK Nieuwerkerk aan den IJssel","address":"Van beethovenlaan 57","city":"Nieuwerkerk aan den IJssel","operatorName":"Allego","maxPowerKw":11,"isMegawatt":false,"status":"AVAILABLE","source":"ndw","priceKwh":0.511}},{"type":"Feature","geometry":{"type":"Point","coordinates":[4.615271,51.956872]},"properties":{"type":"charge","layer":"passenger","locationId":"NLLOC006911","name":"NL, Gouwe 48, 2911GA, Nieuwerkerk aan den IJssel","address":"Gouwe 48","city":"Nieuwerkerk aan den IJssel","operatorName":"Allego","maxPowerKw":11,"isMegawatt":false,"status":"AVAILABLE","source":"ndw","priceKwh":0.511}},{"type":"Feature","geometry":{"type":"Point","coordinates":[4.613728,51.953569]},"properties":{"type":"charge","layer":"passenger","locationId":"NLLOC016582","name":"NL, Donge 153, 2911CV, Nieuwerkerk aan den IJssel","address":"Donge 153","city":"Nieuwerkerk aan den IJssel","operatorName":"Allego","maxPowerKw":11,"isMegawatt":false,"status":"AVAILABLE","source":"ndw","priceKwh":0.511}},{"type":"Feature","geometry":{"type":"Point","coordinates":[4.619314,51.969184]},"properties":{"type":"charge","layer":"passenger","locationId":"NLLOC002620","name":"NLD, Eendendaal 260, 2914 EC Nieuwerkerk a/d Ijssel","address":"Eendendaal 260","city":"Nieuwerkerk ad IJssel","operatorName":"Allego","maxPowerKw":11,"isMegawatt":false,"status":"AVAILABLE","source":"ndw","priceKwh":0.511}},{"type":"Feature","geometry":{"type":"Point","coordinates":[4.66756,51.98795]},"properties":{"type":"charge","layer":"passenger","locationId":"NLLOC003150","name":"NLD West Ringdijk 1 2841 LV Moordrecht","address":"West Ringdijk 1","city":"Moordrecht","operatorName":"Allego","maxPowerKw":11,"isMegawatt":false,"status":"AVAILABLE","source":"ndw","priceKwh":0.511}},{"type":"Feature","geometry":{"type":"Point","coordinates":[4.611374,51.953001]},"properties":{"type":"charge","layer":"passenger","locationId":"NLLOC002519","name":"NLD, Nieuwerkerk aan den IJssel, Donge 37","address":"Donge 37","city":"Nieuwerkerk aan den IJssel","operatorName":"Allego","maxPowerKw":11,"isMegawatt":false,"status":"AVAILABLE","source":"ndw","priceKwh":0.511}},{"type":"Feature","geometry":{"type":"Point","coordinates":[4.65821,51.987191]},"properties":{"type":"charge","layer":"passenger","locationId":"NLLOC017093","name":"NL, Uivernest 16, 2841 KW Moordrecht","address":"Uivernest 16","city":"Moordrecht","operatorName":"Allego","maxPowerKw":11,"isMegawatt":false,"status":"AVAILABLE","source":"ndw","priceKwh":0.511}},{"type":"Feature","geometry":{"type":"Point","coordinates":[4.610019,51.956798]},"properties":{"type":"charge","layer":"passenger","locationId":"NLLOC014455","name":"NL, Loire, 28, 2911HD, Nieuwerkerk aan den IJssel","address":"Loire 28","city":"Nieuwerkerk aan den IJssel","operatorName":"Allego","maxPowerKw":11,"isMegawatt":false,"status":"AVAILABLE","source":"ndw","priceKwh":0.511}},{"type":"Feature","geometry":{"type":"Point","coordinates":[4.580055,52.046873]},"properties":{"type":"charge","layer":"passenger","locationId":"NLLOC003100","name":"NLD Mauritsstraat 27, 2751 BV Moerkapelle","address":"Mauritsstraat 27","city":"Moerkapelle","operatorName":"Allego","maxPowerKw":11,"isMegawatt":false,"status":"AVAILABLE","source":"ndw","priceKwh":0.511}},{"type":"Feature","geometry":{"type":"Point","coordinates":[4.666381,51.993532]},"properties":{"type":"charge","layer":"passenger","locationId":"NLLOC006964","name":"NL, Ooievaardreef 45, 2841 PA, Moordrecht","address":"Ooievaardreef 45","city":"Moordrecht","operatorName":"Allego","maxPowerKw":11,"isMegawatt":false,"status":"AVAILABLE","source":"ndw","priceKwh":0.511}},{"type":"Feature","geometry":{"type":"Point","coordinates":[4.591293,52.004043]},"properties":{"type":"charge","layer":"passenger","locationId":"NLLOC002359","name":"NLD, Koningsoever 19, 2761 HX, Zevenhuizen","address":"Koningsoever 17","city":"Zevenhuizen","operatorName":"Allego","maxPowerKw":11,"isMegawatt":false,"status":"AVAILABLE","source":"ndw","priceKwh":0.511}},{"type":"Feature","geometry":{"type":"Point","coordinates":[4.588116,52.044591]},"properties":{"type":"charge","layer":"passenger","locationId":"91170413","name":"50five-S NL 07116122","address":"Julianastraat 37A","city":"Zuidplas","operatorName":"50five","maxPowerKw":22,"isMegawatt":false,"status":"AVAILABLE","source":"ndw"}},{"type":"Feature","geometry":{"type":"Point","coordinates":[4.670108,51.982078]},"properties":{"type":"charge","layer":"passenger","locationId":"NLLOC007109","name":"NL, IJsselerf 24 2841 BD Moordrecht","address":"IJsselerf 24","city":"Moordrecht","operatorName":"Allego","maxPowerKw":11,"isMegawatt":false,"status":"AVAILABLE","source":"ndw","priceKwh":0.511}},{"type":"Feature","geometry":{"type":"Point","coordinates":[4.654963,52.019524]},"properties":{"type":"charge","layer":"passenger","locationId":"91311010","name":"Van Leeuwen centric","address":"Westbaan 120","city":"Moordrecht","operatorName":"Van Leeuwen","maxPowerKw":22,"isMegawatt":false,"status":"AVAILABLE","source":"ndw"}},{"type":"Feature","geometry":{"type":"Point","coordinates":[4.611439,51.956709]},"properties":{"type":"charge","layer":"passenger","locationId":"91056885","name":"50five-S NL 07002241","address":"Burgemeester van Heugtenlaan 128","city":"Nieuwerkerk aan den IJssel","operatorName":"50five","maxPowerKw":14,"isMegawatt":false,"status":"AVAILABLE","source":"ndw"}},{"type":"Feature","geometry":{"type":"Point","coordinates":[4.614288,51.972549]},"properties":{"type":"charge","layer":"passenger","locationId":"NLLOC003336","name":"NLD Korstmos 40, 2914 XB Nieuwerkerk aan den IJssel","address":"Korstmos 40","city":"Nieuwerkerk aan den IJssel","operatorName":"Allego","maxPowerKw":11,"isMegawatt":false,"status":"AVAILABLE","source":"ndw","priceKwh":0.511}},{"type":"Feature","geometry":{"type":"Point","coordinates":[4.58546,52.016115]},"properties":{"type":"charge","layer":"passenger","locationId":"NLLOC007119","name":"NL, Perkstraat 69, 2761 LM, Zevenhuizen","address":"Perkstraat 69","city":"Zevenhuizen","operatorName":"Allego","maxPowerKw":11,"isMegawatt":false,"status":"AVAILABLE","source":"ndw","priceKwh":0.511}},{"type":"Feature","geometry":{"type":"Point","coordinates":[4.592432,52.00222]},"properties":{"type":"charge","layer":"passenger","locationId":"NLLOC014049","name":"NL, Prinsessenlaan 18, 2761 PB Zevenhuizen","address":"Prinsessenlaan 18","city":"Zevenhuizen","operatorName":"Allego","maxPowerKw":11,"isMegawatt":false,"status":"AVAILABLE","source":"ndw","priceKwh":0.511}},{"type":"Feature","geometry":{"type":"Point","coordinates":[4.659949,51.988221]},"properties":{"type":"charge","layer":"passenger","locationId":"NLLOC007401","name":"NL, Haviksnest 2 2841 MN Moordrecht","address":"Haviksnest 2","city":"Moordrecht","operatorName":"Allego","maxPowerKw":11,"isMegawatt":false,"status":"AVAILABLE","source":"ndw","priceKwh":0.511}},{"type":"Feature","geometry":{"type":"Point","coordinates":[4.594175,52.005728]},"properties":{"type":"charge","layer":"passenger","locationId":"NLLOC008068","name":"NL, Grootmeesterstuin 17, 2761HN, Zevenhuizen","address":"Grootmeesterstuin 17","city":"Zevenhuizen","operatorName":"Allego","maxPowerKw":11,"isMegawatt":false,"status":"AVAILABLE","source":"ndw","priceKwh":0.511}},{"type":"Feature","geometry":{"type":"Point","coordinates":[4.58875,51.966003]},"properties":{"type":"charge","layer":"freight","locationId":"31194","name":"Fastned De Vink","address":"De Vink A20","city":"Nieuwerkerk aan den IJssel","operatorName":"Fastned","maxPowerKw":400,"isMegawatt":false,"status":"AVAILABLE","source":"ndw","priceKwh":0.6364,"freightKind":"hpc","freightReason":"power"}},{"type":"Feature","geometry":{"type":"Point","coordinates":[4.61161,52.022237]},"properties":{"type":"charge","layer":"freight","locationId":"669a61ec943385001c078619","name":"Spektuin energie 24/6","address":"Bredeweg 110","city":"Zevenhuizen","operatorName":"E-Flux by Road","maxPowerKw":396,"isMegawatt":false,"status":"AVAILABLE","source":"ndw","priceKwh":0.57,"freightKind":"hpc","freightReason":"power"}},{"type":"Feature","geometry":{"type":"MultiPolygon","coordinates":[[[[4.624735023395661,52.01472240913735],[4.6368018317549335,52.011680293604726],[4.6484245826962365,52.01898692794414],[4.648812055355833,52.02057599233804],[4.6530516426095865,52.02134462872507],[4.655184143125113,52.02101635097414],[4.656842750724131,52.02205133838799],[4.6627996430190075,52.02398471370694],[4.663770550047711,52.02200804232407],[4.667371901787775,52.022646522651144],[4.6677671163051135,52.0214898566155],[4.667302654766304,52.01924562867169],[4.664716055612515,52.016485209578214],[4.664791461885964,52.01452434093266],[4.666605898923398,52.012971078636006],[4.670728276484175,52.011126855320875],[4.670096211353591,52.010550313682124],[4.667031397029467,52.010005925308704],[4.665658333044202,52.00918814515806],[4.659453881134015,52.00528810125545],[4.662809574273732,52.00324622553581],[4.669523514195975,52.00246529845416],[4.670716298484648,52.0023265173977],[4.674727142487972,51.99987195376818],[4.680228849943621,51.99654195638819],[4.681162157918537,51.996877060244124],[4.681761145990068,51.99710760231005],[4.684020681880235,51.99795806390894],[4.688683952636637,51.99625842027634],[4.68250839621279,51.99269531811012],[4.6769439921250875,51.98828612884271],[4.674288870142177,51.98701726019025],[4.671822561593307,51.98447259829328],[4.670679400404669,51.9804221011201],[4.667850471343452,51.97885076696108],[4.655922773448374,51.97655332207634],[4.649834618210846,51.97342905142766],[4.648577092632458,51.97300747087858],[4.632678126040662,51.970245408244615],[4.630838399112608,51.968189582467936],[4.632921045789862,51.96632009225238],[4.639773292510914,51.96217681786714],[4.64206047736548,51.95987057011875],[4.645708843561815,51.95610718085648],[4.6460056477394085,51.954181830910684],[4.639684378478545,51.9511297903812],[4.636127965370068,51.941343369782345],[4.634735083695258,51.93797553277967],[4.633350618820844,51.93693954087215],[4.630971093673433,51.93629056226131],[4.623776962502687,51.93619155594166],[4.6214638470379885,51.935249560773414],[4.619488886274293,51.93349203849048],[4.6189243256101165,51.9338948171118],[4.614246011101763,51.9372308267649],[4.610497246865031,51.93990879049209],[4.605905573988035,51.94323222497885],[4.6036992760550435,51.944807774082605],[4.599742576888979,51.94766608338022],[4.602068266512764,51.949475541462384],[4.599392331291625,51.95198415481583],[4.595332404456837,51.95579790777426],[4.595049359000462,51.9560370166808],[4.590188574346949,51.96014289046937],[4.588459883091934,51.9616026542683],[4.583992173733809,51.96536906246077],[4.590021656657495,51.96858107591623],[4.590690310842732,51.968231956220535],[4.601807909261606,51.97214023658767],[4.594181179408541,51.97544052622175],[4.5937402193525205,51.97608875701741],[4.593840357722549,51.976777483186154],[4.594428136635174,51.97711778545544],[4.59412785766547,51.97762961507302],[4.598772513822498,51.98796882820787],[4.5943669505181655,51.9942818111076],[4.578942380788462,51.98986088808611],[4.57973585175866,51.988836676142135],[4.578727157481878,51.98854876687337],[4.579686662434541,51.987267381948456],[4.577311741293358,51.98640505379424],[4.5789180551672235,51.981134395732134],[4.570229498425147,51.979030288162654],[4.5735290438492795,51.974576283131555],[4.574303524390901,51.97450963778551],[4.577446553050393,51.976249394949335],[4.577920817007344,51.97585459724562],[4.578524092499543,51.97618817786044],[4.578999444492454,51.975787360928244],[4.578543604525007,51.97553555883944],[4.574112004261246,51.973086681405604],[4.5743629675704325,51.97287636558222],[4.5719085942935775,51.971868926254785],[4.571378626489054,51.9719193282629],[4.570275338820312,51.97202424652379],[4.566935719669344,51.97118996632183],[4.565382040304271,51.97127584182231],[4.5633674150372565,51.97172808279989],[4.5628972172469675,51.971520927213575],[4.562413418868091,51.971926879132866],[4.56115163089867,51.971177660821375],[4.561544187371018,51.97085122904825],[4.5616515952336645,51.97076191211305],[4.5611043923835375,51.970525175656626],[4.561398598015221,51.97027537939913],[4.560547353478197,51.969622309417254],[4.556585670354029,51.968466191121514],[4.556401464684511,51.9688548177662],[4.554215052271037,51.96892084765164],[4.547685955789135,51.9728067908713],[4.551934376412003,51.974737566484215],[4.553760163789368,51.977041300249404],[4.5519914858832875,51.978869501946065],[4.5508853422594315,51.98187383020907],[4.548161800431014,51.983294460441996],[4.548417525331113,51.98495728960145],[4.547393185422582,51.988746463229525],[4.546909126026089,51.99022857221798],[4.546338787926787,51.991514386212415],[4.548387399086782,51.99255756314952],[4.547004915100421,51.99394311560801],[4.549893086010367,51.995746794983575],[4.553443969893972,52.00392418658147],[4.554874576967059,52.005948831899545],[4.557118847307958,52.01393663098213],[4.556776382286716,52.01840096503802],[4.558217392459452,52.02890868109488],[4.559346762720073,52.03140759226599],[4.5601397105517965,52.033190120103484],[4.5634566012269655,52.03577720643823],[4.563304213774565,52.03827724178137],[4.561059097276838,52.04206107182239],[4.565042517498243,52.0585695530937],[4.565924972301204,52.059226131277605],[4.607426663081791,52.06552672470203],[4.608073777345829,52.06544130321844],[4.608405462856495,52.0629444993096],[4.605528567839548,52.05043857910832],[4.60804629876168,52.04911679334825],[4.6109468599952415,52.04871112347811],[4.6108219834612365,52.04823374967818],[4.610223777346428,52.046267582863834],[4.606272155781199,52.04594936737689],[4.607333994182114,52.04531226830998],[4.5910888292957095,52.03508764388345],[4.59695171358043,52.03154665934522],[4.624735023395661,52.01472240913735]]]]},"properties":{"type":"boundary","gemeente":"Zuidplas","code":"GM1892"}}]}